RETRIEVED AT : Mar 13 2020 08:05 Local <br>
  RETRIEVED AT: Mar 13 2020 12:05 UTC<br><br>
CYSN 131137Z 28021G31KT 8SM FEW018 BKN025 OVC032 11/08 A2956 RMK SC2SC3SC3 PRESRR SLP012 DENSITY ALT 400FT<br><br>
CYSN 131100Z 24012G21KT 10SM -RA SCT012 OVC018 11/11 A2952 RMK SC3SC5 SLP001 DENSITY ALT 400FT<br><br>
CYSN has no TAF <br><br>
<br><br>
CYHM 131134Z 29023G36KT 12SM OVC014 07/04 A2962 RMK SC8 PRESRR SLP037<br><br>
CYHM 131100Z 27020G27KT 15SM BKN015 OVC024 10/07 A2955 RMK SC7SC1 PRESRR SLP015 DENSITY ALT 800FT<br><br>
CYHM 131042Z 26013G20KT 15SM SCT013 OVC024 10/08 A2953 RMK SC6NS2 SLP007 DENSITY ALT 800FT<br><br>
TAF CYHM 131140Z 1312/1412 29020G35KT P6SM BKN015 OVC030 TEMPO 1312/1318 SCT015 OVC030 FM131800 27022G35KT P6SM BKN030 BECMG 1322/1324 27015G25KT BECMG 1406/1408 28010KT RMK NXT FCST BY 131800Z<br><br>
<br><br>
KIAG 131200Z 26016G24KT 9SM SCT013 OVC021 10/08 A2959 RMK AO2 PRESRR T01000083<br><br>
KIAG 131153Z 26013G23KT 9SM OVC007 10/08 A2958 RMK AO2 RAE1054 SLP021 P0000 60030 70030 T01000083 10117 20094 53019<br><br>
KIAG 131053Z 23017G27KT 10SM -RA OVC007 11/09 A2953 RMK AO2 PK WND 23028/1037 CIG 006V011 SLP004 P0011 T01060094<br><br>
KIAG 131030Z AUTO 23015G22KT 3SM RA BR BKN008 OVC017 11/09 A2952 RMK AO2 CIG 006V012 P0009 T01060094<br><br>
KIAG 131020Z AUTO 23011G21KT 3SM RA BR SCT008 BKN013 OVC019 11/09 A2952 RMK AO2 P0006 T01060094<br><br>
KIAG 131120Z 1312/1412 24020G30KT 5SM -SHRA BR OVC015 FM131300 26018G26KT P6SM BKN025 FM131600 26025G35KT P6SM BKN040 FM140000 26016G24KT P6SM SCT040 FM140600 27012KT P6SM SCT040<br><br>
<br><br>
KBUF 131154Z 23022G37KT 5SM BR OVC003 08/06 A2961 RMK AO2 PK WND 22037/1154 RAE16 PRESRR SLP028 P0002 60023 70023 T00780061 10122 20078 53023<br><br>
KBUF 131130Z 24020G32KT 9SM OVC004 09/08 A2957 RMK AO2 PK WND 22032/1126 RAE16 CIG 003V008 P0002 T00940078<br><br>
KBUF 131103Z 23021G30KT 10SM -RA OVC009 12/10 A2954 RMK AO2 PK WND 23030/1102 CIG 007V013 P0002 T01220100<br><br>
KBUF 131054Z 21018G24KT 5SM RA BR SCT009 BKN013 OVC020 12/10 A2954 RMK AO2 PK WND 20026/1004 SLP003 P0008 T01170100<br><br>
KBUF 131041Z 20017G23KT 4SM +RA BR SCT008 SCT013 OVC021 12/10 A2953 RMK AO2 PK WND 20026/1004 P0005 T01170100<br><br>
KBUF 131203Z 1312/1412 23022G37KT 4SM BR OVC004 TEMPO 1312/1314 1SM -RA BR OVC002 FM131600 25025G40KT P6SM BKN040 FM140000 25018G26KT P6SM SCT040 FM140800 27012KT P6SM SCT040<br><br>
<br><br>
CYYZ 131117Z 29032G39KT 10SM FEW016 BKN021 08/07 A2953 RMK CF2SC5 WSHFT 1111Z PRESRR SLP006<br><br>
CYYZ 131100Z 25009KT 10SM FEW013 BKN028 BKN075 08/08 A2951 RMK CF2SC4AC1 SLP998<br><br>
CYYZ 131047Z 25007KT 10SM SCT014 BKN022 BKN075 08/08 A2950 RMK SF3SC3AC1 SLP995<br><br>
CYYZ 131008Z 20010KT 6SM -RA BR SCT006 OVC013 07/06 A2949 RMK SF3SC5 SLP992<br><br>
TAF CYYZ 131140Z 1312/1418 30025G38KT P6SM OVC020 TEMPO 1312/1314 OVC030 FM131400 27025G35KT P6SM BKN025 BECMG 1322/1324 27020G30KT FM140600 29012G22KT P6SM SCT025 FM141500 32010KT P6SM BKN025 BKN200 RMK NXT FCST BY 131500Z<br><br>
<br><br>
CYOO 131157Z AUTO 26011G18KT 9SM SCT015 OVC023 08/08 A2952 RMK SLP002<br><br>
CYOO 131150Z AUTO 26011G17KT 8SM SCT013 OVC026 08/08 A2952 RMK PRESRR SLP000<br><br>
CYOO 131140Z AUTO 25010KT 6SM BR FEW005 BKN013 BKN026 OVC065 08/08 A2951 RMK PRESRR SLP998<br><br>
CYOO 131127Z AUTO 26007KT 3SM BR SCT003 BKN013 OVC065 08/08 A2950 RMK SLP993<br><br>
CYOO 131100Z AUTO 25009KT 2 1/4SM BR OVC003 08/08 A2948 RMK SLP989<br><br>
CYOO 131055Z AUTO 24010G15KT 2SM BR OVC003 08/08 A2949 RMK SLP990<br><br>
TAF CYOO 130738Z 1308/1320 14006KT P6SM SCT007 OVC040 TEMPO 1308/1309 5SM -SHRA BR BKN007 OVC040 FM130900 17012KT 2SM -RA BR OVC006 TEMPO 1309/1312 6SM -RA BR SCT006 OVC012 PROB40 1309/1312 1/2SM -RA FG VV002 FM131200 25018G28KT P6SM SCT007 OVC015 TEMPO 1312/1314 5SM -SHRA BR BKN007 OVC015 FM131400 27020G30KT P6SM SCT020 BKN030 FM131800 27020G30KT P6SM BKN040 RMK FCST BASED ON AUTO OBS. NXT FCST BY 131400Z<br><br>
<br><br>
CYTR 131133Z 18015G22KT 4SM -RA BR OVC015 09/07 A2946 RMK SC8 SLP979<br><br>
CYTR 131100Z CCA 17014KT 6SM -RA BR SCT008 OVC020 08/07 A2946 RMK SF3SC5 PRESFR /R12/ SLP979<br><br>
TAF AMD CYTR 131148Z 1312/1412 18015G25KT 6SM -SHRA BR SCT008 OVC020 TEMPO 1312/1313 2SM SHRA BR BKN008 OVC020 PROB30 1312/1313 1SM SHRA BR OVC004 FM131300 27015G25KT P6SM BKN012 OVC020 TEMPO 1313/1315 SCT012 OVC020 BECMG 1313/1315 26020G35KT FM131500 26020G35KT P6SM BKN025 TEMPO 1315/1322 P6SM -SHRA BKN020 FM132200 27020G35KT P6SM BKN030 FM141000 29015G25KT P6SM SCT030 RMK NXT FCST BY 131800Z<br><br>
<br><br>
