RETRIEVED AT : Dec 04 2017 20:10 Local <br>
  RETRIEVED AT: Dec 05 2017 01:10 UTC<br><br>
CYSN 050100Z 17013KT 15SM OVC120 11/01 A2993 RMK AC8 PRESFR SLP139<br><br>
CYSN 050000Z 16010G16KT 15SM OVC100 11/01 A2996 RMK AC8 PRESFR SLP151<br><br>
TAF CYSN 041938Z 0420/0502 16012KT P6SM BKN160 OVC220 RMK NXT FCST WILL BE ISSUED AT 051345Z<br><br>
<br><br>
CYHM 050100Z 17011G21KT 15SM FEW110 BKN160 OVC200 10/02 A2993 RMK AC2AC4CS2 SLP143<br><br>
CYHM 050020Z 17010KT 15SM SCT080 OVC130 10/02 A2994 RMK AC3AC5 SLP147<br><br>
CYHM 050000Z 17008KT 15SM -RA BKN080 OVC110 09/02 A2995 RMK AC5AC3 SLP151<br><br>
CYHM 042349Z 17008KT 15SM -RA BKN080 BKN100 OVC160 09/02 A2996 RMK AC5AC2AC1 SLP153<br><br>
TAF CYHM 042338Z 0500/0524 14010KT P6SM BKN080 OVC120 BECMG 0501/0503 16012KT FM050700 17015G25KT P6SM -SHRA BKN030 OVC080 FM050900 19018G28KT P6SM -RA OVC020 TEMPO 0509/0512 4SM SHRA BR OVC007 FM051200 19020G30KT 4SM -RA BR OVC007 FM051600 23022G40KT P6SM OVC012 BECMG 0516/0518 BKN020 FM052300 24020G30KT P6SM BKN030 RMK NXT FCST BY 050600Z<br><br>
<br><br>
KIAG 050053Z 18014G21KT 10SM BKN110 12/M01 A2997 RMK AO2 SLP159 T01221006<br><br>
KIAG 042353Z 17012KT 10SM FEW110 12/M01 A3000 RMK AO2 SLP169 T01171006 10117 20094 58020<br><br>
KIAG 042328Z 0500/0524 17012KT P6SM OVC110 FM050200 18015G22KT P6SM OVC150 WS020/19040KT FM050900 18019G27KT 5SM -RA OVC035 WS020/20045KT FM051800 20019G27KT P6SM OVC030 FM052300 24019G29KT P6SM OVC035<br><br>
<br><br>
KBUF 050054Z 17015KT 10SM FEW060 OVC090 11/M01 A2999 RMK AO2 RAB33E47 SLP160 P0000 T01111006<br><br>
KBUF 042354Z 17011KT 10SM FEW080 OVC130 11/M01 A3003 RMK AO2 SLP174 T01061006 10106 20094 57014<br><br>
KBUF 042328Z 0500/0524 17012G18KT P6SM OVC120 FM050200 17015G25KT P6SM OVC200 WS020/19045KT FM050900 18018G27KT 6SM -RA OVC045 WS020/20045KT FM051400 19019G27KT 5SM -RA OVC035 WS020/21045KT FM051700 20018G27KT 6SM -RA OVC030 FM051900 21018G29KT P6SM OVC025<br><br>
<br><br>
CYYZ 050100Z 14009KT 15SM SCT089 OVC140 08/02 A2994 RMK AC3AS5 SLP145<br><br>
CYYZ 050034Z 13007KT 15SM FEW085 OVC120 08/01 A2994 RMK AC2AC6 SLP147<br><br>
CYYZ 050010Z 12008G18KT 12SM -RA SCT060 OVC075 08/01 A2996 RMK SC3AC5 PRESFR SLP152<br><br>
CYYZ 050000Z 12007KT 15SM SCT086 OVC140 08/01 A2997 RMK AC4AS4 PRESFR SLP155<br><br>
TAF CYYZ 042338Z 0500/0606 12010KT P6SM SCT080 OVC120 FM050500 16012KT P6SM -SHRA OVC040 TEMPO 0507/0509 OVC020 FM050900 18012G22KT P6SM -RA OVC020 TEMPO 0509/0512 5SM -SHRA BR BKN007 OVC015 FM051200 18015G25KT 5SM -RA BR BKN006 OVC012 FM051600 21020G30KT P6SM OVC015 FM051800 23022G40KT P6SM BKN020 BECMG 0520/0522 23020G30KT FM060000 23020G30KT P6SM BKN030 FM060300 25018G28KT P6SM BKN040 RMK NXT FCST BY 050300Z<br><br>
<br><br>
CYOO 050100Z AUTO 12012G18KT 9SM OVC120 08/01 A2996 RMK PRESFR SLP151<br><br>
CYOO 050000Z AUTO 11014G22KT 9SM FEW100 BKN120 OVC140 08/02 A3000 RMK SLP165<br><br>
CYOO 042337Z AUTO 11011G18KT 9SM BKN090 OVC120 08/02 A3001 RMK SLP170<br><br>
CYOO 042322Z AUTO 10014KT 9SM -RA BKN090 OVC110 07/02 A3001 RMK PRESFR SLP168<br><br>
CYOO has no TAF <br><br>
<br><br>
CYTR 050100Z 15009G17KT 15SM OVC095 09/03 A3007 RMK AC8 SLP185<br><br>
CYTR 050000Z 14009KT 15SM OVC100 09/03 A3011 RMK AC8 SLP199<br><br>
TAF CYTR 042330Z 0500/0524 14008KT P6SM OVC120 TEMPO 0508/0510 P6SM -SHRA BKN030 OVC100 FM051000 16015KT P6SM -RA SCT015 OVC025 TEMPO 0510/0521 3SM -RA BR SCT008 OVC015 FM052100 24015G25KT P6SM SCT015 BKN025 TEMPO 0521/0524 P6SM -SHRA BKN015 OVC025 RMK NXT FCST BY 050600Z<br><br>
<br><br>
