RETRIEVED AT : Oct 29 2018 03:05 Local <br>
  RETRIEVED AT: Oct 29 2018 07:05 UTC<br><br>
CYSN has no TAF <br><br>
<br><br>
CYHM 290600Z 32006KT 15SM BKN040 05/04 A2967 RMK SC7 SLP054<br><br>
TAF CYHM 290538Z 2906/3006 31006KT P6SM SCT015 OVC030 TEMPO 2906/2911 5SM -DZ -RA BR OVC015 FM291100 27010KT P6SM SCT020 BKN030 TEMPO 2911/2917 P6SM -SHRA OVC020 BECMG 2913/2915 27010G20KT FM291700 27015G30KT P6SM BKN025 OVC090 FM292100 29015G30KT P6SM FEW030 SCT100 BECMG 2923/3001 28012KT BECMG 3004/3006 28008KT RMK NXT FCST BY 291200Z<br><br>
<br><br>
KIAG 290653Z AUTO 31006KT 6SM -RA BR SCT017 BKN028 OVC037 06/04 A2967 RMK AO2 RAB27 SLP056 P0001 T00560039<br><br>
KIAG 290553Z AUTO 32004KT 10SM BKN027 OVC032 06/04 A2965 RMK AO2 SLP049 60005 T00560039 10056 20050 51006<br><br>
KIAG 290549Z AUTO 33005KT 10SM BKN027 OVC032 06/04 A2965 RMK AO2<br><br>
KIAG 290537Z AUTO 33005KT 8SM OVC031 06/04 A2964 RMK AO2 T00560044<br><br>
KIAG 290541Z 2906/3006 VRB03KT 6SM -SHRA OVC015 FM290800 32005KT 4SM -RA OVC007 FM291000 30007KT 6SM -SHRA OVC015 FM291500 27014G21KT 6SM -SHRA OVC020 FM292200 28017G24KT P6SM BKN035 FM300300 29010KT P6SM SCT080<br><br>
<br><br>
KBUF 290654Z 32005KT 10SM SCT010 SCT018 OVC023 06/05 A2966 RMK AO2 RAE03 SLP047 P0000 T00560050<br><br>
KBUF 290554Z 00000KT 10SM -RA OVC023 06/05 A2964 RMK AO2 SLP043 P0000 60002 T00560050 10056 20050 53003<br><br>
KBUF 290521Z 00000KT 10SM -RA BKN025 OVC039 05/04 A2964 RMK AO2 P0000 T00500044<br><br>
KBUF 290541Z 2906/3006 00000KT 6SM -SHRA OVC012 FM290800 VRB03KT 4SM -RA OVC007 FM291100 29006KT 6SM -SHRA OVC012 FM291500 27014G22KT P6SM -SHRA OVC012 FM292200 28015G25KT P6SM OVC035 FM300300 28009KT P6SM SCT060<br><br>
<br><br>
CYYZ 290600Z 33008KT 15SM FEW010 OVC028 05/03 A2967 RMK SF1SC8 SF TR SLP052<br><br>
TAF CYYZ 290538Z 2906/3012 34008KT P6SM FEW010 OVC025 TEMPO 2906/2913 P6SM -RA -DZ OVC010 FM291300 25008KT P6SM SCT015 OVC050 TEMPO 2913/2915 P6SM -SHRASN BKN015 OVC050 FM291500 29010G20KT P6SM SCT015 OVC050 TEMPO 2915/2917 P6SM -SHRA BKN015 OVC030 FM291700 29015G25KT P6SM BKN030 OVC100 FM292100 29015G25KT P6SM FEW030 SCT100 BECMG 3000/3002 29012KT RMK NXT FCST BY 290900Z<br><br>
<br><br>
CYOO 290646Z AUTO 27003KT 6SM BR SCT021 OVC036 05/05 A2966 RMK SLP049<br><br>
CYOO 290639Z AUTO 28002KT 6SM BR BKN021 OVC034 05/05 A2966 RMK SLP049<br><br>
CYOO 290612Z AUTO 29002KT 4SM BR SCT009 BKN018 BKN026 OVC035 04/04 A2965 RMK SLP046<br><br>
CYOO 290608Z AUTO 30003KT 4SM BR SCT011 SCT020 BKN026 OVC035 05/05 A2965 RMK SLP046<br><br>
CYOO 290600Z AUTO 32002KT 3SM BR FEW007 BKN011 BKN020 OVC070 05/05 A2964 RMK SLP044<br><br>
CYOO 290559Z AUTO 32003KT 3SM BR FEW007 BKN011 OVC020 05/05 A2964 RMK SLP044<br><br>
CYOO 290549Z AUTO 31006KT 2 1/2SM BR OVC011 05/05 A2965 RMK SLP045<br><br>
CYOO 290545Z AUTO 32006KT 5SM BR OVC011 05/05 A2965 RMK SLP045<br><br>
CYOO has no TAF <br><br>
<br><br>
CYTR 290600Z 00000KT 4SM BR OVC048 04/04 A2964 RMK SC8 SLP041<br><br>
TAF CYTR 290530Z 2906/3006 VRB03KT P6SM SCT020 BKN050 TEMPO 2906/2914 4SM -RA BR OVC020 FM291400 27005KT 5SM -RA BR SCT006 OVC020 TEMPO 2914/2918 P6SM NSW FEW006 SCT020 OVC050 FM291800 29012KT P6SM SCT015 OVC030 BECMG 3003/3005 FEW015 SCT030 RMK NXT FCST BY 291200Z<br><br>
<br><br>
