RETRIEVED AT : Apr 28 2018 23:41 Local <br>
  RETRIEVED AT: Apr 29 2018 03:41 UTC<br><br>
CYSN has no TAF <br><br>
<br><br>
CYHM 290300Z 32010G15KT 15SM OVC019 01/M03 A3005 RMK SC8 SLP185<br><br>
CYHM 290200Z 31011KT 15SM OVC022 01/M02 A3004 RMK SC8 SLP181<br><br>
TAF CYHM 282338Z 2900/2924 31012G22KT P6SM OVC020 TEMPO 2900/2904 OVC025 FM290400 34010G20KT P6SM -SHRASN OVC015 FM291400 34012G22KT P6SM BKN025 BKN050 FM291700 32015G25KT P6SM SKC BECMG 2922/2924 31012KT RMK NXT FCST BY 290600Z<br><br>
<br><br>
KIAG 290253Z 32012KT 10SM SCT021 BKN026 OVC036 03/M02 A3003 RMK AO2 SLP181 T00281022 51020<br><br>
KIAG 290153Z 32012KT 10SM OVC018 03/M02 A3002 RMK AO2 SLP177 T00281017<br><br>
KIAG 290249Z 2903/2924 31011KT P6SM OVC020 FM290800 31011G17KT P6SM VCSH OVC025 FM291100 31012G18KT 2SM -SHSN OVC025 FM291600 30015G21KT P6SM VCSH OVC060 FM291800 30015G22KT P6SM BKN100<br><br>
<br><br>
KBUF 290254Z 31012KT 10SM OVC016 02/M01 A3002 RMK AO2 SLP174 T00171011 51018 $<br><br>
KBUF 290154Z 31009KT 10SM OVC017 03/00 A3001 RMK AO2 SLP170 T00280000 $<br><br>
KBUF 290249Z 2903/2924 30011KT P6SM OVC020 FM290800 30011KT P6SM VCSH OVC020 FM291100 30012KT 2SM -SHSN OVC020 FM291600 29015G22KT P6SM VCSH OVC060 FM291800 29015G22KT P6SM OVC100<br><br>
<br><br>
CYYZ 290300Z 33018G24KT 15SM BKN020 OVC035 01/M04 A3004 RMK SC6SC2 SLP181<br><br>
CYYZ 290200Z 33018G25KT 15SM BKN020 OVC046 01/M03 A3003 RMK SC6SC2 SLP177<br><br>
TAF CYYZ 290239Z 2903/3006 33015G25KT P6SM BKN020 OVC050 TEMPO 2903/2908 SCT020 OVC050 FM290800 34015G25KT P6SM -SHRASN OVC015 TEMPO 2908/2911 P6SM NSW OVC025 FM291100 34015G25KT P6SM BKN020 OVC040 FM291400 34018G28KT P6SM BKN070 BECMG 2915/2917 SKC BECMG 2923/3001 33015KT RMK NXT FCST BY 290600Z<br><br>
<br><br>
CYOO 290300Z AUTO 33011G19KT 9SM OVC037 02/M03 A3001 RMK SLP167<br><br>
CYOO 290200Z AUTO 32012KT 9SM SCT039 BKN180 02/M02 A3000 RMK SLP163<br><br>
CYOO has no TAF <br><br>
<br><br>
CYTR 290300Z 34010G16KT 15SM -RA OVC012 04/02 A2996 RMK SF8 PCPN VRY LGT SLP149<br><br>
CYTR 290200Z 35008KT 7SM -RA OVC010 05/03 A2995 RMK SF8 SLP145<br><br>
TAF AMD CYTR 290020Z 2900/2924 30010G20KT 5SM -SHRA BR BKN012 OVC030 TEMPO 2900/2906 P6SM -RA SCT012 OVC030 BECMG 2900/2902 34010G20KT FM290600 34008G18KT 6SM -RA BR SCT012 OVC030 TEMPO 2906/2916 3SM -RASN BR BKN012 OVC030 FM291600 33012G22KT P6SM SCT020 BKN070 FM291900 33012G22KT P6SM BKN070 RMK NXT FCST BY 290600Z<br><br>
<br><br>
