RETRIEVED AT : Oct 21 2017 21:10 Local <br>
  RETRIEVED AT: Oct 22 2017 01:10 UTC<br><br>
CYSN 220100Z 16003KT 15SM BKN250 12/09 A3022 RMK CI5 LAST STFD OBS/NEXT 221100UTC SLP237<br><br>
CYSN 220000Z 12003KT 15SM BKN250 13/09 A3023 RMK CI6 SLP238<br><br>
TAF CYSN 211938Z 2120/2201 20010KT P6SM BKN240 BECMG 2123/2124 18007KT RMK NXT FCST WILL BE ISSUED AT 221245Z<br><br>
<br><br>
CYHM 220100Z 17004KT 15SM BKN240 14/09 A3022 RMK CI6 SLP239<br><br>
CYHM 220000Z 18005KT 15SM BKN240 14/09 A3023 RMK CI7 SLP243<br><br>
TAF CYHM 212338Z 2200/2224 19005KT P6SM FEW150 BKN240 BECMG 2200/2202 16006KT FM220800 20007KT P6SM SCT220 PROB30 2208/2214 3/4SM BR FM221400 20012G22KT P6SM SCT240 RMK NXT FCST BY 220600Z<br><br>
<br><br>
KIAG 220053Z 00000KT 8SM CLR 14/08 A3024 RMK AO2 SLP245 T01440083<br><br>
KIAG 212353Z 00000KT 10SM CLR 15/08 A3024 RMK AO2 SLP246 T01500078 10233 20150 51006<br><br>
KIAG 212320Z 2200/2224 19004KT P6SM BKN250 FM221000 18005KT P6SM SCT250 FM221500 17007KT P6SM BKN250<br><br>
<br><br>
KBUF 220054Z 14003KT 10SM BKN200 OVC250 16/07 A3025 RMK AO2 SLP245 T01610072<br><br>
KBUF 212354Z COR 12004KT 10SM BKN200 OVC250 16/08 A3025 RMK AO2 SLP246 T01610078 10228 20161 50005<br><br>
KBUF 212320Z 2200/2224 21004KT P6SM BKN250 FM220200 17006KT P6SM BKN250 FM221000 17006KT P6SM SCT250 FM221500 18008KT P6SM BKN250<br><br>
<br><br>
CYYZ 220100Z 14005KT 15SM FEW260 15/12 A3022 RMK CI2 SLP238<br><br>
CYYZ 220000Z 13005KT 15SM BKN260 16/12 A3022 RMK CI6 SLP236<br><br>
TAF CYYZ 212338Z 2200/2306 15005KT P6SM FEW150 BKN240 BECMG 2205/2207 SCT250 FM221500 18012G22KT P6SM SCT240 FM230200 19012KT P6SM BKN240 RMK NXT FCST BY 220300Z<br><br>
<br><br>
CYOO 220100Z AUTO VRB02KT 9SM CLR 13/10 A3023 RMK SLP242<br><br>
CYOO 220000Z AUTO 13004KT 9SM BKN240 14/10 A3024 RMK SLP244<br><br>
CYOO has no TAF <br><br>
<br><br>
CYTR 220100Z 04003KT 15SM BKN250 09/09 A3025 RMK CI6 SLP247<br><br>
CYTR 220000Z 35002KT 15SM FEW140 BKN250 11/10 A3026 RMK AC2CI4 SLP250<br><br>
TAF CYTR 212330Z 2200/2224 VRB03KT P6SM SCT140 OVC250 BECMG 2213/2215 20008KT RMK NXT FCST BY 220600Z<br><br>
<br><br>
