RETRIEVED AT : Jun 09 2019 16:05 Local <br>
  RETRIEVED AT: Jun 09 2019 20:05 UTC<br><br>
CYSN 091900Z 31006KT 15SM FEW150 BKN250 25/18 A3011 RMK AC2CI5 SLP197 DENSITY ALT 1400FT<br><br>
TAF CYSN 091938Z 0920/1001 32007KT P6SM FEW150 BKN250 BECMG 0922/0924 14008KT RMK NXT FCST WILL BE ISSUED AT 101245Z<br><br>
<br><br>
CYHM 091900Z 05010KT 15SM FEW210 BKN290 23/13 A3014 RMK CC1CI5 SLP207 DENSITY ALT 1700FT<br><br>
TAF CYHM 091738Z 0918/1018 05008KT P6SM BKN220 FM100600 11008KT P6SM -SHRA OVC040 FM100900 11008KT 5SM -SHRA BR OVC020 FM101400 12008KT 4SM -SHRA BR BKN007 OVC015 RMK NXT FCST BY 100000Z<br><br>
<br><br>
KIAG 091953Z 15006KT 10SM CLR 28/12 A3011 RMK AO2 SLP193 T02830122<br><br>
KIAG 091853Z 13008KT 10SM CLR 28/12 A3013 RMK AO2 SLP199 T02780122<br><br>
KIAG 091727Z 0918/1018 12012KT P6SM BKN250 FM100400 13008KT P6SM SCT100 OVC200 FM100800 14008KT P6SM OVC080 WS020/16040KT FM101200 16010KT P6SM VCSH SCT025 BKN040 TEMPO 1012/1015 BKN025<br><br>
<br><br>
KBUF 091954Z 13010G15KT 10SM FEW120 SCT160 BKN220 BKN270 28/11 A3013 RMK AO2 SLP198 T02780111<br><br>
KBUF 091854Z 08007KT 10SM FEW120 SCT170 BKN220 BKN270 28/11 A3014 RMK AO2 SLP202 T02780111<br><br>
KBUF 091727Z 0918/1018 11012KT P6SM BKN250 FM100400 13008KT P6SM SCT100 OVC200 FM100800 14008KT P6SM OVC080 WS020/16040KT FM101200 16010KT P6SM VCSH SCT025 BKN040 TEMPO 1012/1015 BKN025<br><br>
<br><br>
CYYZ 091900Z 12010G21KT 15SM FEW160 SCT220 BKN260 26/11 A3014 RMK AC2CC1CI3 SLP207 DENSITY ALT 1700FT<br><br>
TAF CYYZ 091738Z 0918/1024 12008G18KT P6SM FEW180 BKN250 BECMG 0922/0924 08008KT FM100200 07007KT P6SM SCT070 BKN150 FM100600 13006KT P6SM BKN070 OVC140 FM100800 14006KT 5SM -SHRA BR OVC025 FM101200 12010KT 4SM -SHRA BR BKN007 OVC015 RMK NXT FCST BY 092100Z<br><br>
<br><br>
CYOO 091900Z AUTO 10017KT 9SM CLR 25/12 A3015 RMK SLP213 DENSITY ALT 1400FT<br><br>
TAF CYOO 091938Z 0920/1008 10015KT P6SM SCT250 BECMG 0923/1001 09010KT FM100300 09007KT P6SM BKN150 OVC250 RMK FCST BASED ON AUTO OBS. NXT FCST BY 100200Z<br><br>
<br><br>
CYTR 091900Z 13005KT 15SM FEW080 OVC250 26/12 A3020 RMK AC2CI6 SLP226<br><br>
TAF CYTR 091730Z 0918/1018 16008KT P6SM FEW060 BKN250 BECMG 1005/1007 FEW020 SCT040 FM101000 15008KT P6SM SCT020 OVC040 TEMPO 1010/1013 P6SM -RA BKN020 OVC040 FM101300 15010G20KT P6SM -RA SCT008 OVC020 TEMPO 1013/1018 4SM -RA BR BKN008 OVC020 RMK NXT FCST BY 100000Z<br><br>
<br><br>
