RETRIEVED AT : Sep 03 2018 09:05 Local <br>
  RETRIEVED AT: Sep 03 2018 13:05 UTC<br><br>
CYSN 031200Z 21011KT 15SM FEW050 FEW100 SCT230 26/22 A3016 RMK SC1AC1CI2 SLP214 DENSITY ALT 1500FT<br><br>
TAF CYSN 031238Z 0313/0401 22010KT P6SM FEW050 FEW100 SCT240 BECMG 0313/0315 24010G20KT FM031900 26012G22KT P6SM BKN050 TEMPO 0319/0323 P6SM -SHRA PROB30 0319/0323 2SM +TSRA BR BKN030CB FM032300 28008KT P6SM SCT050 RMK NXT FCST BY 032000Z<br><br>
<br><br>
CYHM 031200Z 22006KT 15SM FEW150 SCT250 24/22 A3019 RMK AC1CI2 SLP222 DENSITY ALT 1700FT<br><br>
TAF CYHM 031139Z 0312/0412 21007KT P6SM FEW004 FEW025 SCT120 FM031400 24010KT P6SM SCT050 BKN250 BECMG 0315/0317 24010G20KT FM031700 24010G20KT P6SM SCT040 BKN120 BKN250 PROB30 0317/0321 2SM +TSRA BR BKN015 OVC030CB FM032300 28008KT P6SM SCT040 FM040200 VRB03KT P6SM FEW040 PROB30 0408/0412 1/2SM FG BKN002 RMK NXT FCST BY 031800Z<br><br>
<br><br>
KIAG 031253Z 23011KT 10SM CLR 26/22 A3020 RMK AO2 SLP219 T02610217<br><br>
KIAG 031153Z 22009KT 10SM FEW070 24/22 A3020 RMK AO2 SLP220 70003 T02390217 10244 20228 53014<br><br>
KIAG 031120Z 0312/0412 22010KT P6SM SCT150 FM031500 24014G22KT P6SM SCT050 FM031800 24016G24KT P6SM VCTS BKN035CB FM032200 24010KT P6SM BKN040 FM040200 VRB05KT P6SM BKN040<br><br>
<br><br>
KBUF 031254Z 22009KT 10SM FEW050 FEW065 SCT200 SCT250 26/21 A3022 RMK AO2 SLP229 T02610211<br><br>
KBUF 031154Z 23010KT 10SM FEW200 SCT250 26/21 A3021 RMK AO2 SLP226 70002 T02560206 10256 20222 53014<br><br>
KBUF 031120Z 0312/0412 22010KT P6SM SCT150 FM031500 24016G24KT P6SM SCT150 FM032000 24014G22KT P6SM BKN050 FM040000 24008KT P6SM SCT150 FM040300 VRB05KT P6SM BKN040<br><br>
<br><br>
CYYZ 031200Z 24009KT 15SM FEW050 FEW085 FEW150 BKN260 24/22 A3016 RMK CU1AC1AC1CI3 CU TR SLP212 DENSITY ALT 1500FT<br><br>
TAF CYYZ 031139Z 0312/0418 23008KT P6SM SCT280 BECMG 0314/0316 26010G20KT FM031700 27012G22KT P6SM SCT040 BKN120 BKN250 PROB30 0317/0322 2SM +TSRA BR BKN015 OVC030CB FM040000 34008KT P6SM FEW050 FM040300 34005KT P6SM FEW030 RMK NXT FCST BY 031500Z<br><br>
<br><br>
CYOO 031200Z AUTO VRB02KT 9SM FEW095 23/22 A3015 RMK SLP209 DENSITY ALT 1100FT<br><br>
CYOO has no TAF <br><br>
<br><br>
CYTR 031200Z 21008KT 15SM FEW080 SCT250 25/22 A3014 RMK AC2CI2 CVCTV CLD EMBD N SLP206<br><br>
TAF CYTR 031130Z 0312/0412 21008KT P6SM FEW050 FEW080 SCT250 BECMG 0312/0314 25012G22KT FM031400 25012G22KT P6SM SCT030 BKN080 FM031800 25010G20KT 6SM -SHRA BR OVC030 PROB40 0318/0324 VRB15G25KT 3SM TSRA BR OVC015CB FM040300 VRB03KT P6SM BKN030 OVC080 BECMG 0403/0405 SCT030 RMK NXT FCST BY 031800Z<br><br>
<br><br>
