RETRIEVED AT : May 23 2020 07:05 Local <br>
  RETRIEVED AT: May 23 2020 11:05 UTC<br><br>
CYSN has no TAF <br><br>
<br><br>
CYHM 231019Z 26002KT 12SM R12/3500VP6000FT/U BKN100 15/15 A3001 RMK AC7 VIS NE-SW 5/8 SLP165 DENSITY ALT 900FT<br><br>
CYHM 231011Z 24003KT 1/2SM R12/4000V5500FT/U FG BKN100 15/15 A3001 RMK FG3AC4 VIS N 2 SLP165 DENSITY ALT 900FT<br><br>
CYHM 231000Z 22003KT 1SM R12/5000VP6000FT/D BR BKN110 15/15 A3001 RMK FG3AC4 SLP165 DENSITY ALT 800FT<br><br>
CYHM 230943Z 00000KT 2 1/4SM BR BKN100 15/14 A3001 RMK FG1AC6 SLP163 DENSITY ALT 800FT<br><br>
TAF AMD CYHM 230847Z 2308/2406 32005KT P6SM OVC040 TEMPO 2308/2312 1/2SM FG SCT005 OVC020 FM231200 28006KT P6SM FEW020 SCT080 FM231500 29006KT P6SM BKN060 BECMG 2316/2318 09006KT FM240000 12005KT P6SM SCT020 OVC040 FM240400 06005KT P6SM -SHRA SCT008 OVC012 RMK NXT FCST BY 231200Z<br><br>
<br><br>
KIAG 231053Z 14003KT 2 1/2SM BR BKN048 16/16 A3002 RMK AO2 SLP163 T01610156<br><br>
KIAG 231022Z AUTO 00000KT 2 1/2SM BR BKN049 16/16 A3000 RMK AO2 T01610161<br><br>
KIAG 230953Z AUTO 24003KT 4SM BR FEW002 BKN050 OVC090 16/16 A3000 RMK AO2 SLP157 T01610156<br><br>
KIAG 230948Z AUTO 23004KT 4SM BR SCT002 BKN050 OVC090 16/16 A3000 RMK AO2<br><br>
KIAG 230938Z AUTO 23003KT 3SM BR BKN002 BKN050 OVC090 16/16 A2999 RMK AO2 T01610156<br><br>
KIAG 230933Z AUTO 23005KT 1 1/2SM R28R/4000VP6000FT BR BKN002 OVC050 16/16 A2999 RMK AO2 T01610156<br><br>
KIAG 230929Z AUTO 22004KT 1SM R28R/3500VP6000FT BR OVC002 16/16 A2999 RMK AO2 T01610156<br><br>
KIAG 230922Z AUTO 23004KT 1/2SM R28R/3000VP6000FT FG OVC002 16/16 A2999 RMK AO2 T01610156<br><br>
KIAG 230910Z AUTO 25004KT 1SM R28R/5000VP6000FT BR OVC002 16/16 A2999 RMK AO2 T01610156<br><br>
KIAG 230905Z 2309/2406 VRB03KT 3SM BR SCT005 BKN070 TEMPO 2309/2311 1SM BR BKN003 FM231300 VRB03KT P6SM BKN035 BKN070 FM231600 23005KT P6SM SCT035 BKN090<br><br>
<br><br>
KBUF 231054Z 25005KT 2SM -RA BR SCT002 BKN034 OVC070 16/15 A3002 RMK AO2 RAB08E25B32 SLP163 P0003 T01610150<br><br>
KBUF 231048Z 27004KT 2SM -RA BR FEW002 BKN034 OVC070 16/15 A3002 RMK AO2 RAB08E25B32 P0002<br><br>
KBUF 231043Z 26005KT 1 3/4SM RA BR SCT002 BKN034 OVC070 16/14 A3002 RMK AO2 RAB08E25B32 P0002 T01560144<br><br>
KBUF 231027Z 20003KT 2 1/2SM BR OVC002 16/15 A3002 RMK AO2 RAB08E25 P0001 T01560150<br><br>
KBUF 231013Z 21004KT 1 3/4SM -RA BR OVC002 16/15 A3001 RMK AO2 RAB08 P0001 T01610150<br><br>
KBUF 230954Z 20004KT 6SM BR BKN002 BKN037 OVC049 17/16 A3001 RMK AO2 RAE43 SLP160 P0001 T01670156<br><br>
KBUF 230931Z 21003KT 4SM -RA BR FEW001 OVC037 17/16 A3000 RMK AO2 P0001 T01670156<br><br>
KBUF 230832Z 2309/2406 VRB03KT 6SM -RA BR FEW003 BKN070 TEMPO 2309/2311 3SM BR SCT003 FM231200 VRB03KT P6SM FEW035 BKN070 FM231500 23005KT P6SM FEW035 SCT090<br><br>
<br><br>
CYYZ 231000Z 28004KT 15SM FEW190 14/13 A3001 RMK AC2 SLP162<br><br>
TAF CYYZ 230838Z 2309/2412 33006KT P6SM SCT220 BECMG 2316/2318 14008KT FM231800 14008KT P6SM SKC FM240000 11008KT P6SM SCT040 BKN100 FM240300 12006KT P6SM SCT020 OVC040 FM240600 08006KT 6SM -RA OVC008 PROB40 2410/2412 11/2SM -DZ BR OVC004 RMK NXT FCST BY 231200Z<br><br>
<br><br>
CYOO 231000Z AUTO 33003KT 9SM SCT200 BKN220 11/10 A3000 RMK SLP161<br><br>
TAF CYOO 230738Z 2308/2320 VRB03KT P6SM OVC230 BECMG 2313/2315 15006KT RMK FCST BASED ON AUTO OBS. NXT FCST BY 231400Z<br><br>
<br><br>
CYTR 231000Z 05004KT 15SM SCT100 SCT220 10/08 A2999 RMK AC3CI1 MIFG RWY E SLP157<br><br>
TAF CYTR 230530Z 2306/2406 VRB03KT P6SM FEW230 FM231300 VRB03KT P6SM SKC BECMG 2315/2317 20010KT BECMG 2402/2404 VRB03KT RMK NXT FCST BY 231200Z<br><br>
<br><br>
