RETRIEVED AT : Jun 07 2020 04:05 Local <br>
  RETRIEVED AT: Jun 07 2020 08:05 UTC<br><br>
CYSN has no TAF <br><br>
<br><br>
TAF CYHM 070538Z 0706/0806 35010KT P6SM SKC FM071600 33012KT P6SM FEW050 BECMG 0723/0801 04008KT FM080500 04006KT P6SM FEW090 SCT120 RMK NXT FCST BY 071200Z<br><br>
<br><br>
KIAG 070520Z 0706/0806 34006KT P6SM SCT045 FM071000 36006KT P6SM FEW070 FM071800 32009KT P6SM SKC FM080500 VRB03KT P6SM SKC<br><br>
<br><br>
KBUF 070520Z 0706/0806 34004KT P6SM SCT040 FM071100 01006KT P6SM SCT040 FM071600 33008KT P6SM SKC FM080500 00000KT P6SM SKC<br><br>
<br><br>
TAF CYYZ 070538Z 0706/0812 35012KT P6SM SKC BECMG 0716/0718 35010G20KT BECMG 0800/0802 01012KT FM080600 01008KT P6SM FEW090 SCT120 RMK NXT FCST BY 070900Z<br><br>
<br><br>
TAF CYOO 070738Z 0708/0720 34005KT P6SM SKC BECMG 0713/0714 34010KT BECMG 0715/0717 33008G18KT RMK FCST BASED ON AUTO OBS. NXT FCST BY 071400Z<br><br>
<br><br>
TAF CYTR 070530Z 0706/0806 35008KT P6SM SKC FM071600 35008KT P6SM BKN050 FM072300 34005KT P6SM FEW050 SCT280 RMK NXT FCST BY 071200Z<br><br>
<br><br>
