RETRIEVED AT : May 11 2018 15:05 Local <br>
  RETRIEVED AT: May 11 2018 19:05 UTC<br><br>
CYSN 111800Z 05003KT 15SM OVC240 10/M01 A3021 RMK CI8 SLP232<br><br>
TAF CYSN 111238Z 1113/1201 03012KT P6SM BKN030 BECMG 1114/1116 SCT030 FM112000 04006KT P6SM BKN180 RMK NXT FCST BY 112000Z<br><br>
<br><br>
CYHM 111800Z VRB03KT 15SM FEW170 BKN210 OVC230 11/M01 A3019 RMK AC2CI3CI3 SLP232<br><br>
TAF CYHM 111738Z 1118/1218 06008KT P6SM BKN150 BKN220 FM112200 06010KT P6SM OVC120 TEMPO 1122/1205 P6SM -SHRA FM120500 06008KT P6SM -SHRA OVC050 FM120800 05010KT P6SM -SHRA OVC030 FM121100 04012KT 11/2SM -RA BR SCT004 OVC008 FM121400 04015KT P6SM SCT008 OVC015 FM121700 05015KT P6SM BKN050 RMK NXT FCST BY 120000Z<br><br>
<br><br>
KIAG 111853Z 30004KT 10SM CLR 12/M03 A3019 RMK AO2 SLP230 T01171028<br><br>
KIAG 111753Z VRB04KT 10SM CLR 11/M02 A3020 RMK AO2 SLP233 T01111017 10117 20072 53006<br><br>
KIAG 111730Z 1118/1218 VRB03KT P6SM BKN120 FM120300 VRB03KT P6SM VCSH OVC080 FM120500 VRB03KT P6SM -RA VCSH OVC050 FM120800 08005KT 6SM -RA OVC045 FM121400 05007KT P6SM OVC030<br><br>
<br><br>
KBUF 111854Z 33004KT 10SM FEW045 FEW120 OVC180 14/02 A3018 RMK AO2 SLP222 VIRGA DSNT SE-SW-W T01390017<br><br>
KBUF 111754Z 01005KT 10SM FEW040 FEW120 OVC200 14/01 A3019 RMK AO2 SLP224 T01390006 10139 20072 51006<br><br>
KBUF 111730Z 1118/1218 25003KT P6SM BKN120 FM120100 06004KT P6SM OVC080 FM120300 VRB03KT P6SM VCSH OVC060 FM120500 10004KT 6SM -RA OVC050 FM121300 09007KT 6SM -RA OVC030 FM121500 05008KT P6SM OVC025<br><br>
<br><br>
CYYZ 111800Z 15010KT 140V200 15SM SCT070 BKN170 OVC230 09/M02 A3019 RMK AC3AC4CI1 SLP228<br><br>
TAF CYYZ 111738Z 1118/1224 15010KT P6SM BKN150 BKN220 BECMG 1123/1201 17007KT FM120400 07005KT P6SM OVC080 FM120800 06005KT P6SM -SHRA OVC050 FM121100 05010KT P6SM -RA BKN015 OVC030 FM121400 05010KT P6SM BKN030 FM121700 11008KT P6SM FEW015 SCT050 RMK NXT FCST BY 112100Z<br><br>
<br><br>
CYOO 111800Z AUTO 19010KT 9SM CLR 08/M03 A3018 RMK SLP225<br><br>
CYOO has no TAF <br><br>
<br><br>
CYTR 111800Z 21010G15KT 15SM FEW045 BKN090 OVC220 09/M00 A3017 RMK SC1AC6CI2 SLP219<br><br>
TAF CYTR 111730Z 1118/1218 21010KT P6SM FEW160 OVC220 BECMG 1123/1201 VRB03KT FM120100 VRB03KT P6SM BKN200 FM120900 VRB03KT P6SM BKN100 BECMG 1214/1216 09008KT SCT180 RMK NXT FCST BY 120000Z<br><br>
<br><br>
