RETRIEVED AT : Sep 02 2018 02:05 Local <br>
  RETRIEVED AT: Sep 02 2018 06:05 UTC<br><br>
CYSN has no TAF <br><br>
<br><br>
CYHM 020500Z 19004KT 15SM BKN140 21/21 A3009 RMK AC7 MOON VSBL SLP188 DENSITY ALT 1500FT<br><br>
TAF CYHM 020539Z 0206/0306 20006KT P6SM BKN140 BKN240 FM021100 21010KT P6SM SCT030 BKN130 TEMPO 0211/0215 BKN020 BKN130 FM021500 22010G20KT P6SM SCT030 SCT140 PROB30 0217/0221 VRB15G25KT 1SM +TSRA BR BKN015 OVC030CB FM030000 22008KT P6SM FEW040 RMK NXT FCST BY 021200Z<br><br>
<br><br>
KIAG 020553Z AUTO 19010KT 10SM CLR 23/21 A3009 RMK AO2 SLP184 60000 T02280206 10267 20217 50001<br><br>
KIAG 020453Z AUTO 18005KT 8SM CLR 22/21 A3009 RMK AO2 SLP184 T02220211 402940150<br><br>
KIAG 020538Z 0206/0306 20008KT P6SM BKN150 FM021300 23014G22KT P6SM VCSH BKN040 FM021700 23016G24KT P6SM SCT200 FM030000 22010KT P6SM SCT200<br><br>
<br><br>
KBUF 020554Z 20008KT 10SM SCT040 SCT055 BKN140 BKN280 22/21 A3011 RMK AO2 SLP191 60006 T02220211 10272 20222 56002<br><br>
KBUF 020454Z 18009KT 10SM FEW075 SCT140 BKN290 23/21 A3011 RMK AO2 SLP191 T02280211 403000183<br><br>
KBUF 020538Z 0206/0306 19010KT P6SM BKN150 FM021300 22012G20KT P6SM VCSH BKN040 FM021700 24016G24KT P6SM SCT200 FM030000 23010KT P6SM SCT200<br><br>
<br><br>
CYYZ 020500Z 19007KT 15SM FEW050 BKN150 24/20 A3007 RMK SC1AC7 SC TR SLP181 DENSITY ALT 1600FT<br><br>
TAF CYYZ 020539Z 0206/0312 17006KT P6SM FEW040 BKN140 BKN240 FM021100 21010KT P6SM SCT030 BKN130 TEMPO 0211/0215 BKN020 BKN130 FM021500 23010G20KT P6SM SCT030 SCT140 PROB30 0217/0221 VRB15G25KT 1SM +TSRA BR BKN015 OVC030CB FM030000 23010KT P6SM SCT040 FM030600 24008KT P6SM FEW050 RMK NXT FCST BY 020900Z<br><br>
<br><br>
CYOO 020500Z AUTO 19003KT 9SM SCT045 OVC140 23/22 A3008 RMK SLP185 DENSITY ALT 1300FT<br><br>
CYOO has no TAF <br><br>
<br><br>
CYTR 020500Z 19008KT 15SM BKN120 24/20 A3009 RMK AC6 SLP190<br><br>
TAF CYTR 020530Z 0206/0306 17008KT P6SM BKN120 FM020800 18005KT P6SM BKN030 OVC080 TEMPO 0208/0213 5SM -SHRA BR BKN012 OVC030 PROB30 0209/0213 2SM TSRA BR BKN008 OVC020CB FM021300 18005KT P6SM BKN030 OVC080 TEMPO 0213/0219 5SM -SHRA BR BKN012 OVC030 BECMG 0214/0216 22010G20KT FM021900 24010G20KT P6SM SCT020 OVC030 TEMPO 0219/0224 P6SM -SHRA OVC020 FM030000 23008KT P6SM SCT030 OVC060 TEMPO 0300/0306 P6SM -SHRA BKN030 OVC060 RMK NXT FCST BY 021200Z<br><br>
<br><br>
