RETRIEVED AT : May 31 2020 09:05 Local <br>
  RETRIEVED AT: May 31 2020 13:05 UTC<br><br>
CYSN 311200Z 33008KT 15SM FEW016 BKN040 10/07 A3021 RMK SC2SC3 SLP233<br><br>
TAF AMD CYSN 311302Z 3113/0101 33008KT P6SM FEW015 BKN040 TEMPO 3113/3118 BKN015 FM311800 30010KT P6SM SCT040 TEMPO 3118/0101 BKN040 RMK NXT FCST BY 312000Z<br><br>
<br><br>
CYHM 311200Z 32007KT 290V360 15SM FEW020 08/05 A3023 RMK SC1 SC TR SLP241<br><br>
TAF CYHM 311141Z 3112/0112 30005KT P6SM FEW030 BECMG 3116/3118 31012KT RMK NXT FCST BY 311800Z<br><br>
<br><br>
KIAG 311253Z 34007KT 10SM BKN022 OVC049 10/04 A3022 RMK AO2 SLP239 T01000044<br><br>
KIAG 311153Z 35009KT 10SM SCT016 BKN022 OVC048 08/05 A3020 RMK AO2 SLP232 70016 T00830050 10083 20056 53022<br><br>
KIAG 311125Z 33010KT 10SM OVC014 08/06 A3019 RMK AO2 T00830056<br><br>
KIAG 311150Z 3112/0112 33010KT P6SM SCT015 BKN040 TEMPO 3112/3113 BKN015 FM311400 33013KT P6SM SCT050 FM312000 30010KT P6SM SCT050 FM312300 26007KT P6SM SCT070<br><br>
<br><br>
KBUF 311254Z 31010KT 10SM BKN018 BKN027 BKN034 08/05 A3022 RMK AO2 SLP237 T00830050 $<br><br>
KBUF 311154Z 31006KT 10SM BKN016 BKN024 BKN032 08/05 A3020 RMK AO2 SLP229 T00780050 10078 20061 53021 $<br><br>
KBUF 311145Z 31008KT 10SM FEW014 BKN024 BKN032 08/05 A3019 RMK AO2 T00780050 $<br><br>
KBUF 311129Z 30010KT 10SM BKN014 BKN050 07/05 A3019 RMK AO2 T00720050 $<br><br>
KBUF 311151Z 3112/0112 33009KT P6SM SCT025 BKN040 TEMPO 3112/3114 BKN025 FM311500 34012KT P6SM SCT050 FM312000 30012KT P6SM SCT050 FM312300 26008KT P6SM SCT070<br><br>
<br><br>
CYYZ 311200Z 34011KT 15SM FEW025 09/03 A3021 RMK SC1 SLP236<br><br>
TAF CYYZ 311141Z 3112/0118 33005KT P6SM FEW030 BECMG 3113/3115 33012KT FM311900 32015KT P6SM SCT060 TEMPO 3119/0101 BKN060 BECMG 3123/0101 33010KT BECMG 0101/0103 VRB03KT FM010300 VRB03KT P6SM FEW060 BECMG 0107/0109 26012KT FM011600 27015G25KT P6SM SCT070 RMK NXT FCST BY 311500Z<br><br>
<br><br>
CYOO 311200Z AUTO 34011G16KT 9SM CLR 09/05 A3019 RMK SLP228<br><br>
TAF CYOO 310738Z 3108/3120 34005KT P6SM SCT050 TEMPO 3109/3112 BKN050 FM311200 34010G20KT P6SM FEW050 BECMG 3115/3117 30015KT RMK FCST BASED ON AUTO OBS. NXT FCST BY 311400Z<br><br>
<br><br>
CYTR 311200Z 33007KT 15SM FEW023 BKN033 BKN060 BKN080 09/06 A3018 RMK SC2SC4SC2AC1 AC TR SLP223<br><br>
CYTR 311129Z 30003KT 15SM FEW025 BKN036 BKN080 08/07 A3018 RMK SC1SC6AC1 AC TR SLP220<br><br>
TAF CYTR 311130Z 3112/0112 29005KT P6SM SCT030 BKN060 TEMPO 3112/3114 P6SM -SHRA FEW020 OVC030 FM311600 30010KT P6SM SCT060 TEMPO 3116/0101 BKN060 BECMG 3117/3119 30010G20KT FM010100 29007KT P6SM SKC FM010800 24005KT P6SM BKN070 RMK NXT FCST BY 311800Z<br><br>
<br><br>
