RETRIEVED AT : May 02 2020 07:05 Local <br>
  RETRIEVED AT: May 02 2020 11:05 UTC<br><br>
CYSN has no TAF <br><br>
<br><br>
CYHM 021000Z 23004KT 15SM SCT220 04/03 A3002 RMK CI4 SLP170<br><br>
TAF CYHM 020538Z 0206/0306 27005KT P6SM SKC FM021200 22008KT P6SM BKN120 FM022000 21010G20KT P6SM OVC060 TEMPO 0220/0303 P6SM -SHRA FM030300 22010KT P6SM SCT060 BKN180 BECMG 0304/0306 28010KT RMK NXT FCST BY 021200Z<br><br>
<br><br>
KIAG 021053Z 20007KT 9SM CLR 06/05 A3003 RMK AO2 SLP175 T00610050<br><br>
KIAG 020953Z AUTO 21005KT 7SM CLR 04/04 A3002 RMK AO2 SLP172 T00440039<br><br>
KIAG 020902Z 0209/0306 19005KT P6SM SKC FM021700 22011G17KT P6SM BKN150 FM022300 18009KT P6SM OVC040 FM030000 18011G22KT P6SM OVC030 FM030500 24013G23KT P6SM BKN015<br><br>
<br><br>
KBUF 021054Z 21007KT 10SM FEW150 SCT200 BKN250 07/04 A3004 RMK AO2 SLP177 T00670044 $<br><br>
KBUF 020954Z 21008KT 10SM FEW250 06/04 A3003 RMK AO2 SLP172 T00560039 $<br><br>
KBUF 020902Z 0209/0306 20007KT P6SM FEW250 TEMPO 0209/0211 4SM BR FM021200 21008KT P6SM SCT250 FM030000 18011G20KT P6SM OVC030 FM030500 24014G25KT P6SM BKN012<br><br>
<br><br>
CYYZ 021000Z 18003KT 15SM FEW180 FEW240 08/M01 A3000 RMK AC1CI1 AC TR CONTRAILS SLP162<br><br>
TAF CYYZ 020838Z 0209/0312 VRB03KT P6SM SKC FM021200 VRB03KT P6SM BKN140 BECMG 0214/0216 17008KT FM022000 20012G22KT P6SM OVC060 TEMPO 0220/0304 P6SM -SHRA FM030400 18010KT P6SM BKN040 BECMG 0304/0306 31010KT FM030600 31010KT P6SM FEW040 BECMG 0307/0309 31007KT RMK NXT FCST BY 021200Z<br><br>
<br><br>
CYOO 021000Z AUTO 34002KT 9SM CLR 02/02 A2999 RMK SLP160<br><br>
TAF CYOO 020738Z 0208/0220 VRB03KT P6SM SKC FM021200 VRB03KT P6SM BKN200 FM021600 20008KT P6SM BKN100 RMK FCST BASED ON AUTO OBS. NXT FCST BY 021400Z<br><br>
<br><br>
CYTR 021000Z 21003KT 15SM FEW090 FEW250 08/02 A2997 RMK AC1CI1 AC TR SLP152<br><br>
TAF CYTR 020530Z 0206/0306 32008KT P6SM SKC FM021000 32005KT P6SM BKN080 BKN250 BECMG 0212/0214 23008KT FM022000 25008KT P6SM FEW025 OVC060 FM030100 VRB03KT P6SM FEW012 OVC030 RMK NXT FCST BY 021200Z<br><br>
<br><br>
