RETRIEVED AT : Dec 12 2017 13:10 Local <br>
  RETRIEVED AT: Dec 12 2017 18:10 UTC<br><br>
TAF CYSN 121339Z 1214/1302 27012G22KT 2SM -SN BLSN OVC015 TEMPO 1214/1216 6SM -SN SCT015 OVC030 FM121600 28020G30KT P6SM BKN025 OVC050 TEMPO 1216/1219 21/2SM -SHSN BLSN OVC025 FM122100 27020G30KT P6SM BKN040 RMK NXT FCST BY 122000Z<br><br>
<br><br>
TAF CYHM 121738Z 1218/1318 28018G28KT P6SM BKN030 TEMPO 1218/1222 21/2SM -SHSN OVC020 FM122200 30015G25KT P6SM SCT040 TEMPO 1222/1308 BKN040 BECMG 1310/1312 27010KT FM131700 26010G20KT P6SM BKN030 OVC220 RMK NXT FCST BY 130000Z<br><br>
<br><br>
KIAG 121737Z 1218/1318 27016G26KT P6SM VCSH OVC015 TEMPO 1218/1222 3SM -SHSN BKN015 OVC025 FM130100 28018G25KT 3SM -SN BLSN OVC015 FM130700 30018G24KT P6SM OVC030 FM131000 30018KT P6SM OVC030 FM131700 28014KT P6SM BKN040<br><br>
<br><br>
KBUF 121737Z 1218/1318 27016G26KT P6SM VCSH SCT015 OVC025 TEMPO 1218/1222 3SM -SHSN BKN015 OVC025 FM122200 27017G26KT 5SM -SHSN OVC025 FM130100 27017G25KT 3SM -SN BLSN OVC015 FM130700 29015G24KT P6SM OVC040 FM131500 29016KT P6SM BKN040<br><br>
<br><br>
CYYZ 121800Z 29018G26KT 15SM DRSN SCT025 BKN050 BKN080 M05/M12 A2956 RMK CU4SC2AC1 SLP020<br><br>
CYYZ 121700Z 29018G25KT 15SM DRSN FEW025 SCT060 BKN080 M04/M11 A2955 RMK CU2SC2AC3 SLP016<br><br>
CYYZ 121615Z 30018G26KT 12SM DRSN SCT025 BKN063 M04/M09 A2954 RMK CU3SC4 SLP013<br><br>
TAF CYYZ 121738Z 1218/1324 30018G28KT P6SM SCT040 BKN080 TEMPO 1218/1302 BKN040 FM130200 32015G25KT P6SM -SHSN BKN025 TEMPO 1302/1307 21/2SM -SHSN BLSN OVC020 BECMG 1306/1307 33012KT FM131600 30010KT P6SM FEW025 FM132100 36007KT P6SM BKN050 OVC220 RMK NXT FCST BY 122100Z<br><br>
<br><br>
CYOO 121800Z AUTO 28013G20KT 9SM -SN BKN032 OVC043 M05/M09 A2952 RMK SLP006<br><br>
CYOO 121755Z AUTO 28015G22KT 6SM -SN BKN029 OVC035 M05/M09 A2952 RMK SLP006<br><br>
CYOO 121747Z AUTO 28014KT 3SM -SN BKN027 OVC035 M05/M08 A2952 RMK SLP005<br><br>
CYOO 121736Z AUTO 27011G18KT 2 1/4SM -SN OVC025 M05/M07 A2952 RMK SLP005<br><br>
CYOO 121700Z AUTO 28014G19KT 1 1/2SM -SN FEW007 SCT012 OVC018 M04/M06 A2951 RMK SLP002<br><br>
CYOO has no TAF <br><br>
<br><br>
TAF CYTR 121730Z 1218/1318 35008KT 6SM -SN SCT012 OVC030 TEMPO 1218/1221 11/2SM -SN OVC012 FM122100 26012G22KT P6SM SCT020 OVC040 TEMPO 1221/1309 3SM -SN BLSN BKN020 OVC040 BECMG 1302/1304 33012G22KT FM130900 32012G22KT P6SM BKN020 FM131400 30012G22KT P6SM SCT030 RMK NXT FCST BY 130000Z<br><br>
<br><br>
