RETRIEVED AT : Oct 14 2018 07:05 Local <br>
  RETRIEVED AT: Oct 14 2018 11:05 UTC<br><br>
CYSN has no TAF <br><br>
<br><br>
CYHM 141000Z 00000KT 15SM BKN037 04/02 A3010 RMK SC7 SLP200<br><br>
TAF CYHM 140542Z 1406/1506 VRB03KT P6SM SCT240 FM141000 VRB03KT P6SM BKN030 BECMG 1414/1416 21010KT FM142200 19010KT P6SM SCT040 BECMG 1501/1503 VRB03KT RMK NXT FCST BY 141200Z<br><br>
<br><br>
KIAG 141053Z 17004KT 10SM OVC032 07/04 A3011 RMK AO2 SLP206 T00720044<br><br>
KIAG 140953Z AUTO 13004KT 10SM OVC032 06/03 A3011 RMK AO2 SLP203 T00610033<br><br>
KIAG 140904Z 1409/1506 00000KT P6SM BKN035 FM141800 23008KT P6SM SCT110 FM150000 20004KT P6SM FEW250 FM150300 16004KT P6SM FEW250<br><br>
<br><br>
KBUF 141054Z 18008KT 10SM BKN025 OVC033 07/04 A3012 RMK AO2 SLP205 T00720039<br><br>
KBUF 141035Z 17005KT 10SM SCT025 OVC034 07/04 A3012 RMK AO2 T00720039<br><br>
KBUF 141022Z 19006KT 10SM BKN024 OVC032 07/04 A3012 RMK AO2 T00720039<br><br>
KBUF 140954Z 18006KT 10SM BKN030 OVC034 07/04 A3012 RMK AO2 SLP202 T00720044<br><br>
KBUF 140904Z 1409/1506 18006KT P6SM BKN035 FM141700 23007KT P6SM SCT110 FM142300 VRB03KT P6SM FEW250 FM150300 16004KT P6SM FEW250<br><br>
<br><br>
CYYZ 141000Z 00000KT 15SM SCT042 BKN160 04/00 A3010 RMK SC4AC2 SLP198<br><br>
TAF CYYZ 140842Z 1409/1512 VRB03KT P6SM FEW240 FM141200 VRB03KT P6SM BKN110 BECMG 1414/1416 20010KT FM141900 20012KT P6SM BKN030 FM150100 VRB03KT P6SM FEW040 BKN260 FM150900 VRB03KT P6SM -SHRA OVC080 RMK NXT FCST BY 141200Z<br><br>
<br><br>
CYOO 141000Z AUTO 03002KT 9SM OVC200 01/01 A3010 RMK SLP198<br><br>
CYOO has no TAF <br><br>
<br><br>
TAF CYTR 140530Z 1406/1506 VRB03KT P6SM FEW040 TEMPO 1406/1410 5SM BR FM141000 VRB03KT P6SM FEW030 BKN180 FM141400 22008KT P6SM BKN025 BKN150 TEMPO 1414/1421 P6SM -SHRA BECMG 1415/1417 22010G20KT FM150000 VRB03KT P6SM SCT025 BKN250 RMK NXT FCST BY 141200Z<br><br>
<br><br>
