RETRIEVED AT : Feb 28 2020 22:05 Local <br>
  RETRIEVED AT: Feb 29 2020 03:05 UTC<br><br>
CYSN 290200Z 25017G27KT 15SM OVC048 M04/M09 A2978 RMK SC8 LAST STFD OBS/NEXT 29 1200UTC SLP092<br><br>
CYSN has no TAF <br><br>
<br><br>
CYHM 290215Z 24017G22KT 7SM -SN OVC016 M06/M09 A2976 RMK SC8 SLP093<br><br>
CYHM 290200Z 24016G24KT 8SM OVC016 M06/M09 A2976 RMK SC8 SLP093<br><br>
TAF AMD CYHM 282343Z 2900/2924 25015G30KT P6SM BKN025 OVC050 TEMPO 2900/2902 5SM -SHSN BKN020 OVC040 FM290200 25015G25KT P6SM -SHSN OVC030 TEMPO 2902/2905 11/2SM -SHSN BLSN OVC010 PROB30 2902/2904 3/4SM -SHSN BLSN VV006 FM290500 31010G20KT P6SM BKN030 BKN060 TEMPO 2905/2907 2SM -SHSN OVC020 FM290800 33007KT P6SM SCT030 BKN080 FM291700 28010G20KT P6SM -SHSN BKN030 RMK NXT FCST BY 290600Z<br><br>
<br><br>
KIAG 290253Z 25020G28KT 5SM -SN FEW026 OVC046 M05/M09 A2978 RMK AO2 PK WND 26030/0204 UPB23E42SNB42 SLP103 P0000 60000 T10501094 51004<br><br>
KIAG 290153Z 25021G30KT 10SM FEW030 OVC060 M05/M10 A2978 RMK AO2 PK WND 25030/0153 SLP103 T10501100<br><br>
KIAG 282341Z 2900/2924 25020G30KT P6SM BKN050 FM290130 26015G25KT 4SM -SN BKN025 FM290300 26015G25KT 1SM -SN OVC025 TEMPO 2904/2906 1/4SM +SN BKN007 FM290800 29012KT 5SM -SN BKN025 FM291500 29014G20KT P6SM VCSH BKN035<br><br>
<br><br>
KBUF 290254Z 26018G27KT 10SM BKN050 OVC075 M04/M11 A2978 RMK AO2 PK WND 27028/0201 SLP095 T10391106 51003<br><br>
KBUF 290154Z 26017G24KT 10SM FEW035 OVC055 M04/M11 A2978 RMK AO2 PK WND 26029/0130 SLP096 T10391111<br><br>
KBUF 282341Z 2900/2924 25015G25KT 6SM -SN SCT025 BKN035 FM290330 26012G20KT 1SM -SN OVC025 TEMPO 2904/2906 1/4SM +SN BKN007 FM290800 29012KT 5SM -SN BKN025 FM291200 29010KT 6SM -SN OVC035 FM291500 28012G18KT P6SM SCT025 BKN035<br><br>
<br><br>
CYYZ 290200Z VRB05KT 6SM -SN BKN020 OVC033 M07/M09 A2977 RMK SC6SC2 /S01/ SLP092<br><br>
CYYZ 290139Z 36003KT 320V030 3SM -SN OVC018 M07/M09 A2976 RMK SC8 SLP088<br><br>
CYYZ 290109Z 02006KT 1SM R06L/3000V5500FT/N R05/6000FT/U -SN VV005 M07/M09 A2975 RMK SN8 SLP086<br><br>
TAF CYYZ 290238Z 2903/0106 31012KT P6SM BKN040 TEMPO 2903/2905 4SM -SHSN OVC020 FM290500 32010KT P6SM SCT030 BKN060 FM290800 35006KT P6SM FEW030 BKN090 FM291700 29012G22KT P6SM -SHSN BKN030 BECMG 2921/2923 31010KT FM010300 30006KT P6SM BKN030 RMK NXT FCST BY 290600Z<br><br>
<br><br>
CYOO 290220Z AUTO 29010G15KT 9SM -SN BKN060 BKN070 OVC088 M08/M11 A2976 RMK SLP086<br><br>
CYOO 290200Z AUTO 27010G15KT 9SM SCT065 BKN092 OVC140 M08/M11 A2975 RMK SLP085<br><br>
CYOO 290132Z AUTO 30011KT 9SM BKN055 OVC068 M08/M11 A2975 RMK SLP083<br><br>
TAF CYOO 290138Z 2902/2914 30010KT P6SM -SN BKN030 BKN050 TEMPO 2902/2906 4SM -SHSN BKN020 BKN040 FM290600 33012KT P6SM SCT030 BKN060 RMK FCST BASED ON AUTO OBS. NXT FCST BY 290800Z<br><br>
<br><br>
CYTR 290200Z 30009KT 15SM SCT042 OVC070 M07/M11 A2974 RMK SC4AC4 SLP078<br><br>
TAF CYTR 282330Z 2900/2924 30007KT 4SM -SHSN OVC030 TEMPO 2900/2901 6SM -SHSN BKN030 OVC080 FM290100 30008KT P6SM SCT030 BKN090 TEMPO 2901/2903 5SM -SHSN BKN030 OVC090 FM291400 29008KT P6SM BKN025 FM291800 29012KT P6SM SCT030 RMK NXT FCST BY 290600Z<br><br>
<br><br>
