RETRIEVED AT : Oct 08 2017 21:10 Local <br>
  RETRIEVED AT: Oct 09 2017 01:10 UTC<br><br>
CYSN 090100Z 18006KT 15SM OVC240 16/15 A2990 RMK CI8 LAST STFD OBS/NEXT 09 1100UTC SLP127 DENSITY ALT 600FT<br><br>
CYSN 090000Z 20006KT 15SM BKN250 17/15 A2989 RMK CI6 SLP124 DENSITY ALT 700FT<br><br>
TAF CYSN 081938Z 0820/0901 23010G20KT P6SM FEW030 BECMG 0820/0822 21010KT BECMG 0900/0901 18005KT RMK NXT FCST WILL BE ISSUED AT 091245Z<br><br>
<br><br>
CYHM 090100Z 18004KT 15SM OVC240 15/14 A2991 RMK CI8 SLP129 DENSITY ALT 1100FT<br><br>
CYHM 090000Z 20005KT 15SM BKN250 16/14 A2991 RMK CI7 SLP130 DENSITY ALT 1200FT<br><br>
TAF CYHM 082338Z 0900/0924 22010KT P6SM BKN220 BECMG 0900/0902 13005KT FM090300 14007KT P6SM BKN050 OVC160 FM090500 05012KT 4SM -RA BR BKN006 OVC020 TEMPO 0905/0907 6SM -SHRA BR OVC025 FM090700 05012KT 3/4SM RA BR VV002 FM091400 04012G22KT 2SM -RA BR OVC008 FM091700 03010KT 6SM BR OVC010 FM091900 34007KT P6SM BKN020 FM092200 24008KT P6SM SCT030 RMK NXT FCST BY 090600Z<br><br>
<br><br>
KIAG 090053Z 17003KT 10SM CLR 18/14 A2993 RMK AO2 SLP132 T01780144<br><br>
KIAG 082353Z 21005KT 10SM CLR 18/14 A2991 RMK AO2 SLP127 T01830144 10228 20183 51004<br><br>
KIAG 082338Z 0900/0924 19005KT P6SM SCT250 FM090400 VRB03KT 5SM -RA OVC090 FM090600 09004KT 2SM RA BR OVC045 FM090800 08009KT 2SM +RA BR OVC007 FM091500 03009KT 3SM RA OVC012 FM091700 34009KT P6SM OVC012<br><br>
<br><br>
KBUF 090054Z 17003KT 10SM BKN250 17/16 A2993 RMK AO2 SLP134 T01720156<br><br>
KBUF 082354Z 19005KT 10SM BKN200 17/16 A2992 RMK AO2 SLP130 T01720156 10217 20172 51001<br><br>
KBUF 082338Z 0900/0924 VRB03KT P6SM SCT250 FM090330 10004KT 5SM -RA OVC090 FM090600 08004KT 2SM RA BR OVC040 FM090700 07006KT 1 1/2SM +RA BR OVC008 FM091500 02008KT 3SM +RA OVC012 FM091700 34008KT P6SM OVC012<br><br>
<br><br>
CYYZ 090100Z 22005KT 15SM BKN250 19/14 A2990 RMK CI7 SLP125 DENSITY ALT 1200FT<br><br>
CYYZ 090000Z 23008KT 15SM BKN260 20/14 A2989 RMK CI6 SLP123 DENSITY ALT 1300FT<br><br>
TAF CYYZ 082338Z 0900/1006 22010KT P6SM SCT030 BKN240 BECMG 0900/0902 23005KT FM090500 10008KT 6SM -RA BR SCT008 OVC025 FM090700 09010KT 2SM RA BR OVC006 PROB30 0909/0914 3/4SM -RA BR OVC003 FM091400 04012KT 5SM -RA BR BKN008 OVC020 FM091700 04008KT P6SM OVC012 FM092000 33010KT P6SM BKN030 FM092300 VRB03KT P6SM FEW030 RMK NXT FCST BY 090300Z<br><br>
<br><br>
CYOO 090100Z AUTO 18004KT 140V200 9SM CLR 18/14 A2991 RMK SLP129 DENSITY ALT 800FT<br><br>
CYOO 090000Z AUTO 22004KT 9SM CLR 19/14 A2989 RMK SLP124 DENSITY ALT 1000FT<br><br>
CYOO has no TAF <br><br>
<br><br>
CYTR 090100Z 00000KT 15SM BKN250 16/15 A2991 RMK CI5 SLP130<br><br>
CYTR 090000Z 22004KT 15SM SCT250 18/15 A2991 RMK CI4 SLP129<br><br>
TAF CYTR 082330Z 0900/0924 24005KT P6SM SCT030 OVC250 FM090600 VRB03KT P6SM -SHRA SCT015 OVC030 TEMPO 0906/0908 3SM -SHRA BR SCT006 OVC015 FM090800 04008KT 3SM -SHRA BR SCT006 OVC015 TEMPO 0908/0916 1SM SHRA BR OVC006 PROB30 0908/0914 3/4SM +SHRA BR OVC003 FM091600 02012KT P6SM SCT010 OVC020 TEMPO 0916/0920 5SM -SHRA BR OVC010 FM092000 32012KT P6SM BKN020 RMK NXT FCST BY 090600Z<br><br>
<br><br>
