RETRIEVED AT : Sep 23 2017 23:10 Local <br>
  RETRIEVED AT: Sep 24 2017 03:10 UTC<br><br>
CYSN has no TAF <br><br>
<br><br>
CYHM 240300Z 23004KT 15SM SKC 19/17 A3012 RMK SLP197 DENSITY ALT 1300FT<br><br>
CYHM 240200Z 24003KT 15SM SKC 21/16 A3011 RMK SLP196 DENSITY ALT 1500FT<br><br>
TAF CYHM 232338Z 2400/2424 VRB03KT P6SM FEW160 FM241700 04007KT P6SM FEW050 BECMG 2421/2423 09005KT RMK NXT FCST BY 240600Z<br><br>
<br><br>
KIAG 240253Z 19004KT 10SM CLR 22/15 A3010 RMK AO2 SLP189 T02170150 51003<br><br>
KIAG 240153Z 20004KT 10SM CLR 22/16 A3010 RMK AO2 SLP189 T02170156<br><br>
KIAG 240234Z 2403/2424 21005KT P6SM SKC FM241000 VRB03KT 5SM BR FEW003 FM241200 VRB03KT P6SM SKC<br><br>
<br><br>
KBUF 240254Z 18005KT 10SM CLR 21/18 A3012 RMK AO2 SLP196 T02060178 51004<br><br>
KBUF 240154Z 20006KT 10SM CLR 21/16 A3012 RMK AO2 SLP195 T02110161<br><br>
KBUF 240234Z 2403/2424 VRB05KT P6SM SKC<br><br>
<br><br>
CYYZ 240300Z 32008KT 15SM SKC 25/19 A3009 RMK SLP189 DENSITY ALT 1700FT<br><br>
CYYZ 240200Z 30006KT 15SM SKC 26/19 A3008 RMK SLP186 DENSITY ALT 1900FT<br><br>
TAF CYYZ 240238Z 2403/2506 VRB03KT P6SM SKC FM241500 21008KT P6SM FEW050 BECMG 2502/2504 33005KT RMK NXT FCST BY 240600Z<br><br>
<br><br>
CYOO 240300Z AUTO 35002KT 9SM CLR 21/17 A3008 RMK SLP187 DENSITY ALT 1000FT<br><br>
CYOO 240200Z AUTO 00000KT 9SM CLR 21/17 A3008 RMK SLP186 DENSITY ALT 1100FT<br><br>
CYOO has no TAF <br><br>
<br><br>
CYTR 240300Z 00000KT 8SM SKC 20/20 A3007 RMK SLP183<br><br>
CYTR 240200Z 00000KT 10SM SKC 21/20 A3006 RMK SLP179<br><br>
TAF CYTR 232330Z 2400/2424 20005KT P6SM SKC BECMG 2400/2402 VRB03KT BECMG 2414/2416 20008KT RMK NXT FCST BY 240600Z<br><br>
<br><br>
