RETRIEVED AT : Sep 01 2018 16:05 Local <br>
  RETRIEVED AT: Sep 01 2018 20:05 UTC<br><br>
CYSN 011900Z 19012KT 15SM SCT035 BKN190 29/21 A3011 RMK CU3CI4 SLP196 DENSITY ALT 1900FT<br><br>
TAF CYSN 011938Z 0120/0201 19012KT P6SM FEW030 FM012300 VRB03KT P6SM SKC RMK NXT FCST WILL BE ISSUED AT 021245Z<br><br>
<br><br>
CYHM 011900Z 19009G15KT 15SM FEW030 BKN250 28/21 A3012 RMK CU1CI6 SLP200 DENSITY ALT 2300FT<br><br>
TAF CYHM 011743Z 0118/0218 20010G20KT P6SM SCT030 BECMG 0122/0124 20007KT FM020600 20010KT P6SM -SHRA BKN050 PROB30 0207/0209 2SM +TSRA BR BKN020 BKN050CB FM020900 23010KT P6SM SCT010 BKN030 FM021500 22010G20KT P6SM -SHRA BKN025 RMK NXT FCST BY 020000Z<br><br>
<br><br>
KIAG 011853Z 22013G17KT 10SM CLR 29/21 A3014 RMK AO2 SLP203 T02890206<br><br>
KIAG 011733Z 0118/0218 22010KT P6SM SCT040 BKN250 FM012200 18005KT P6SM BKN250 FM020300 19008KT P6SM BKN060 FM021400 22015G21KT P6SM BKN060 FM021700 22017G23KT P6SM SCT060 BKN150<br><br>
<br><br>
KBUF 011954Z 20010G17KT 10SM SCT043 BKN230 28/19 A3012 RMK AO2 SLP196 T02830194<br><br>
KBUF 011854Z 25009KT 10SM BKN042 BKN050 BKN060 BKN230 29/19 A3015 RMK AO2 SLP206 T02890189<br><br>
KBUF 011733Z 0118/0218 20010KT P6SM SCT040 BKN250 FM012200 18006KT P6SM BKN250 FM020300 19010KT P6SM BKN060 FM021400 23015G21KT P6SM BKN060 FM021700 23017G23KT P6SM SCT060 BKN150<br><br>
<br><br>
CYYZ 011900Z 16010KT 15SM FEW035 FEW160 BKN220 27/21 A3012 RMK CU1AC1CI6 CU TR SLP198 DENSITY ALT 1900FT<br><br>
TAF CYYZ 011743Z 0118/0224 18010G20KT P6SM SCT030 TEMPO 0119/0122 BKN030 BECMG 0201/0203 20008KT FM020600 22008KT P6SM -SHRA BKN040 PROB30 0207/0209 2SM +TSRA BR BKN020CB FM020900 23008KT P6SM SCT010 BKN025 FM021700 23015G25KT P6SM -SHRA BKN030 PROB30 0217/0219 VRB15G25KT 1SM +TSRA BR BKN015 OVC030CB FM021900 27010G20KT P6SM BKN040 BECMG 0222/0224 27008KT RMK NXT FCST BY 012100Z<br><br>
<br><br>
CYOO 011925Z AUTO 17007KT 130V210 7SM CLR 27/21 A3012 RMK SLP201 DENSITY ALT 1600FT<br><br>
CYOO 011919Z AUTO 18007KT 130V200 4SM HZ CLR 26/21 A3012 RMK SLP202 DENSITY ALT 1600FT<br><br>
CYOO 011918Z AUTO 17008KT 2 1/4SM HZ CLR 26/21 A3012 RMK SLP202 DENSITY ALT 1600FT<br><br>
CYOO 011912Z AUTO 18007KT 3SM HZ CLR 26/21 A3012 RMK SLP202 DENSITY ALT 1600FT<br><br>
CYOO 011909Z AUTO 17006KT 140V210 2 1/4SM HZ CLR 26/21 A3013 RMK VIS VRB 1/2-3 SLP203 DENSITY ALT 1600FT<br><br>
CYOO 011902Z AUTO 18006KT 150V230 5SM HZ CLR 27/21 A3013 RMK SLP203 DENSITY ALT 1600FT<br><br>
CYOO 011901Z AUTO 19006KT 150V230 6SM HZ CLR 27/21 A3013 RMK SLP203 DENSITY ALT 1600FT<br><br>
CYOO 011900Z AUTO 20007KT 160V230 5SM HZ CLR 27/21 A3013 RMK SLP204 DENSITY ALT 1600FT<br><br>
CYOO 011859Z AUTO 20007KT 160V230 6SM HZ CLR 27/21 A3013 RMK SLP204 DENSITY ALT 1600FT<br><br>
CYOO 011848Z AUTO 17009KT 150V240 4SM HZ CLR 27/21 A3013 RMK SLP205 DENSITY ALT 1700FT<br><br>
CYOO 011839Z AUTO 20009KT 170V230 7SM CLR 27/21 A3014 RMK SLP207 DENSITY ALT 1600FT<br><br>
CYOO 011829Z AUTO 20007KT 160V240 5SM HZ CLR 27/21 A3014 RMK SLP207 DENSITY ALT 1600FT<br><br>
CYOO has no TAF <br><br>
<br><br>
CYTR 011900Z 21005KT 15SM FEW030 FEW080 SCT240 28/22 A3015 RMK SC1AC1CI2 SLP209<br><br>
TAF CYTR 011730Z 0118/0218 20008KT P6SM FEW030 SCT080 BKN240 BECMG 0122/0124 18005KT FM020900 18005KT P6SM BKN030 OVC080 TEMPO 0209/0218 P6SM -SHRA BKN020 OVC030 BECMG 0214/0216 22010G20KT RMK NXT FCST BY 020000Z<br><br>
<br><br>
