RETRIEVED AT : Jun 08 2018 19:37 Local <br>
  RETRIEVED AT: Jun 08 2018 23:37 UTC<br><br>
CYSN 082300Z 06004KT 020V090 15SM BKN250 22/11 A3015 RMK CI6 SLP209 DENSITY ALT 1000FT<br><br>
CYSN 082200Z 03006KT 340V040 15SM FEW044 BKN250 23/11 A3016 RMK SC1CI4 SLP215 DENSITY ALT 1100FT<br><br>
TAF CYSN 081938Z 0820/0901 04006KT P6SM FEW050 SCT240 RMK NXT FCST WILL BE ISSUED AT 091245Z<br><br>
<br><br>
CYHM 082300Z 08006KT 15SM FEW140 BKN250 22/12 A3016 RMK AC1CI5 SLP215 DENSITY ALT 1600FT<br><br>
CYHM 082211Z 14007KT 15SM FEW025 FEW150 BKN250 23/10 A3017 RMK CU1AC1CI5 CU TR WND ESTD SLP218 DENSITY ALT 1600FT<br><br>
TAF CYHM 081738Z 0818/0918 05010KT P6SM FEW060 BKN250 BECMG 0822/0824 VRB03KT FM091000 04005KT P6SM BKN140 RMK NXT FCST BY 090000Z<br><br>
<br><br>
KIAG 082053Z 0821/0918 01008KT P6SM SCT045 SCT250 FM082300 05005KT P6SM SKC FM090400 VRB03KT P6SM SCT250 FM091200 06005KT P6SM BKN150<br><br>
<br><br>
KBUF 082254Z 35008KT 10SM FEW050 SCT290 24/09 A3016 RMK AO2 SLP211 T02390089<br><br>
KBUF 082154Z 35007KT 10SM FEW050 FEW290 24/10 A3016 RMK AO2 SLP212 T02440100<br><br>
KBUF 082053Z 0821/0918 VRB05KT P6SM SCT045 SCT250 FM082300 36005KT P6SM SKC FM090400 VRB03KT P6SM SCT250 FM091200 08005KT P6SM BKN150<br><br>
<br><br>
CYYZ 082300Z 15007KT 15SM FEW050 BKN250 21/11 A3015 RMK SC2CI4 SLP212 DENSITY ALT 1200FT<br><br>
CYYZ 082200Z 16007KT 15SM FEW050 SCT250 22/11 A3016 RMK CU1CI3 SLP216 DENSITY ALT 1300FT<br><br>
TAF CYYZ 082038Z 0821/0924 17007KT P6SM FEW050 SCT250 FM090000 VRB03KT P6SM FEW250 FM091600 14008KT P6SM BKN150 BECMG 0922/0924 04008KT RMK NXT FCST BY 090000Z<br><br>
<br><br>
CYOO 082300Z AUTO 19005KT 150V220 9SM CLR 21/09 A3016 RMK SLP214 DENSITY ALT 900FT<br><br>
CYOO 082200Z AUTO 18005KT 130V210 9SM CLR 21/09 A3017 RMK SLP217 DENSITY ALT 1000FT<br><br>
CYOO has no TAF <br><br>
<br><br>
CYTR 082300Z 21006KT 15SM FEW040 FEW240 19/11 A3015 RMK SC1CI2 SLP209<br><br>
CYTR 082200Z 20010KT 15SM FEW040 20/11 A3016 RMK SC2 SLP214<br><br>
TAF CYTR 081730Z 0818/0918 VRB03KT P6SM SCT040 BECMG 0818/0819 22010KT FM090100 VRB03KT P6SM SKC FM091200 VRB03KT P6SM SCT060 BKN250 BECMG 0916/0918 22010KT RMK NXT FCST BY 090000Z<br><br>
<br><br>
