RETRIEVED AT : Feb 22 2020 00:05 Local <br>
  RETRIEVED AT: Feb 22 2020 05:05 UTC<br><br>
CYSN has no TAF <br><br>
<br><br>
CYHM 220400Z 23021G27KT 15SM SKC M02/M08 A3018 RMK SLP232<br><br>
TAF CYHM 212339Z 2200/2224 23018G28KT P6SM SKC FM220400 24012G22KT P6SM SKC FM221000 24015KT P6SM BKN020 TEMPO 2210/2212 SCT020 FM221700 24012G22KT P6SM SCT025 RMK NXT FCST BY 220600Z<br><br>
<br><br>
KIAG 220453Z AUTO 24020G29KT 10SM CLR M01/M07 A3020 RMK AO2 PK WND 23033/0355 SLP242 T10061072 410061100<br><br>
KIAG 220353Z 23024G32KT 10SM CLR M01/M08 A3019 RMK AO2 PK WND 23035/0342 SLP240 T10061078<br><br>
KIAG 220315Z 2203/2224 23020G32KT P6SM SKC FM220900 24016G26KT P6SM SKC<br><br>
<br><br>
KBUF 220454Z 23022G30KT 10SM CLR 00/M09 A3021 RMK AO2 PK WND 23036/0406 SLP238 T00001089 400001083<br><br>
KBUF 220354Z 22019G29KT 10SM CLR 00/M09 A3022 RMK AO2 PK WND 23029/0353 SLP241 T00001094<br><br>
KBUF 220314Z 2203/2224 23015G25KT P6SM SKC FM221500 24020G30KT P6SM SCT250 FM222200 24015G25KT P6SM SCT250<br><br>
<br><br>
CYYZ 220400Z 22012G20KT 15SM SKC M02/M11 A3016 RMK SLP223<br><br>
TAF CYYZ 220239Z 2203/2306 20013G23KT P6SM SKC FM220600 24010G20KT P6SM SKC FM220900 24015KT P6SM BKN020 TEMPO 2209/2212 SCT020 FM221600 24012G22KT P6SM BKN025 FM222100 24010G20KT P6SM SCT030 FM230200 23010KT P6SM FEW015 RMK NXT FCST BY 220600Z<br><br>
<br><br>
CYOO 220400Z AUTO 25008G15KT 9SM CLR M02/M09 A3016 RMK SLP223<br><br>
TAF CYOO 220138Z 2202/2214 23012G22KT P6SM SKC FM220900 25010G20KT P6SM BKN025 RMK FCST BASED ON AUTO OBS. NXT FCST BY 220800Z<br><br>
<br><br>
CYTR 220400Z 25016G25KT 15SM SKC M01/M06 A3015 RMK SLP213<br><br>
TAF AMD CYTR 220350Z 2203/2224 23015G25KT P6SM SKC FM220800 26010KT P6SM BKN030 FM221400 26010G20KT P6SM BKN020 BECMG 2222/2224 26008KT SCT020 RMK NXT FCST BY 220600Z<br><br>
<br><br>
