RETRIEVED AT : Oct 26 2018 20:05 Local <br>
  RETRIEVED AT: Oct 27 2018 00:05 UTC<br><br>
CYSN 262300Z 07011KT 15SM OVC140 07/02 A2992 RMK AC8 SLP137<br><br>
TAF CYSN 261938Z 2620/2701 09012KT P6SM FEW040 SCT130 OVC250 TEMPO 2620/2622 SCT040 OVC130 FM262200 09010G20KT P6SM SCT060 BKN080 OVC130 RMK NXT FCST WILL BE ISSUED AT 271245Z<br><br>
<br><br>
CYHM 262300Z 04011KT 15SM FEW080 OVC130 06/04 A2990 RMK AC2AC6 SLP136<br><br>
TAF CYHM 262341Z 2700/2724 04010G20KT P6SM FEW080 OVC130 FM270200 06012G22KT P6SM OVC025 TEMPO 2702/2708 P6SM -RA OVC015 FM270800 06015G25KT 3SM -RA BR SCT004 OVC010 FM271000 06015G25KT 2SM -RA BR OVC004 FM271700 06015G25KT 4SM -RA BR OVC006 BECMG 2722/2724 04012G22KT RMK NXT FCST BY 270600Z<br><br>
<br><br>
KIAG 262353Z 08011KT 10SM OVC120 06/01 A2993 RMK AO2 SLP145 T00610006 10089 20061 55005<br><br>
KIAG 262253Z 09011KT 10SM OVC110 07/01 A2992 RMK AO2 SLP144 T00670006<br><br>
KIAG 262320Z 2700/2724 09011KT P6SM OVC100 FM270500 08013KT P6SM OVC070 FM270800 08011G19KT P6SM VCSH OVC045 FM271100 07012G22KT P6SM -RA OVC035 FM271400 07013G23KT 6SM -RA BR OVC015 FM271700 06015G24KT 3SM -RA BR OVC007<br><br>
<br><br>
KBUF 262354Z 08014KT 10SM FEW070 OVC130 07/01 A2992 RMK AO2 SLP138 T00670011 10089 20067 55007<br><br>
KBUF 262254Z 09010KT 10SM FEW065 BKN130 BKN160 OVC200 07/M01 A2992 RMK AO2 SLP138 T00721006<br><br>
KBUF 262320Z 2700/2724 09010KT P6SM OVC100 FM270400 09012KT P6SM OVC060 FM270700 08010G17KT P6SM VCSH OVC045 FM271000 07011G20KT P6SM -RA OVC035 FM271300 07012G21KT 6SM -RA BR OVC015 FM271600 06014G23KT 3SM -RA BR OVC007<br><br>
<br><br>
CYYZ 262300Z 09014G20KT 15SM OVC090 05/00 A2996 RMK AS8 SLP152<br><br>
TAF CYYZ 262341Z 2700/2806 09012G22KT P6SM FEW030 OVC090 TEMPO 2702/2706 P6SM -SHRA BKN030 OVC090 FM270600 07012G22KT P6SM -RA OVC015 TEMPO 2706/2709 P6SM NSW OVC025 FM271100 06012G22KT 6SM -RA BR SCT006 OVC012 PROB30 2711/2715 OVC006 FM271700 06015G25KT P6SM -RA FEW009 OVC015 FM272200 04010G20KT 4SM -RASN BR OVC008 FM280300 02010KT P6SM -SNRA OVC020 RMK NXT FCST BY 270300Z<br><br>
<br><br>
CYOO 262306Z AUTO 07010G18KT 9SM SCT021 OVC095 05/01 A3000 RMK SLP163<br><br>
CYOO 262300Z AUTO 08013G18KT 9SM BKN021 OVC100 05/01 A3000 RMK SLP164<br><br>
CYOO 262206Z AUTO 08009KT 9SM BKN021 OVC100 05/02 A3000 RMK SLP165<br><br>
CYOO has no TAF <br><br>
<br><br>
CYTR 262300Z 09005KT 15SM BKN070 OVC250 04/M02 A3006 RMK AC6CI2 SLP185<br><br>
TAF CYTR 262330Z 2700/2724 09005KT P6SM BKN080 BKN250 TEMPO 2710/2720 5SM -SHRA BR BKN010 OVC040 BECMG 2712/2714 05012G22KT FM272000 05015G25KT 4SM -RA BR OVC020 TEMPO 2720/2724 2SM -RASN BR OVC008 RMK NXT FCST BY 270600Z<br><br>
<br><br>
