RETRIEVED AT : Oct 31 2017 04:10 Local <br>
  RETRIEVED AT: Oct 31 2017 08:10 UTC<br><br>
CYSN has no TAF <br><br>
<br><br>
CYHM 310800Z 24015KT 15SM FEW090 03/M00 A2977 RMK AC2 SLP089<br><br>
CYHM 310700Z 25017G29KT 15SM BKN092 04/M00 A2975 RMK AC7 SLP082<br><br>
TAF CYHM 310540Z 3106/0106 25013G23KT P6SM BKN090 FM310800 24013G23KT P6SM BKN030 TEMPO 3108/3116 BKN020 FM311600 25018G28KT P6SM BKN040 BECMG 3120/3122 23010KT RMK NXT FCST BY 311200Z<br><br>
<br><br>
KIAG 310753Z AUTO 26012KT 10SM BKN080 06/M01 A2978 RMK AO2 SLP091 T00611011<br><br>
KIAG 310653Z 28018G26KT 10SM BKN085 06/M01 A2975 RMK AO2 PK WND 25030/0623 SLP082 T00611011<br><br>
KIAG 310539Z 3106/0106 25015KT P6SM BKN080 FM312200 26013KT P6SM FEW250 FM010100 25008KT P6SM BKN060<br><br>
<br><br>
KBUF 310754Z 26011KT 10SM FEW020 SCT040 OVC080 06/M01 A2978 RMK AO2 SLP091 T00561011<br><br>
KBUF 310654Z 25016G22KT 10SM FEW020 SCT040 OVC080 06/M01 A2977 RMK AO2 SLP086 T00561006<br><br>
KBUF 310539Z 3106/0106 25012KT P6SM BKN080 FM311000 25015KT P6SM VCSH BKN025 FM311300 25014KT 4SM RA BKN007 FM311700 25017KT P6SM BKN025 FM311900 25016KT P6SM BKN200 FM010100 25008KT P6SM VCSH OVC040<br><br>
<br><br>
CYYZ 310800Z 23013KT 15SM FEW040 SCT100 04/M00 A2974 RMK SC2AC1 SLP076<br><br>
CYYZ 310700Z 24013G19KT 15SM SCT030 BKN042 04/00 A2972 RMK SC3SC2 SLP070<br><br>
TAF CYYZ 310540Z 3106/0112 25015G25KT P6SM SCT020 BKN090 TEMPO 3106/3110 BKN020 FM311000 24013G23KT P6SM BKN025 TEMPO 3110/3115 BKN020 FM311500 26018G30KT P6SM BKN030 BECMG 3120/3122 24012G22KT FM010200 23008KT P6SM SCT030 FM010600 20008KT P6SM BKN030 OVC150 TEMPO 0106/0112 5SM -SHRASN OVC020 RMK NXT FCST BY 310900Z<br><br>
<br><br>
CYOO 310800Z AUTO 24012G20KT 9SM CLR 05/M00 A2972 RMK SLP068<br><br>
CYOO 310700Z AUTO 25010G21KT 9SM CLR 05/M00 A2970 RMK SLP063<br><br>
CYOO has no TAF <br><br>
<br><br>
CYTR 310800Z 25013G25KT 15SM FEW026 FEW120 06/06 A2971 RMK SC1AC1 SLP064<br><br>
CYTR 310700Z 25016G25KT 15SM FEW026 BKN120 07/03 A2969 RMK SC2AC4 SLP056<br><br>
TAF CYTR 310530Z 3106/0106 25015G25KT P6SM FEW030 BKN120 TEMPO 3106/3107 P6SM -SHRA BKN030 FM311300 25022G32KT P6SM SCT030 FM010000 26008KT P6SM SCT040 BECMG 0101/0103 VRB03KT RMK NXT FCST BY 311200Z<br><br>
<br><br>
