RETRIEVED AT : Mar 09 2020 00:05 Local <br>
  RETRIEVED AT: Mar 09 2020 04:05 UTC<br><br>
CYSN has no TAF <br><br>
<br><br>
CYHM 090300Z 21009KT 15SM BKN140 06/M02 A3017 RMK AC7 SLP224<br><br>
TAF CYHM 082339Z 0900/0924 22012KT P6SM FEW180 BKN250 FM090200 23015KT P6SM SCT150 BKN250 FM091500 23018G30KT P6SM BKN260 FM092300 23015G25KT P6SM BKN090 BKN230 RMK NXT FCST BY 090600Z<br><br>
<br><br>
KIAG 090353Z AUTO 21014KT 10SM CLR 08/M03 A3018 RMK AO2 SLP228 T00781028<br><br>
KIAG 090253Z 21013KT 10SM CLR 07/M03 A3018 RMK AO2 SLP230 T00671033 57005<br><br>
KIAG 090230Z 0902/0924 22010KT P6SM SCT150 BKN250 WS015/23045KT FM090700 22010KT P6SM SCT250 FM091500 22017G29KT P6SM FEW250 FM091700 23020G37KT P6SM FEW250<br><br>
<br><br>
KBUF 090354Z 21012KT 10SM BKN160 09/M04 A3019 RMK AO2 SLP227 T00941044<br><br>
KBUF 090254Z 22008KT 10SM BKN160 07/M03 A3020 RMK AO2 SLP231 T00721033 56007<br><br>
KBUF 090230Z 0902/0924 22010KT P6SM SCT150 BKN250 WS015/23045KT FM090700 22010KT P6SM SCT250 FM091600 23018G28KT P6SM FEW250 FM092300 23013KT P6SM BKN200<br><br>
<br><br>
CYYZ 090300Z 21011G18KT 15SM SCT160 10/M03 A3013 RMK AC4 SLP209<br><br>
TAF CYYZ 090238Z 0903/1006 23010G20KT P6SM SCT120 BKN250 BECMG 0909/0911 23012KT FM091500 22015G25KT P6SM BKN250 FM092200 22015G25KT P6SM BKN100 BKN230 FM100300 23015G25KT P6SM -RA OVC040 RMK NXT FCST BY 090600Z<br><br>
<br><br>
CYOO 090300Z AUTO 19006KT 9SM BKN150 OVC170 07/M01 A3014 RMK SLP211<br><br>
TAF CYOO 090138Z 0902/0914 VRB03KT P6SM SCT130 BKN230 BECMG 0905/0907 24008KT FM091200 23010KT P6SM SCT080 RMK FCST BASED ON AUTO OBS. NXT FCST BY 090800Z<br><br>
<br><br>
CYTR 090300Z 21006KT 15SM BKN140 BKN240 05/M01 A3015 RMK AC5CI2 SLP215<br><br>
TAF CYTR 082330Z 0900/0924 22010KT P6SM BKN150 BKN250 FM090900 24015KT P6SM BKN080 BKN250 BECMG 0914/0916 24015G25KT FM091800 24015G25KT P6SM SCT080 BKN250 BECMG 0921/0923 25010G20KT BKN060 BKN180 RMK NXT FCST BY 090600Z<br><br>
<br><br>
