RETRIEVED AT : May 24 2020 08:05 Local <br>
  RETRIEVED AT: May 24 2020 12:05 UTC<br><br>
CYSN 241100Z 30003KT 15SM SCT090 BKN250 16/16 A3006 RMK AC3CI2 VIS LWR E SLP181<br><br>
CYSN has no TAF <br><br>
<br><br>
CYHM 241100Z 04004KT 8SM FEW020 FEW100 FEW250 15/14 A3008 RMK SC1AC1CI1 SC TR SLP187 DENSITY ALT 800FT<br><br>
TAF CYHM 241138Z 2412/2512 04005KT P6SM FEW020 SCT100 TEMPO 2412/2413 11/2SM BR FM241500 18012KT P6SM SCT050 FM241800 19012KT P6SM -SHRA BKN060 PROB30 2420/2424 2SM TSRA BKN050CB FM250000 21008KT P6SM FEW070 RMK NXT FCST BY 241800Z<br><br>
<br><br>
KIAG 241153Z 20004KT 10SM BKN100 19/17 A3009 RMK AO2 SLP186 60002 70003 T01940172 10194 20161 53015<br><br>
KIAG 241053Z 16004KT 10SM BKN100 BKN120 18/17 A3007 RMK AO2 SLP181 T01780167<br><br>
KIAG 241127Z 2412/2512 16006KT P6SM BKN090 FM250300 19010G16KT P6SM BKN100 FM250400 19011G17KT P6SM VCSH BKN080 FM250600 19013KT P6SM VCSH BKN045 FM250700 19013KT P6SM BKN060<br><br>
<br><br>
KBUF 241154Z 17008KT 10SM BKN085 BKN110 BKN290 19/17 A3010 RMK AO2 SLP190 60000 70002 T01940167 10194 20178 53013<br><br>
KBUF 241054Z 16006KT 10SM BKN085 BKN110 BKN290 19/16 A3009 RMK AO2 SLP185 SHRA VC N T01890161<br><br>
KBUF 241127Z 2412/2512 16008KT P6SM BKN090 FM241500 20008KT P6SM SCT200 FM250000 17010KT P6SM SCT250 FM250400 19011KT P6SM VCSH BKN045<br><br>
<br><br>
CYYZ 241100Z 10003KT 15SM FEW025 SCT240 16/09 A3008 RMK SC2CI2 SLP186 DENSITY ALT 700FT<br><br>
TAF CYYZ 241138Z 2412/2518 VRB03KT P6SM SCT025 SCT240 FM241500 16008KT P6SM SCT050 FM242000 15012KT P6SM -SHRA BKN050 FM250000 VRB03KT P6SM SCT020 OVC040 TEMPO 2500/2505 5SM -SHRA BR OVC020 PROB30 2500/2505 11/2SM TSRA BR OVC015CB FM250600 VRB03KT P6SM FEW040 BECMG 2507/2509 24006KT FM251500 26008KT P6SM SKC BECMG 2516/2518 27012KT RMK NXT FCST BY 241500Z<br><br>
<br><br>
CYOO 241100Z AUTO 09007KT 9SM OVC090 17/06 A3008 RMK SLP188 DENSITY ALT 500FT<br><br>
TAF CYOO 240738Z 2408/2420 09006KT P6SM OVC090 FM241200 11008KT P6SM SCT015 OVC040 TEMPO 2412/2415 5SM -SHRA BR BKN015 OVC030 FM241500 16008KT P6SM SCT025 FM241800 14012KT P6SM SCT050 BKN180 RMK FCST BASED ON AUTO OBS. NXT FCST BY 241400Z<br><br>
<br><br>
CYTR 241100Z 00000KT 15SM FEW120 BKN250 15/09 A3013 RMK AC2CI4 SLP204<br><br>
TAF CYTR 241130Z 2412/2512 VRB03KT P6SM FEW120 BKN250 FM241300 15008KT P6SM BKN110 OVC250 FM241900 15010KT P6SM FEW030 SCT090 FM250100 19008KT P6SM -SHRA FEW020 BKN040 OVC060 PROB30 2501/2505 VRB15G25KT 2SM TSRA BR SCT020 OVC030CB FM250500 20005KT 3SM -SHRA BR SCT005 OVC010 RMK NXT FCST BY 241800Z<br><br>
<br><br>
