RETRIEVED AT : Jul 03 2020 22:05 Local <br>
  RETRIEVED AT: Jul 04 2020 02:05 UTC<br><br>
CYSN 040100Z 30006KT 15SM SCT060 28/20 A2990 RMK SC3 LAST STFD OBS/NEXT 041100Z SLP123 DENSITY ALT 2000FT<br><br>
CYSN has no TAF <br><br>
<br><br>
CYHM 040100Z 33005KT 15SM FEW030CB 26/18 A2993 RMK CB1 DIST CB W SLP133 DENSITY ALT 2300FT<br><br>
TAF CYHM 032338Z 0400/0424 32010KT P6SM FEW050 BECMG 0414/0416 04005KT BECMG 0420/0422 VRB03KT RMK NXT FCST BY 040600Z<br><br>
<br><br>
KIAG 040153Z 36005KT 10SM FEW046 BKN055 BKN095 27/19 A2994 RMK AO2 LTG DSNT SE SLP130 T02670189<br><br>
KIAG 040053Z 31009KT 10SM BKN055 BKN095 28/18 A2990 RMK AO2 LTG DSNT NE AND E SLP119 T02780178<br><br>
KIAG 032323Z 0400/0424 34006KT P6SM SCT100 FM040300 VRB04KT P6SM FEW100 FM041400 02006KT P6SM SCT250<br><br>
<br><br>
KBUF 040154Z 08009KT 10SM TS BKN050CB BKN090 BKN180 27/19 A2995 RMK AO2 TSB22 SLP137 OCNL LTGICCG E TS E MOV S T02670194<br><br>
KBUF 040123Z 23006KT 10SM TS FEW050CB BKN100 BKN160 27/19 A2993 RMK AO2 LTG DSNT NE AND E TSB22 OCNL LTGICCG VC NE TS VC NE MOV S T02670194<br><br>
KBUF 040054Z 22007KT 10SM FEW050 FEW090 27/19 A2991 RMK AO2 LTG DSNT N AND NE SLP124 CB DSNT NE MOV S T02720189<br><br>
KBUF 040130Z 0402/0424 23008KT P6SM VCTS SCT050CB BKN100 FM040230 VRB04KT P6SM SCT250 FM041400 36006KT P6SM FEW050 SCT250<br><br>
<br><br>
CYYZ 040100Z 35013G18KT 15SM FEW050 FEW260 27/18 A2992 RMK CU1CI1 CI TR SLP130 DENSITY ALT 2200FT<br><br>
TAF CYYZ 032338Z 0400/0506 35012KT P6SM FEW050 FM041600 36007KT P6SM SKC RMK NXT FCST BY 040300Z<br><br>
<br><br>
CYOO 040100Z AUTO 34008KT 9SM BKN100 27/19 A2990 RMK SLP124 DENSITY ALT 1900FT<br><br>
TAF CYOO 040139Z 0402/0414 34008KT P6SM FEW080 RMK FCST BASED ON AUTO OBS. NXT FCST BY 040800Z<br><br>
<br><br>
CYTR 040150Z 15002KT 15SM FEW030 SCT130 24/21 A2990 RMK CU2AC2 LAST STFD OBS/NEXT 041000 UTC SLP124<br><br>
CYTR 040100Z 17003KT 15SM FEW030 FEW110 BKN250 25/21 A2989 RMK CU1AC1CI3 SLP121<br><br>
TAF CYTR 032330Z 0400/0424 VRB03KT P6SM FEW030 SCT100 TEMPO 0400/0402 P6SM -SHRA BKN030 OVC100 FM040200 VRB03KT P6SM BKN060 FM040700 01005KT P6SM FEW060 BECMG 0417/0419 20008KT RMK FCST BASED ON AUTO OBS 040200-041000Z. NXT FCST BY 040600Z<br><br>
<br><br>
