RETRIEVED AT : Jul 06 2020 07:05 Local <br>
  RETRIEVED AT: Jul 06 2020 11:05 UTC<br><br>
CYSN has no TAF <br><br>
<br><br>
CYHM 061000Z 06007KT 15SM FEW060 FEW250 19/17 A3000 RMK SC1CI1 SC TR CI TR SLP157 DENSITY ALT 1300FT<br><br>
TAF CYHM 060539Z 0606/0706 06005KT P6SM SCT240 FM061700 07007KT P6SM SCT070 FM070300 15005KT P6SM FEW060 RMK NXT FCST BY 061200Z<br><br>
<br><br>
KIAG 061053Z 00000KT 10SM CLR 19/16 A3001 RMK AO2 SLP157 T01890156<br><br>
KIAG 060953Z AUTO 06004KT 10SM CLR 17/14 A3000 RMK AO2 SLP152 T01720144<br><br>
KIAG 060906Z 0609/0706 VRB03KT P6SM SCT250 FM061500 07005KT P6SM SCT150 FM061800 06009KT P6SM SCT200 FM070200 12004KT P6SM SCT250<br><br>
<br><br>
KBUF 061054Z 10004KT 10SM FEW100 FEW250 21/14 A3002 RMK AO2 SLP160 T02060144<br><br>
KBUF 060954Z 09003KT 10SM FEW250 21/14 A3000 RMK AO2 SLP155 T02060139<br><br>
KBUF 060906Z 0609/0706 12004KT P6SM SCT250 FM061500 06005KT P6SM SCT150 FM061800 07008KT P6SM SCT200 FM070200 13004KT P6SM SCT250<br><br>
<br><br>
CYYZ 061000Z 05003KT 15SM SCT081 22/17 A3001 RMK AC3 SLP159 DENSITY ALT 1500FT<br><br>
TAF CYYZ 060838Z 0609/0712 02005KT P6SM SCT180 FM061600 13010KT P6SM FEW070 BECMG 0700/0702 04005KT RMK NXT FCST BY 061200Z<br><br>
<br><br>
CYOO 061000Z AUTO 09005KT 9SM CLR 22/16 A3001 RMK SLP161 DENSITY ALT 1200FT<br><br>
TAF CYOO 060738Z 0608/0620 VRB03KT P6SM BKN170 FM061200 10010KT P6SM FEW100 RMK FCST BASED ON AUTO OBS. NXT FCST BY 061400Z<br><br>
<br><br>
CYTR 061000Z 04004KT 15SM BKN150 19/17 A3002 RMK AC6 FST STFD OBS SLP166<br><br>
TAF CYTR 060530Z 0606/0706 03005KT P6SM SCT100 BECMG 0615/0617 20008KT FM061700 20008KT P6SM SCT040 TEMPO 0620/0624 BKN040 BECMG 0700/0702 VRB03KT RMK FCST BASED ON AUTO OBS 060600-061000Z. NXT FCST BY 061200Z<br><br>
<br><br>
