RETRIEVED AT : Oct 14 2017 20:10 Local <br>
  RETRIEVED AT: Oct 15 2017 00:10 UTC<br><br>
CYSN 150000Z 09004KT 10SM -RA OVC041 16/15 A3011 RMK SC8 PRESFR SLP199<br><br>
CYSN 142300Z 06003KT 10SM -RA OVC070 16/15 A3012 RMK AC8 SLP201<br><br>
TAF CYSN 141939Z 1420/1501 34005KT 5SM -SHRA BR BKN015 OVC030 TEMPO 1420/1501 P6SM NSW SCT015 BKN040 OVC120 BECMG 1421/1423 07008KT RMK NXT FCST WILL BE ISSUED AT 151245Z<br><br>
<br><br>
CYHM 150000Z 11004KT 1 1/4SM -RA BR SCT003 BKN047 OVC089 15/15 A3011 RMK FG2SF1SC2AC3 SLP198 DENSITY ALT 800FT<br><br>
CYHM 142349Z 10004KT 1 1/4SM -RA BR SCT003 BKN047 OVC089 15/15 A3011 RMK FG2SF1SC3AC2 SLP201 DENSITY ALT 800FT<br><br>
CYHM 142300Z 02005KT 1 1/2SM -RA BR OVC050 15/15 A3013 RMK FG2SC6 SLP208 DENSITY ALT 800FT<br><br>
CYHM 142230Z 04007KT 1 3/4SM -RA BR OVC061 15/15 A3013 RMK FG1SC7 SLP205 DENSITY ALT 800FT<br><br>
TAF CYHM 142338Z 1500/1524 05005KT 11/2SM -SHRA BR FEW015 OVC050 TEMPO 1500/1505 6SM BR BKN050 OVC120 FM150500 12005KT P6SM BKN090 OVC200 BECMG 1507/1509 19008KT FM151100 21015G25KT P6SM BKN020 BECMG 1513/1515 21020G35KT FM151800 22025G40KT P6SM -SHRA OVC025 PROB30 1518/1521 VRB30G50KT 2SM +TSRA BR OVC020CB FM152100 24020G35KT P6SM BKN025 RMK NXT FCST BY 150600Z<br><br>
<br><br>
KIAG 142353Z 04004KT 8SM SCT046 OVC065 17/14 A3013 RMK AO2 SLP205 60000 T01720139 10222 20172 55001<br><br>
KIAG 142253Z 07007KT 8SM OVC065 17/14 A3012 RMK AO2 RAE2157 SLP201 P0000 T01720139<br><br>
KIAG 142338Z 1500/1524 07007KT P6SM VCSH OVC060 FM150400 10008KT P6SM BKN060 WS020/19035KT FM151300 21019G28KT P6SM BKN025 FM151900 23026G44KT 4SM SHRA OVC025 FM152100 24026G47KT 5SM SHRA OVC015 FM152300 25024G44KT P6SM SCT025<br><br>
<br><br>
KBUF 142354Z 05006KT 10SM BKN070 OVC090 17/15 A3012 RMK AO2 SLP200 T01720150 10222 20172 55002<br><br>
KBUF 142254Z 03008KT 10SM BKN070 BKN130 OVC220 18/16 A3012 RMK AO2 SLP199 T01780156<br><br>
KBUF 142338Z 1500/1524 04008KT P6SM VCSH BKN060 FM150200 08007KT P6SM BKN060 FM150700 17010KT P6SM SCT080 WS020/21035KT FM151100 20016G23KT P6SM BKN100 FM151400 21023G36KT P6SM BKN035 FM151900 22024G40KT P6SM VCSH OVC025 FM152000 23026G47KT 4SM SHRA OVC015 FM152300 25026G45KT P6SM SCT015<br><br>
<br><br>
CYYZ 150000Z 13007KT 5SM -RA BR OVC005 16/15 A3010 RMK NS8 SLP196 DENSITY ALT 600FT<br><br>
CYYZ 142349Z 14006KT 5SM -RA BR SCT006 OVC045 16/15 A3011 RMK SF3SC5 SLP199 DENSITY ALT 600FT<br><br>
CYYZ 142307Z 15003KT 5SM -RA BR FEW025 OVC056 16/15 A3013 RMK CF1SC7 SLP206 DENSITY ALT 600FT<br><br>
CYYZ 142300Z 16003KT 5SM RA BR FEW025 OVC058 16/15 A3013 RMK CF1SC7 SLP205 DENSITY ALT 600FT<br><br>
TAF CYYZ 142338Z 1500/1606 15005KT 6SM -RA BR BKN025 OVC050 TEMPO 1500/1505 21/2SM -RA BR SCT008 OVC025 PROB30 1501/1505 2SM -RA -DZ BR BKN003 OVC008 FM150500 10005KT P6SM SCT005 BKN070 OVC120 TEMPO 1505/1507 5SM -RA -DZ BR BKN004 OVC070 FM150800 15005KT 6SM BR BKN040 OVC100 FM151100 19010KT WS005/21030KT P6SM BKN015 OVC025 FM151400 22020G35KT P6SM OVC020 FM151800 22025G40KT P6SM -SHRA OVC025 PROB30 1518/1521 VRB30G50KT 2SM +TSRA BR OVC020CB FM152100 25025G40KT P6SM BKN025 BECMG 1601/1603 29018G28KT RMK NXT FCST BY 150300Z<br><br>
<br><br>
CYOO 150000Z AUTO 13002KT 1 3/4SM -RA BR FEW031 SCT039 BKN048 OVC082 16/15 A3012 RMK PCPN 2.2MM PAST HR SLP203<br><br>
CYOO 142307Z AUTO 00000KT 2 1/4SM -RA BR FEW040 BKN073 OVC087 16/15 A3013 RMK SLP206<br><br>
CYOO 142300Z AUTO VRB02KT 3SM -RA BR SCT040 BKN065 BKN077 OVC088 16/15 A3013 RMK SLP206<br><br>
CYOO 142245Z AUTO 00000KT 5SM -RA BR BKN065 OVC087 17/15 A3013 RMK SLP205 DENSITY ALT 500FT<br><br>
CYOO 142235Z AUTO 18002KT 7SM -RA OVC065 17/15 A3013 RMK SLP205 DENSITY ALT 500FT<br><br>
CYOO has no TAF <br><br>
<br><br>
CYTR 150000Z 00000KT 5SM -RA BR BKN030 OVC075 16/16 A3014 RMK SC5AC3 -RA INTMT SLP209<br><br>
CYTR 142300Z 00000KT 5SM -RA BR OVC030 16/15 A3014 RMK SC8 PCPN VRY LGT SLP208<br><br>
CYTR 142252Z 00000KT 5SM -RA BR OVC030 16/15 A3014 RMK SC8 SLP207<br><br>
CYTR 142241Z 00000KT 5SM BR OVC030 16/15 A3014 RMK SC8 SLP207<br><br>
TAF CYTR 142330Z 1500/1524 VRB03KT P6SM SCT020 OVC030 TEMPO 1500/1502 5SM -RA BR OVC020 FM150200 12008KT P6SM -RA SCT010 OVC025 TEMPO 1502/1506 3SM -RA BR OVC010 FM150600 12010KT P6SM SCT020 OVC030 TEMPO 1506/1518 5SM -SHRA BR OVC020 BECMG 1509/1511 22018G28KT FM151800 24020G32KT P6SM SCT010 OVC025 TEMPO 1518/1524 3SM -SHRA BR OVC010 RMK NXT FCST BY 150600Z<br><br>
<br><br>
