RETRIEVED AT : Sep 23 2017 16:10 Local <br>
  RETRIEVED AT: Sep 23 2017 20:10 UTC<br><br>
CYSN 232000Z 25007KT 15SM FEW150 31/18 A3007 RMK AC1 SLP184 DENSITY ALT 2100FT<br><br>
CYSN 231900Z 29006KT 15SM FEW250 31/18 A3009 RMK CI2 SLP191 DENSITY ALT 2100FT<br><br>
TAF CYSN 231946Z 2320/2401 29007KT P6SM FEW160 BECMG 2323/2401 24005KT RMK NXT FCST WILL BE ISSUED AT 241245Z<br><br>
<br><br>
CYHM 232000Z 29005KT 240V310 15SM FEW160 FEW250 31/18 A3011 RMK AC1CI1 SLP194 DENSITY ALT 2600FT<br><br>
CYHM 231900Z 29005KT 240V320 15SM FEW160 SCT250 30/19 A3013 RMK AC2CI1 SLP200 DENSITY ALT 2500FT<br><br>
TAF CYHM 231740Z 2318/2418 27005KT P6SM FEW070 FM241600 04007KT P6SM FEW050 RMK NXT FCST BY 240000Z<br><br>
<br><br>
KIAG 231953Z 34008KT 7SM CLR 32/18 A3010 RMK AO2 SLP186 T03170178<br><br>
KIAG 231853Z 31004KT 9SM CLR 32/17 A3011 RMK AO2 SLP192 T03170167<br><br>
KIAG 231736Z 2318/2418 25008KT P6SM SKC FM240000 VRB03KT P6SM SKC FM240700 VRB03KT 3SM BR VCFG SKC FM241200 VRB03KT P6SM SKC<br><br>
<br><br>
KBUF 231954Z 22008KT 10SM FEW250 28/17 A3012 RMK AO2 SLP195 T02830167<br><br>
KBUF 231854Z 20008KT 10SM FEW250 28/18 A3013 RMK AO2 SLP200 T02830178<br><br>
KBUF 231736Z 2318/2418 25008KT P6SM SKC FM240200 21004KT P6SM SKC FM240500 VRB03KT P6SM SKC<br><br>
<br><br>
CYYZ 232000Z 32006KT 290V360 15SM FEW060 FEW140 33/18 A3007 RMK CU1AC1 CU TR AC TR SLP183 DENSITY ALT 2600FT<br><br>
CYYZ 231900Z 31006KT 270V340 15SM FEW140 33/17 A3009 RMK AC1 SLP189 DENSITY ALT 2500FT<br><br>
TAF CYYZ 231740Z 2318/2424 27005KT P6SM FEW050 SCT140 FM240000 33006KT P6SM SKC FM241500 21008KT P6SM FEW050 RMK NXT FCST BY 232100Z<br><br>
<br><br>
CYOO 232000Z AUTO 21006KT 160V220 9SM CLR 29/16 A3008 RMK SLP186 DENSITY ALT 1900FT<br><br>
CYOO 231900Z AUTO 18008KT 9SM FEW130 28/16 A3009 RMK SLP189 DENSITY ALT 1900FT<br><br>
CYOO has no TAF <br><br>
<br><br>
CYTR 232000Z 20009KT 15SM FEW140 28/21 A3005 RMK AC2 SLP175<br><br>
CYTR 231900Z 20009KT 15SM FEW140 27/21 A3006 RMK AC1 SLP180<br><br>
TAF CYTR 231730Z 2318/2418 20008KT P6SM SKC BECMG 2400/2402 VRB03KT BECMG 2414/2416 20008KT RMK NXT FCST BY 240000Z<br><br>
<br><br>
