RETRIEVED AT : Mar 27 2020 09:05 Local <br>
  RETRIEVED AT: Mar 27 2020 13:05 UTC<br><br>
CYSN 271233Z 02007KT 15SM OVC013 03/01 A2999 RMK SC8 SLP161<br><br>
CYSN 271200Z 01005KT 15SM OVC018 04/01 A2998 RMK SC8 PRESRR SLP156<br><br>
TAF CYSN 271238Z 2713/2801 03007KT P6SM OVC015 BECMG 2715/2717 FEW015 FM271800 01008KT P6SM FEW025 BECMG 2723/2724 07005KT RMK NXT FCST BY 272000Z<br><br>
<br><br>
CYHM 271200Z 01006KT 15SM OVC013 02/M00 A2997 RMK SC8 PRESRR SLP158<br><br>
TAF CYHM 271138Z 2712/2812 03010KT P6SM OVC012 TEMPO 2712/2715 OVC008 FM271500 06008KT P6SM BKN015 BECMG 2715/2717 FEW015 FM280600 04010KT P6SM BKN200 FM281100 05012KT P6SM BKN130 OVC200 RMK NXT FCST BY 271800Z<br><br>
<br><br>
KIAG 271253Z 02006KT 10SM OVC014 03/00 A2999 RMK AO2 SLP164 T00330000<br><br>
KIAG 271153Z 06007KT 10SM OVC014 03/00 A2995 RMK AO2 PRESRR SLP152 T00280000 10039 20028 53019<br><br>
KIAG 271120Z 2712/2812 03007KT P6SM OVC014 FM271600 35004KT P6SM BKN025 FM271900 VRB03KT P6SM SCT060 FM280200 08005KT P6SM FEW250 FM280900 09007KT P6SM BKN150<br><br>
<br><br>
KBUF 271254Z 05004KT 10SM OVC013 04/00 A2999 RMK AO2 SLP160 T00390000<br><br>
KBUF 271154Z 03009KT 10SM OVC013 04/00 A2993 RMK AO2 SLP141 70002 T00390000 10050 20039 53015<br><br>
KBUF 271122Z 04007KT 10SM OVC015 04/00 A2992 RMK AO2 T00390000<br><br>
KBUF 271120Z 2712/2812 05003KT P6SM OVC013 FM271600 35004KT P6SM OVC020 FM271900 VRB03KT P6SM BKN035 FM272100 00000KT P6SM SCT060 FM280200 08005KT P6SM FEW250 FM280500 11005KT P6SM SCT250<br><br>
<br><br>
CYYZ 271200Z 01005KT 15SM OVC012 02/M00 A2998 RMK SC8 SLP159<br><br>
TAF CYYZ 271138Z 2712/2818 05010KT P6SM OVC012 FM271500 05008KT P6SM SCT015 BECMG 2716/2718 15008KT FM271800 15008KT P6SM FEW025 BECMG 2800/2802 02007KT FM280800 06008KT P6SM BKN180 FM281200 08012KT P6SM BKN140 BKN180 FM281700 08015KT P6SM SCT030 BKN080 OVC140 RMK NXT FCST BY 271500Z<br><br>
<br><br>
CYOO 271200Z AUTO 34007KT 300V360 9SM CLR 01/M00 A2997 RMK SLP155<br><br>
TAF CYOO 270738Z 2708/2720 36008KT P6SM FEW012 BKN190 FM271400 VRB03KT P6SM FEW015 BECMG 2716/2718 18008KT FEW025 RMK FCST BASED ON AUTO OBS. NXT FCST BY 271400Z<br><br>
<br><br>
CYTR 271208Z 36005KT 15SM BKN010 00/M01 A2998 RMK SC6 SLP155<br><br>
CYTR 271200Z 36004KT 15SM FEW015 FEW210 M00/M01 A2997 RMK SC1CI2 SLP153<br><br>
TAF CYTR 271130Z 2712/2812 VRB03KT P6SM FEW010 SCT160 TEMPO 2712/2715 BKN010 PROB30 2712/2715 BKN008 FM271500 VRB03KT P6SM SCT020 BKN130 FM271900 22005KT P6SM FEW020 BECMG 2722/2724 VRB03KT FM280800 VRB03KT P6SM SCT180 PROB30 2808/2812 2SM BR RMK NXT FCST BY 271800Z<br><br>
<br><br>
