RETRIEVED AT : Jul 06 2020 01:05 Local <br>
  RETRIEVED AT: Jul 06 2020 05:05 UTC<br><br>
CYSN has no TAF <br><br>
<br><br>
CYHM 060400Z 06005KT 15SM FEW100 BKN230 23/13 A3000 RMK AC2CI4 SLP154 DENSITY ALT 1900FT<br><br>
TAF CYHM 052341Z 0600/0624 VRB03KT P6SM BKN250 FM061400 04012KT P6SM SCT100 BKN250 RMK NXT FCST BY 060600Z<br><br>
<br><br>
KIAG 060453Z AUTO 00000KT 10SM CLR 21/14 A2999 RMK AO2 SLP150 T02110139 403220156<br><br>
KIAG 060353Z AUTO 00000KT 10SM CLR 22/13 A2999 RMK AO2 SLP148 T02170133<br><br>
KIAG 060244Z 0603/0624 VRB04KT P6SM SCT250 FM061500 05006KT P6SM SCT200 FM061700 06005KT P6SM FEW050<br><br>
<br><br>
KBUF 060454Z 15005KT 10SM FEW250 23/14 A3001 RMK AO2 SLP156 T02330139 403280172<br><br>
KBUF 060354Z 00000KT 10SM FEW250 24/14 A3000 RMK AO2 SLP155 T02440139<br><br>
KBUF 060244Z 0603/0624 VRB04KT P6SM SCT250 FM061500 06004KT P6SM SCT120 FM061900 03006KT P6SM SCT050<br><br>
<br><br>
CYYZ 060400Z 06003KT 15SM FEW210 BKN240 26/16 A2998 RMK CI1CI4 SLP152 DENSITY ALT 1900FT<br><br>
TAF CYYZ 060238Z 0603/0706 05007KT P6SM SCT240 FM061600 13010KT P6SM FEW070 BECMG 0700/0702 04005KT RMK NXT FCST BY 060600Z<br><br>
<br><br>
CYOO 060400Z AUTO 02004KT 9SM SCT220 22/17 A2998 RMK SLP151 DENSITY ALT 1200FT<br><br>
TAF CYOO 060138Z 0602/0614 34007KT P6SM SCT240 BECMG 0605/0607 02007KT FM061200 10012KT P6SM FEW100 RMK FCST BASED ON AUTO OBS. NXT FCST BY 060800Z<br><br>
<br><br>
CYTR 060400Z AUTO 05005KT 9SM CLR 22/17 A2998 RMK SLP152<br><br>
TAF CYTR 052330Z 0600/0624 30008KT P6SM FEW060 BKN250 TEMPO 0600/0605 6SM -SHRA BR BKN030 OVC120 FM060500 VRB03KT P6SM SCT100 FM061600 21008KT P6SM SCT040 RMK FCST BASED ON AUTO OBS 060200-061000Z. NXT FCST BY 060600Z<br><br>
<br><br>
