RETRIEVED AT : Oct 15 2017 05:10 Local <br>
  RETRIEVED AT: Oct 15 2017 09:10 UTC<br><br>
CYSN has no TAF <br><br>
<br><br>
CYHM 150900Z 20008KT 15SM FEW060 SCT085 BKN130 17/15 A2980 RMK SC2AC1AC2 SLP091 DENSITY ALT 1400FT<br><br>
CYHM 150800Z 17007KT 15SM FEW037 OVC058 16/15 A2983 RMK SC1SC7 PRESFR SLP103 DENSITY ALT 1200FT<br><br>
TAF AMD CYHM 150607Z 1506/1606 08006KT 11/2SM BR BKN003 OVC070 TEMPO 1506/1508 6SM BR SCT003 BKN070 FM150800 19010KT 6SM BR SCT090 BKN200 TEMPO 1508/1511 2SM BR FM151100 21015KT WS005/22035KT P6SM SCT008 BKN025 TEMPO 1511/1518 5SM -DZ -RA BR BKN008 OVC020 BECMG 1513/1515 22020G35KT FM151800 23025G40KT P6SM -SHRA OVC025 PROB30 1518/1521 VRB30G50KT 2SM +TSRA BR OVC020CB FM152100 24020G35KT P6SM BKN025 BECMG 1523/1524 29018G30KT BECMG 1603/1604 31012KT RMK NXT FCST BY 151200Z<br><br>
<br><br>
KIAG 150853Z AUTO 18009KT 10SM SCT039 BKN060 OVC080 19/14 A2983 RMK AO2 SLP099 T01940144 56042<br><br>
KIAG 150753Z AUTO 18008KT 10SM FEW100 SCT120 18/14 A2986 RMK AO2 SLP110 T01830144<br><br>
KIAG 150905Z 1509/1606 19010KT P6SM BKN060 WS020/22050KT FM151400 21020G31KT P6SM BKN060 FM151800 21024G35KT P6SM BKN050 FM152000 23026G42KT 3SM SHRA OVC015 FM152200 26024G38KT P6SM BKN040 FM160200 29018G28KT P6SM BKN025<br><br>
<br><br>
