RETRIEVED AT : Sep 02 2017 01:10 Local <br>
  RETRIEVED AT: Sep 02 2017 05:10 UTC<br><br>
CYSN has no TAF <br><br>
<br><br>
CYHM 020500Z 06003KT 15SM FEW130 BKN250 09/05 A3021 RMK AC1CI4 SLP235<br><br>
CYHM 020400Z 14004KT 15SM FEW140 BKN250 11/05 A3021 RMK AC1CI4 SLP233<br><br>
TAF CYHM 012339Z 0200/0224 06007KT P6SM BKN240 BECMG 0213/0215 11015KT FM022000 12015KT P6SM -SHRA BKN025 OVC140 FM022300 13010KT 6SM -RA BR OVC010 RMK NXT FCST BY 020600Z<br><br>
<br><br>
KIAG 020453Z AUTO 00000KT 10SM CLR 09/05 A3021 RMK AO2 SLP234 T00940050 401720083<br><br>
KIAG 020353Z AUTO 00000KT 10SM CLR 09/05 A3021 RMK AO2 SLP233 T00940050<br><br>
KIAG 020244Z 0203/0224 VRB03KT P6SM SCT250 FM020500 12004KT P6SM SCT250 FM021400 11008KT P6SM SCT250 FM022100 13010KT P6SM OVC070 FM022300 14009KT P6SM OVC040<br><br>
<br><br>
KBUF 020454Z 14005KT 10SM FEW150 SCT200 BKN250 09/07 A3021 RMK AO2 SLP234 T00940067 401720083<br><br>
KBUF 020354Z 13004KT 10SM BKN200 10/07 A3021 RMK AO2 SLP232 T01000067<br><br>
KBUF 020244Z 0203/0224 08005KT P6SM SCT250 FM020500 11004KT P6SM SCT250 FM021500 12008KT P6SM BKN250 FM021900 13009KT P6SM BKN140 FM022000 13010KT P6SM OVC100 FM022300 14008KT P6SM OVC040<br><br>
<br><br>
CYYZ 020500Z 31003KT 15SM FEW250 10/06 A3021 RMK CI2 SLP232<br><br>
CYYZ 020400Z 01006KT 15SM BKN210 12/07 A3020 RMK CI6 SLP229<br><br>
TAF CYYZ 020238Z 0203/0306 33005KT P6SM BKN210 BECMG 0213/0215 12015KT FM022300 16010KT P6SM -SHRA BKN030 OVC100 FM030500 14008KT 3SM -SHRA BR OVC007 RMK NXT FCST BY 020600Z<br><br>
<br><br>
CYOO 020500Z AUTO 36006KT 9SM CLR 10/07 A3020 RMK SLP228<br><br>
CYOO 020400Z AUTO 36006KT 9SM CLR 10/07 A3019 RMK SLP228<br><br>
CYOO has no TAF <br><br>
<br><br>
CYTR 020500Z 04005KT 15SM FEW250 07/06 A3021 RMK CI2 SLP232<br><br>
CYTR 020400Z 03004KT 15SM FEW250 08/07 A3020 RMK CI2 SLP231<br><br>
TAF CYTR 012330Z 0200/0224 20008KT P6SM BKN250 BECMG 0200/0202 VRB03KT BECMG 0216/0218 14008KT FM022200 14008KT P6SM BKN120 RMK NXT FCST BY 020600Z<br><br>
<br><br>
