RETRIEVED AT : May 17 2020 17:05 Local <br>
  RETRIEVED AT: May 17 2020 21:05 UTC<br><br>
CYSN 172000Z 06008KT 10SM -RA OVC081 14/10 A3012 RMK AC8 SLP203<br><br>
TAF CYSN 171938Z 1720/1801 06010G20KT P6SM BKN120 OVC200 FM172100 06015G25KT P6SM -RA BKN040 OVC080 TEMPO 1721/1801 3SM -RA BR BKN020 OVC040 RMK NXT FCST WILL BE ISSUED AT 181245Z<br><br>
<br><br>
CYHM 172000Z 05020KT 12SM -RA BKN060 OVC093 09/08 A3011 RMK SC6AC2 SLP202<br><br>
TAF CYHM 171742Z 1718/1818 05015G25KT P6SM BKN080 OVC140 FM172000 05015G25KT P6SM -RA SCT020 BKN040 OVC080 TEMPO 1720/1803 4SM -RA BR BKN020 OVC040 FM180300 05020G30KT 11/2SM -RA BR OVC005 TEMPO 1803/1818 6SM -RA BR OVC010 RMK NXT FCST BY 180000Z<br><br>
<br><br>
KIAG 172053Z 08009KT 10SM -RA BKN070 OVC090 14/10 A3011 RMK AO2 SLP200 P0003 60004 T01390100 58005 $<br><br>
KIAG 171953Z 07012KT 9SM -RA OVC070 14/09 A3012 RMK AO2 RAB1856 SLP204 P0001 T01390094 $<br><br>
KIAG 172030Z 1721/1818 07012KT 6SM -RA OVC040 FM172300 08012KT 6SM -RA OVC025 FM180200 08012KT 4SM RA OVC015 FM180400 08012KT 2SM RA BR OVC007 FM181500 09014G21KT 4SM RA BR OVC012<br><br>
<br><br>
KBUF 172054Z 07013KT 2 1/2SM RA BKN043 OVC055 14/11 A3011 RMK AO2 SLP198 P0010 60010 T01390111 58002 $<br><br>
KBUF 172050Z 07013KT 2 1/2SM RA OVC043 14/11 A3012 RMK AO2 P0008 $<br><br>
KBUF 171954Z COR 07010KT 10SM -RA BKN070 OVC090 16/10 A3012 RMK AO2 SLP201 P0000 T01610100<br><br>
KBUF 172100Z 1721/1818 07012KT 3SM RA OVC040 FM172200 07012KT 6SM -RA OVC025 FM180300 08010KT 2SM RA BR OVC007 FM181500 10013G19KT 4SM -RA BR OVC012<br><br>
<br><br>
CYYZ 172000Z 09008G16KT 15SM OVC110 15/06 A3016 RMK AC8 SLP216<br><br>
TAF CYYZ 172038Z 1721/1824 09012G22KT P6SM OVC150 FM172200 09015G25KT P6SM BKN030 OVC070 TEMPO 1722/1802 4SM -SHRA BR OVC030 FM180200 08018KT 2SM -RA BR OVC008 TEMPO 1802/1815 1SM -RA BR OVC004 BECMG 1812/1814 09020G35KT FM181900 08018G28KT 6SM -SHRA BR SCT008 OVC020 RMK NXT FCST BY 180000Z<br><br>
<br><br>
CYOO 172000Z AUTO 08011G16KT 9SM BKN140 OVC160 18/07 A3015 RMK SLP215 DENSITY ALT 600FT<br><br>
TAF CYOO 171942Z 1720/1808 09010G20KT P6SM OVC150 FM172300 09012KT P6SM BKN050 OVC080 TEMPO 1723/1804 5SM -RA BR BKN020 OVC050 FM180400 07012G22KT 3SM -RA BR OVC010 TEMPO 1804/1808 1SM RA BR OVC004 RMK FCST BASED ON AUTO OBS. NXT FCST BY 180200Z<br><br>
<br><br>
CYTR 172000Z 07005KT 14SM OVC130 19/06 A3018 RMK AC8 SLP223<br><br>
TAF CYTR 171730Z 1718/1818 10010KT P6SM BKN200 FM172200 06008KT P6SM SCT060 OVC100 TEMPO 1722/1802 P6SM -RA BKN060 OVC100 FM180200 05005KT P6SM -RA SCT030 OVC050 TEMPO 1802/1809 5SM -RA BR BKN030 OVC050 FM180900 05010G20KT P6SM -RA FEW008 SCT015 OVC050 TEMPO 1809/1814 5SM -RA BR FEW008 BKN015 OVC050 FM181400 06012G22KT P6SM FEW015 BKN025 OVC050 RMK NXT FCST BY 180000Z<br><br>
<br><br>
