RETRIEVED AT : Dec 12 2017 00:10 Local <br>
  RETRIEVED AT: Dec 12 2017 05:10 UTC<br><br>
CYSN has no TAF <br><br>
<br><br>
CYHM 120500Z 05006KT 2SM -SN OVC022 M04/M04 A2965 RMK SN6SC2 SLP053<br><br>
CYHM 120400Z 05006KT 2SM -SN OVC018 M04/M05 A2969 RMK SN4SC4 SLP066<br><br>
TAF AMD CYHM 120219Z 1202/1224 07007KT 6SM -SN SCT008 OVC015 TEMPO 1202/1206 21/2SM -SN OVC008 PROB30 1202/1206 11/2SM -SN -FZDZ BKN005 OVC010 FM120600 05008KT 1SM -SN VV010 BECMG 1212/1214 30008KT FM121400 29018G28KT 3SM -SN BLSN SCT030 OVC060 PROB30 1214/1219 11/2SM -SHSN BLSN VV012 FM121900 30020G30KT P6SM -SHSN BKN040 FM122300 30020G30KT 4SM -SHSN OVC030 RMK NXT FCST BY 120600Z<br><br>
<br><br>
KIAG 120453Z AUTO 08005KT 1 1/4SM -SN OVC020 M02/M05 A2968 RMK AO2 SLP066 P0001 T10221050 410111039<br><br>
KIAG 120413Z AUTO 11004KT 1 1/2SM -SN OVC018 M02/M06 A2971 RMK AO2 P0001 T10221056<br><br>
KIAG 120353Z 10004KT 1 1/4SM -SN OVC017 M02/M06 A2972 RMK AO2 SLP079 P0001 T10221056<br><br>
KIAG 112337Z 1200/1224 11007KT 5SM -SHSN OVC035 TEMPO 1200/1203 2SM -SHSN OVC025 FM120300 13007KT 1SM -SN OVC012 FM121000 03007KT 1SM -SN OVC007 FM121700 30013G23KT 1SM -SN BLSN OVC003 FM122100 28016G25KT 2SM -SN BLSN OVC020<br><br>
<br><br>
KBUF 120454Z 13004KT 1SM R23/6000VP6000FT -SN BR VV017 M02/M03 A2968 RMK AO2 SLP061 P0002 T10221033 410221044 $<br><br>
KBUF 120354Z 14004KT 1 1/2SM -SN BR SCT016 OVC022 M03/M04 A2972 RMK AO2 SLP074 P0001 T10281039 $<br><br>
KBUF 120342Z 14004KT 3SM -SN BR BKN016 OVC033 M03/M04 A2972 RMK AO2 P0001 T10281044 $<br><br>
KBUF 112337Z 1200/1224 11006KT 5SM -SHSN OVC035 TEMPO 1200/1203 2SM -SHSN OVC025 FM120300 15008KT 1SM -SN OVC025 FM121100 34007KT 1SM -SN OVC007 FM121400 30010G17KT 1SM -SN OVC007 FM122200 27015KT 3SM -SN OVC020<br><br>
<br><br>
CYYZ 120500Z 08004KT 2 1/2SM -SN OVC015 M03/M05 A2968 RMK SN2SC6 SLP061<br><br>
CYYZ 120443Z 09004KT 2 1/2SM -SN OVC015 M03/M05 A2969 RMK SN2SC6 SLP065<br><br>
CYYZ 120400Z 10005KT 6SM -SN OVC013 M03/M05 A2972 RMK SC8 SLP074<br><br>
CYYZ 120338Z 07004KT 6SM -SN OVC013 M03/M05 A2973 RMK SC8 SLP078<br><br>
TAF CYYZ 120238Z 1203/1306 12005KT P6SM SCT015 OVC020 TEMPO 1203/1205 21/2SM -SN OVC012 PROB30 1203/1205 11/2SM -FZDZ -SN BKN006 OVC012 FM120500 03005KT 11/2SM -SN OVC012 TEMPO 1205/1211 3SM -SN SCT012 OVC020 PROB30 1205/1211 3/4SM -SN VV007 FM121100 35012KT 11/2SM -SN OVC012 PROB30 1211/1220 3/4SM -SN VV007 FM122000 30018KT 3SM -SN BKN030 OVC060 FM122300 34020G30KT P6SM BKN030 RMK NXT FCST BY 120600Z<br><br>
<br><br>
CYOO 120506Z AUTO 07008KT 2SM -SN BKN015 OVC020 M05/M06 A2971 RMK VIS VRB 1 1/4-3 SLP070<br><br>
CYOO 120500Z AUTO 07008KT 4SM -SN BKN015 OVC020 M05/M06 A2971 RMK SLP069<br><br>
CYOO 120450Z AUTO 06009KT 5SM -SN OVC013 M05/M06 A2971 RMK PRESFR SLP070<br><br>
CYOO 120409Z AUTO 08007KT 9SM -SN SCT015 BKN021 OVC029 M05/M07 A2974 RMK SLP081<br><br>
CYOO 120408Z AUTO 07008KT 9SM BKN017 BKN023 OVC029 M05/M07 A2974 RMK SLP081<br><br>
CYOO 120400Z AUTO 08009KT 9SM -SN BKN021 OVC029 M05/M07 A2975 RMK SLP083<br><br>
CYOO 120352Z AUTO 07008KT 9SM -SN FEW015 BKN023 OVC029 M05/M07 A2975 RMK SLP084<br><br>
CYOO 120338Z AUTO 07007KT 9SM -SN SCT015 SCT021 OVC027 M05/M07 A2976 RMK SLP088<br><br>
CYOO 120332Z AUTO 07007KT 9SM -SN SCT015 BKN023 OVC027 M05/M07 A2976 RMK SLP089<br><br>
CYOO 120331Z AUTO 07007KT 9SM -SN SCT015 SCT020 OVC027 M05/M07 A2976 RMK SLP089<br><br>
CYOO 120326Z AUTO 07008KT 8SM -SN SCT015 BKN022 OVC029 M05/M07 A2977 RMK SLP090<br><br>
CYOO has no TAF <br><br>
<br><br>
TAF AMD CYTR 120307Z 1203/1224 06007KT 6SM -SN OVC015 TEMPO 1203/1205 2SM -SN OVC012 FM120500 07012KT 11/2SM -SN OVC010 TEMPO 1205/1211 3/4SM -SN VV008 FM121100 07012KT 11/2SM -SN OVC010 FM121600 02012KT 3SM -SN BKN012 OVC030 FM122000 35012G22KT 6SM -SN BLSN BKN020 OVC040 RMK NXT FCST BY 120600Z<br><br>
<br><br>
