RETRIEVED AT : Sep 24 2017 00:10 Local <br>
  RETRIEVED AT: Sep 24 2017 04:10 UTC<br><br>
CYSN has no TAF <br><br>
<br><br>
CYHM 240400Z 24005KT 15SM SKC 19/17 A3012 RMK SLP198 DENSITY ALT 1200FT<br><br>
CYHM 240300Z 23004KT 15SM SKC 19/17 A3012 RMK SLP197 DENSITY ALT 1300FT<br><br>
TAF CYHM 232338Z 2400/2424 VRB03KT P6SM FEW160 FM241700 04007KT P6SM FEW050 BECMG 2421/2423 09005KT RMK NXT FCST BY 240600Z<br><br>
<br><br>
KIAG 240353Z AUTO 21003KT 10SM CLR 21/14 A3010 RMK AO2 SLP188 T02110144<br><br>
KIAG 240253Z 19004KT 10SM CLR 22/15 A3010 RMK AO2 SLP189 T02170150 51003<br><br>
KIAG 240234Z 2403/2424 21005KT P6SM SKC FM241000 VRB03KT 5SM BR FEW003 FM241200 VRB03KT P6SM SKC<br><br>
<br><br>
KBUF 240354Z 20006KT 10SM CLR 20/17 A3012 RMK AO2 SLP196 T02000167<br><br>
KBUF 240254Z 18005KT 10SM CLR 21/18 A3012 RMK AO2 SLP196 T02060178 51004<br><br>
KBUF 240234Z 2403/2424 VRB05KT P6SM SKC<br><br>
<br><br>
CYYZ 240400Z 33005KT 15SM SKC 25/19 A3009 RMK SLP188 DENSITY ALT 1700FT<br><br>
CYYZ 240300Z 32008KT 15SM SKC 25/19 A3009 RMK SLP189 DENSITY ALT 1700FT<br><br>
TAF CYYZ 240238Z 2403/2506 VRB03KT P6SM SKC FM241500 21008KT P6SM FEW050 BECMG 2502/2504 33005KT RMK NXT FCST BY 240600Z<br><br>
<br><br>
CYOO 240400Z AUTO 36002KT 9SM CLR 19/16 A3008 RMK SLP187 DENSITY ALT 800FT<br><br>
CYOO 240300Z AUTO 35002KT 9SM CLR 21/17 A3008 RMK SLP187 DENSITY ALT 1000FT<br><br>
CYOO has no TAF <br><br>
<br><br>
CYTR 240400Z 00000KT 5SM BR MIFG SKC 20/19 A3007 RMK SLP183<br><br>
CYTR 240344Z 00000KT 5SM BR SKC 20/19 A3007 RMK SLP183<br><br>
CYTR 240300Z 00000KT 8SM SKC 20/20 A3007 RMK SLP183<br><br>
TAF AMD CYTR 240356Z 2403/2424 VRB03KT P6SM SKC TEMPO 2403/2412 3SM BR BECMG 2414/2416 20008KT RMK NXT FCST BY 240600Z<br><br>
<br><br>
