RETRIEVED AT : May 21 2018 03:01 Local <br>
  RETRIEVED AT: May 21 2018 07:01 UTC<br><br>
CYSN has no TAF <br><br>
<br><br>
CYHM 210600Z 05002KT 15SM FEW020 09/08 A3019 RMK SC1 SC TR SLP227<br><br>
TAF CYHM 210538Z 2106/2206 03005KT P6SM FEW020 FM211500 06008KT P6SM FEW240 FM211900 06010KT P6SM BKN200 FM212300 06010KT P6SM OVC170 FM220400 05008KT P6SM -SHRA FEW020 BKN040 OVC080 RMK NXT FCST BY 211200Z<br><br>
<br><br>
KIAG 210529Z 2106/2206 VRB03KT P6SM FEW250 FM211900 08004KT P6SM FEW250 FM212100 03006KT P6SM SCT200 FM220200 08005KT P6SM OVC120 FM220500 11006KT P6SM -SHRA OVC045<br><br>
<br><br>
KBUF 210654Z 22003KT 6SM HZ FEW250 12/08 A3019 RMK AO2 SLP225 T01170083<br><br>
KBUF 210554Z 00000KT 8SM FEW250 12/08 A3018 RMK AO2 SLP219 T01220083 10161 20122 50005<br><br>
KBUF 210529Z 2106/2206 VRB03KT P6SM FEW250 FM211900 07004KT P6SM FEW250 FM220300 10007KT P6SM VCSH OVC060 FM220500 12007KT P6SM -SHRA OVC045<br><br>
<br><br>
CYYZ 210600Z 33007KT 15SM SKC 09/00 A3019 RMK SLP226<br><br>
TAF AMD CYYZ 210542Z 2106/2212 35008KT P6SM SKC BECMG 2109/2111 VRB03KT FM211600 15008KT P6SM BKN240 FM212300 06007KT P6SM OVC180 FM220300 05006KT P6SM OVC130 FM220500 05006KT P6SM -SHRA FEW025 OVC060 FM220800 07008KT 21/2SM -RA BR BKN008 OVC015 RMK NXT FCST BY 210900Z<br><br>
<br><br>
CYOO 210600Z AUTO 35008KT 9SM CLR 07/03 A3018 RMK SLP222<br><br>
CYOO has no TAF <br><br>
<br><br>
CYTR 210600Z 33007KT 15SM FEW250 11/07 A3014 RMK CI2 SLP209<br><br>
TAF CYTR 210530Z 2106/2206 32006KT P6SM SCT250 BECMG 2106/2108 VRB03KT BECMG 2114/2116 22010KT FM212000 VRB03KT P6SM BKN200 BECMG 2200/2202 OVC150 RMK NXT FCST BY 211200Z<br><br>
<br><br>
