RETRIEVED AT : Sep 01 2018 09:05 Local <br>
  RETRIEVED AT: Sep 01 2018 13:05 UTC<br><br>
CYSN 011200Z 20003KT 8SM FEW250 18/18 A3016 RMK CI1 SLP214 DENSITY ALT 500FT<br><br>
TAF CYSN 011238Z 0113/0201 VRB03KT P6SM SKC BECMG 0114/0116 20010G20KT FEW030 FM012300 VRB03KT P6SM SKC RMK NXT FCST BY 012000Z<br><br>
<br><br>
CYHM 011214Z 10004KT 1/8SM R12/P6000FT/N FG VV002 17/17 A3016 RMK FG8 SLP215 DENSITY ALT 1000FT<br><br>
CYHM 011208Z 09003KT 1SM R12/P6000FT/N BR BKN002 17/17 A3016 RMK FG2SF4 SLP216 DENSITY ALT 900FT<br><br>
CYHM 011200Z 07002KT 2 1/2SM BR SCT002 16/16 A3017 RMK SF3 SLP217 DENSITY ALT 900FT<br><br>
CYHM 011118Z 04004KT 4SM BR FEW002 FEW250 15/15 A3016 RMK SF1CI1 SF TR CI TR SLP216 DENSITY ALT 800FT<br><br>
TAF AMD CYHM 011238Z 0112/0212 05005KT 1/8SM FG OVC002 TEMPO 0112/0114 P6SM NSW FEW002 FM011400 20012KT P6SM FEW030 FM020400 20010KT P6SM -SHRA BKN050 PROB30 0206/0212 2SM +TSRA BR BKN020 BKN050CB RMK NXT FCST BY 011800Z<br><br>
<br><br>
KIAG 011253Z 19008KT 10SM CLR 22/20 A3017 RMK AO2 SLP212 T02220200<br><br>
KIAG 011153Z 00000KT 4SM BR CLR 19/18 A3017 RMK AO2 SLP216 T01890178 10189 20150 53006<br><br>
KIAG 011120Z 0112/0212 VRB03KT P6SM SCT040 FM011400 21010KT P6SM SCT040 FM012200 19008KT P6SM SCT250 FM020400 21008KT P6SM BKN040<br><br>
<br><br>
KBUF 011254Z 18011KT 10SM FEW200 23/19 A3018 RMK AO2 SLP217 T02330194<br><br>
KBUF 011154Z 17005KT 10SM FEW150 FEW200 21/19 A3018 RMK AO2 SLP218 T02060189 10206 20183 53005<br><br>
KBUF 011120Z 0112/0212 18005KT P6SM SCT035 FM011500 20010KT P6SM SCT040 FM012200 19008KT P6SM SCT250 FM020400 20008KT P6SM BKN040<br><br>
<br><br>
CYYZ 011242Z 10003KT 3SM BR OVC003 19/18 A3016 RMK FG2ST6 SLP213 DENSITY ALT 900FT<br><br>
CYYZ 011235Z 11004KT 3/4SM R15L/P6000FT/N R24R/P6000FT/U R23/P6000FT/N BR OVC002 19/18 A3015 RMK FG2ST6 SLP212 DENSITY ALT 900FT<br><br>
CYYZ 011215Z 10003KT 050V120 1/2SM R15L/P6000FT/N R24R/4500VP6000FT/U R23/P6000FT/N FG VV002 19/17 A3016 RMK FG8 SLP214 DENSITY ALT 900FT<br><br>
CYYZ 011211Z 08002KT 3/4SM R15L/P6000FT/N R24R/4500VP6000FT/U R23/P6000FT/N BR OVC002 19/17 A3016 RMK FG4ST4 SLP214 DENSITY ALT 900FT<br><br>
CYYZ 011200Z VRB02KT 5SM BR OVC003 18/17 A3016 RMK ST8 CIG VRB 2-4 SLP213 DENSITY ALT 900FT<br><br>
CYYZ 011146Z 00000KT 5SM BR OVC003 18/17 A3015 RMK ST8 SLP212 DENSITY ALT 800FT<br><br>
TAF AMD CYYZ 011206Z 0112/0218 VRB03KT 5SM BR BKN003 BKN012 TEMPO 0112/0114 P6SM NSW SCT004 BKN025 FM011400 21008KT P6SM BKN015 TEMPO 0114/0116 SCT030 FM011600 20012KT P6SM SCT030 BECMG 0116/0117 18012G22KT FM011700 18012G22KT P6SM SCT030 TEMPO 0117/0122 BKN030 BECMG 0201/0203 21008KT FM020500 22008KT P6SM -SHRA BKN040 PROB30 0205/0211 2SM +TSRA BR BKN040CB FM021700 23015G25KT P6SM -SHRA BKN030 PROB30 0217/0218 VRB15G25KT 1SM +TSRA BR BKN015 OVC030CB RMK NXT FCST BY 011500Z<br><br>
<br><br>
CYOO 011230Z AUTO VRB02KT 6SM BR BKN004 20/20 A3016 RMK SLP215 DENSITY ALT 800FT<br><br>
CYOO 011203Z AUTO 00000KT 5SM BR OVC004 19/19 A3017 RMK SLP216 DENSITY ALT 700FT<br><br>
CYOO 011200Z AUTO 00000KT 6SM BR OVC004 19/19 A3017 RMK SLP216 DENSITY ALT 700FT<br><br>
CYOO 011142Z AUTO 00000KT 6SM BR OVC006 19/19 A3017 RMK PRESRR SLP216 DENSITY ALT 700FT<br><br>
CYOO 011121Z AUTO 00000KT 3SM BR OVC006 18/18 A3015 RMK SLP210 DENSITY ALT 600FT<br><br>
CYOO has no TAF <br><br>
<br><br>
CYTR 011200Z 16005KT 10SM FEW014 BKN023 22/21 A3016 RMK SF1SC4 SLP215<br><br>
CYTR 011107Z 11002KT 10SM FEW014 BKN023 20/19 A3017 RMK SF2SC3 SLP217<br><br>
TAF CYTR 011130Z 0112/0212 VRB03KT P6SM BKN004 OVC020 TEMPO 0112/0115 SCT004 BKN020 PROB30 0112/0115 2SM BR FM011500 19010KT P6SM SCT010 BKN025 TEMPO 0115/0117 BKN010 OVC025 FM011700 20010KT P6SM FEW025 BECMG 0122/0124 20005KT FM020900 20005KT P6SM -SHRA BKN025 OVC080 RMK NXT FCST BY 011800Z<br><br>
<br><br>
