RETRIEVED AT : Oct 28 2018 03:05 Local <br>
  RETRIEVED AT: Oct 28 2018 07:05 UTC<br><br>
CYSN has no TAF <br><br>
<br><br>
CYHM 280649Z 01008KT 6SM -SN OVC004 01/01 A2977 RMK SF8 SLP089<br><br>
CYHM 280600Z 01008KT 2SM -SN OVC003 01/01 A2977 RMK SN1SF7 SLP090<br><br>
TAF CYHM 280538Z 2806/2906 02010KT 2SM -SN BR OVC004 TEMPO 2806/2810 6SM -RASN BR OVC006 FM281000 36008KT 5SM -SNRA BR OVC008 TEMPO 2810/2812 6SM -SN SCT008 OVC012 FM281200 33005KT 6SM -RASN SCT008 OVC012 FM281500 23005KT P6SM -RA -DZ BKN010 OVC040 FM281900 23005KT P6SM BKN015 OVC040 FM282100 VRB03KT P6SM -SHRA OVC015 FM290300 35008KT P6SM OVC025 FM290500 31008KT P6SM SCT020 BKN050 RMK NXT FCST BY 281200Z<br><br>
<br><br>
KIAG 280653Z AUTO 03008KT 10SM -RA OVC006 03/02 A2975 RMK AO2 CIG 004V010 SLP084 P0004 T00280017<br><br>
KIAG 280609Z AUTO 03009KT 6SM RA BR OVC006 03/02 A2975 RMK AO2 CIG 004V009 P0003 T00280017<br><br>
KIAG 280553Z AUTO 03007KT 6SM -RA BR OVC007 03/02 A2975 RMK AO2 CIG 004V009 SLP085 P0004 60017 T00280017 10033 20022 58010<br><br>
KIAG 280545Z AUTO 02007KT 7SM -RA OVC007 03/02 A2975 RMK AO2 CIG 004V009 P0003 T00280017<br><br>
KIAG 280526Z AUTO 03007KT 8SM -RA OVC006 03/02 A2975 RMK AO2 P0002 T00280017<br><br>
KIAG 280540Z 2806/2906 02009KT 6SM -SHRA OVC007 FM280900 35007KT 6SM -SHRA OVC003 FM281400 27004KT 6SM -SHRA OVC007 FM281800 24009KT P6SM OVC012 FM290000 00000KT P6SM OVC015 FM290100 00000KT P6SM VCSH OVC012<br><br>
<br><br>
KBUF 280654Z 02003KT 5SM -DZ BR OVC005 03/03 A2974 RMK AO2 CIG 003V008 SLP076 P0000 T00330028<br><br>
KBUF 280554Z 01005KT 3SM -DZ BR OVC004 03/03 A2974 RMK AO2 DZB18 SLP076 P0000 60006 T00330028 10039 20028 58008<br><br>
KBUF 280540Z 2806/2906 01008KT 4SM -SHRA OVC007 FM280900 34007KT 6SM -SHRA OVC003 FM281500 26006KT P6SM VCSH OVC007 FM281900 24009KT P6SM OVC007 FM290100 00000KT P6SM VCSH OVC007 FM290500 00000KT P6SM VCSH OVC007<br><br>
<br><br>
CYYZ 280648Z 34006KT 8SM -SN FEW003 OVC013 01/00 A2978 RMK SF1SC8 SF TR SLP090<br><br>
CYYZ 280600Z 36007KT 6SM -SN FEW003 SCT017 OVC022 01/M00 A2978 RMK SF1SF2SC5 SLP092<br><br>
CYYZ 280508Z 34007KT 3SM -SN FEW003 OVC009 01/M00 A2979 RMK SF1SF7 CIG VRB 6-12 SLP096<br><br>
TAF CYYZ 280538Z 2806/2912 34008KT 3SM -SN BKN006 OVC012 TEMPO 2806/2812 6SM -SNRA SCT006 OVC012 FM281200 32008KT 5SM -SN BKN008 OVC030 TEMPO 2812/2816 P6SM -RASN SCT008 OVC030 FM281600 26007KT P6SM BKN015 OVC050 TEMPO 2816/2819 P6SM -SHRA BECMG 2820/2822 VRB03KT FM290000 VRB03KT 4SM -SHRA BR OVC012 FM290400 29006KT P6SM SCT020 OVC050 BECMG 2907/2909 27010KT RMK NXT FCST BY 280900Z<br><br>
<br><br>
CYOO 280643Z AUTO VRB02KT 3SM BR OVC012 01/01 A2977 RMK SLP087<br><br>
CYOO 280625Z AUTO 01004KT 2 1/2SM BR OVC014 01/01 A2977 RMK SLP087<br><br>
CYOO 280601Z AUTO VRB02KT 4SM BR BKN014 OVC018 01/01 A2977 RMK SLP088<br><br>
CYOO 280600Z AUTO VRB02KT 4SM -RA BR BKN014 OVC018 01/01 A2977 RMK SLP088<br><br>
CYOO 280540Z AUTO 02002KT 5SM -RA BR BKN014 OVC020 01/01 A2978 RMK SLP090<br><br>
CYOO 280533Z AUTO 02003KT 7SM -RA BKN014 OVC022 01/01 A2978 RMK SLP091<br><br>
CYOO 280529Z AUTO 01002KT 7SM -RA -UP BKN014 OVC022 01/01 A2978 RMK SLP091<br><br>
CYOO 280527Z AUTO 01002KT 7SM -RASN -UP BKN014 OVC022 01/01 A2978 RMK SLP091<br><br>
CYOO 280523Z AUTO 01002KT 7SM -SN -UP SCT014 OVC022 01/01 A2978 RMK SLP091<br><br>
CYOO 280517Z AUTO 02003KT 8SM -SN FEW014 OVC022 01/01 A2978 RMK SLP091<br><br>
CYOO 280514Z AUTO 03003KT 9SM -SN -UP FEW014 OVC022 01/01 A2978 RMK SLP091<br><br>
CYOO 280511Z AUTO 02005KT 9SM -RASN -UP FEW014 OVC022 01/01 A2979 RMK SLP092<br><br>
CYOO 280508Z AUTO 03005KT 9SM -RA -UP FEW011 OVC022 01/01 A2979 RMK SLP092<br><br>
CYOO has no TAF <br><br>
<br><br>
CYTR 280638Z 01006KT 3SM -PL OVC007 01/00 A2975 RMK SF8 CIG VRB 5-9 SLP077<br><br>
CYTR 280600Z 02006KT 2SM -SN OVC009 01/00 A2975 RMK SF8 VIS VRB 1 1/2-2 1/2 CIG VRB 6-12 SLP080<br><br>
CYTR 280540Z 01007KT 4SM -SN OVC009 01/00 A2976 RMK SF8 CIG VRB 6-12 SLP081<br><br>
TAF CYTR 280530Z 2806/2906 03010KT P6SM -RA SCT008 OVC020 TEMPO 2806/2812 2SM -SNRA -PL BR BKN008 OVC020 FM281200 34005KT P6SM SCT007 BKN015 OVC030 BECMG 2816/2818 24005KT FM282100 24005KT 6SM -SHRA BR SCT007 OVC015 RMK NXT FCST BY 281200Z<br><br>
<br><br>
