RETRIEVED AT : Sep 25 2017 14:10 Local <br>
  RETRIEVED AT: Sep 25 2017 18:10 UTC<br><br>
CYSN 251800Z 01008KT 12SM FEW050 SCT140 BKN250 30/22 A3004 RMK CU2AC1CI2 SLP173 DENSITY ALT 2000FT<br><br>
CYSN 251700Z 34004KT 10SM FEW025 BKN250 32/22 A3006 RMK CU1CI5 SLP180 DENSITY ALT 2200FT<br><br>
TAF CYSN 251238Z 2513/2601 VRB03KT P6SM BKN250 BECMG 2517/2519 35008KT BECMG 2522/2524 VRB03KT RMK NXT FCST BY 252000Z<br><br>
<br><br>
CYHM 251800Z 16006KT 130V200 15SM FEW042 FEW240 31/17 A3007 RMK CU1CI2 CU TR SLP180 DENSITY ALT 2700FT<br><br>
CYHM 251700Z 15007KT 15SM FEW042 SCT240 30/19 A3009 RMK CU1CI2 SLP186 DENSITY ALT 2600FT<br><br>
TAF CYHM 251738Z 2518/2618 VRB03KT P6SM SCT300 PROB30 2609/2613 3/4SM BR RMK NXT FCST BY 260000Z<br><br>
<br><br>
KIAG 251753Z 00000KT 10SM CLR 32/18 A3006 RMK AO2 SLP173 T03220183 10333 20194 58013<br><br>
KIAG 251653Z VRB04KT 10SM CLR 32/19 A3008 RMK AO2 SLP179 T03220189<br><br>
KIAG 251727Z 2518/2618 VRB04KT P6SM FEW250 FM252000 05007KT P6SM FEW250 FM252300 08005KT P6SM FEW250 FM260200 VRB03KT P6SM FEW250 FM260700 VRB03KT 4SM BR SCT250 TEMPO 2610/2612 2SM BR FM261300 21005KT P6SM FEW250<br><br>
<br><br>
KBUF 251754Z 12008KT 10SM FEW050 FEW160 FEW210 FEW260 32/19 A3007 RMK AO2 SLP177 T03170189 10317 20194 58015<br><br>
KBUF 251654Z 17005KT 10SM FEW047 FEW160 FEW210 FEW260 31/19 A3009 RMK AO2 SLP185 T03110189<br><br>
KBUF 251727Z 2518/2618 12004KT P6SM FEW050 FM252000 05007KT P6SM FEW050 FM252300 08005KT P6SM FEW250 FM260300 13004KT P6SM FEW250 FM260700 16004KT 4SM BR SCT250 FM261300 22006KT P6SM SCT250<br><br>
<br><br>
CYYZ 251800Z 15008KT 120V180 15SM FEW055 FEW240 SCT280 31/19 A3007 RMK CU1CI2CC1 CU TR SLP179 DENSITY ALT 2400FT<br><br>
CYYZ 251700Z 17007KT 120V190 15SM FEW170 SCT250 30/19 A3008 RMK AC1CI3 SLP186 DENSITY ALT 2300FT<br><br>
TAF CYYZ 251738Z 2518/2624 15008KT P6SM SCT300 BECMG 2522/2524 VRB03KT BECMG 2614/2616 16008KT RMK NXT FCST BY 252100Z<br><br>
<br><br>
CYOO 251800Z AUTO 20005KT 9SM CLR 30/17 A3007 RMK SLP182 DENSITY ALT 2000FT<br><br>
CYOO 251750Z AUTO 19005KT 130V210 6SM HZ CLR 30/17 A3008 RMK SLP185 DENSITY ALT 2000FT<br><br>
CYOO 251740Z AUTO 14003KT 100V220 5SM HZ CLR 30/18 A3008 RMK SLP184 DENSITY ALT 2000FT<br><br>
CYOO 251730Z AUTO 17005KT 110V180 6SM HZ CLR 30/18 A3008 RMK SLP186 DENSITY ALT 2000FT<br><br>
CYOO 251720Z AUTO 14005KT 5SM HZ CLR 30/17 A3008 RMK SLP187 DENSITY ALT 2000FT<br><br>
CYOO 251700Z AUTO 11007KT 090V150 8SM CLR 29/17 A3009 RMK SLP188 DENSITY ALT 1900FT<br><br>
CYOO 251624Z AUTO 13007KT 100V220 6SM HZ CLR 29/17 A3009 RMK SLP189 DENSITY ALT 1900FT<br><br>
CYOO has no TAF <br><br>
<br><br>
CYTR 251800Z 23007KT 15SM FEW250 29/21 A3006 RMK CI2 SLP180<br><br>
CYTR 251700Z 21008KT 15SM SCT250 30/22 A3008 RMK CI4 SLP185<br><br>
TAF CYTR 251730Z 2518/2618 21009KT P6SM SCT250 BECMG 2522/2524 VRB03KT FM260300 VRB03KT P6SM BKN250 TEMPO 2603/2612 3SM BR BECMG 2616/2618 20009KT RMK NXT FCST BY 260000Z<br><br>
<br><br>
