RETRIEVED AT : Feb 23 2020 11:05 Local <br>
  RETRIEVED AT: Feb 23 2020 16:05 UTC<br><br>
CYSN 231500Z 21016G21KT 15SM FEW160 BKN240 06/M05 A3005 RMK AC2CI3 SLP181<br><br>
TAF CYSN 231339Z 2314/2402 22010KT P6SM BKN180 BECMG 2315/2317 21010G20KT FM232100 22012G22KT P6SM SCT180 RMK NXT FCST BY 232000Z<br><br>
<br><br>
CYHM 231500Z 22016KT 15SM FEW140 BKN200 04/M04 A3004 RMK AC2CI3 SLP181<br><br>
TAF CYHM 231138Z 2312/2412 22010KT P6SM BKN210 FM231500 23010G20KT P6SM SCT030 BKN180 BECMG 2317/2319 22012G22KT FM232100 22012G22KT P6SM SCT030 BECMG 2402/2404 23012KT FM241100 23012KT P6SM SCT015 RMK NXT FCST BY 231800Z<br><br>
<br><br>
KIAG 231553Z 22016G22KT 10SM CLR 06/M07 A3006 RMK AO2 SLP190 T00561072<br><br>
KIAG 231453Z 21015KT 10SM CLR 04/M07 A3007 RMK AO2 SLP193 T00441067 58006<br><br>
KIAG 231430Z 2315/2412 22014G22KT P6SM SCT250 FM232200 20012KT P6SM SCT050 FM240300 21016G24KT P6SM SCT200 FM241000 23014G22KT P6SM BKN060<br><br>
<br><br>
KBUF 231554Z 22018G23KT 10SM FEW120 FEW190 BKN230 07/M08 A3006 RMK AO2 SLP185 T00671083<br><br>
KBUF 231454Z 23011KT 10SM FEW100 FEW140 BKN200 BKN250 06/M08 A3007 RMK AO2 SLP188 T00611083 58009<br><br>
KBUF 231430Z 2315/2412 22014G22KT P6SM SCT250 FM232100 21010KT P6SM SCT050 FM240300 22014G22KT P6SM SCT200 FM241100 24014G22KT P6SM BKN060<br><br>
<br><br>
CYYZ 231500Z 19013KT 15SM BKN140 03/M03 A3003 RMK AC6 SLP176<br><br>
TAF CYYZ 231438Z 2315/2418 20010G20KT P6SM BKN180 FM232100 22012G22KT P6SM SCT180 FM240300 23012KT P6SM FEW020 FM241200 24008KT P6SM BKN020 RMK NXT FCST BY 231800Z<br><br>
<br><br>
CYOO 231500Z AUTO 23010KT 9SM SCT220 SCT240 03/M02 A3003 RMK SLP178<br><br>
TAF CYOO 231339Z 2314/2402 VRB03KT P6SM BKN180 BECMG 2314/2316 22007KT BECMG 2317/2319 22008G18KT FM232100 20010G20KT P6SM SCT180 RMK FCST BASED ON AUTO OBS. NXT FCST BY 232000Z<br><br>
<br><br>
CYTR 231500Z 23010G17KT 15SM OVC220 04/M01 A3006 RMK CS8 HALO SLP182<br><br>
TAF CYTR 231130Z 2312/2412 23008KT P6SM FEW220 BECMG 2315/2317 24010G20KT BKN220 FM240000 22006KT P6SM FEW040 BECMG 2405/2407 23010KT FEW020 RMK NXT FCST BY 231800Z<br><br>
<br><br>
