RETRIEVED AT : Jun 08 2018 04:19 Local <br>
  RETRIEVED AT: Jun 08 2018 08:19 UTC<br><br>
CYSN has no TAF <br><br>
<br><br>
CYHM 080800Z 03007KT 15SM SCT250 14/11 A3012 RMK CI4 SLP201<br><br>
CYHM 080700Z 03005KT 15SM FEW250 13/10 A3011 RMK CI2 SLP198<br><br>
TAF CYHM 080538Z 0806/0906 VRB03KT P6SM SCT250 BECMG 0811/0813 04010KT BECMG 0822/0824 VRB03KT RMK NXT FCST BY 081200Z<br><br>
<br><br>
KIAG 080753Z AUTO 28003KT 10SM CLR 13/09 A3011 RMK AO2 SLP195 T01330089<br><br>
KIAG 080653Z AUTO 25004KT 10SM CLR 14/09 A3010 RMK AO2 SLP193 T01440094<br><br>
KIAG 080527Z 0806/0906 26004KT P6SM FEW250 FM080900 VRB03KT P6SM SCT050 FM081300 06006KT P6SM SCT050 FM081800 04008KT P6SM FEW250 FM090100 07004KT P6SM FEW250<br><br>
<br><br>
KBUF 080754Z 00000KT 10SM FEW250 14/11 A3012 RMK AO2 SLP197 T01440106<br><br>
KBUF 080654Z 00000KT 10SM FEW250 16/10 A3011 RMK AO2 SLP194 T01560100<br><br>
KBUF 080527Z 0806/0906 21005KT P6SM FEW250 FM080900 VRB03KT P6SM SCT050 FM081200 03006KT P6SM SCT050 FM082000 02007KT P6SM FEW250 FM090100 08005KT P6SM FEW250<br><br>
<br><br>
CYYZ 080800Z 34009KT 15SM FEW250 14/09 A3012 RMK CI2 SLP201<br><br>
CYYZ 080700Z 34010KT 15SM FEW250 15/10 A3012 RMK CI2 SLP201<br><br>
TAF CYYZ 080538Z 0806/0912 35008KT P6SM SCT250 BECMG 0814/0816 14008KT BECMG 0822/0824 VRB03KT RMK NXT FCST BY 080900Z<br><br>
<br><br>
CYOO 080800Z AUTO 35008KT 9SM BKN042 15/10 A3010 RMK SLP195<br><br>
CYOO 080700Z AUTO 34008KT 9SM BKN042 15/11 A3010 RMK SLP195<br><br>
CYOO has no TAF <br><br>
<br><br>
CYTR 080800Z 03003KT 15SM FEW050 SCT250 12/10 A3010 RMK SC2CI2 SLP196<br><br>
CYTR 080700Z 06003KT 15SM SCT050 BKN250 12/10 A3010 RMK SC3CI2 SLP193<br><br>
TAF CYTR 080530Z 0806/0906 VRB03KT P6SM FEW250 BECMG 0808/0810 02005KT BECMG 0816/0818 22010KT FM081800 22010KT P6SM FEW030 BECMG 0900/0902 VRB03KT RMK NXT FCST BY 081200Z<br><br>
<br><br>
