RETRIEVED AT : May 23 2020 18:05 Local <br>
  RETRIEVED AT: May 23 2020 22:05 UTC<br><br>
CYSN 232100Z 02007KT 15SM FEW030 BKN200 22/15 A3001 RMK SC1CI6 SLP165 DENSITY ALT 1200FT<br><br>
TAF CYSN 231942Z 2320/2401 02007KT P6SM SCT030 BKN250 RMK NXT FCST WILL BE ISSUED AT 241245Z<br><br>
<br><br>
CYHM 232100Z 16007KT 120V190 15SM SCT024 BKN250 23/18 A3004 RMK CU5CI2 SLP173 DENSITY ALT 1800FT<br><br>
TAF CYHM 231742Z 2318/2418 10008KT P6SM SCT040 BKN080 TEMPO 2319/2324 P6SM -SHRA BKN040 PROB30 2321/2323 4SM TSRA BKN030CB FM240000 05005KT P6SM FEW040 SCT240 FM240600 06005KT 6SM BR OVC012 PROB40 2407/2413 3/4SM BR OVC005 FM241400 20012KT P6SM OVC015 FM241700 20015KT P6SM -SHRA SCT015 OVC025 RMK NXT FCST BY 240000Z<br><br>
<br><br>
KIAG 232153Z 36004KT 10SM SCT037 23/16 A3003 RMK AO2 SLP168 T02280156<br><br>
KIAG 232053Z 03006KT 10SM SCT031 SCT038 BKN080 24/16 A3002 RMK AO2 SLP163 T02390161 56015<br><br>
KIAG 232108Z 2321/2418 03006KT P6SM SCT030 BKN080 BKN250 FM232300 08006KT P6SM BKN250 FM240800 13006KT P6SM SCT050 FM241400 18010KT P6SM SCT100<br><br>
<br><br>
KBUF 232154Z 27004KT 10SM FEW047 SCT100 BKN260 24/17 A3003 RMK AO2 SLP166 T02440167<br><br>
KBUF 232054Z 21005KT 10SM FEW037 SCT055 SCT070 BKN260 23/17 A3002 RMK AO2 SLP164 T02280172 58017<br><br>
KBUF 232108Z 2321/2418 21005KT P6SM FEW035 BKN250 FM240000 08006KT P6SM FEW040 BKN250 FM240800 13006KT P6SM BKN250 FM241400 18010KT P6SM SCT100<br><br>
<br><br>
CYYZ 232100Z 14008KT 15SM FEW060 BKN260 23/14 A3003 RMK CU1CI7 CU TR SLP170 DENSITY ALT 1500FT<br><br>
TAF CYYZ 232038Z 2321/2424 15008KT P6SM FEW060 BKN250 FM240000 15008KT P6SM BKN060 FM240500 13008KT P6SM FEW008 OVC020 TEMPO 2405/2409 4SM -SHRA BR BKN008 OVC020 FM240900 11008KT 11/2SM BR BKN006 FM241300 15012KT P6SM SCT006 OVC012 FM241800 17015KT P6SM -SHRA SCT020 OVC030 PROB30 2421/2424 2SM TSRA BR BKN020CB RMK NXT FCST BY 240000Z<br><br>
<br><br>
CYOO 232100Z AUTO 17006KT 100V190 9SM CLR 25/15 A3003 RMK SLP170 DENSITY ALT 1500FT<br><br>
TAF CYOO 231942Z 2320/2408 15005KT P6SM SCT240 FM240000 08005KT P6SM BKN060 FM240600 08005KT P6SM FEW012 OVC025 TEMPO 2407/2408 5SM -SHRA BR OVC012 RMK FCST BASED ON AUTO OBS. NXT FCST BY 240200Z<br><br>
<br><br>
CYTR 232100Z 23005KT 15SM FEW030 SCT220 24/14 A3002 RMK CF1CI3 CUFRA TR SLP168<br><br>
TAF CYTR 231734Z 2318/2418 13005KT P6SM FEW030 BECMG 2318/2319 20010KT BECMG 2402/2404 05005KT FM241000 09005KT P6SM FEW020 SCT080 BKN150 FM241600 12008KT P6SM BKN025 OVC080 RMK NXT FCST BY 240000Z<br><br>
<br><br>
