RETRIEVED AT : Oct 09 2017 09:10 Local <br>
  RETRIEVED AT: Oct 09 2017 13:10 UTC<br><br>
CYSN 091300Z 05011G16KT 4SM -RA BR OVC006 17/17 A2975 RMK SF8 SLP074 DENSITY ALT 900FT<br><br>
CYSN 091200Z 05011G18KT 3SM -RA BR OVC004 17/16 A2975 RMK SF8 SLP077 DENSITY ALT 800FT<br><br>
CYSN 091144Z 04010G16KT 2 1/2SM -RA BR BKN005 OVC020 16/16 A2976 RMK SF7SC1 SLP080 DENSITY ALT 800FT<br><br>
CYSN 091120Z 04012KT 2SM -RA BR OVC005 16/16 A2977 RMK SF8 SLP081 DENSITY ALT 700FT<br><br>
TAF CYSN 091238Z 0913/1001 04013G23KT 6SM -RA BR OVC010 TEMPO 0913/0916 2SM RA OVC004 FM091600 36012G22KT P6SM -RA OVC025 TEMPO 0916/0918 21/2SM -RA BR BKN006 OVC015 FM091800 34010G20KT P6SM OVC030 TEMPO 0918/0920 3SM -SHRA BR OVC012 FM092100 30008KT P6SM BKN030 BKN080 FM092300 22007KT P6SM SCT040 RMK NXT FCST BY 092000Z<br><br>
<br><br>
CYHM 091300Z 04016KT 6SM -RA BR BKN011 OVC016 15/15 A2978 RMK SF5SC3 SLP088 DENSITY ALT 1200FT<br><br>
CYHM 091200Z 04014G20KT 4SM -RA BR BKN004 OVC046 15/15 A2977 RMK SF6SC2 SLP084 DENSITY ALT 1200FT<br><br>
CYHM 091151Z 05017KT 5SM -RA BR BKN005 OVC051 15/15 A2978 RMK SF6SC2 SLP085 DENSITY ALT 1100FT<br><br>
TAF CYHM 091138Z 0912/1012 05012KT 6SM -RA BR SCT012 OVC025 TEMPO 0912/0914 2SM RA BR OVC003 FM091400 03012KT P6SM -RA OVC010 TEMPO 0914/0917 5SM -DZ BR OVC006 FM091700 02010KT P6SM OVC012 TEMPO 0917/0921 OVC008 FM092100 29006KT P6SM BKN020 FM092300 24006KT P6SM FEW030 RMK NXT FCST BY 091800Z<br><br>
<br><br>
KIAG 091253Z 04015G25KT 3/4SM R28R/4500V5500FT +RA BR BKN022 OVC034 17/16 A2975 RMK AO2 SLP074 P0066 T01720156<br><br>
KIAG 091249Z 04020G25KT 1/2SM R28R/4000V5000FT +RA FG OVC022 17/16 A2975 RMK AO2 P0062<br><br>
KIAG 091157Z 03015G20KT 1 3/4SM +RA BR BKN005 OVC014 17/15 A2975 RMK AO2 P0005 T01720150<br><br>
KIAG 091153Z 02014KT 3SM +RA BR BKN007 BKN010 OVC017 17/15 A2975 RMK AO2 SLP075 P0030 60109 70121 T01720150 10178 20156 56017<br><br>
KIAG 091225Z 0912/1012 04013G20KT 1SM RA BR OVC005 FM091500 04015G21KT 6SM -RA OVC007 FM091800 01007KT P6SM BKN007 FM092000 32007KT P6SM BKN007 FM100000 24005KT P6SM BKN020 FM101000 24004KT 2SM BR FEW250<br><br>
<br><br>
KBUF 091305Z 01012G18KT 3/4SM R23/3500VP6000FT +RA BR BKN004 BKN010 OVC024 16/14 A2974 RMK AO2 P0004 T01610139 $<br><br>
KBUF 091254Z 01012G20KT 1SM R23/P6000FT +RA SCT004 BKN014 OVC024 16/13 A2973 RMK AO2 SLP067 P0048 T01610128 $<br><br>
KBUF 091237Z 02014G19KT 1 1/4SM R23/6000VP6000FT +RA BR SCT004 BKN013 OVC020 16/14 A2973 RMK AO2 P0039 T01610139 $<br><br>
KBUF 091227Z 36013G21KT 3/4SM R23/5000VP6000FT +RA BR SCT004 BKN013 OVC024 16/14 A2973 RMK AO2 P0034 T01560144 $<br><br>
KBUF 091215Z 01011KT 3/4SM R23/4000VP6000FT +RA BKN003 OVC015 16/13 A2973 RMK AO2 P0023 T01610128 $<br><br>
KBUF 091204Z 01010G20KT 3/4SM R23/5000VP6000FT +RA BR FEW003 BKN013 OVC018 16/14 A2973 RMK AO2 P0012 T01610144 $<br><br>
KBUF 091154Z 02012G17KT 1 1/4SM R23/4500VP6000FT +RA BR SCT005 BKN013 OVC018 16/14 A2973 RMK AO2 SLP066 P0030 60073 70085 T01610144 10167 20150 56023 $<br><br>
KBUF 091146Z 02013KT 1 1/2SM R23/6000VP6000FT +RA BR BKN005 BKN011 OVC016 16/14 A2974 RMK AO2 P0018 T01610139 $<br><br>
KBUF 091134Z 01009KT 2 1/2SM +RA OVC005 16/13 A2974 RMK AO2 CIG 003V010 P0009 T01610133 $<br><br>
KBUF 091224Z 0912/1012 02013KT 1SM RA BR OVC004 FM091500 02017KT 4SM -SHRA BR OVC007 FM091700 02010KT P6SM OVC007 FM092000 32007KT P6SM BKN007 FM092300 28006KT P6SM BKN012 FM100200 24006KT P6SM BKN020 FM100800 25006KT 2SM BR FEW250<br><br>
<br><br>
CYYZ 091300Z 05003KT 6SM -RA BR OVC008 16/15 A2980 RMK NS8 SLP092 DENSITY ALT 1000FT<br><br>
CYYZ 091226Z 04005KT 4SM -RA BR OVC008 15/15 A2980 RMK NS8 SLP091 DENSITY ALT 900FT<br><br>
CYYZ 091200Z 07005KT 6SM -RA BR SCT004 OVC030 15/14 A2981 RMK SF3NS5 SLP095 DENSITY ALT 900FT<br><br>
TAF CYYZ 091138Z 0912/1018 06006KT 6SM -RA BR SCT012 OVC025 TEMPO 0912/0914 3SM RA BR BKN005 OVC010 FM091400 04010KT P6SM -RA OVC015 TEMPO 0914/0916 5SM -DZ BR BKN008 OVC015 FM091700 01010KT P6SM OVC015 FM092000 33010KT P6SM BKN030 TEMPO 0920/0922 BKN020 FM100100 30006KT P6SM FEW030 FM101500 34010KT P6SM FEW050 RMK NXT FCST BY 091500Z<br><br>
<br><br>
CYOO 091300Z AUTO 06006KT 9SM -RA SCT029 BKN070 BKN094 15/14 A2979 RMK SLP089 DENSITY ALT 700FT<br><br>
CYOO 091200Z AUTO 09005KT 7SM -RA FEW010 SCT060 OVC079 15/14 A2982 RMK PCPN 2.2MM PAST HR SLP098 DENSITY ALT 700FT<br><br>
CYOO has no TAF <br><br>
<br><br>
CYTR 091300Z 04007KT 3SM RA BR SCT005 OVC024 16/16 A2983 RMK SF3SC5 SLP101<br><br>
CYTR 091245Z 35006KT 2SM RA BR OVC010 16/16 A2983 RMK SF8 SLP103<br><br>
CYTR 091234Z 02007KT 1 3/4SM +RA BR OVC009 16/16 A2984 RMK SF8 VIS VRB 1 1/4-2 1/4 SLP104<br><br>
CYTR 091222Z 03009KT 2SM RA BR OVC009 16/16 A2983 RMK SF8 SLP104<br><br>
CYTR 091208Z 04007KT 2SM +RA BR OVC010 16/16 A2984 RMK SF8 VIS VRB 1 1/2-2 1/2 SLP104<br><br>
CYTR 091200Z 02005KT 3SM RA BR BKN012 OVC030 16/16 A2984 RMK SF6SC2 SLP106<br><br>
CYTR 091122Z 03005KT 3SM RA BR OVC010 16/15 A2985 RMK SF8 SLP108<br><br>
TAF CYTR 091130Z 0912/1012 VRB03KT 2SM RA BR OVC002 TEMPO 0912/0914 4SM -RA BR SCT002 OVC015 BECMG 0912/0913 12008KT FM091400 09010KT 6SM -RA BR SCT005 OVC020 TEMPO 0914/0916 4SM -RA BR OVC005 FM091600 03012KT P6SM SCT010 OVC020 TEMPO 0916/0920 5SM -RA BR OVC010 BECMG 0918/0920 34010KT FM092000 34010KT P6SM BKN020 TEMPO 0922/0924 SCT020 FM100000 34008KT P6SM SCT020 BECMG 1000/1002 VRB03KT FM100400 VRB03KT P6SM FEW020 PROB40 1006/1012 2SM BR RMK NXT FCST BY 091800Z<br><br>
<br><br>
