RETRIEVED AT : Apr 24 2018 05:44 Local <br>
  RETRIEVED AT: Apr 24 2018 09:44 UTC<br><br>
CYSN has no TAF <br><br>
<br><br>
CYHM 240900Z 20003KT 15SM FEW100 SCT120 BKN200 BKN240 08/03 A3018 RMK AC1AC2CC2CS2 SLP224<br><br>
CYHM 240800Z 17007KT 15SM FEW100 OVC200 08/02 A3017 RMK AC2CC6 SLP221<br><br>
TAF CYHM 240538Z 2406/2506 VRB03KT P6SM BKN250 FM241000 18008KT P6SM OVC050 TEMPO 2410/2414 P6SM -SHRA FM241400 16010KT P6SM BKN050 OVC100 FM242100 15012KT P6SM -SHRA OVC040 FM250100 11008KT 5SM -SHRA BR OVC020 FM250400 08008KT 3SM -SHRA BR BKN006 OVC010 RMK NXT FCST BY 241200Z<br><br>
<br><br>
KIAG 240853Z AUTO 21006KT 10SM CLR 12/04 A3019 RMK AO2 SLP223 T01220039 53000<br><br>
KIAG 240753Z AUTO 19008KT 10SM CLR 14/04 A3019 RMK AO2 SLP221 T01390039<br><br>
KIAG 240903Z 2409/2506 20006KT P6SM BKN200 FM241200 19008KT P6SM BKN080 FM241800 19010KT P6SM OVC060 FM242100 16012KT P6SM -RA OVC040 FM250000 10007KT 4SM -RA BR OVC015<br><br>
<br><br>
KBUF 240854Z 19007KT 10SM CLR 12/ A3019 RMK AO2 SLP224 T0122 57002 $<br><br>
KBUF 240754Z 19008KT 10SM OVC230 13/05 A3020 RMK AO2 SLP225 T01330050 $<br><br>
KBUF 240903Z 2409/2506 19008KT P6SM BKN200 FM241200 18011KT P6SM BKN070 FM241800 19013KT P6SM OVC050 FM242100 15009KT P6SM -RA OVC040 FM250000 10007KT 4SM -RA BR OVC015<br><br>
<br><br>
CYYZ 240900Z 22003KT 180V250 15SM FEW180 BKN220 07/M02 A3017 RMK AC2CS4 SLP220<br><br>
CYYZ 240800Z 13002KT 15SM FEW150 BKN220 08/M03 A3017 RMK AC2CS4 SLP219<br><br>
TAF CYYZ 240838Z 2409/2512 VRB03KT P6SM BKN230 FM241000 18005KT P6SM SCT040 BKN160 TEMPO 2412/2415 P6SM -SHRA BKN040 OVC160 BECMG 2413/2415 18012KT FM241800 17012KT P6SM FEW050 OVC120 FM242100 14010KT P6SM OVC040 FM250000 12006KT P6SM -SHRA OVC030 FM250200 10005KT 4SM -SHRA BR SCT005 OVC020 PROB40 2504/2508 3SM -SHRA BR OVC005 FM250800 11008KT 3SM -SHRA BR OVC006 PROB30 2508/2512 1/2SM -SHRA FG VV002 RMK NXT FCST BY 241200Z<br><br>
<br><br>
CYOO 240900Z AUTO VRB02KT 9SM BKN230 BKN250 05/M01 A3018 RMK SLP224<br><br>
CYOO 240800Z AUTO 02002KT 9SM BKN230 OVC250 05/M00 A3018 RMK SLP225<br><br>
CYOO has no TAF <br><br>
<br><br>
CYTR 240900Z 27002KT 15SM BKN250 06/02 A3020 RMK CS6 SLP228<br><br>
CYTR 240800Z 18004KT 15SM BKN250 08/02 A3020 RMK CS6 SLP228<br><br>
TAF CYTR 240530Z 2406/2506 VRB03KT P6SM OVC250 FM241400 20008KT P6SM SCT080 OVC160 FM242300 VRB03KT P6SM OVC060 FM250500 VRB03KT P6SM -SHRA SCT020 OVC050 RMK NXT FCST BY 241200Z<br><br>
<br><br>
