RETRIEVED AT : Jun 07 2019 10:05 Local <br>
  RETRIEVED AT: Jun 07 2019 14:05 UTC<br><br>
CYSN 071300Z 00000KT 15SM FEW250 18/13 A3000 RMK CI1 SLP159 DENSITY ALT 700FT<br><br>
TAF CYSN 071239Z 0713/0801 21005KT P6SM SKC BECMG 0716/0718 35008KT BECMG 0722/0724 02005KT RMK NXT FCST BY 072000Z<br><br>
<br><br>
CYHM 071300Z 01006KT 350V050 15SM FEW250 20/11 A3000 RMK CI2 CONTRAILS SLP161 DENSITY ALT 1500FT<br><br>
TAF CYHM 071138Z 0712/0812 VRB03KT P6SM FEW200 FM071400 04007KT P6SM FEW240 BECMG 0717/0719 04012KT FM080300 03005KT P6SM SKC BECMG 0809/0811 05010KT RMK NXT FCST BY 071800Z<br><br>
<br><br>
KIAG 071353Z 25003KT 10SM CLR 18/13 A3001 RMK AO2 SLP160 T01830133<br><br>
KIAG 071253Z 20003KT 9SM CLR 15/12 A3000 RMK AO2 SLP159 T01500122<br><br>
KIAG 071224Z 00000KT 5SM BR SCT003 12/12 A3000 RMK AO2 T01220117<br><br>
KIAG 071210Z 00000KT 3SM BR BKN002 12/12 A3000 RMK AO2 T01220117<br><br>
KIAG 071126Z 0712/0812 VRB03KT 1/4SM FG VV002 TEMPO 0712/0713 4SM BR SCT003 SCT250 FM071300 VRB04KT P6SM VCFG SCT003 SCT250 FM071400 30005KT P6SM SCT250 FM071800 35007KT P6SM SCT250 FM072300 02004KT P6SM SCT250 FM080800 09004KT P6SM SCT250<br><br>
<br><br>
KBUF 071354Z 00000KT 10SM FEW140 FEW260 18/14 A3001 RMK AO2 SLP163 T01830139<br><br>
KBUF 071254Z 18003KT 6SM BR FEW003 FEW220 FEW280 14/14 A3001 RMK AO2 SLP161 T01390139<br><br>
KBUF 071236Z 00000KT 3SM BR SCT003 SCT300 13/13 A3001 RMK AO2 T01330133<br><br>
KBUF 071231Z 00000KT 2SM BR BKN002 13/13 A3001 RMK AO2 T01330133<br><br>
KBUF 071218Z 22003KT 1SM R23/P6000FT BR BKN002 13/13 A3000 RMK AO2 T01330133<br><br>
KBUF 071126Z 0712/0812 VRB03KT 1/4SM FG VV001 TEMPO 0713/0714 4SM BR SCT003 SCT200 FM071400 VRB03KT P6SM VCFG SCT003 SCT250 FM071500 30005KT P6SM SCT250 FM080000 03003KT P6SM SCT250<br><br>
<br><br>
CYYZ 071300Z 06007KT 330V070 15SM FEW250 20/09 A2999 RMK CI1 SLP156 DENSITY ALT 1200FT<br><br>
TAF CYYZ 071138Z 0712/0818 08005KT P6SM FEW250 BECMG 0714/0716 14007KT BECMG 0723/0801 02007KT FM081100 08012KT P6SM SKC BECMG 0814/0816 13010G20KT RMK NXT FCST BY 071500Z<br><br>
<br><br>
CYOO 071300Z AUTO 34007KT 9SM CLR 20/08 A2998 RMK SLP153 DENSITY ALT 1000FT<br><br>
TAF CYOO 071338Z 0714/0802 34007KT P6SM SKC BECMG 0715/0717 18007KT RMK FCST BASED ON AUTO OBS. NXT FCST BY 072000Z<br><br>
<br><br>
CYTR 071300Z 33004KT 15SM FEW250 18/10 A2996 RMK CI1 SLP147<br><br>
TAF CYTR 071130Z 0712/0812 VRB03KT P6SM SKC BECMG 0716/0718 21012KT BECMG 0800/0802 VRB03KT FM080400 04005KT P6SM SKC RMK NXT FCST BY 071800Z<br><br>
<br><br>
