RETRIEVED AT : Mar 08 2020 17:05 Local <br>
  RETRIEVED AT: Mar 08 2020 21:05 UTC<br><br>
CYSN 082000Z 22018G26KT 15SM FEW230 11/M03 A3024 RMK CI2 SLP243<br><br>
TAF CYSN 081938Z 0820/0901 22018G28KT P6SM FEW230 BECMG 0823/0901 22015KT RMK NXT FCST WILL BE ISSUED AT 091245Z<br><br>
<br><br>
CYHM 082000Z 22017G25KT 15SM BKN250 10/M03 A3022 RMK CI5 CONTRAILS SLP244<br><br>
TAF CYHM 081738Z 0818/0918 22015G28KT P6SM FEW260 FM090200 23015KT P6SM SCT150 BKN240 FM091500 23018G30KT P6SM BKN260 RMK NXT FCST BY 090000Z<br><br>
<br><br>
KIAG 082053Z 23015KT 10SM CLR 11/M06 A3023 RMK AO2 PK WND 23027/2000 SLP247 T01061056 56026<br><br>
KIAG 081953Z 23023G29KT 10SM CLR 10/M04 A3026 RMK AO2 PK WND 23029/1953 SLP256 T01001039<br><br>
KIAG 082047Z 0821/0918 23017G28KT P6SM FEW200 FM090100 21012G21KT P6SM SCT100 WS015/23045KT FM091400 22017G28KT P6SM SCT150<br><br>
<br><br>
KBUF 082054Z 23015G21KT 10SM BKN250 11/M08 A3024 RMK AO2 SLP247 T01111083 57027<br><br>
KBUF 081954Z 24019G24KT 10SM FEW200 FEW250 11/M06 A3027 RMK AO2 PK WND 24028/1855 SLP256 T01111056<br><br>
KBUF 082047Z 0821/0918 23019G30KT P6SM FEW200 FM090000 21013G19KT P6SM SCT150 WS015/22045KT FM091400 23018G30KT P6SM SCT120<br><br>
<br><br>
CYYZ 082000Z 19015G20KT 15SM FEW260 12/M01 A3020 RMK CI2 SLP233<br><br>
TAF CYYZ 082039Z 0821/0924 20015G25KT P6SM FEW150 SCT250 FM090000 20012G22KT P6SM SCT150 BKN250 BECMG 0901/0903 20012KT FM091500 22015G25KT P6SM BKN250 FM092200 22015G25KT P6SM BKN100 BKN230 RMK NXT FCST BY 090000Z<br><br>
<br><br>
CYOO 082000Z AUTO 21015G22KT 9SM CLR 08/M00 A3021 RMK SLP237<br><br>
TAF CYOO 081938Z 0820/0908 22012G22KT P6SM SCT230 FM090100 23010KT P6SM BKN140 BKN230 RMK FCST BASED ON AUTO OBS. NXT FCST BY 090200Z<br><br>
<br><br>
CYTR 082000Z 24016G22KT 15SM FEW200 09/M03 A3023 RMK CI2 SLP240<br><br>
TAF AMD CYTR 082035Z 0820/0918 24015G25KT P6SM FEW200 FM090000 24012KT P6SM BKN120 FM091000 24015KT P6SM BKN080 BKN240 BECMG 0913/0915 24015G25KT RMK NXT FCST BY 090000Z<br><br>
<br><br>
