RETRIEVED AT : May 13 2018 09:05 Local <br>
  RETRIEVED AT: May 13 2018 13:05 UTC<br><br>
CYSN 131200Z VRB02KT 15SM BKN140 09/05 A3010 RMK AC7 SLP197<br><br>
TAF CYSN 131238Z 1313/1401 VRB03KT P6SM BKN140 FM131800 02010KT P6SM FEW030 SCT120 FM140000 VRB03KT P6SM SCT020 RMK NXT FCST BY 132000Z<br><br>
<br><br>
CYHM 131200Z 04008KT 15SM BKN130 09/M02 A3010 RMK AC7 SLP200<br><br>
TAF CYHM 131138Z 1312/1412 03006KT P6SM BKN130 FM131500 05007KT P6SM FEW120 FM140300 VRB03KT P6SM FEW060 BECMG 1407/1408 23005KT RMK NXT FCST BY 131800Z<br><br>
<br><br>
KIAG 131253Z 11010KT 10SM CLR 14/08 A3009 RMK AO2 SLP194 T01390078<br><br>
KIAG 131153Z 08006KT 10SM CLR 11/06 A3010 RMK AO2 SLP196 T01110061 10111 20050 55000<br><br>
KIAG 131120Z 1312/1412 11006KT P6SM BKN150 FM131400 11007KT P6SM BKN090 FM131900 VRB03KT P6SM SCT090 FM132300 00000KT P6SM SCT035 FM140700 22004KT P6SM SCT250<br><br>
<br><br>
KBUF 131254Z 07007KT 10SM BKN130 BKN180 13/08 A3010 RMK AO2 SLP193 T01330078<br><br>
KBUF 131154Z 04007KT 10SM OVC130 12/08 A3009 RMK AO2 SLP191 OCNL BINOVC T01220078 10122 20072 55002<br><br>
KBUF 131120Z 1312/1412 12007KT P6SM BKN150 FM131400 12008KT P6SM SCT090 FM131700 15007KT P6SM BKN080 FM140200 VRB03KT P6SM BKN035 FM140700 22005KT P6SM SCT250<br><br>
<br><br>
CYYZ 131200Z 06002KT 15SM BKN150 BKN190 09/M01 A3012 RMK AC6AC1 SLP203<br><br>
TAF CYYZ 131138Z 1312/1418 13005KT P6SM BKN160 FM131500 16008KT P6SM FEW120 FM132300 18007KT P6SM FEW080 BECMG 1400/1402 20005KT BECMG 1414/1416 20010KT FM141700 21012KT P6SM BKN030 RMK NXT FCST BY 131500Z<br><br>
<br><br>
CYOO 131200Z AUTO 09004KT 9SM SCT160 BKN190 10/M02 A3014 RMK SLP209<br><br>
CYOO has no TAF <br><br>
<br><br>
CYTR 131200Z 18002KT 15SM SCT240 10/05 A3015 RMK CI3 SLP212<br><br>
TAF CYTR 131130Z 1312/1412 VRB03KT P6SM SCT240 BECMG 1313/1315 14008KT BECMG 1318/1320 24008KT FM140200 VRB03KT P6SM FEW030 RMK NXT FCST BY 131800Z<br><br>
<br><br>
