RETRIEVED AT : Oct 02 2017 04:10 Local <br>
  RETRIEVED AT: Oct 02 2017 08:10 UTC<br><br>
CYSN has no TAF <br><br>
<br><br>
CYHM 020800Z 06006KT 15SM FEW250 08/04 A3031 RMK CI1 SLP269<br><br>
CYHM 020700Z 05006KT 15SM FEW250 07/05 A3031 RMK CI2 SLP269<br><br>
TAF CYHM 020538Z 0206/0306 VRB03KT P6SM FEW240 BECMG 0215/0217 06007KT BECMG 0304/0306 14006KT RMK NXT FCST BY 021200Z<br><br>
<br><br>
KIAG 020753Z AUTO 10004KT 9SM CLR 07/04 A3032 RMK AO2 SLP272 T00670044<br><br>
KIAG 020653Z AUTO 07004KT 9SM CLR 07/05 A3032 RMK AO2 SLP273 T00720050<br><br>
KIAG 020520Z 0206/0306 VRB03KT P6SM FEW250 FM021300 12004KT P6SM FEW200 FM022000 08006KT P6SM FEW200 FM030200 12004KT P6SM FEW200<br><br>
<br><br>
KBUF 020754Z 11004KT 10SM CLR 07/04 A3032 RMK AO2 SLP271 T00720044 $<br><br>
KBUF 020654Z 11004KT 10SM CLR 08/05 A3033 RMK AO2 SLP272 T00780050 $<br><br>
KBUF 020520Z 0206/0306 VRB03KT P6SM FEW250 FM021300 12004KT P6SM FEW200 FM022000 08005KT P6SM FEW200 FM030200 12005KT P6SM FEW200<br><br>
<br><br>
CYYZ 020800Z 01004KT 15SM SKC 08/06 A3033 RMK SLP273<br><br>
CYYZ 020700Z 00000KT 15SM SKC 09/06 A3033 RMK SLP274<br><br>
TAF CYYZ 020538Z 0206/0312 VRB03KT P6SM FEW240 BECMG 0216/0218 12010KT BECMG 0300/0302 VRB03KT RMK NXT FCST BY 020900Z<br><br>
<br><br>
CYOO 020800Z AUTO 01005KT 9SM CLR 05/04 A3034 RMK SLP278<br><br>
CYOO 020700Z AUTO 36005KT 9SM CLR 05/04 A3034 RMK SLP277<br><br>
CYOO has no TAF <br><br>
<br><br>
CYTR 020800Z 04002KT 15SM FEW250 03/03 A3035 RMK CI1 SLP282<br><br>
CYTR 020700Z 34002KT 15SM FEW250 03/03 A3036 RMK CI1 SLP283<br><br>
TAF CYTR 020530Z 0206/0306 VRB03KT P6SM SKC TEMPO 0208/0212 4SM BR PROB30 0208/0212 1/2SM FG FM021600 14008KT P6SM SCT250 BECMG 0300/0302 VRB03KT RMK NXT FCST BY 021200Z<br><br>
<br><br>
