RETRIEVED AT : Mar 06 2020 09:05 Local <br>
  RETRIEVED AT: Mar 06 2020 14:05 UTC<br><br>
CYSN 061341Z 28003KT 1SM -SN OVC003 00/00 A2984 RMK SF8 SLP112<br><br>
CYSN 061320Z 24005KT 2SM -SN OVC005 00/00 A2984 RMK SF8 SLP110<br><br>
CYSN 061300Z 30005KT 3SM -SN OVC021 00/00 A2983 RMK SC8 SLP107<br><br>
CYSN 061222Z 26009KT 250V330 3SM -SN OVC032 M00/M00 A2982 RMK SC8 PRESRR SLP105<br><br>
TAF CYSN 061341Z 0614/0702 24005KT 3SM -SN OVC010 TEMPO 0614/0616 1/2SM SN VV005 FM061600 01012KT P6SM OVC030 TEMPO 0616/0618 5SM -RASN BR OVC008 FM061800 03018G28KT P6SM OVC030 TEMPO 0618/0702 5SM -RA BR OVC015 RMK NXT FCST BY 062000Z<br><br>
<br><br>
CYHM 061334Z 34009KT 1SM R12/6000FT/U -SN VV004 M01/M01 A2985 RMK SN8 SLP120<br><br>
CYHM 061300Z 33006KT 5/8SM R12/5000FT/N -SN VV003 M00/M01 A2984 RMK SN8 SLP115<br><br>
TAF AMD CYHM 061145Z 0612/0712 01008KT 1SM -SN BKN007 OVC015 TEMPO 0612/0618 3SM -SN OVC015 PROB40 0612/0616 3/4SM -SN VV002 FM061800 04012G22KT 4SM -SNRA BR OVC015 TEMPO 0618/0624 P6SM -RASN OVC025 BECMG 0620/0622 02015G25KT FM070000 01012G22KT P6SM OVC012 BECMG 0703/0705 36012KT FEW012 RMK NXT FCST BY 061800Z<br><br>
<br><br>
KIAG 061353Z 34004KT 6SM SN BR FEW029 OVC038 01/M02 A2983 RMK AO2 UPE1254SNB00 SLP116 P0000 T00061017<br><br>
KIAG 061253Z COR 24005KT 8SM BKN037 OVC048 M01/M02 A2982 RMK AO2 UPB41 SLP112 P0000 T10061022<br><br>
KIAG 061332Z 0614/0712 VRB04KT 6SM -SN OVC035 TEMPO 0614/0616 2SM -SHSN BKN025 FM061600 36012KT 6SM -SHRASN SCT015 OVC025 TEMPO 0617/0621 3SM -SHSN FM062100 36014G26KT 2SM -SHSN OVC007 FM070100 36014G24KT 4SM BR VCSH OVC015 FM070400 36012G22KT P6SM BKN025 FM070800 36010G17KT P6SM BKN035<br><br>
<br><br>
KBUF 061354Z 26007KT 3SM -SN FEW020 BKN035 OVC050 02/M01 A2984 RMK AO2 SLP111 SNB02 P0000 T00171011<br><br>
KBUF 061351Z COR 25008KT 2 1/2SM -SN FEW020 BKN035 OVC050 02/M01 A2984 RMK AO2 SNB02 P0000<br><br>
KBUF 061254Z 22008KT 10SM SCT045 OVC065 03/M03 A2981 RMK AO2 SLP102 T00281028<br><br>
KBUF 061355Z 0614/0712 25008KT 2SM -SN BKN035 FM061415 VRB04KT P6SM VCSH BKN060 FM061600 30008KT 6SM -SHRASN SCT015 OVC025 TEMPO 0617/0621 3SM -SHSN FM062100 01014G26KT 2SM -SHSN OVC007 FM070200 36012G20KT 4SM BR VCSH OVC015 FM070600 36010KT P6SM BKN025<br><br>
<br><br>
CYYZ 061300Z 03008KT 15SM SCT025 OVC056 00/M04 A2986 RMK SC4SC4 SLP120<br><br>
TAF CYYZ 061141Z 0612/0718 03012KT P6SM -SHSN SCT020 BKN040 OVC140 TEMPO 0612/0617 5SM -SHSN BECMG 0614/0616 03012G22KT FM061700 02012G22KT P6SM -RASN OVC015 TEMPO 0618/0621 5SM -SNRA BR BECMG 0619/0621 01017G27KT FM070000 01017G27KT P6SM BKN015 OVC040 BECMG 0701/0703 01012G22KT FM070400 36012KT P6SM SCT030 FM071400 34005KT P6SM SKC BECMG 0715/0717 VRB03KT RMK NXT FCST BY 061500Z<br><br>
<br><br>
CYOO 061300Z AUTO 04010KT 9SM OVC110 01/M04 A2986 RMK SLP119<br><br>
TAF CYOO 061345Z 0614/0702 04010G20KT P6SM OVC050 TEMPO 0614/0617 5SM -SN FM061700 01012G22KT P6SM -RASN OVC015 TEMPO 0617/0702 5SM -SN BR RMK FCST BASED ON AUTO OBS. NXT FCST BY 062000Z<br><br>
<br><br>
CYTR 061300Z 05013G18KT 15SM FEW090 FEW150 01/M04 A2989 RMK AC1AC2 SLP127<br><br>
TAF CYTR 061130Z 0612/0712 07008G18KT P6SM BKN120 BECMG 0614/0616 05012G22KT FM061600 05012G22KT P6SM BKN025 OVC080 TEMPO 0616/0623 5SM -SHSNRA BKN020 OVC080 BECMG 0618/0620 04018G28KT FM062300 03018G28KT P6SM BKN025 OVC080 BECMG 0702/0704 01015KT FM070500 01015KT P6SM SCT025 FM070800 36008KT P6SM SKC RMK NXT FCST BY 061800Z<br><br>
<br><br>
