RETRIEVED AT : Oct 10 2017 00:10 Local <br>
  RETRIEVED AT: Oct 10 2017 04:10 UTC<br><br>
CYSN has no TAF <br><br>
<br><br>
CYHM 100400Z 25006KT 1/4SM R12/1000FT/N FG BKN056 16/16 A3003 RMK FG6SC1 SLP171 DENSITY ALT 1000FT<br><br>
CYHM 100300Z 26005KT 3/8SM R12/2000FT/N FG BKN056 15/15 A3003 RMK FG4SC1 SLP171 DENSITY ALT 900FT<br><br>
CYHM 100250Z 25005KT 1/4SM R12/2000FT/N FG FEW056 15/15 A3002 RMK SC2 SLP169 DENSITY ALT 900FT<br><br>
TAF AMD CYHM 100304Z 1003/1024 25005KT 1/4SM FG VV002 TEMPO 1003/1013 2SM BR SCT002 PROB30 1008/1012 1/8SM FG FM101300 VRB03KT 3SM BR FEW004 FM101600 33007KT P6SM SCT040 SCT150 RMK NXT FCST BY 100600Z<br><br>
<br><br>
KIAG 100353Z AUTO 24008KT 6SM BR OVC007 19/17 A3002 RMK AO2 CIG 006V011 SLP165 T01890167<br><br>
KIAG 100253Z 22010KT 6SM BR BKN006 19/17 A3001 RMK AO2 SLP161 T01890167 51021<br><br>
KIAG 100244Z 21008KT 6SM HZ BKN007 19/16 A3001 RMK AO2 T01890161<br><br>
KIAG 100224Z 22008KT 6SM HZ SCT006 19/16 A3000 RMK AO2 T01890161<br><br>
KIAG 100217Z 22006KT 6SM HZ BKN006 19/16 A3000 RMK AO2 T01890161<br><br>
KIAG 100245Z 1003/1024 22008KT P6SM SCT006 FM100400 23004KT P6SM SCT110 FM100700 VRB03KT P6SM FEW250 FM101500 30004KT P6SM FEW250 FM102300 35005KT P6SM SCT200<br><br>
<br><br>
KBUF 100354Z 23007KT 10SM OVC012 19/17 A3002 RMK AO2 SLP165 T01890172 $<br><br>
KBUF 100254Z 23009KT 10SM OVC009 19/17 A3002 RMK AO2 CIG 007V012 SLP164 60000 T01890172 51018 $<br><br>
KBUF 100245Z 1003/1024 21008KT P6SM OVC009 FM100400 23005KT P6SM SCT012 FM100800 VRB03KT P6SM FEW250 FM101500 28004KT P6SM FEW250 FM102300 36004KT P6SM SCT200<br><br>
<br><br>
CYYZ 100400Z 31006KT 15SM SKC 16/14 A3001 RMK SLP163 DENSITY ALT 800FT<br><br>
CYYZ 100300Z 30006KT 15SM SKC 17/15 A3000 RMK SLP161 DENSITY ALT 900FT<br><br>
TAF CYYZ 100238Z 1003/1106 VRB03KT P6SM FEW040 BECMG 1003/1005 30005KT FM101600 35010KT P6SM FEW040 FM102300 36015KT P6SM SCT040 SCT150 RMK NXT FCST BY 100600Z<br><br>
<br><br>
CYOO 100400Z AUTO 00000KT 9SM SCT034 13/12 A3000 RMK SLP163<br><br>
CYOO 100300Z AUTO 36002KT 9SM BKN037 14/13 A2999 RMK SLP159<br><br>
CYOO has no TAF <br><br>
<br><br>
CYTR 100400Z 00000KT 3SM BR BCFG FEW035 14/14 A2999 RMK SC1 SLP157<br><br>
CYTR 100338Z 00000KT 3SM BR BCFG FEW035 15/15 A2998 RMK SC1 SLP154<br><br>
CYTR 100300Z 22003KT 15SM FEW035 16/16 A2998 RMK SC1 SLP152<br><br>
TAF AMD CYTR 100351Z 1003/1024 VRB03KT 1/4SM FG VV001 TEMPO 1003/1013 3SM BR SCT030 FM101300 VRB03KT 2SM BR BKN008 BECMG 1013/1015 P6SM NSW BKN030 FM101700 22010KT P6SM BKN030 RMK NXT FCST BY 100600Z<br><br>
<br><br>
