RETRIEVED AT : Oct 08 2017 01:10 Local <br>
  RETRIEVED AT: Oct 08 2017 05:10 UTC<br><br>
CYSN has no TAF <br><br>
<br><br>
CYHM 080505Z 20021G28KT 10SM -RA FEW020 OVC041 22/16 A2963 RMK CF2SC6 PRESRR SLP032 DENSITY ALT 2200FT<br><br>
CYHM 080500Z 20017G25KT 15SM OVC055 24/15 A2962 RMK SC8 SLP028 DENSITY ALT 2300FT<br><br>
CYHM 080430Z 19015G22KT 15SM -RA FEW010 OVC062 23/16 A2963 RMK CF1SC7 SLP030 DENSITY ALT 2300FT<br><br>
CYHM 080400Z 19015G25KT 15SM BKN086 OVC140 23/15 A2964 RMK AC7AC1 SLP035 DENSITY ALT 2300FT<br><br>
TAF CYHM 072338Z 0800/0824 20015KT P6SM FEW190 FM080200 19012KT WS005/19040KT P6SM BKN080 FM080500 20015KT WS005/20040KT P6SM -SHRA BKN050 TEMPO 0805/0809 4SM SHRA BR BKN020 OVC040 PROB30 0805/0808 VRB25G40KT 2SM +TSRA BKN008 OVC020CB FM080900 23015G30KT P6SM BKN025 FM081600 24015KT P6SM SKC BECMG 0821/0823 20007KT RMK NXT FCST BY 080600Z<br><br>
<br><br>
KIAG 080453Z AUTO 18012G19KT 10SM SCT090 24/15 A2965 RMK AO2 SLP035 T02440150 402780183<br><br>
KIAG 080353Z AUTO 17008KT 10SM CLR 24/14 A2969 RMK AO2 SLP048 T02390144<br><br>
KIAG 080328Z 0803/0824 19011G20KT P6SM SKC FM080500 19017G29KT 6SM SHRA VCTS OVC035CB FM080900 21022G43KT 6SM -SHRA OVC020 FM081000 22023G43KT P6SM BKN020 FM081200 24018G36KT P6SM SCT025 FM082000 23011KT P6SM SKC<br><br>
<br><br>
KBUF 080454Z 19017G26KT 10SM SCT090 BKN180 OVC250 24/15 A2967 RMK AO2 PK WND 20026/0451 SLP044 T02440150 402720172<br><br>
KBUF 080354Z 17014G19KT 10SM FEW035 SCT070 SCT250 24/15 A2970 RMK AO2 SLP053 T02390150<br><br>
KBUF 080328Z 0803/0824 18015KT P6SM SKC FM080500 19016G30KT 4SM SHRA VCTS OVC035CB FM080900 21022G43KT 5SM -SHRA OVC015 FM081100 25018G33KT P6SM SCT020 FM081400 25017G29KT P6SM SCT020 FM081900 24011KT P6SM FEW250<br><br>
<br><br>
CYYZ 080500Z 21015G22KT 170V240 10SM -RA BKN065 21/17 A2963 RMK SC7 SLP033 DENSITY ALT 1800FT<br><br>
CYYZ 080454Z 22012G20KT 180V240 6SM -RA BKN065 23/16 A2964 RMK SC7 PRESRR SLP037 DENSITY ALT 2000FT<br><br>
CYYZ 080400Z 17007KT 15SM SCT075 BKN140 BKN250 22/16 A2963 RMK AC4AC2CI1 SLP035 DENSITY ALT 1900FT<br><br>
TAF AMD CYYZ 080504Z 0805/0906 22015G25KT P6SM -RA BKN060 TEMPO 0805/0807 VRB30G40KT 2SM +TSRA BKN008 OVC020CB FM080700 22020G30KT P6SM -SHRA BKN050 TEMPO 0807/0809 4SM SHRA BR SCT020 BKN040 PROB30 0807/0808 VRB30G40KT 2SM +TSRA BKN008 OVC020CB FM080900 24020G35KT P6SM BKN025 TEMPO 0809/0816 BKN020 BECMG 0810/0812 24015G30KT FM081600 24010G20KT P6SM BKN040 FM081900 24010KT P6SM SKC BECMG 0821/0823 20008KT FM090200 VRB03KT P6SM SCT220 RMK NXT FCST BY 080600Z<br><br>
<br><br>
CYOO 080500Z AUTO 11004KT 9SM BKN070 OVC085 20/15 A2963 RMK SLP033 DENSITY ALT 1400FT<br><br>
CYOO 080400Z AUTO 14004KT 9SM OVC075 20/15 A2966 RMK SLP046 DENSITY ALT 1400FT<br><br>
CYOO has no TAF <br><br>
<br><br>
CYTR 080500Z 18007KT 15SM OVC079 22/16 A2968 RMK AC8 SLP050<br><br>
CYTR 080400Z 17009KT 15SM BKN100 23/16 A2970 RMK AC7 SLP058<br><br>
TAF CYTR 072330Z 0800/0824 19004KT P6SM FEW080 BKN160 OVC250 FM080300 20012KT WS005/18037KT P6SM FEW020 BKN080 OVC160 TEMPO 0806/0808 5SM -SHRA BR BKN020 OVC080 PROB30 0806/0808 VRB20G35KT 1SM TSRA BR BKN006 OVC020CB FM080800 20015G25KT 3SM -SHRA BR BKN010 OVC025 TEMPO 0808/0811 6SM -SHRA BR SCT010 BKN025 PROB30 0808/0811 VRB20G40KT 1SM TSRA BR BKN008 OVC025CB FM081100 24020G35KT P6SM FEW015 OVC030 TEMPO 0811/0814 5SM -SHRA BR BKN015 OVC030 FM081800 26012G22KT P6SM SCT030 BECMG 0821/0823 24010KT RMK NXT FCST BY 080600Z<br><br>
<br><br>
