RETRIEVED AT : Sep 02 2018 21:54 Local <br>
  RETRIEVED AT: Sep 03 2018 01:54 UTC<br><br>
CYSN 030100Z 20009KT 15SM SKC 24/22 A3009 RMK LAST STFD OS/NEXT 03 1100UTC SLP190 DENSITY ALT 1300FT<br><br>
CYSN 030000Z 20007KT 15SM FEW250 26/22 A3008 RMK CI2 SLP187 DENSITY ALT 1500FT<br><br>
TAF CYSN 021938Z 0220/0301 23012G22KT P6SM FEW020 FM022200 21008KT P6SM SCT060 BECMG 0223/0301 VRB03KT RMK NXT FCST WILL BE ISSUED AT 031245Z<br><br>
<br><br>
CYHM 030100Z 21006KT 15SM FEW250 23/21 A3012 RMK CI1 CI TR SLP197 DENSITY ALT 1700FT<br><br>
CYHM 030000Z 22007KT 15SM BKN250 25/21 A3010 RMK CI5 SLP192 DENSITY ALT 1900FT<br><br>
TAF CYHM 022338Z 0300/0324 22008KT P6SM FEW030 FM031400 24010KT P6SM BKN050 BECMG 0315/0317 24010G20KT FM031700 24010G20KT P6SM -SHRA SCT015 BKN030 RMK NXT FCST BY 030600Z<br><br>
<br><br>
KIAG 030053Z 20009KT 10SM CLR 24/21 A3012 RMK AO2 SLP195 T02390211<br><br>
KIAG 022339Z 0300/0324 22009KT P6SM FEW250 FM031100 22010KT P6SM SCT250 FM031500 24015G22KT P6SM SCT040 FM031700 24017G26KT P6SM VCSH BKN040 FM032200 24012KT P6SM VCSH BKN040<br><br>
<br><br>
KBUF 030054Z 23005KT 10SM FEW250 24/22 A3014 RMK AO2 SLP202 T02390217<br><br>
KBUF 022339Z 0300/0324 22008KT P6SM FEW250 FM031100 22010KT P6SM SCT250 FM031500 23016G25KT P6SM SCT250 FM032300 24011KT P6SM SCT070<br><br>
<br><br>
CYYZ 030100Z 21006KT 15SM SKC 27/21 A3009 RMK SLP188 DENSITY ALT 1900FT<br><br>
CYYZ 030000Z 23008KT 15SM FEW040 SCT280 28/21 A3008 RMK SC1CI4 SC TR SLP184 DENSITY ALT 2000FT<br><br>
TAF CYYZ 022338Z 0300/0406 24008KT P6SM FEW040 BECMG 0314/0316 25010G20KT FM031700 25010G20KT P6SM -SHRA BKN040 FM032300 36008KT P6SM FEW050 FM040300 01005KT P6SM SCT030 RMK NXT FCST BY 030300Z<br><br>
<br><br>
CYOO 030100Z AUTO 21003KT 9SM CLR 25/22 A3009 RMK SLP189 DENSITY ALT 1500FT<br><br>
CYOO 030029Z AUTO VRB02KT 6SM HZ SCT045 25/22 A3009 RMK SLP188 DENSITY ALT 1500FT<br><br>
CYOO 030021Z AUTO 18003KT 150V210 5SM HZ SCT045 BKN055 BKN089 25/22 A3008 RMK SLP187 DENSITY ALT 1500FT<br><br>
CYOO 030000Z AUTO 18003KT 9SM SCT045 BKN055 BKN090 25/22 A3008 RMK SLP187 DENSITY ALT 1500FT<br><br>
CYOO has no TAF <br><br>
<br><br>
CYTR 030100Z 20003KT 15SM BKN120 BKN240 24/22 A3009 RMK AC5CI1 SLP190<br><br>
CYTR 030000Z 25005KT 15SM FEW030 BKN070 BKN200 25/21 A3008 RMK SC1AC5CI2 SLP187<br><br>
TAF CYTR 022330Z 0300/0324 23008KT P6SM FEW020 SCT080 BKN200 FM030600 23006KT P6SM SCT030 BKN080 BECMG 0311/0313 24012G22KT FM031600 25012G22KT P6SM BKN030 OVC060 FM031800 25010G20KT 6SM -SHRA BR OVC030 PROB30 0318/0322 VRB15G25KT 3SM TSRA BR OVC020CB RMK NXT FCST BY 030600Z<br><br>
<br><br>
