RETRIEVED AT : Feb 21 2020 09:05 Local <br>
  RETRIEVED AT: Feb 21 2020 14:05 UTC<br><br>
CYSN 211300Z 24010KT 15SM FEW030 M07/M13 A3049 RMK SC1 SLP334<br><br>
TAF CYSN 211338Z 2114/2202 24010KT P6SM FEW030 BECMG 2116/2118 24015G25KT BECMG 2120/2122 24020G30KT RMK NXT FCST BY 212000Z<br><br>
<br><br>
CYHM 211300Z 24011KT 15SM FEW015 M09/M14 A3045 RMK SC1 SC TR SLP330<br><br>
TAF CYHM 211138Z 2112/2212 24008KT P6SM SKC BECMG 2113/2115 24012G22KT BECMG 2117/2119 23018G28KT FM220400 24015KT P6SM SKC FM220900 24015KT P6SM OVC020 RMK NXT FCST BY 211800Z<br><br>
<br><br>
KIAG 211353Z 25016KT 10SM CLR M06/M13 A3048 RMK AO2 SLP341 T10611128<br><br>
KIAG 211253Z 24010KT 10SM CLR M08/M13 A3048 RMK AO2 SLP342 T10781133<br><br>
KIAG 211133Z 2112/2212 24011KT P6SM FEW025 FEW250 FM211400 24011G19KT P6SM FEW250 FM211700 23018G25KT P6SM SKC FM220400 24015G24KT P6SM SKC<br><br>
<br><br>
KBUF 211354Z 26011KT 10SM FEW026 M04/M12 A3047 RMK AO2 SLP332 T10441122<br><br>
KBUF 211254Z 26009KT 10SM FEW026 M07/M15 A3047 RMK AO2 SLP333 T10671150<br><br>
KBUF 211133Z 2112/2212 24009KT P6SM BKN025 FM211400 24010G16KT P6SM FEW250 FM211700 24015G25KT P6SM FEW250 FM220400 24015G25KT P6SM SKC<br><br>
<br><br>
CYYZ 211300Z 17011KT 15SM SKC M09/M14 A3044 RMK SLP322<br><br>
TAF CYYZ 211138Z 2112/2218 21008KT P6SM SKC FM211400 24012KT P6SM SKC BECMG 2116/2118 24015G25KT FM220400 24015KT P6SM SKC FM220900 24015KT P6SM OVC020 FM221500 23015G25KT P6SM BKN020 RMK NXT FCST BY 211500Z<br><br>
<br><br>
CYOO 211300Z AUTO 00000KT 9SM CLR M13/M15 A3044 RMK SLP321<br><br>
TAF CYOO 211338Z 2114/2202 25005KT P6SM SKC BECMG 2116/2118 25010G20KT FM212100 25015G25KT P6SM SKC RMK FCST BASED ON AUTO OBS. NXT FCST BY 212000Z<br><br>
<br><br>
CYTR 211300Z 26011KT 15SM FEW035 M06/M12 A3044 RMK SC1 SLP314<br><br>
TAF CYTR 211130Z 2112/2212 24008KT P6SM FEW040 BECMG 2115/2117 25012G22KT BECMG 2119/2121 24015G25KT FM220000 25012KT P6SM FEW030 FM220800 26008KT P6SM BKN030 RMK NXT FCST BY 211800Z<br><br>
<br><br>
