RETRIEVED AT : Oct 30 2017 16:10 Local <br>
  RETRIEVED AT: Oct 30 2017 20:10 UTC<br><br>
CYSN 302000Z 24017G28KT 15SM FEW030 OVC045 08/03 A2952 RMK SC2SC6 SLP998<br><br>
CYSN 301900Z 25019G29KT 15SM SCT035 OVC072 09/03 A2949 RMK SC3CC5 SLP989<br><br>
CYSN 301842Z 25017G25KT 15SM SCT030 OVC062 09/03 A2949 RMK SC4SC4 SLP988<br><br>
TAF CYSN 301938Z 3020/3101 25020G30KT P6SM SCT020 BKN070 TEMPO 3020/3101 P6SM -SHRA BKN020 RMK NXT FCST WILL BE ISSUED AT 311245Z<br><br>
<br><br>
CYHM 302000Z 24014G24KT 15SM -SHRA BKN015 OVC036 05/03 A2952 RMK SC7SC1 SLP003<br><br>
CYHM 301900Z 24016G24KT 15SM -SHRA BKN018 OVC050 05/02 A2950 RMK SC6SC2 SLP995<br><br>
TAF CYHM 301738Z 3018/3118 24020G35KT P6SM OVC040 TEMPO 3019/3022 6SM -SHRA BR OVC020 BECMG 3022/3024 25018G28KT FM310300 25015G25KT P6SM SCT020 BKN040 FM310800 24015KT P6SM BKN020 FM311600 25015G25KT P6SM BKN040 RMK NXT FCST BY 310000Z<br><br>
<br><br>
KIAG 301953Z 23014G26KT 8SM -RA BKN022 OVC027 08/03 A2952 RMK AO2 PK WND 24030/1909 SLP002 P0000 T00780033<br><br>
KIAG 301853Z 24023G31KT 10SM -RA OVC028 09/03 A2949 RMK AO2 PK WND 26033/1805 SLP994 P0000 T00890033<br><br>
KIAG 301728Z 3018/3118 25025G35KT P6SM SCT030 BKN070 FM301900 26025G40KT P6SM OVC040 FM302100 26021G33KT P6SM BKN060<br><br>
<br><br>
KBUF 301954Z 24016G33KT 8SM RA BKN027 OVC033 07/04 A2952 RMK AO2 PK WND 23038/1856 SLP001 P0002 T00670039<br><br>
KBUF 301919Z 24022G35KT 10SM -RA BKN027 BKN033 OVC042 07/03 A2951 RMK AO2 PK WND 23038/1856 P0000 T00720033<br><br>
KBUF 301854Z 23020G35KT 10SM -RA BKN031 BKN044 BKN070 08/02 A2949 RMK AO2 PK WND 24040/1840 SLP992 PCPN VRY LGT P0000 T00780022<br><br>
KBUF 301852Z 24024G35KT 10SM -RA BKN031 BKN044 BKN070 08/02 A2949 RMK AO2 PK WND 24040/1840 PCPN VRY LGT P0000<br><br>
KBUF 301728Z 3018/3118 25020G35KT P6SM -SHRA SCT025 OVC035 FM302100 25024G38KT 2SM +RA OVC012 FM310100 25020G28KT 4SM RA OVC015 TEMPO 3101/3102 2SM -SHRA OVC007 FM310300 25020G28KT P6SM BKN060 FM311200 25014G22KT 6SM -RA OVC020<br><br>
<br><br>
CYYZ 302000Z 25019G29KT 15SM OVC022 07/02 A2948 RMK SC8 SLP988<br><br>
CYYZ 301946Z 25020G29KT 15SM OVC022 07/01 A2947 RMK SC8 SLP986<br><br>
CYYZ 301906Z 24023G30KT 15SM -RA BKN030 OVC075 07/00 A2946 RMK SC7AC1 SLP980<br><br>
CYYZ 301900Z 25018G28KT 15SM BKN030 OVC075 08/01 A2946 RMK SC7AC1 PRESRR SLP981<br><br>
TAF CYYZ 301738Z 3018/3124 25018G28KT P6SM SCT020 BKN040 TEMPO 3018/3020 BKN020 FM302000 25020G30KT P6SM OVC030 TEMPO 3020/3024 P6SM -SHRA OVC020 FM310100 24015G25KT P6SM BKN040 FM311000 24015KT P6SM BKN020 FM311500 25015G25KT P6SM BKN030 BECMG 3120/3122 24012G22KT RMK NXT FCST BY 302100Z<br><br>
<br><br>
CYOO 302000Z AUTO 25015G21KT 9SM OVC039 08/00 A2945 RMK SLP978<br><br>
CYOO 301900Z AUTO 25012G21KT 9SM BKN043 BKN050 OVC060 08/00 A2943 RMK SLP971<br><br>
CYOO 301833Z AUTO 25011KT 220V280 9SM SCT035 BKN044 OVC055 08/02 A2944 RMK SLP973<br><br>
CYOO has no TAF <br><br>
<br><br>
CYTR 302000Z 25017G26KT 15SM FEW030 OVC043 08/03 A2944 RMK SC2SC6 SLP973<br><br>
CYTR 301900Z 24022G32KT 15SM BKN034 BKN060 09/02 A2942 RMK SC6SC2 SLP965<br><br>
TAF CYTR 301730Z 3018/3118 27020G35KT P6SM BKN040 BECMG 3019/3021 25015G25KT FM302100 25015G25KT P6SM SCT020 BKN040 TEMPO 3021/3107 P6SM -SHRA BKN020 OVC040 FM310700 25015G25KT P6SM SCT040 FM311300 25022G35KT P6SM BKN030 RMK NXT FCST BY 310000Z<br><br>
<br><br>
