RETRIEVED AT : Jan 07 2019 01:05 Local <br>
  RETRIEVED AT: Jan 07 2019 06:05 UTC<br><br>
CYSN has no TAF <br><br>
<br><br>
CYHM 070500Z 06010KT 15SM FEW026 BKN200 M05/M10 A3042 RMK CU1CS7 CU TR SLP313<br><br>
TAF CYHM 070540Z 0706/0806 04010KT P6SM OVC220 FM071200 08015KT P6SM OVC120 FM071600 08015G25KT P6SM OVC080 TEMPO 0716/0719 2SM -SNPL BKN012 OVC040 FM071900 11015G25KT P6SM FEW040 OVC100 FM072300 13012G22KT P6SM OVC080 FM080100 16015G25KT P6SM -RA OVC030 FM080300 19020G35KT 4SM -RA BR OVC012 RMK NXT FCST BY 071200Z<br><br>
<br><br>
KIAG 070553Z AUTO 06010KT 10SM CLR M06/M11 A3044 RMK AO2 SLP326 T10561111 11028 21056 51001 $<br><br>
KIAG 070453Z AUTO 06006KT 10SM CLR M06/M12 A3044 RMK AO2 SLP326 T10561117 400331056 $<br><br>
KIAG 070531Z 0706/0806 05007KT P6SM FEW035 BKN250 FM071100 10007KT P6SM BKN120 FM071400 11011G17KT P6SM OVC100 FM071800 12013G19KT 5SM -FZRAPL OVC050 FM072000 13015G24KT P6SM OVC080 WS020/18040KT FM080200 18016G28KT 6SM -RA OVC035 WS020/19045KT<br><br>
<br><br>
KBUF 070554Z 05007KT 10SM BKN250 M06/M11 A3044 RMK AO2 SLP318 60000 T10561106 11022 21056 51003<br><br>
KBUF 070454Z 05006KT 10SM FEW032 SCT220 M06/M11 A3043 RMK AO2 SLP317 T10561111 400391056<br><br>
KBUF 070531Z 0706/0806 05008KT P6SM FEW035 BKN250 FM071100 09008KT P6SM BKN120 FM071500 10010G16KT P6SM OVC090 FM071800 12012G18KT 5SM -FZRAPL OVC060 FM072000 13015G25KT P6SM OVC080 WS020/18045KT FM080200 18017G27KT 6SM -RA OVC035 WS020/19045KT FM080500 19018G31KT P6SM OVC025 WS020/21045KT<br><br>
<br><br>
CYYZ 070500Z 05007KT 15SM OVC220 M07/M14 A3046 RMK CI8 SLP326<br><br>
TAF CYYZ 070540Z 0706/0812 04010KT P6SM OVC220 FM071100 07010KT P6SM SCT012 OVC120 TEMPO 0711/0717 BKN012 OVC100 FM071700 10015KT 11/2SM -SN BKN012 OVC040 TEMPO 0717/0720 P6SM NSW OVC080 PROB30 0718/0720 5SM -PL -SN FM072000 10015G25KT P6SM BKN030 OVC100 FM080100 11012G22KT P6SM -RA OVC030 PROB30 0801/0803 5SM -FZRA BR FM080300 16012G22KT 4SM -RA BR OVC010 BECMG 0804/0806 20020G30KT FM080600 20020G30KT 5SM -RA -DZ BR OVC007 FM080800 25015G25KT P6SM OVC012 FM081100 26010KT P6SM OVC015 RMK NXT FCST BY 070900Z<br><br>
<br><br>
CYOO 070500Z AUTO 02009KT 9SM CLR M09/M13 A3048 RMK SLP331<br><br>
TAF CYOO 070138Z 0702/0714 01008KT P6SM SKC FM071100 05012KT P6SM OVC150 TEMPO 0713/0714 BKN010 OVC120 RMK FCST BASED ON AUTO OBS. NXT FCST BY 070800Z<br><br>
<br><br>
CYTR 070500Z 02007KT 15SM FEW200 M10/M14 A3052 RMK CI1 SLP340<br><br>
TAF CYTR 070530Z 0706/0806 02008KT P6SM SCT200 FM071300 05010G20KT P6SM BKN160 FM071800 09010G20KT P6SM -SN BKN030 OVC080 FM072200 11012G22KT 3SM -SN BKN015 OVC030 PROB30 0722/0805 1SM -FZRA -PL BR OVC009 FM080500 17012G22KT 5SM -RA BR OVC010 RMK NXT FCST BY 071200Z<br><br>
<br><br>
