RETRIEVED AT : Dec 09 2017 17:10 Local <br>
  RETRIEVED AT: Dec 09 2017 22:10 UTC<br><br>
TAF CYSN 091938Z 0920/1002 22007KT P6SM OVC060 FM100000 22005KT P6SM -SN BKN020 OVC060 RMK NXT FCST WILL BE ISSUED AT 101345Z<br><br>
<br><br>
TAF CYHM 091742Z 0918/1018 21012KT P6SM FEW020 BKN080 BECMG 0920/0922 22007KT FM100000 22005KT P6SM -SN BKN030 OVC060 BECMG 1002/1004 28007KT FM101500 26015G25KT 6SM -SN BKN030 RMK NXT FCST BY 100000Z<br><br>
<br><br>
KIAG 092153Z 28004KT 10SM FEW075 FEW100 01/M09 A2976 RMK AO2 SLP091 T00061094<br><br>
KIAG 092053Z 00000KT 10SM OVC085 01/M09 A2974 RMK AO2 SLP085 T00111094 55005<br><br>
KIAG 091721Z 0918/1018 20010KT P6SM BKN120 FM092300 VRB03KT P6SM OVC090 FM100200 26004KT P6SM VCSH BKN080 FM100600 26007KT P6SM VCSH OVC045 FM101200 28011G19KT P6SM BKN040 FM101500 27015G26KT P6SM OVC050<br><br>
<br><br>
KBUF 092154Z 29004KT 10SM BKN095 BKN120 M02/M09 A2975 RMK AO2 SLP085 T10171094<br><br>
KBUF 092054Z 28005KT 10SM OVC090 00/M10 A2975 RMK AO2 SLP082 T00001100 55007<br><br>
KBUF 091721Z 0918/1018 21009KT P6SM BKN120 FM100200 VRB03KT P6SM VCSH OVC050 FM100500 26006KT 1SM -SN OVC015 FM100800 26008KT P6SM VCSH OVC040 FM101200 27011G19KT P6SM BKN025 FM101500 27015G27KT P6SM OVC035<br><br>
<br><br>
TAF CYYZ 092045Z 0921/1024 23008KT P6SM SCT025 OVC040 TEMPO 0921/0923 P6SM -SN BECMG 1002/1004 26005KT FM100900 30012KT P6SM BKN040 FM101800 26015G25KT P6SM -SN BKN030 RMK NXT FCST BY 100000Z<br><br>
<br><br>
CYOO 092200Z AUTO 28004KT 230V290 9SM OVC060 M00/M05 A2976 RMK SLP084<br><br>
CYOO 092100Z AUTO 23006KT 190V250 9SM FEW033 OVC055 00/M06 A2975 RMK SLP080<br><br>
CYOO has no TAF <br><br>
<br><br>
TAF AMD CYTR 092128Z 0921/1018 VRB03KT P6SM SCT030 BKN080 TEMPO 1000/1006 P6SM -SHSN BKN030 OVC080 FM100600 30005KT P6SM SCT070 BKN140 BECMG 1009/1011 30010KT BECMG 1017/1018 26012G22KT RMK NXT FCST BY 100000Z<br><br>
<br><br>
