RETRIEVED AT : Oct 02 2017 08:10 Local <br>
  RETRIEVED AT: Oct 02 2017 12:10 UTC<br><br>
CYSN 021200Z 11003KT 15SM SCT190 07/06 A3037 RMK CC3 SLP288<br><br>
CYSN 021100Z 14002KT 15SM BKN200 07/05 A3035 RMK CC6 SLP282<br><br>
CYSN has no TAF <br><br>
<br><br>
CYHM 021200Z 03008KT 10SM BCFG FEW170 FEW240 09/09 A3037 RMK AC1CI1 AC TR SLP289<br><br>
CYHM 021100Z 03006KT 8SM BCFG FEW180 06/06 A3035 RMK AC1 SLP284<br><br>
TAF CYHM 021138Z 0212/0312 VRB03KT P6SM FEW240 BECMG 0215/0217 06007KT BECMG 0304/0306 14006KT RMK NXT FCST BY 021800Z<br><br>
<br><br>
KIAG 021153Z 00000KT 10SM CLR 08/05 A3038 RMK AO2 SLP293 T00780050 10089 20056 53015<br><br>
KIAG 021053Z 08004KT 9SM CLR 06/03 A3035 RMK AO2 SLP284 T00560033<br><br>
KIAG 021130Z 0212/0312 VRB03KT P6SM FEW250 FM021300 12004KT P6SM FEW250 FM022000 08006KT P6SM FEW200 FM030200 12004KT P6SM FEW200 FM030600 17005KT P6SM SKC<br><br>
<br><br>
KBUF 021154Z 16005KT 10SM BKN200 08/04 A3038 RMK AO2 SLP291 T00780039 10089 20061 53016<br><br>
KBUF 021054Z 12007KT 10SM FEW200 07/04 A3036 RMK AO2 SLP283 T00720044 $<br><br>
KBUF 021130Z 0212/0312 VRB03KT P6SM FEW250 FM021400 12005KT P6SM FEW250 FM022000 08005KT P6SM FEW200 FM030200 12005KT P6SM FEW200 FM030600 16006KT P6SM SKC<br><br>
<br><br>
CYYZ 021200Z 03004KT 15SM FEW190 08/06 A3038 RMK AC1 SLP292<br><br>
CYYZ 021100Z 01004KT 15SM FEW190 08/05 A3037 RMK AC1 SLP288<br><br>
TAF CYYZ 021138Z 0212/0318 VRB03KT P6SM FEW190 BECMG 0216/0218 12010KT BECMG 0300/0302 VRB03KT RMK NXT FCST BY 021500Z<br><br>
<br><br>
CYOO 021200Z AUTO 01005KT 9SM CLR 06/05 A3039 RMK SLP295<br><br>
CYOO 021100Z AUTO 02006KT 9SM CLR 05/04 A3038 RMK SLP291<br><br>
CYOO has no TAF <br><br>
<br><br>
CYTR 021200Z 02002KT 8SM FEW250 04/04 A3041 RMK CI1 SLP301<br><br>
CYTR 021100Z 02003KT 6SM BR FEW250 03/03 A3040 RMK CI1 SLP297<br><br>
CYTR 021035Z 01002KT 5SM BR FEW250 03/03 A3039 RMK CI2 SLP295<br><br>
TAF CYTR 021130Z 0212/0312 VRB03KT P6SM FEW250 TEMPO 0212/0213 5SM BR FM021600 14008KT P6SM SCT250 BECMG 0300/0302 VRB03KT FM031000 18005KT 6SM BR FEW005 PROB30 0310/0312 3/4SM BR OVC005 RMK NXT FCST BY 021800Z<br><br>
<br><br>
