RETRIEVED AT : May 25 2018 06:27 Local <br>
  RETRIEVED AT: May 25 2018 10:27 UTC<br><br>
CYSN has no TAF <br><br>
<br><br>
CYHM 251000Z 24004KT 15SM SCT230 12/08 A3001 RMK CI3 CC ASOCTD SLP163<br><br>
CYHM 250900Z 24005KT 15SM SCT230 13/08 A3001 RMK CC4 SLP162<br><br>
TAF CYHM 250538Z 2506/2606 25005KT P6SM SCT260 BECMG 2509/2511 24008KT FM251600 23015KT P6SM FEW060 BECMG 2600/2602 23010KT RMK NXT FCST BY 251200Z<br><br>
<br><br>
KIAG 250953Z AUTO 22010KT 10SM CLR 15/08 A3000 RMK AO2 SLP158 T01500083<br><br>
KIAG 250853Z AUTO 22011KT 10SM CLR 16/08 A3001 RMK AO2 SLP158 T01610083 58010<br><br>
KIAG 250900Z 2509/2606 21009KT P6SM SCT250 FM251300 23012KT P6SM SCT250 FM251700 23015G21KT P6SM SCT250 FM252200 23013KT P6SM SKC FM260100 22008KT P6SM SKC<br><br>
<br><br>
KBUF 250900Z 2509/2606 21007KT P6SM SCT250 FM251300 24012KT P6SM SCT250 FM251700 23015G21KT P6SM SCT250 FM252200 23013KT P6SM SKC FM260100 22008KT P6SM SKC<br><br>
<br><br>
TAF CYYZ 250839Z 2509/2612 25008KT P6SM SCT230 FM251400 25015KT P6SM FEW070 SCT280 BECMG 2515/2517 25012G22KT BECMG 2600/2602 25010KT RMK NXT FCST BY 251200Z<br><br>
<br><br>
CYOO 251000Z AUTO 00000KT 9SM BKN210 OVC230 13/10 A2996 RMK SLP145<br><br>
CYOO 250900Z AUTO VRB02KT 9SM BKN240 13/09 A2996 RMK SLP147<br><br>
CYOO has no TAF <br><br>
<br><br>
CYTR 251000Z 21005KT 15SM FEW080 BKN230 15/11 A2994 RMK AC2CC2 SLP139<br><br>
CYTR 250900Z 21006KT 15SM FEW230 15/10 A2994 RMK CC2 SLP140<br><br>
TAF CYTR 250530Z 2506/2606 21005KT P6SM BKN250 FM251000 24008KT P6SM FEW080 SCT140 BECMG 2514/2516 23015KT FM251800 23012G22KT P6SM BKN080 BECMG 2523/2601 23010KT RMK NXT FCST BY 251200Z<br><br>
<br><br>
