RETRIEVED AT : Sep 25 2017 20:10 Local <br>
  RETRIEVED AT: Sep 26 2017 00:10 UTC<br><br>
CYSN 260000Z 06002KT 10SM BKN250 23/20 A2999 RMK CI6 SLP157 DENSITY ALT 1300FT<br><br>
CYSN 252300Z 06002KT 10SM BKN250 25/20 A2999 RMK CI6 SLP157 DENSITY ALT 1600FT<br><br>
TAF CYSN 251938Z 2520/2601 36006KT P6SM BKN290 RMK NXT FCST WILL BE ISSUED AT 261245Z<br><br>
<br><br>
CYHM 260000Z 05005KT 15SM FEW100 BKN250 23/19 A3002 RMK AC2CI5 SLP165 DENSITY ALT 1800FT<br><br>
CYHM 252300Z VRB02KT 15SM BKN250 26/18 A3003 RMK CI7 SLP166 DENSITY ALT 2100FT<br><br>
TAF CYHM 252338Z 2600/2624 VRB03KT P6SM BKN280 TEMPO 2609/2614 4SM BR PROB30 2609/2613 3/4SM BR RMK NXT FCST BY 260600Z<br><br>
<br><br>
KIAG 252353Z 03003KT 9SM CLR 26/20 A3001 RMK AO2 SLP158 T02610200 10339 20261 56004<br><br>
KIAG 252253Z 05004KT 8SM CLR 28/21 A3001 RMK AO2 SLP158 T02780206<br><br>
KIAG 252337Z 2600/2624 08005KT P6SM FEW250 FM260700 00000KT 4SM BR SCT250 TEMPO 2610/2612 2SM BR SCT003 FM261300 VRB03KT P6SM FEW250 FM261400 22004KT P6SM FEW250 FM261800 22008KT P6SM FEW250<br><br>
<br><br>
KBUF 252354Z 05006KT 10SM FEW200 BKN300 26/21 A3001 RMK AO2 SLP160 T02610211 10328 20261 56003<br><br>
KBUF 252254Z 05007KT 10SM FEW200 BKN300 28/21 A3002 RMK AO2 SLP161 T02830211<br><br>
KBUF 252337Z 2600/2624 07005KT P6SM FEW250 FM260300 12004KT P6SM FEW250 FM260800 15004KT 4SM BR FEW250 FM261300 20004KT P6SM FEW250 FM261800 24007KT P6SM FEW250<br><br>
<br><br>
CYYZ 260000Z 14005KT 15SM FEW150 BKN230 26/18 A3000 RMK AC2CI4 SLP158 DENSITY ALT 2000FT<br><br>
CYYZ 252300Z 14005KT 15SM FEW150 SCT220 BKN250 28/18 A3001 RMK AC2CI2CC2 SLP160 DENSITY ALT 2100FT<br><br>
TAF CYYZ 252338Z 2600/2706 VRB03KT P6SM BKN280 BECMG 2614/2616 16008KT RMK NXT FCST BY 260300Z<br><br>
<br><br>
CYOO 260000Z AUTO 10003KT 9SM CLR 23/19 A3001 RMK SLP162 DENSITY ALT 1300FT<br><br>
CYOO 252300Z AUTO 11003KT 9SM CLR 26/18 A3001 RMK SLP163 DENSITY ALT 1700FT<br><br>
CYOO 252248Z AUTO 12004KT 8SM CLR 27/18 A3001 RMK SLP162 DENSITY ALT 1800FT<br><br>
CYOO 252245Z AUTO 12004KT 3SM HZ CLR 27/18 A3001 RMK SLP163 DENSITY ALT 1800FT<br><br>
CYOO 252233Z AUTO 11004KT 2 1/2SM HZ CLR 28/18 A3001 RMK VIS VRB 3/4-3 SLP162 DENSITY ALT 1900FT<br><br>
CYOO 252230Z AUTO 11003KT 4SM HZ CLR 28/18 A3001 RMK SLP163 DENSITY ALT 1900FT<br><br>
CYOO has no TAF <br><br>
<br><br>
CYTR 260000Z 00000KT 12SM FEW160 SCT250 23/20 A3001 RMK AC1CI3 SLP163<br><br>
CYTR 252300Z 19003KT 10SM FEW160 SCT250 25/20 A3001 RMK AC1CI4 SLP164<br><br>
TAF CYTR 252330Z 2600/2624 VRB03KT P6SM SCT250 FM260300 VRB03KT P6SM BKN250 TEMPO 2603/2612 3SM BR BECMG 2616/2618 20009KT RMK NXT FCST BY 260600Z<br><br>
<br><br>
