RETRIEVED AT : Jun 12 2020 08:05 Local <br>
  RETRIEVED AT: Jun 12 2020 12:05 UTC<br><br>
CYSN has no TAF <br><br>
<br><br>
TAF CYHM 121138Z 1212/1312 28010KT P6SM FEW070 BECMG 1212/1214 30012G22KT FM130100 32008KT P6SM SKC BECMG 1304/1306 VRB03KT BECMG 1310/1312 04008KT RMK NXT FCST BY 121800Z<br><br>
<br><br>
KIAG 121120Z 1212/1312 30009KT P6SM SCT250 FM121300 29010G17KT P6SM SCT260 FM122200 32011G17KT P6SM SCT060 FM122300 32010KT P6SM SCT060 FM130300 35006KT P6SM FEW250<br><br>
<br><br>
KBUF 121120Z 1212/1312 28009KT P6SM SCT200 FM121500 29011G18KT P6SM SCT060 FM122300 31010KT P6SM FEW250 FM130200 35006KT P6SM FEW250 FM130700 02004KT P6SM SCT250<br><br>
<br><br>
TAF CYYZ 121138Z 1212/1318 32012G22KT P6SM SCT070 FM121900 32015KT P6SM BKN050 FM122300 34012KT P6SM FEW100 BECMG 1300/1302 01010KT RMK NXT FCST BY 121500Z<br><br>
<br><br>
TAF CYOO 120738Z 1208/1220 31008KT P6SM SCT100 BECMG 1210/1212 30012G22KT RMK FCST BASED ON AUTO OBS. NXT FCST BY 121400Z<br><br>
<br><br>
TAF CYTR 121130Z 1212/1312 28012G22KT P6SM FEW090 BECMG 1213/1215 28015G25KT FM122100 28015G25KT P6SM SCT050 BECMG 1221/1223 30010KT FM130200 34008KT P6SM FEW050 BKN080 FM131000 34005KT P6SM SCT040 BKN120 RMK NXT FCST BY 121800Z<br><br>
<br><br>
