RETRIEVED AT : Oct 15 2017 19:10 Local <br>
  RETRIEVED AT: Oct 15 2017 23:10 UTC<br><br>
CYSN 152300Z 28018G34KT 15SM SCT035 BKN090 16/11 A2976 RMK SC3AC3 PRESRR SLP079 DENSITY ALT 700FT<br><br>
CYSN 152200Z 26018G35KT 15SM FEW035 OVC090 19/13 A2968 RMK SC2AC6 SLP051 DENSITY ALT 1200FT<br><br>
TAF CYSN 151946Z 1520/1601 22025G40KT P6SM -SHRA SCT020 BKN070 TEMPO 1520/1521 VRB35G50KT 11/2SM +SHRA BR OVC020 FM152030 27020G35KT P6SM SCT020 BKN070 FM152300 27020G30KT P6SM BKN025 RMK NXT FCST WILL BE ISSUED AT 161245Z<br><br>
<br><br>
CYHM 152300Z 28022G31KT 15SM BKN021 BKN032 BKN250 13/09 A2979 RMK SC5SC2CI1 CI TR PRESRR SLP089 DENSITY ALT 900FT<br><br>
CYHM 152200Z 29026G38KT 15SM FEW024 BKN045 BKN061 BKN110 16/10 A2971 RMK CU2SC3SC2AC1 AC TR PRESRR SLP063 DENSITY ALT 1400FT<br><br>
TAF AMD CYHM 151937Z 1519/1618 27020G35KT P6SM -SHRA SCT020 BKN040 OVC120 TEMPO 1519/1520 VRB30G45KT 11/2SM SHRA BR OVC020CB FM152000 27020G35KT P6SM BKN025 BKN120 TEMPO 1521/1523 BKN020 OVC120 FM152300 28020G30KT P6SM BKN025 BECMG 1601/1603 31015G25KT BECMG 1603/1605 31010KT FM160800 31008KT P6SM FEW030 BECMG 1614/1616 31010G20KT RMK NXT FCST BY 160000Z<br><br>
<br><br>
KIAG 152253Z 27026G37KT 10SM BKN037 OVC100 19/11 A2974 RMK AO2 PK WND 25037/2214 SLP069 T01890106<br><br>
KIAG 152153Z 27018G28KT 10SM SCT028 SCT035 OVC060 20/13 A2969 RMK AO2 PK WND 27034/2126 PRESRR SLP050 T02000128<br><br>
KIAG 152104Z 1521/1618 27024G40KT P6SM OVC050 FM160300 30015G25KT P6SM SCT030 FM160800 32012G19KT P6SM BKN035 FM161100 31010KT P6SM BKN035 FM161400 30010G20KT P6SM SCT035<br><br>
<br><br>
KBUF 152254Z 26017G23KT 10SM SCT037 BKN044 BKN085 18/12 A2974 RMK AO2 PK WND 24032/2209 SLP068 T01780117 $<br><br>
KBUF 152154Z 25018G26KT 10SM FEW024 BKN050 BKN100 19/13 A2969 RMK AO2 PK WND 25033/2125 RAE03 SLP052 P0000 T01890128 $<br><br>
KBUF 152104Z 1521/1618 27026G42KT P6SM VCSH OVC050 FM160300 29015G24KT P6SM BKN030 FM161100 31010KT P6SM BKN030 FM161400 30010G18KT P6SM SCT035<br><br>
<br><br>
CYYZ 152300Z 30024G39KT 15SM FEW024 BKN038 BKN260 13/07 A2975 RMK CU1SC4CI1 PRESRR SLP077 DENSITY ALT 700FT<br><br>
CYYZ 152200Z 29029G36KT 15SM FEW030 SCT050 BKN260 15/10 A2968 RMK CU2SC2CI3 PRESRR SLP052 DENSITY ALT 1000FT<br><br>
TAF AMD CYYZ 152143Z 1521/1624 30025G40KT P6SM SCT025 BKN100 TEMPO 1521/1523 BKN025 OVC100 FM152300 30022G32KT P6SM BKN025 BECMG 1600/1602 32018G28KT BECMG 1603/1605 34010G20KT FM160600 34012KT P6SM BKN020 TEMPO 1608/1614 P6SM -SHRA FM161500 33010G20KT P6SM BKN020 FM161700 33012G22KT P6SM BKN030 FM162100 32012G22KT P6SM FEW040 BECMG 1622/1624 32010KT RMK NXT FCST BY 160000Z<br><br>
<br><br>
CYOO 152300Z AUTO 27020G29KT 9SM FEW033 SCT130 15/09 A2968 RMK PRESRR SLP053 DENSITY ALT 800FT<br><br>
CYOO 152200Z AUTO 27020G34KT 9SM FEW041 BKN100 OVC120 19/13 A2961 RMK PRESRR SLP027 DENSITY ALT 1300FT<br><br>
CYOO has no TAF <br><br>
<br><br>
CYTR 152300Z 24011G20KT 15SM FEW032 BKN087 18/15 A2957 RMK SC2AC6 SLP014<br><br>
CYTR 152200Z 23011G18KT 15SM BKN063 BKN097 19/16 A2955 RMK SC6AC2 CU TOPS N SLP006<br><br>
CYTR 152140Z 23011G18KT 15SM FEW019 BKN052 19/16 A2954 RMK SC2SC6 SLP002<br><br>
CYTR 152121Z 25016G21KT 15SM BKN019 20/16 A2953 RMK SC7 PRESRR SLP002<br><br>
TAF AMD CYTR 152132Z 1521/1618 26020G35KT P6SM SCT015 BKN030 TEMPO 1521/1524 BKN015 OVC030 BECMG 1602/1604 28015G25KT FM160800 32012KT P6SM BKN030 RMK NXT FCST BY 160000Z<br><br>
<br><br>
