RETRIEVED AT : Sep 23 2017 22:10 Local <br>
  RETRIEVED AT: Sep 24 2017 02:10 UTC<br><br>
CYSN 240100Z 20006KT 15SM SKC 22/16 A3008 RMK LAST STFD OBS/NEXT 24 1100UTC SLP185 DENSITY ALT 1100FT<br><br>
CYSN has no TAF <br><br>
<br><br>
CYHM 240200Z 24003KT 15SM SKC 21/16 A3011 RMK SLP196 DENSITY ALT 1500FT<br><br>
CYHM 240100Z 22005KT 15SM SKC 22/17 A3011 RMK SLP196 DENSITY ALT 1600FT<br><br>
TAF CYHM 232338Z 2400/2424 VRB03KT P6SM FEW160 FM241700 04007KT P6SM FEW050 BECMG 2421/2423 09005KT RMK NXT FCST BY 240600Z<br><br>
<br><br>
KIAG 240153Z 20004KT 10SM CLR 22/16 A3010 RMK AO2 SLP189 T02170156<br><br>
KIAG 240053Z 21004KT 10SM CLR 23/16 A3010 RMK AO2 SLP188 T02330156<br><br>
KIAG 232332Z 2400/2424 21005KT P6SM SKC FM241000 VRB03KT 5SM BR SKC FM241200 VRB03KT P6SM SKC<br><br>
<br><br>
KBUF 240154Z 20006KT 10SM CLR 21/16 A3012 RMK AO2 SLP195 T02110161<br><br>
KBUF 240054Z 23004KT 10SM CLR 23/15 A3011 RMK AO2 SLP195 T02280150<br><br>
KBUF 232332Z 2400/2424 VRB05KT P6SM SKC<br><br>
<br><br>
CYYZ 240200Z 30006KT 15SM SKC 26/19 A3008 RMK SLP186 DENSITY ALT 1900FT<br><br>
CYYZ 240100Z VRB02KT 15SM SKC 28/18 A3008 RMK SLP185 DENSITY ALT 2000FT<br><br>
TAF CYYZ 232338Z 2400/2506 15006KT P6SM SKC BECMG 2400/2402 VRB03KT FM241500 21008KT P6SM FEW050 BECMG 2502/2504 33005KT RMK NXT FCST BY 240300Z<br><br>
<br><br>
CYOO 240200Z AUTO 00000KT 9SM CLR 21/17 A3008 RMK SLP186 DENSITY ALT 1100FT<br><br>
CYOO 240100Z AUTO 36003KT 9SM CLR 21/17 A3008 RMK SLP185 DENSITY ALT 1100FT<br><br>
CYOO has no TAF <br><br>
<br><br>
CYTR 240200Z 00000KT 10SM SKC 21/20 A3006 RMK SLP179<br><br>
CYTR 240100Z 00000KT 15SM SKC 22/20 A3005 RMK SLP176<br><br>
TAF CYTR 232330Z 2400/2424 20005KT P6SM SKC BECMG 2400/2402 VRB03KT BECMG 2414/2416 20008KT RMK NXT FCST BY 240600Z<br><br>
<br><br>
