RETRIEVED AT : Sep 07 2018 16:53 Local <br>
  RETRIEVED AT: Sep 07 2018 20:53 UTC<br><br>
CYSN 072000Z 05008KT 15SM FEW050 BKN250 22/17 A3016 RMK SC1CI6 SLP214 DENSITY ALT 1000FT<br><br>
CYSN 071900Z 05009KT 15SM FEW050 OVC250 22/18 A3018 RMK SC1CI7 SLP222 DENSITY ALT 1000FT<br><br>
TAF CYSN 071938Z 0720/0801 03008KT P6SM FEW050 BKN250 RMK NXT FCST WILL BE ISSUED AT 081245Z<br><br>
<br><br>
CYHM 072000Z 06006KT 15SM FEW023 FEW120 BKN210 21/17 A3019 RMK CU1AC2CI4 CU TR SLP225 DENSITY ALT 1400FT<br><br>
CYHM 071900Z 06008KT 15SM FEW022 SCT120 BKN220 22/17 A3021 RMK CU1AC3CS3 HALO SLP230 DENSITY ALT 1400FT<br><br>
TAF CYHM 071738Z 0718/0818 05010KT P6SM SCT030 BKN250 BECMG 0808/0810 03012KT BECMG 0814/0816 05012G22KT RMK NXT FCST BY 080000Z<br><br>
<br><br>
KIAG 071953Z 04010KT 10SM CLR 23/16 A3018 RMK AO2 SLP217 T02330161<br><br>
KIAG 071720Z 0718/0818 02008KT P6SM SCT100 FM072100 03008KT P6SM BKN110 FM072200 03007KT P6SM SCT110 FM080700 03004KT P6SM BKN120 FM080900 05007KT P6SM BKN130 FM081100 05012G20KT P6SM BKN200<br><br>
<br><br>
KBUF 071954Z 03008KT 10SM FEW037 FEW140 FEW180 BKN240 24/14 A3017 RMK AO2 SLP213 ACC DSNT SE T02390144<br><br>
KBUF 071854Z 02006KT 10SM FEW042 FEW180 BKN240 24/14 A3018 RMK AO2 SLP218 T02440139<br><br>
KBUF 071720Z 0718/0818 04005KT P6SM SCT070 FM072000 03007KT P6SM BKN070 FM080300 VRB03KT P6SM BKN120 FM080900 06004KT P6SM BKN120 FM081100 06010G16KT P6SM BKN120<br><br>
<br><br>
CYYZ 072000Z 34011KT 15SM FEW050 BKN210 24/09 A3019 RMK CU1CS6 SLP223 DENSITY ALT 1500FT<br><br>
CYYZ 071900Z 34009KT 290V040 15SM SCT045 BKN210 24/12 A3020 RMK CU3CI4 SLP227 DENSITY ALT 1400FT<br><br>
TAF CYYZ 071738Z 0718/0824 35007KT P6SM SCT050 BKN250 BECMG 0720/0722 36012KT BECMG 0814/0816 07010KT RMK NXT FCST BY 072100Z<br><br>
<br><br>
CYOO 072000Z AUTO 33006KT 310V020 9SM SCT055 23/11 A3018 RMK SLP222 DENSITY ALT 1100FT<br><br>
CYOO 071900Z AUTO 30006KT 270V340 9SM FEW049 23/11 A3020 RMK SLP226 DENSITY ALT 1200FT<br><br>
CYOO has no TAF <br><br>
<br><br>
CYTR 072000Z 35006KT 15SM FEW038 BKN220 24/10 A3017 RMK CU1CI6 SLP218<br><br>
CYTR 071900Z 30004KT 15SM FEW038 BKN240 23/10 A3018 RMK CU1CI6 SLP222<br><br>
TAF CYTR 071730Z 0718/0818 VRB03KT P6SM SCT030 BKN240 BECMG 0718/0720 32005KT FM080200 02005KT P6SM BKN030 BKN250 FM081200 02012G22KT P6SM SCT030 SCT250 RMK NXT FCST BY 080000Z<br><br>
<br><br>
