RETRIEVED AT : Sep 09 2018 03:05 Local <br>
  RETRIEVED AT: Sep 09 2018 07:05 UTC<br><br>
CYSN has no TAF <br><br>
<br><br>
CYHM 090600Z 07007KT 15SM FEW025 BKN250 10/06 A3024 RMK SC2CI5 SLP243<br><br>
TAF CYHM 090539Z 0906/1006 08010KT P6SM FEW020 BKN250 BECMG 0911/0913 08015G25KT FM091600 08018G28KT P6SM FEW030 OVC200 FM092300 09018G28KT P6SM -RA BKN040 OVC100 FM100200 07015G25KT P6SM -RA BKN020 OVC060 FM100400 07015G25KT 5SM -RA BR BKN008 OVC015 RMK NXT FCST BY 091200Z<br><br>
<br><br>
KIAG 090653Z AUTO 07005KT 10SM CLR 10/06 A3024 RMK AO2 SLP244 T01000061<br><br>
KIAG 090553Z AUTO 08004KT 10SM CLR 10/06 A3025 RMK AO2 SLP246 T01000061 10122 20100 55002<br><br>
KIAG 090524Z 0906/1006 07005KT P6SM OVC250 FM090900 07010KT P6SM OVC250 FM091400 07014G21KT P6SM OVC200 FM100200 08014G21KT P6SM -RA OVC090 FM100500 10015G22KT 6SM -RA OVC025<br><br>
<br><br>
KBUF 090654Z 05004KT 10SM FEW045 FEW100 OVC280 10/07 A3024 RMK AO2 SLP240 T01000067<br><br>
KBUF 090554Z 06003KT 10SM FEW180 OVC280 11/07 A3024 RMK AO2 SLP242 T01110072 10133 20106 56003<br><br>
KBUF 090524Z 0906/1006 07005KT P6SM OVC250 FM090900 08010KT P6SM OVC250 FM091400 08014G21KT P6SM OVC200 FM100100 09014G21KT P6SM -RA OVC090 FM100400 11015G22KT 6SM -RA OVC025<br><br>
<br><br>
CYYZ 090600Z 06010KT 15SM FEW030 BKN250 12/04 A3027 RMK SC1CI4 SLP252<br><br>
TAF CYYZ 090539Z 0906/1012 05012KT P6SM FEW030 BKN250 FM091000 04013KT P6SM SCT020 OVC180 TEMPO 0910/0915 BKN020 BECMG 0913/0915 09015G25KT FM091500 09015G25KT P6SM BKN030 OVC200 TEMPO 0915/0916 BKN020 FM091900 08015G25KT P6SM SCT030 OVC200 BECMG 0922/0924 08015KT FM100600 10012G22KT P6SM -RA BKN020 OVC070 FM100800 10015G25KT 5SM -RA BR BKN008 OVC012 PROB30 1008/1012 2SM -RA BR BKN003 OVC008 RMK NXT FCST BY 090900Z<br><br>
<br><br>
CYOO 090600Z AUTO 05008KT 9SM CLR 11/05 A3029 RMK SLP261<br><br>
CYOO has no TAF <br><br>
<br><br>
CYTR 090600Z 06004KT 15SM SCT240 08/05 A3030 RMK CI3 SLP262<br><br>
TAF CYTR 090530Z 0906/1006 04006KT P6SM BKN240 BECMG 0913/0915 07012G22KT BECMG 0922/0924 06010KT FM100400 12010KT P6SM FEW040 OVC150 RMK NXT FCST BY 091200Z<br><br>
<br><br>
