RETRIEVED AT : Jun 16 2019 00:05 Local <br>
  RETRIEVED AT: Jun 16 2019 04:05 UTC<br><br>
CYSN has no TAF <br><br>
<br><br>
CYHM 160300Z 01003KT 3SM BR SCT004 OVC010 16/16 A2987 RMK SF4SC4 SLP116 DENSITY ALT 1200FT<br><br>
CYHM 160253Z 36003KT 3SM BR SCT004 OVC010 16/16 A2987 RMK SF4SC4 SLP116 DENSITY ALT 1200FT<br><br>
TAF AMD CYHM 160117Z 1601/1624 22008KT 6SM -SHRA BR OVC010 TEMPO 1601/1605 11/2SM -SHRA BR OVC005 BECMG 1601/1603 04008KT FM160500 04008KT 11/2SM -DZ BR OVC005 TEMPO 1605/1610 6SM -SHRA BR OVC010 PROB40 1605/1609 3/4SM -RA -DZ BR OVC003 FM161000 04012KT P6SM FEW005 OVC012 FM161600 04012KT P6SM BKN020 OVC050 FM162100 04010KT P6SM BKN030 OVC100 RMK NXT FCST BY 160600Z<br><br>
<br><br>
KIAG 160353Z AUTO 24003KT 5SM -RA BR OVC006 16/16 A2986 RMK AO2 SLP112 P0004 T01610156<br><br>
KIAG 160337Z AUTO 23003KT 4SM -RA BR OVC006 16/16 A2987 RMK AO2 CIG 004V009 P0004 T01610156<br><br>
KIAG 160253Z 24006KT 4SM -RA BR OVC005 16/16 A2987 RMK AO2 CIG 004V009 SLP114 P0007 60018 T01610156 53006<br><br>
KIAG 160255Z 1603/1624 24008KT 4SM -SHRA BR OVC007 FM160700 02005KT 2SM -RADZ BR OVC005 FM160800 04008KT P6SM OVC007 FM161400 04010G16KT P6SM OVC015 FM162200 04006KT P6SM BKN120<br><br>
<br><br>
KBUF 160401Z 25006KT 2SM RA BR BKN004 BKN022 OVC034 17/16 A2987 RMK AO2 P0002 T01720161<br><br>
KBUF 160354Z 25006KT 1 1/2SM RA BR BKN004 BKN015 OVC020 17/16 A2987 RMK AO2 SLP114 P0022 T01670161<br><br>
KBUF 160254Z 25006KT 2SM RA BR BKN004 OVC019 17/16 A2988 RMK AO2 SLP117 P0012 60029 T01670156 53004<br><br>
KBUF 160255Z 1603/1624 23010G17KT 2SM SHRA BR OVC004 FM160600 24004KT 2SM -RADZ BR OVC003 FM161000 05006KT P6SM OVC003 FM161600 05008KT P6SM BKN035<br><br>
<br><br>
CYYZ 160313Z 07008KT 15SM FEW016 OVC032 16/14 A2987 RMK CF1SC7 SLP117 DENSITY ALT 900FT<br><br>
CYYZ 160300Z VRB05KT 15SM -RA FEW020 OVC032 16/14 A2987 RMK SC2SC6 SLP116 DENSITY ALT 900FT<br><br>
CYYZ 160228Z 08008KT 12SM -RA FEW020 OVC031 16/14 A2986 RMK SC1SC7 SLP114 DENSITY ALT 900FT<br><br>
TAF CYYZ 160238Z 1603/1706 08006KT P6SM OVC030 TEMPO 1603/1606 BKN020 FM160800 02008KT P6SM OVC030 FM161400 08010KT P6SM BKN050 BKN250 FM170200 33006KT P6SM SCT100 RMK NXT FCST BY 160600Z<br><br>
<br><br>
CYOO 160300Z AUTO 34004KT 9SM OVC065 14/13 A2988 RMK SLP120 DENSITY ALT 500FT<br><br>
TAF CYOO 160138Z 1602/1614 36005KT P6SM OVC040 TEMPO 1602/1604 5SM -RA BR SCT007 OVC020 FM160400 36005KT P6SM BKN060 FM161100 04006KT P6SM FEW060 BECMG 1612/1614 08010KT RMK FCST BASED ON AUTO OBS. NXT FCST BY 160800Z<br><br>
<br><br>
CYTR 160300Z 26003KT 10SM FEW030 BKN240 14/13 A2987 RMK SC2CI3 VIS LWR W SLP117<br><br>
TAF CYTR 152330Z 1600/1624 23010G20KT P6SM SCT012 OVC050 TEMPO 1600/1602 5SM -SHRA BR OVC012 FM160200 VRB03KT P6SM BKN050 FM160400 VRB03KT P6SM SCT050 BKN240 PROB30 1604/1609 1SM BR FM161300 04010KT P6SM SCT240 BECMG 1618/1620 21010KT RMK NXT FCST BY 160600Z<br><br>
<br><br>
