RETRIEVED AT : Apr 05 2020 00:05 Local <br>
  RETRIEVED AT: Apr 05 2020 04:05 UTC<br><br>
CYSN has no TAF <br><br>
<br><br>
CYHM 050300Z 19003KT 60SM SCT040 BKN090 08/05 A3000 RMK SC4AC3 SLP166<br><br>
TAF CYHM 042338Z 0500/0524 21007KT P6SM SCT030 BKN120 FM050300 23007KT P6SM -SHRA BKN030 OVC050 FM050700 29007KT P6SM SCT008 OVC020 FM051000 29008KT P6SM BKN010 OVC030 FM051400 33010KT P6SM SCT015 FM051800 36005KT P6SM BKN120 FM052100 06006KT P6SM SCT050 RMK NXT FCST BY 050600Z<br><br>
<br><br>
KIAG 050353Z AUTO 23006KT 10SM CLR 04/02 A3001 RMK AO2 SLP171 T00390022<br><br>
KIAG 050253Z 00000KT 10SM CLR 06/03 A3001 RMK AO2 SLP171 T00610033 50003<br><br>
KIAG 050255Z 0503/0524 17004KT P6SM SCT060 FM050430 19004KT P6SM BKN070 FM050900 20004KT P6SM OVC035 FM051300 28004KT P6SM OVC025 FM051900 32008KT P6SM BKN060 FM052200 30008KT P6SM SCT150<br><br>
<br><br>
KBUF 050354Z 18005KT 10SM FEW090 07/03 A3001 RMK AO2 SLP165 T00670028<br><br>
KBUF 050254Z 18005KT 10SM FEW030 FEW100 07/03 A3002 RMK AO2 SLP171 T00670033 50006<br><br>
KBUF 050254Z 0503/0524 18004KT P6SM SCT060 FM050500 18004KT P6SM BKN070 FM051000 26006KT P6SM OVC035 FM051500 33008KT P6SM OVC025 FM052000 30008KT P6SM BKN035 FM052300 26006KT P6SM SCT120<br><br>
<br><br>
CYYZ 050300Z 16011KT 15SM BKN080 07/05 A3000 RMK AC7 SLP165<br><br>
TAF CYYZ 050238Z 0503/0606 16008KT P6SM SCT030 BKN120 TEMPO 0503/0507 P6SM -SHRA BKN030 OVC080 FM050700 VRB03KT 4SM BR BKN006 OVC025 TEMPO 0507/0509 6SM BR SCT006 OVC025 FM050900 35008KT P6SM SCT008 BKN012 OVC040 PROB30 0509/0513 OVC008 FM051500 34015KT P6SM SCT015 FM052100 36012KT P6SM SKC RMK NXT FCST BY 050600Z<br><br>
<br><br>
CYOO 050300Z AUTO 02003KT 9SM SCT095 05/04 A3000 RMK SLP163<br><br>
TAF CYOO 050138Z 0502/0514 VRB03KT P6SM OVC040 TEMPO 0502/0505 OVC030 FM050500 VRB03KT P6SM SCT008 OVC025 TEMPO 0505/0511 4SM -SHRA BR BKN008 OVC025 PROB40 0506/0511 3SM -DZ BR OVC006 FM051100 32010KT P6SM OVC007 TEMPO 0511/0514 BKN012 OVC030 RMK FCST BASED ON AUTO OBS. NXT FCST BY 050800Z<br><br>
<br><br>
CYTR 050351Z 22006KT 5SM BR FEW003 05/05 A3001 RMK CF2 SLP167<br><br>
CYTR 050332Z 21005KT 8SM BKN003 05/05 A3002 RMK CF6 SLP167<br><br>
CYTR 050300Z 21005KT 15SM FEW055 06/05 A3001 RMK SC2 SLP167<br><br>
CYTR 050232Z 19003KT 15SM SCT055 06/05 A3001 RMK SC3 SLP167<br><br>
TAF AMD CYTR 050351Z 0503/0524 21005KT 5SM BR BKN003 BECMG 0504/0506 P6SM NSW BKN040 BKN120 FM050900 VRB03KT 5SM -SHRA BR BKN020 OVC060 FM051100 VRB03KT 2SM -DZ BR OVC008 FM051400 31005KT P6SM OVC015 FM051700 32010KT P6SM SCT025 RMK NXT FCST BY 050600Z<br><br>
<br><br>
