RETRIEVED AT : Jan 20 2019 17:05 Local <br>
  RETRIEVED AT: Jan 20 2019 22:05 UTC<br><br>
CYSN 202100Z 34014G28KT 8SM -SN DRSN BKN021 M13/M16 A2997 RMK SC7 PRESRR SLP156<br><br>
TAF CYSN 201938Z 2020/2102 33015G25KT P6SM BKN030 TEMPO 2020/2024 21/2SM -SN RMK NXT FCST WILL BE ISSUED AT 211345Z<br><br>
<br><br>
TAF CYHM 201738Z 2018/2118 33015G25KT P6SM SCT050 BECMG 2023/2101 32012KT RMK NXT FCST BY 210000Z<br><br>
<br><br>
KIAG 202106Z 2021/2118 33016G24KT 1SM -SN BLSN OVC015 TEMPO 2021/2024 1/4SM SN BLSN FG BKN007 FM210000 32014G22KT 4SM -SN BKN025 FM210300 33014G24KT 2SM -SN BLSN BKN015 FM211200 33014G24KT P6SM VCSH BKN025<br><br>
<br><br>
KBUF 202154Z 31011KT 3/4SM R23/3000VP6000FT -SN BLSN BKN010 BKN029 M14/M16 A2993 RMK AO2 SLP154 P0001 T11391161<br><br>
KBUF 202117Z 32013KT 1/2SM R23/P6000FT SN BLSN BKN012 OVC017 M14/M16 A2992 RMK AO2 P0000 T11391161<br><br>
KBUF 202054Z 32012KT 1SM R23/P6000FT -SN BLSN BKN014 OVC022 M13/M17 A2991 RMK AO2 SLP144 P0000 60000 T11331167 53024<br><br>
KBUF 202030Z 34013KT 3/4SM R23/4000VP6000FT -SN BLSN BKN012 BKN023 OVC027 M13/M16 A2990 RMK AO2 P0000 T11331161<br><br>
KBUF 202024Z 33013KT 2SM R23/3000VP6000FT -SN BLSN BKN012 OVC027 M13/M16 A2989 RMK AO2 P0000 T11281161<br><br>
KBUF 202106Z 2021/2118 32013G20KT 1SM -SN BLSN BKN015 TEMPO 2021/2024 1/2SM SN FM210000 32012G20KT 6SM -SHSN SCT025 BKN040 FM210400 31012G18KT P6SM VCSH BKN025 FM211500 31012G18KT P6SM SCT025 BKN040<br><br>
<br><br>
TAF CYYZ 202038Z 2021/2124 34020G35KT P6SM SCT020 TEMPO 2021/2023 BKN020 FM210400 34020G30KT P6SM SKC BECMG 2116/2118 32015G25KT RMK NXT FCST BY 210000Z<br><br>
<br><br>
CYOO 202155Z AUTO 32019G29KT 6SM HZ CLR M18/M25 A2996 RMK SLP162<br><br>
CYOO 202145Z AUTO 33022G29KT 5SM HZ CLR M18/M25 A2996 RMK SLP160<br><br>
CYOO 202109Z AUTO 33019G28KT 6SM HZ CLR M17/M24 A2994 RMK SLP153<br><br>
CYOO 202100Z AUTO 32024G32KT 5SM HZ CLR M17/M23 A2993 RMK SLP151<br><br>
CYOO 202059Z AUTO 32024G32KT 5SM HZ CLR M17/M24 A2993 RMK SLP151<br><br>
CYOO 202043Z AUTO 32017G27KT 7SM CLR M17/M23 A2993 RMK SLP148<br><br>
CYOO 202039Z AUTO 33019G34KT 3SM HZ CLR M17/M24 A2992 RMK SLP146<br><br>
CYOO 202030Z AUTO 34025G31KT 2 1/2SM BLSN CLR M17/M23 A2991 RMK VIS VRB 1-3 SLP144<br><br>
CYOO 202021Z AUTO 34024G33KT 4SM HZ CLR M17/M23 A2991 RMK SLP143<br><br>
CYOO 202019Z AUTO 34020G27KT 6SM HZ CLR M17/M23 A2991 RMK SLP142<br><br>
TAF CYOO 201938Z 2020/2108 32015G30KT P6SM SKC RMK FCST BASED ON AUTO OBS. AUTO OBS REP NON-REPRESENTATIVE VIS. NXT FCST BY 210200Z<br><br>
<br><br>
CYTR 202100Z 35015G20KT 12SM FEW027 BKN059 OVC080 M15/M21 A2988 RMK SC1SC4AC3 SLP125<br><br>
TAF CYTR 201730Z 2018/2118 33015G25KT P6SM SCT025 BKN250 TEMPO 2018/2112 3SM -SHSN BLSN BKN025 BECMG 2104/2106 33012G22KT FM211200 33012G22KT P6SM SKC RMK NXT FCST BY 210000Z<br><br>
<br><br>
