RETRIEVED AT : Jul 05 2020 14:05 Local <br>
  RETRIEVED AT: Jul 05 2020 18:05 UTC<br><br>
CYSN 051700Z 32008KT 270V340 15SM BKN170 31/16 A2997 RMK AC6 SLP149 DENSITY ALT 2200FT<br><br>
TAF CYSN 051238Z 0513/0601 21006KT P6SM SCT250 BECMG 0514/0516 30008KT BECMG 0523/0601 07006KT RMK NXT FCST BY 052000Z<br><br>
<br><br>
CYHM 051700Z 30003KT 210V350 15SM BKN280 29/15 A3001 RMK CI7 SLP159 DENSITY ALT 2600FT<br><br>
TAF CYHM 051738Z 0518/0618 VRB03KT P6SM FEW060 BKN250 BECMG 0601/0603 SKC FM060900 04008KT P6SM SCT090 RMK NXT FCST BY 060000Z<br><br>
<br><br>
KIAG 051753Z 22012KT 10SM CLR 31/13 A2998 RMK AO2 SLP146 T03110133 10317 20211 58005<br><br>
KIAG 051653Z 29008KT 10SM CLR 30/13 A2999 RMK AO2 SLP149 T03000128<br><br>
KIAG 051720Z 0518/0618 28008KT P6SM SCT250 FM052200 24006KT P6SM SCT250 FM060100 18003KT P6SM SCT200 FM061500 05006KT P6SM SCT200<br><br>
<br><br>
KBUF 051754Z 22011KT 10SM FEW170 BKN220 BKN270 31/13 A3000 RMK AO2 SLP154 T03110128 10311 20211 58003<br><br>
KBUF 051654Z 23008KT 10SM SCT190 BKN230 BKN270 31/14 A3001 RMK AO2 SLP156 T03060139<br><br>
KBUF 051720Z 0518/0618 25010KT P6SM SCT250 FM060000 20004KT P6SM SCT200 FM061600 03005KT P6SM SCT050<br><br>
<br><br>
CYYZ 051700Z 31006KT 240V340 15SM FEW180 BKN230 BKN250 31/08 A2998 RMK AC1CI5CC1 SLP152 DENSITY ALT 2500FT<br><br>
TAF CYYZ 051738Z 0518/0624 27007KT P6SM FEW150 BKN250 BECMG 0601/0603 02006KT FM061300 10010KT P6SM SCT090 RMK NXT FCST BY 052100Z<br><br>
<br><br>
CYOO 051700Z AUTO 25008KT 230V310 9SM CLR 30/10 A2997 RMK SLP149 DENSITY ALT 2200FT<br><br>
TAF CYOO 051338Z 0514/0602 VRB03KT P6SM BKN250 BECMG 0514/0516 32010KT FM060000 36005KT P6SM SKC RMK FCST BASED ON AUTO OBS. NXT FCST BY 052000Z<br><br>
<br><br>
CYTR 051700Z 19008KT 15SM FEW040 OVC250 29/16 A2995 RMK SC1CS7 HALO SLP141<br><br>
TAF CYTR 051731Z 0518/0618 20008KT P6SM FEW040 OVC250 BECMG 0520/0522 28012KT FM060300 33006KT P6SM BKN150 BECMG 0607/0609 VRB03KT BECMG 0614/0616 21008KT RMK NXT FCST BY 060000Z<br><br>
<br><br>
