RETRIEVED AT : Mar 21 2020 07:05 Local <br>
  RETRIEVED AT: Mar 21 2020 11:05 UTC<br><br>
CYSN has no TAF <br><br>
<br><br>
CYHM 211000Z 35008KT 15SM BKN019 M05/M09 A3042 RMK SC7 SLP312<br><br>
TAF CYHM 210538Z 2106/2206 35012G22KT P6SM OVC020 TEMPO 2106/2110 BKN025 FM211000 03012KT P6SM SCT020 TEMPO 2110/2112 BKN020 FM211300 04012KT P6SM FEW025 FM220200 02008KT P6SM SKC RMK NXT FCST BY 211200Z<br><br>
<br><br>
KIAG 211053Z 36012KT 10SM OVC018 M04/M08 A3043 RMK AO2 SLP321 T10441083<br><br>
KIAG 210953Z AUTO 35010KT 10SM OVC019 M04/M08 A3040 RMK AO2 SLP310 T10391078<br><br>
KIAG 210900Z 2109/2206 36010KT P6SM OVC025 FM211300 36009KT P6SM SCT035 FM211700 36009KT P6SM SKC FM220000 03005KT P6SM SKC<br><br>
<br><br>
KBUF 211054Z 02006KT 10SM BKN018 OVC030 M03/M08 A3042 RMK AO2 SLP310 T10331078<br><br>
KBUF 210954Z 36007KT 10SM BKN018 OVC035 M03/M07 A3039 RMK AO2 SLP298 T10281072<br><br>
KBUF 210900Z 2109/2206 35010KT P6SM OVC025 FM211400 36008KT P6SM SCT025 FM211800 35008KT P6SM SKC FM220000 03005KT P6SM SKC<br><br>
<br><br>
CYYZ 211000Z 02012G17KT 15SM FEW021 M07/M12 A3044 RMK SC1 SC TR SLP318<br><br>
TAF CYYZ 210838Z 2109/2212 36010G20KT P6SM SCT020 TEMPO 2109/2110 BKN020 FM211100 01012KT P6SM SKC FM220100 02008KT P6SM SKC RMK NXT FCST BY 211200Z<br><br>
<br><br>
CYOO 211000Z AUTO 35009G19KT 9SM CLR M08/M11 A3043 RMK SLP315<br><br>
TAF CYOO 210738Z 2108/2120 34010G20KT P6SM SKC BECMG 2110/2112 35010KT RMK FCST BASED ON AUTO OBS. NXT FCST BY 211400Z<br><br>
<br><br>
CYTR 211000Z 36010KT 15SM SKC M07/M13 A3043 RMK SLP310<br><br>
TAF CYTR 210530Z 2106/2206 34010G20KT P6SM BKN025 BECMG 2106/2107 SCT025 FM211000 35008KT P6SM SKC FM211800 35008KT P6SM FEW210 FM220400 36005KT P6SM SKC RMK NXT FCST BY 211200Z<br><br>
<br><br>
