RETRIEVED AT : Nov 05 2017 04:15 Local <br>
  RETRIEVED AT: Nov 05 2017 09:15 UTC<br><br>
CYSN has no TAF <br><br>
<br><br>
CYHM 050912Z 05003KT 7SM -RA OVC009 07/07 A2993 RMK SC8 SLP142<br><br>
CYHM 050900Z 06004KT 10SM -RA OVC012 07/07 A2993 RMK SC8 SLP143<br><br>
CYHM 050827Z 07004KT 12SM -RA OVC014 07/06 A2994 RMK SC8 SLP147<br><br>
CYHM 050800Z 07006KT 12SM -RA OVC015 06/06 A2995 RMK SC8 SLP149<br><br>
CYHM 050723Z 07005KT 10SM -RA FEW006 OVC022 06/06 A2996 RMK SF2SC6 SLP151<br><br>
TAF CYHM 050540Z 0506/0606 06010KT P6SM SCT015 OVC030 TEMPO 0506/0508 4SM -SHRA BR BKN015 OVC030 PROB40 0506/0508 VRB15G25KT 2SM TSRA BR BKN008 OVC030CB FM050800 07005KT 6SM -DZ BR SCT008 OVC025 TEMPO 0508/0510 3SM -SHRA BR BKN008 OVC020 FM051000 18015KT 6SM -SHRA BR SCT005 OVC012 TEMPO 0510/0521 21/2SM -DZ BR OVC005 BECMG 0513/0515 20015G25KT FM052100 21012KT 3SM -SHRA BR BKN006 OVC015 PROB40 0521/0524 VRB20G35KT 1SM +TSRA BR BKN004 OVC020CB FM060000 23010KT 4SM -DZ BR OVC006 FM060400 30010KT 6SM BR SCT006 OVC010 RMK NXT FCST BY 051200Z<br><br>
<br><br>
KIAG 050853Z AUTO 17008KT 10SM OVC028 11/08 A2995 RMK AO2 RAB39E52 SLP149 P0000 60009 T01110083 58009<br><br>
KIAG 050753Z AUTO 17011KT 10SM OVC028 11/08 A2997 RMK AO2 LTG DSNT E AND SE RAE01B11E51 SLP155 P0003 T01110078<br><br>
KIAG 050750Z AUTO 17010KT 10SM -RA OVC028 11/08 A2997 RMK AO2 LTG DSNT E AND SE RAE01B11 P0003<br><br>
KIAG 050720Z AUTO 18007KT 10SM -RA BKN030 OVC039 11/08 A2998 RMK AO2 LTG DSNT SE AND S RAE01B11 P0000 T01060078<br><br>
KIAG 050906Z 0509/0606 17008KT P6SM OVC028 FM051200 17014G21KT 6SM -RA OVC030 FM051700 19016G25KT P6SM VCSH OVC025 FM052300 18012G21KT 4SM RA OVC025<br><br>
<br><br>
KBUF 050854Z 16010KT 10SM -RA BKN028 OVC045 10/08 A2997 RMK AO2 RAE06B46 SLP153 P0000 60027 T01000083 58007 $<br><br>
KBUF 050754Z 16011KT 7SM -RA FEW016 OVC023 09/08 A2999 RMK AO2 LTG DSNT E-S TSB04E38 SLP159 TS MOVD NE P0014 T00940078 $<br><br>
KBUF 050739Z 16013KT 7SM -RA BKN023 BKN027 OVC065 09/08 A3000 RMK AO2 LTG DSNT E-S TSB04E38 TS MOVD NE P0013 T00940078 $<br><br>
KBUF 050723Z 17012G18KT 6SM -TSRA BR BKN027CB BKN065 OVC090 09/08 A3000 RMK AO2 LTG DSNT E-SW TSB04 OCNL LTGIC NE TS NE MOV NE P0010 T00940083 $<br><br>
KBUF 050906Z 0509/0606 16010KT P6SM -RA BKN028 OVC045 FM051200 19018G26KT P6SM OVC025 FM051900 19018G26KT P6SM VCSH OVC025 FM052300 18014G22KT 4SM +RA OVC020<br><br>
<br><br>
CYYZ 050907Z 12005KT 6SM -RA BR FEW005 OVC011 08/07 A2994 RMK SF2ST6 SLP144<br><br>
CYYZ 050900Z 12005KT 6SM +RA BR SCT005 OVC011 08/07 A2994 RMK SF3ST5 SLP145<br><br>
CYYZ 050800Z 12007KT 15SM -DZ SCT005 BKN013 OVC022 07/07 A2996 RMK SF3ST3ST2 SLP152<br><br>
CYYZ 050750Z 12004KT 15SM -DZ SCT005 OVC013 07/06 A2997 RMK SF3ST5 SLP153<br><br>
TAF CYYZ 050838Z 0509/0612 13007KT 6SM -DZ BR SCT005 OVC012 TEMPO 0509/0512 2SM -SHRA BR BKN005 OVC012 PROB30 0509/0512 1SM -SHRA BR BKN002 OVC005 FM051200 18010KT P6SM -SHRA SCT008 OVC015 TEMPO 0512/0522 3SM -DZ BR BKN008 OVC015 BECMG 0515/0517 20015G25KT FM052200 21010G20KT 6SM -SHRA BR SCT010 OVC025 PROB30 0523/0602 VRB20G35KT 11/2SM +TSRA BR BKN006 OVC030CB FM060200 25008KT 6SM -DZ BR BKN015 OVC040 FM060500 31010KT P6SM SCT015 OVC030 RMK NXT FCST BY 051200Z<br><br>
<br><br>
CYOO 050912Z AUTO 11008KT 3SM -RA BR BKN005 OVC010 08/06 A2997 RMK SLP154<br><br>
CYOO 050900Z AUTO 12008KT 2 1/2SM -RA BR BKN005 OVC012 08/06 A2997 RMK SLP155<br><br>
CYOO 050859Z AUTO 12008KT 2 1/2SM -RA BR BKN005 OVC012 08/06 A2997 RMK SLP155<br><br>
CYOO 050856Z AUTO 11008KT 4SM -RA BR BKN005 OVC012 07/06 A2998 RMK SLP156<br><br>
CYOO 050854Z AUTO 11006KT 4SM BR BKN005 OVC012 07/06 A2998 RMK SLP156<br><br>
CYOO 050838Z AUTO 11009KT 5SM -RA BR FEW007 BKN014 OVC020 07/06 A2998 RMK SLP157<br><br>
CYOO 050812Z AUTO 11008KT 6SM -RA BR BKN017 OVC022 07/06 A2999 RMK SLP159<br><br>
CYOO 050807Z AUTO 11008KT 5SM -RA BR BKN017 OVC022 07/06 A2999 RMK SLP160<br><br>
CYOO 050800Z AUTO 11008KT 9SM -RA OVC020 07/06 A2999 RMK SLP161<br><br>
CYOO 050757Z AUTO 11007KT 6SM -RA BR OVC020 07/06 A3000 RMK SLP162<br><br>
CYOO 050751Z AUTO 11008KT 5SM RA BR OVC020 07/06 A3000 RMK SLP162<br><br>
CYOO 050735Z AUTO 11007KT 9SM -RA BKN022 BKN031 BKN039 OVC048 07/06 A3000 RMK SLP164<br><br>
CYOO 050733Z AUTO 10008KT 9SM -RA SCT022 BKN029 BKN039 OVC050 07/06 A3000 RMK SLP162<br><br>
CYOO 050730Z AUTO 11009KT 7SM -RA BKN022 BKN036 BKN048 OVC055 07/06 A3000 RMK SLP162<br><br>
CYOO 050728Z AUTO 12007KT 6SM -RA BR SCT022 BKN037 BKN048 OVC060 07/06 A3000 RMK SLP164<br><br>
CYOO 050721Z AUTO 12009G15KT 5SM -RA BR SCT024 BKN039 BKN048 OVC060 07/06 A3000 RMK SLP162<br><br>
CYOO has no TAF <br><br>
<br><br>
CYTR 050911Z 14007KT 3SM SHRA BR OVC015 09/08 A3002 RMK SF8 VIS VRB 2 1/4-4 SLP170<br><br>
CYTR 050900Z 14007KT 6SM -SHRA BR OVC012 08/08 A3002 RMK SF8 SLP170<br><br>
CYTR 050849Z 11005KT 10SM -SHRA OVC012 08/07 A3003 RMK SF8 SLP174<br><br>
CYTR 050800Z 10005KT 15SM OVC022 08/07 A3006 RMK SC8 SLP181<br><br>
TAF AMD CYTR 050913Z 0509/0606 12012KT 6SM -RA BR SCT008 OVC020 TEMPO 0509/0523 3SM -RA BR OVC008 FM052300 19012G22KT 3SM -SHRA BR BKN006 OVC020 TEMPO 0523/0604 1SM +SHRA BR FM060400 20010KT 2SM BR BKN004 OVC010 RMK NXT FCST BY 051200Z<br><br>
<br><br>
