RETRIEVED AT : Jun 26 2020 11:05 Local <br>
  RETRIEVED AT: Jun 26 2020 15:05 UTC<br><br>
CYSN 261400Z 25007KT 210V290 15SM FEW100 25/15 A2994 RMK AC1 AC TR SLP140 DENSITY ALT 1600FT<br><br>
TAF CYSN 261238Z 2613/2701 24008KT P6SM FEW100 FM261800 29010KT P6SM SCT070 BECMG 2620/2622 23010G20KT RMK NXT FCST BY 262000Z<br><br>
<br><br>
CYHM 261400Z 27006KT 15SM SCT100 BKN250 23/13 A2997 RMK AC4CI1 SLP149 DENSITY ALT 1900FT<br><br>
TAF CYHM 261139Z 2612/2712 25006KT P6SM FEW070 FM261700 22012KT P6SM SCT070 FM270800 24010G20KT 6SM BR OVC007 FM270900 24010G20KT 6SM -SHRA BR OVC007 FM271000 24010G20KT 4SM -SHRA BR OVC007 PROB30 2710/2712 VRB15G30KT 1SM +TSRA BR BKN005 OVC015CB RMK NXT FCST BY 261800Z<br><br>
<br><br>
KIAG 261453Z 21009KT 10SM CLR 24/14 A2995 RMK AO2 SLP140 T02440144 58003<br><br>
KIAG 261353Z 23008KT 10SM CLR 22/15 A2996 RMK AO2 SLP142 T02220150<br><br>
KIAG 261453Z 2615/2712 23008KT P6SM SKC FM270000 20008KT P6SM BKN150 FM270800 21008KT 4SM SHRA VCTS OVC015CB<br><br>
<br><br>
KBUF 261454Z 24011KT 10SM FEW022 FEW110 FEW250 21/16 A2997 RMK AO2 SLP147 T02110156 58002 $<br><br>
KBUF 261354Z 23014KT 10SM FEW050 FEW085 FEW110 FEW250 21/16 A2997 RMK AO2 SLP148 T02060156 $<br><br>
KBUF 261453Z 2615/2712 23014KT P6SM FEW050 FM270000 20008KT P6SM BKN150 FM270800 21008KT 4SM SHRA VCTS OVC015CB<br><br>
<br><br>
CYYZ 261400Z 27014G19KT 15SM FEW110 FEW150 26/09 A2994 RMK AC1AC1 SLP137 DENSITY ALT 2000FT<br><br>
TAF CYYZ 261438Z 2615/2718 27010G20KT P6SM FEW110 FM261700 25010G20KT P6SM SCT070 FM270900 22010G20KT P6SM -RA SCT015 BKN070 OVC120 FM271100 22010G20KT P6SM -SHRA SCT015 BKN030 OVC060 FM271400 25010G20KT 5SM -SHRA BR OVC015 PROB30 2716/2718 VRB15G25KT 1SM +TSRA BR BKN007 OVC020CB RMK NXT FCST BY 261800Z<br><br>
<br><br>
CYOO 261400Z AUTO 22006KT 190V250 9SM BKN170 24/12 A2992 RMK SLP134 DENSITY ALT 1600FT<br><br>
TAF CYOO 261338Z 2614/2702 27005KT P6SM SCT090 FM261800 22010KT P6SM BKN070 BECMG 2620/2622 22010G20KT FM270000 23010G20KT P6SM SCT070 RMK FCST BASED ON AUTO OBS. NXT FCST BY 262000Z<br><br>
<br><br>
CYTR 261400Z 20006KT 15SM SCT220 23/16 A2991 RMK CI3 SLP128<br><br>
TAF CYTR 261130Z 2612/2712 22005KT P6SM FEW080 SCT220 FM261500 24010KT P6SM SCT060 FM270200 23005KT P6SM FEW080 SCT120 FM271000 23012KT P6SM BKN012 OVC080 RMK NXT FCST BY 261800Z<br><br>
<br><br>
