RETRIEVED AT : May 15 2020 23:05 Local <br>
  RETRIEVED AT: May 16 2020 03:05 UTC<br><br>
CYSN has no TAF <br><br>
<br><br>
CYHM 160249Z 00000KT 2SM R12/4000VP6000FT/N BR SKC 11/11 A2998 RMK FG2 VIS SE HIER SLP156<br><br>
CYHM 160231Z 00000KT 8SM MIFG SKC 12/12 A2998 RMK SLP155<br><br>
CYHM 160217Z 14002KT 2 1/2SM BR SKC 11/11 A2997 RMK FG2 SLP152<br><br>
CYHM 160200Z 11002KT 4SM MIFG SKC 12/12 A2997 RMK VIS VRB 21/2-10 SLP151<br><br>
TAF AMD CYHM 160216Z 1602/1624 01005KT P6SM SCT020 TEMPO 1602/1604 11/2SM BR BECMG 1602/1604 01005KT FM160400 04006KT 2SM BR SCT002 TEMPO 1604/1610 1/2SM FG VV002 FM161000 05008KT 1/2SM FG VV002 BECMG 1611/1613 P6SM NSW FEW006 FM161600 05010KT P6SM SKC RMK NXT FCST BY 160600Z<br><br>
<br><br>
KIAG 160253Z 32004KT 10SM CLR 11/09 A2997 RMK AO2 SLP152 T01060094 51026<br><br>
KIAG 160153Z 34005KT 10SM CLR 12/11 A2995 RMK AO2 SLP145 T01170106<br><br>
KIAG 160234Z 1603/1624 35006KT 6SM BR SCT005 BKN025 FM160600 31004KT 4SM BR BKN007 FM161100 35004KT 6SM BR BKN010 FM161300 02006KT P6SM BKN040<br><br>
<br><br>
KBUF 160254Z 31004KT 10SM CLR 13/11 A2998 RMK AO2 SLP151 T01280111 51027<br><br>
KBUF 160154Z 34004KT 10SM FEW005 FEW013 FEW028 13/12 A2996 RMK AO2 SLP144 T01330117<br><br>
KBUF 160141Z 33005KT 10SM FEW006 SCT013 SCT031 14/12 A2995 RMK AO2 T01390122<br><br>
KBUF 160139Z 34006KT 7SM SCT006 BKN013 14/12 A2995 RMK AO2 T01390122<br><br>
KBUF 160113Z 33008KT 7SM BKN008 OVC032 14/13 A2994 RMK AO2 CIG 005V009 T01440128<br><br>
KBUF 160234Z 1603/1624 34004KT 6SM BR FEW005 SCT025 FM160600 VRB04KT 4SM BR BKN003 FM161100 34004KT 6SM BR BKN010 FM161300 35006KT P6SM BKN040<br><br>
<br><br>
CYYZ 160200Z 34007KT 15SM FEW250 12/10 A2995 RMK CI1 SLP147<br><br>
TAF CYYZ 160238Z 1603/1706 36008KT P6SM FEW050 PROB40 1603/1605 1SM BR FM160500 36006KT 6SM BR SKC TEMPO 1605/1613 1SM BR PROB40 1605/1612 1/2SM FG BKN003 FM161300 03008KT P6SM FEW005 SCT015 FM161900 15008KT P6SM SKC BECMG 1701/1703 07007KT RMK NXT FCST BY 160600Z<br><br>
<br><br>
CYOO 160200Z AUTO 31006KT 9SM CLR 11/11 A2993 RMK SLP140<br><br>
TAF CYOO 160138Z 1602/1614 VRB03KT P6SM FEW020 FM160700 34006KT P6SM SCT005 PROB30 1607/1612 2SM BR BKN005 RMK FCST BASED ON AUTO OBS. NXT FCST BY 160800Z<br><br>
<br><br>
CYTR 160200Z 00000KT 10SM MIFG FEW023 SCT100 13/11 A2991 RMK SC2AC2 SLP129<br><br>
TAF CYTR 152330Z 1600/1624 32005KT P6SM SCT025 BKN080 FM160100 33005KT P6SM BKN025 FM160600 33005KT P6SM SKC PROB30 1606/1610 1SM BR FM161700 20008KT P6SM BKN030 RMK NXT FCST BY 160600Z<br><br>
<br><br>
