RETRIEVED AT : Sep 03 2017 06:10 Local <br>
  RETRIEVED AT: Sep 03 2017 10:10 UTC<br><br>
CYSN has no TAF <br><br>
<br><br>
CYHM 031000Z 27005KT 15SM -RA FEW022 BKN045 OVC120 14/14 A2984 RMK CF2SC3AC3 SLP105 DENSITY ALT 1000FT<br><br>
CYHM 030951Z 28004KT 8SM -RA FEW023 BKN045 OVC120 14/14 A2983 RMK CF2SC4AC2 SLP104 DENSITY ALT 1000FT<br><br>
CYHM 030922Z 21004KT 5SM RA BR FEW005 BKN025 OVC070 14/14 A2983 RMK CF2SC3AC3 SLP104 DENSITY ALT 1000FT<br><br>
CYHM 030900Z 17006KT 1 1/2SM RA BR OVC004 14/14 A2983 RMK FG2SF6 VIS VRB 1 - 2 SLP102 DENSITY ALT 1000FT<br><br>
TAF AMD CYHM 031007Z 0310/0406 25006KT P6SM OVC040 TEMPO 0310/0311 5SM -RA BR OVC020 FM031100 27012KT P6SM SCT020 BKN040 TEMPO 0311/0314 OVC020 FM031700 26012G22KT P6SM BKN040 PROB30 0317/0320 3SM TSRA BR BKN030CB FM032300 28010KT P6SM SCT050 FM040300 22005KT P6SM SKC RMK NXT FCST BY 031200Z<br><br>
<br><br>
KIAG 030953Z AUTO 18007KT 2 1/2SM -RA BR OVC006 16/13 A2983 RMK AO2 SLP102 P0002 T01560133<br><br>
KIAG 030943Z AUTO 17005KT 3SM -RA BR OVC007 16/13 A2983 RMK AO2 P0001 T01560133<br><br>
KIAG 030926Z AUTO 17006KT 2 1/2SM -RA BR BKN007 OVC012 16/13 A2983 RMK AO2 P0001 T01560133<br><br>
KIAG 030902Z AUTO 17007KT 3SM -RA BR SCT007 OVC012 15/13 A2984 RMK AO2 P0000 T01500128<br><br>
KIAG 030853Z AUTO 18007KT 4SM -RA BR BKN007 OVC012 15/13 A2985 RMK AO2 SLP106 P0002 60005 T01500128 56022<br><br>
KIAG 030902Z 0309/0406 18007KT 4SM -RA BR BKN007 OVC012 FM031300 24009KT P6SM OVC012 FM031600 26012G19KT 6SM -RA OVC080 FM032000 27012G19KT P6SM OVC060 FM040100 26011KT P6SM SCT250<br><br>
<br><br>
KBUF 030954Z 19008KT 9SM -RA FEW005 OVC012 14/13 A2985 RMK AO2 SLP107 P0001 T01390128<br><br>
KBUF 030854Z 18006KT 5SM -RA BR FEW006 OVC013 13/13 A2986 RMK AO2 SLP112 P0002 60003 T01330128 56019<br><br>
KBUF 030902Z 0309/0406 18006KT 5SM -RA BR FEW006 OVC013 FM031600 26012G20KT 6SM -RA OVC035 FM032200 25013G19KT P6SM OVC035 FM040200 25010KT P6SM SCT120<br><br>
<br><br>
CYYZ 031000Z 14003KT 130V200 8SM -RA BKN002 OVC013 14/14 A2982 RMK SF5NS3 SLP100 DENSITY ALT 800FT<br><br>
CYYZ 030946Z 18003KT 140V210 6SM +RA FEW002 SCT012 OVC020 14/14 A2982 RMK SF1SF3NS4 SLP101 DENSITY ALT 800FT<br><br>
CYYZ 030913Z 18004KT 3SM RA BR BKN002 OVC015 14/14 A2983 RMK SF5NS3 SLP103 DENSITY ALT 800FT<br><br>
CYYZ 030900Z 16003KT 2 1/2SM -RA BR BKN002 OVC018 14/14 A2983 RMK SF5NS3 SLP103 DENSITY ALT 800FT<br><br>
CYYZ 030849Z 15003KT 2 1/2SM -RA BR BKN002 OVC016 14/14 A2983 RMK SF7NS1 SLP103 DENSITY ALT 800FT<br><br>
TAF CYYZ 030838Z 0309/0412 16006KT 3SM -RA BR OVC003 TEMPO 0309/0311 6SM -RA BR SCT003 OVC015 PROB30 0309/0311 2SM TSRA BR OVC003CB FM031100 30008KT 3SM -RA BR OVC007 TEMPO 0311/0312 6SM -RA BR OVC010 FM031200 30012KT P6SM SCT010 OVC060 TEMPO 0312/0314 OVC010 FM031400 29010KT P6SM BKN025 BKN080 FM031700 28010G20KT P6SM BKN040 PROB30 0317/0321 VRB15G25KT 3SM TSRA BR OVC020CB FM032300 29015KT P6SM BKN040 FM040200 28008KT P6SM FEW040 BECMG 0408/0410 23008KT RMK NXT FCST BY 031200Z<br><br>
<br><br>
CYOO 031000Z AUTO 15004KT 120V190 3SM -RA BR BKN004 OVC012 15/14 A2982 RMK SLP102 DENSITY ALT 600FT<br><br>
CYOO 030958Z AUTO 16003KT 120V190 3SM -RA BR BKN004 OVC012 15/14 A2982 RMK SLP102 DENSITY ALT 600FT<br><br>
CYOO 030925Z AUTO 15004KT 110V180 2 1/4SM -RA BR BKN004 OVC010 14/14 A2983 RMK SLP105 DENSITY ALT 500FT<br><br>
CYOO 030900Z AUTO 14005KT 3SM -RA BR BKN004 OVC010 14/13 A2984 RMK SLP107 DENSITY ALT 500FT<br><br>
CYOO 030859Z AUTO 14004KT 3SM -RA BR BKN004 OVC010 14/13 A2984 RMK SLP107 DENSITY ALT 500FT<br><br>
CYOO has no TAF <br><br>
<br><br>
CYTR 031000Z 12005KT 2SM -DZ BR OVC005 14/14 A2986 RMK SF8 SLP114<br><br>
CYTR 030939Z 11007KT 2SM -DZ BR OVC005 14/14 A2987 RMK SF8 SLP115<br><br>
CYTR 030900Z 12005KT 3SM -SHRA BR OVC005 14/14 A2988 RMK SF8 SLP119<br><br>
TAF AMD CYTR 030804Z 0308/0406 16010KT 3SM -RA BR BKN005 OVC012 TEMPO 0308/0315 6SM -RA BR SCT008 OVC012 FM031500 22008KT 3SM -RA BR BKN008 OVC015 TEMPO 0315/0319 6SM -RA BR SCT008 OVC015 PROB30 0315/0319 VRB15G25KT 2SM TSRA BR BKN008 OVC015CB FM031900 29012KT P6SM SCT015 BKN040 TEMPO 0319/0322 P6SM -SHRA FM040000 29008KT P6SM SCT040 BECMG 0403/0405 VRB03KT RMK NXT FCST BY 031200Z<br><br>
<br><br>
