RETRIEVED AT : Nov 06 2017 10:10 Local <br>
  RETRIEVED AT: Nov 06 2017 15:10 UTC<br><br>
CYSN 061500Z 32013G19KT 15SM BKN035 07/02 A3005 RMK SC7 SLP178<br><br>
CYSN 061400Z 31012KT 15SM OVC029 07/03 A3002 RMK SC8 SLP167<br><br>
TAF CYSN 061338Z 0614/0702 33012KT P6SM BKN025 TEMPO 0614/0621 BKN020 FM062100 33008KT P6SM SCT025 RMK NXT FCST BY 062000Z<br><br>
<br><br>
CYHM 061500Z 32011G19KT 15SM BKN031 BKN035 06/01 A3006 RMK SC5SC2 SLP183<br><br>
CYHM 061400Z 31015KT 15SM BKN032 06/M00 A3004 RMK SC7 SLP177<br><br>
TAF CYHM 061138Z 0612/0712 31010G20KT P6SM BKN025 TEMPO 0612/0616 OVC020 FM062000 32010KT P6SM BKN030 FM070200 32005KT P6SM FEW030 SCT140 RMK NXT FCST BY 061800Z<br><br>
<br><br>
KIAG 061453Z 32016G21KT 10SM OVC024 08/02 A3004 RMK AO2 SLP177 60001 T00780022 51034<br><br>
KIAG 061353Z 33011KT 10SM OVC019 08/03 A3001 RMK AO2 SLP166 T00780033<br><br>
KIAG 061132Z 0612/0712 31011KT P6SM -RA OVC025 FM062000 32011KT P6SM BKN250 FM062300 32009KT P6SM BKN030 FM070100 33007KT P6SM SCT030 FM070600 VRB03KT P6SM BKN100 FM071000 36004KT P6SM BKN090<br><br>
<br><br>
KBUF 061454Z 33009KT 10SM FEW008 SCT015 OVC021 07/04 A3003 RMK AO2 SLP170 60000 T00670044 51033<br><br>
KBUF 061354Z 32010KT 10SM FEW007 OVC018 07/06 A3000 RMK AO2 RAE40 SLP160 P0000 T00720056<br><br>
KBUF 061330Z 34006KT 8SM -RA FEW007 BKN018 OVC034 07/06 A2999 RMK AO2 PCPN VRY LGT P0000 T00670061<br><br>
KBUF 061132Z 0612/0712 31011KT P6SM -RA BKN015 OVC024 FM061400 31011G17KT P6SM OVC025 FM061800 31011KT P6SM BKN025 FM062000 32010KT P6SM SCT025 FM070000 33007KT P6SM SCT030 FM071100 05004KT P6SM BKN090<br><br>
<br><br>
CYYZ 061500Z 35013G22KT 15SM BKN035 07/00 A3005 RMK SC7 SLP179<br><br>
CYYZ 061400Z 32012KT 15SM BKN030 07/M00 A3002 RMK SC7 SLP169<br><br>
TAF CYYZ 061439Z 0615/0718 33012G22KT P6SM BKN030 BECMG 0622/0623 35010KT FM070400 31007KT P6SM FEW030 SCT130 FM071400 27008KT P6SM SCT200 RMK NXT FCST BY 061800Z<br><br>
<br><br>
CYOO 061500Z AUTO 30016G22KT 9SM OVC038 07/M00 A3003 RMK PRESRR SLP172<br><br>
CYOO 061400Z AUTO 31016G23KT 9SM BKN032 OVC041 07/00 A3000 RMK PRESRR SLP161<br><br>
CYOO has no TAF <br><br>
<br><br>
CYTR 061500Z 31015G24KT 14SM FEW120 08/01 A2995 RMK AC2 SLP144<br><br>
CYTR 061400Z 30019G25KT 15SM FEW015 SCT120 07/04 A2993 RMK SC2AC2 SLP137<br><br>
TAF AMD CYTR 061308Z 0613/0712 29015KT P6SM SCT012 BKN030 TEMPO 0613/0614 BKN012 OVC030 FM061500 30012G22KT P6SM SCT030 BECMG 0620/0622 32008KT SKC FM070600 VRB03KT P6SM SCT020 RMK NXT FCST BY 061800Z<br><br>
<br><br>
