RETRIEVED AT : Oct 27 2018 13:05 Local <br>
  RETRIEVED AT: Oct 27 2018 17:05 UTC<br><br>
CYSN 271600Z 07016G23KT 15SM FEW012 OVC073 07/04 A2981 RMK SC1AC8 SC TR SLP097<br><br>
CYSN 271525Z 08014G22KT 15SM FEW010 BKN068 OVC100 07/04 A2981 RMK SF1AC6AC1 SLP099<br><br>
TAF CYSN 271238Z 2713/2801 08012KT 5SM -RA BR BKN008 OVC030 TEMPO 2713/2715 P6SM -RA SCT008 OVC030 PROB30 2713/2715 BKN007 FM271500 08015G25KT 5SM -RA BR BKN010 OVC030 TEMPO 2715/2717 P6SM -RA SCT010 OVC030 PROB30 2715/2717 BKN008 FM271700 07015G25KT 5SM -RA BR BKN012 OVC030 TEMPO 2717/2801 P6SM -RA OVC030 RMK NXT FCST BY 272000Z<br><br>
<br><br>
CYHM 271635Z 04021G29KT 15SM -RA BKN008 OVC016 04/03 A2979 RMK SF6SC2 SLP095<br><br>
CYHM 271609Z 04021KT 12SM FEW005 OVC009 04/03 A2980 RMK SF2SC6 SLP098<br><br>
CYHM 271600Z 04021KT 12SM -RA OVC008 04/03 A2980 RMK SF8 SLP099<br><br>
CYHM 271538Z 04021KT 10SM -RA OVC009 03/03 A2981 RMK SF8 SLP102<br><br>
TAF CYHM 271141Z 2712/2812 04018G30KT P6SM -RA BKN007 OVC015 TEMPO 2712/2717 2SM -RA BR BKN005 OVC015 FM271700 06015G25KT 4SM -RA BR OVC006 BECMG 2722/2724 04012G22KT FM280200 04012G22KT 2SM -RA BR OVC004 FM280700 01008KT 5SM -RA BR SCT008 OVC012 RMK NXT FCST BY 271800Z<br><br>
<br><br>
KIAG 271653Z 08017G26KT 10SM FEW049 OVC060 06/02 A2978 RMK AO2 PK WND 07027/1626 SLP095 T00610017<br><br>
KIAG 271625Z 08020G26KT 10SM SCT013 BKN050 OVC065 06/02 A2979 RMK AO2 PK WND 07026/1624 T00560022<br><br>
KIAG 271553Z 08014G20KT 10SM BKN013 BKN044 OVC070 06/03 A2980 RMK AO2 RAE00 SLP102 P0000 T00560028<br><br>
KIAG 271525Z 2715/2812 09014G22KT P6SM -RA SCT013 BKN045 FM271600 06014G24KT 6SM -RA OVC015 FM280500 02009KT 6SM -RA SCT007 OVC012 FM280900 32005KT 6SM -RA OVC012<br><br>
<br><br>
KBUF 271654Z 07016G23KT 10SM -RA BKN009 OVC027 04/03 A2978 RMK AO2 RAB09 SLP091 P0000 T00390028 $<br><br>
KBUF 271554Z 06015KT 10SM BKN009 BKN027 OVC045 04/03 A2979 RMK AO2 RAE50 SLP094 P0001 T00440033<br><br>
KBUF 271525Z 2715/2812 07014KT P6SM -RA BKN008 FM271800 07014G24KT 6SM -RA OVC009 FM280100 03013G19KT 6SM -RA OVC007 FM280500 01007KT 6SM -RA OVC007 FM280800 33006KT 6SM -RA OVC007<br><br>
<br><br>
CYYZ 271600Z 07011G18KT 15SM FEW026 OVC038 05/02 A2986 RMK CF1SC7 SLP119<br><br>
TAF CYYZ 271440Z 2715/2818 04010KT P6SM -RA OVC030 TEMPO 2715/2718 5SM -RA BR SCT009 OVC015 BECMG 2715/2717 05012G22KT FM271800 06015G25KT P6SM -RA SCT009 OVC015 FM272200 04010G20KT P6SM -RA OVC015 TEMPO 2722/2724 4SM -RASN BR OVC008 FM280000 04010G20KT 4SM -RASN BR OVC008 FM280600 02010KT 6SM -SNRA SCT008 OVC015 BECMG 2806/2808 35008KT FM281400 30005KT P6SM -RA BKN008 OVC030 RMK NXT FCST BY 271800Z<br><br>
<br><br>
CYOO 271600Z AUTO 07015G21KT 9SM BKN047 OVC060 06/M02 A2988 RMK SLP125<br><br>
CYOO has no TAF <br><br>
<br><br>
CYTR 271600Z 06012G18KT 15SM FEW050 BKN063 OVC100 05/M04 A2994 RMK SC1SC7AC1 SLP141<br><br>
TAF CYTR 271130Z 2712/2812 05008KT P6SM BKN080 TEMPO 2712/2718 P6SM -SHRA OVC050 BECMG 2712/2714 05012G22KT FM271800 05015G25KT P6SM -RA SCT020 OVC040 FM272000 05015G25KT 4SM -RA BR OVC020 TEMPO 2720/2803 2SM -RASN BR OVC008 FM280300 03015G25KT 6SM -SN SCT008 OVC020 TEMPO 2803/2812 2SM -SN BKN008 OVC020 BECMG 2803/2805 03010KT RMK NXT FCST BY 271800Z<br><br>
<br><br>
