RETRIEVED AT : Jul 01 2019 12:33 Local <br>
  RETRIEVED AT: Jul 01 2019 16:33 UTC<br><br>
CYSN 011600Z 25005KT 180V310 15SM FEW045 OVC240 25/16 A3000 RMK CF1CI7 SLP158 DENSITY ALT 1600FT<br><br>
CYSN 011500Z 21003KT 150V270 15SM FEW030 OVC250 24/14 A3001 RMK CU1CI8 CU TR SLP162 DENSITY ALT 1400FT<br><br>
TAF CYSN 011238Z 0113/0201 25003KT P6SM FEW250 BECMG 0113/0115 28008KT BECMG 0116/0118 23010KT RMK NXT FCST BY 012000Z<br><br>
<br><br>
CYHM 011600Z 21009KT 180V250 15SM FEW030 SCT180 BKN230 24/15 A3002 RMK CU1AC2CI4 SLP165 DENSITY ALT 1900FT<br><br>
CYHM 011500Z 23007KT 170V250 15SM FEW030 BKN250 23/16 A3003 RMK CU1CI5 SLP170 DENSITY ALT 1800FT<br><br>
TAF CYHM 011139Z 0112/0212 VRB03KT P6SM FEW250 BECMG 0113/0115 23008KT FM011800 24010KT P6SM SCT050 BECMG 0202/0204 22006KT FM020700 12005KT P6SM -SHRA BKN040 OVC100 PROB30 0207/0210 VRB15G25KT 11/2SM +TSRA BR BKN008 OVC040CB FM021000 14005KT P6SM SCT006 BKN160 RMK NXT FCST BY 011800Z<br><br>
<br><br>
KIAG 011553Z 19007KT 10SM CLR 24/14 A3001 RMK AO2 SLP160 T02390139<br><br>
KIAG 011453Z 24003KT 10SM CLR 22/13 A3002 RMK AO2 SLP163 T02220133 58003<br><br>
KIAG 011459Z 0115/0212 24007KT P6SM FEW030 FEW250 FM020300 21006KT P6SM BKN150 FM020500 22007KT P6SM VCSH BKN080<br><br>
<br><br>
KBUF 011554Z 22005KT 10SM FEW046 BKN270 23/12 A3002 RMK AO2 SLP163 T02330117<br><br>
KBUF 011454Z 27007KT 10SM FEW041 BKN280 23/13 A3003 RMK AO2 SLP165 T02330133 58004<br><br>
KBUF 011459Z 0115/0212 26005KT P6SM FEW040 FEW250 FM011800 24010G16KT P6SM SCT250 FM012300 21008KT P6SM BKN200 FM020800 24005KT P6SM VCSH OVC060<br><br>
<br><br>
CYYZ 011600Z 27004KT 15SM FEW050 BKN220 24/14 A3001 RMK CF1CI7 CF TR SLP162 DENSITY ALT 1700FT<br><br>
CYYZ 011500Z 17006KT 15SM BKN250 23/15 A3001 RMK CI7 SLP163 DENSITY ALT 1600FT<br><br>
TAF CYYZ 011441Z 0115/0218 18008KT P6SM SCT250 BECMG 0115/0117 22010KT FM012300 20007KT P6SM SCT050 FM020600 30006KT P6SM -SHRA BKN050 OVC100 PROB30 0206/0209 11/2SM +TSRA BR SCT008 OVC040CB FM021000 31005KT P6SM SCT050 BKN100 OVC240 BECMG 0213/0215 20006KT RMK NXT FCST BY 011800Z<br><br>
<br><br>
CYOO 011600Z AUTO 18008KT 160V220 9SM CLR 23/14 A3000 RMK SLP161 DENSITY ALT 1300FT<br><br>
CYOO 011500Z AUTO 17006KT 160V240 8SM CLR 23/14 A3000 RMK SLP159 DENSITY ALT 1300FT<br><br>
TAF CYOO 011338Z 0114/0202 VRB03KT P6SM SKC BECMG 0114/0116 21008KT RMK FCST BASED ON AUTO OBS. NXT FCST BY 012000Z<br><br>
<br><br>
CYTR 011600Z 21011KT 15SM FEW040 BKN240 23/14 A2998 RMK CF1CI6 CUFRA TR SLP153<br><br>
CYTR 011500Z 25007KT 15SM FEW030 SCT240 24/14 A2999 RMK CF1CI4 CUFRA TR SLP156<br><br>
TAF CYTR 011130Z 0112/0212 VRB03KT P6SM FEW240 BECMG 0115/0117 21012KT SCT040 BKN220 FM020300 20008KT P6SM BKN050 BKN120 FM020600 24005KT P6SM BKN040 OVC100 TEMPO 0206/0210 6SM -SHRA BR OVC030 RMK NXT FCST BY 011800Z<br><br>
<br><br>
