RETRIEVED AT : Nov 05 2017 16:10 Local <br>
  RETRIEVED AT: Nov 05 2017 21:10 UTC<br><br>
CYSN 052100Z 19016G22KT 8SM -SHRA SCT025 OVC090 16/14 A2974 RMK SC3AC5 CVCTV CLD EMBD SLP072 DENSITY ALT 800FT<br><br>
CYSN 052000Z 19017G24KT 10SM -SHRA OVC025 16/13 A2977 RMK SC8 CVCTV CLD EMBD SLP084 DENSITY ALT 800FT<br><br>
CYSN 051949Z 19017G24KT 6SM -SHRA OVC024 16/13 A2977 RMK SC8 CVCTV CLD EMBD SLP083 DENSITY ALT 800FT<br><br>
TAF CYSN 051939Z 0520/0602 19015G26KT P6SM BKN025 TEMPO 0520/0521 P6SM -RA OVC020 FM052100 19013G27KT 5SM SHRA BR BKN020 OVC150 PROB30 0521/0524 VRB20G35KT 21/2SM +TSRA BR BKN010CB FM060000 21012G25KT 3SM SHRA BR BKN010 OVC070 PROB30 0600/0602 VRB20G35KT 11/2SM +TSRA BR BKN005CB RMK NXT FCST WILL BE ISSUED AT 061345Z<br><br>
<br><br>
CYHM 052100Z 20014G20KT 10SM -SHRA OVC008 16/15 A2975 RMK SC8 CVCTV CLD EMBD SLP078 DENSITY ALT 1300FT<br><br>
CYHM 052025Z 20014G21KT 12SM -SHRA OVC008 16/15 A2975 RMK SC8 CVCTV CLD EMBD SLP080 DENSITY ALT 1300FT<br><br>
CYHM 052000Z 20017G22KT 12SM OVC007 15/14 A2976 RMK SC8 SLP082 DENSITY ALT 1200FT<br><br>
TAF AMD CYHM 052017Z 0520/0618 20015G26KT P6SM OVC007 FM052100 21015G26KT P6SM -SHRA SCT007 OVC015 TEMPO 0521/0524 VRB20G35KT 1SM +TSRA BR BKN004 OVC015CB FM060000 23010KT 4SM -DZ BR OVC006 FM060400 30010KT 6SM BR SCT006 OVC010 FM061000 31007KT P6SM FEW008 BKN015 FM061200 31009KT P6SM SCT020 FM061500 31009G19KT P6SM FEW025 RMK NXT FCST BY 060000Z<br><br>
<br><br>
KIAG 052053Z 19015KT 10SM SCT024 BKN030 BKN100 17/12 A2977 RMK AO2 LTG DSNT S AND SW RAB1958E08 SLP084 P0000 60003 T01670122 56015<br><br>
KIAG 051953Z 19017G22KT 10SM OVC023 16/12 A2979 RMK AO2 SLP091 T01610117<br><br>
KIAG 052104Z 0521/0618 18012G18KT P6SM -RA OVC030 FM052200 19014G20KT 2SM +RA VCTS OVC015CB FM060200 20014G20KT 2SM +RA VCTS OVC007CB FM060300 20015KT 4SM -RA BR OVC012 FM060800 29010KT P6SM OVC012<br><br>
<br><br>
KBUF 052054Z 19013KT 10SM -RA BKN027 OVC035 16/13 A2980 RMK AO2 LTG DSNT S AND SW RAE02B50 SLP093 P0000 60001 T01560128 56010 $<br><br>
KBUF 051954Z 19015KT 10SM -RA BKN026 OVC035 15/12 A2981 RMK AO2 RAB36 SLP097 P0001 T01500122 $<br><br>
KBUF 052104Z 0521/0618 19012G18KT P6SM -RA OVC025 FM052200 19013KT 2SM +RA VCTS OVC015CB FM060200 19014G20KT 2SM +RA VCTS OVC007CB FM060500 22013KT 4SM -RA BR OVC012 FM061000 30012KT P6SM OVC015<br><br>
<br><br>
CYYZ 052100Z 18007KT 8SM -SHRA OVC008 15/15 A2973 RMK SF8 CVCTV CLD EMBD SLP072 DENSITY ALT 1000FT<br><br>
CYYZ 052054Z 19008KT 8SM -SHRA OVC008 15/15 A2974 RMK SF8 CVCTV CLD EMBD SLP074 DENSITY ALT 1000FT<br><br>
CYYZ 052042Z 18008KT 9SM OVC007 15/15 A2974 RMK SF8 SLP075 DENSITY ALT 1000FT<br><br>
CYYZ 052012Z 15007KT 7SM OVC005 15/14 A2973 RMK SF8 CIG VRB 2-7 SLP073 DENSITY ALT 900FT<br><br>
CYYZ 052000Z 17007KT 7SM OVC007 15/14 A2973 RMK SC8 SLP073 DENSITY ALT 1000FT<br><br>
CYYZ 051954Z 18006KT 5SM BR OVC006 15/14 A2974 RMK SF8 SLP074 DENSITY ALT 900FT<br><br>
CYYZ 051947Z 18006KT 4SM BR OVC004 15/14 A2973 RMK SF8 CIG VRB 3-5 SLP073 DENSITY ALT 900FT<br><br>
TAF CYYZ 052038Z 0521/0624 17007KT P6SM OVC007 TEMPO 0521/0522 4SM -DZ -RA BR OVC004 FM052200 21010G20KT P6SM -SHRA SCT010 OVC025 TEMPO 0522/0601 VRB20G35KT 11/2SM +TSRA BR BKN006 OVC013CB FM060100 25008KT 6SM -DZ BR BKN008 OVC020 FM060600 31010KT P6SM BKN025 TEMPO 0606/0618 SCT012 FM061800 33010G20KT P6SM FEW030 FEW260 BECMG 0619/0621 36010KT RMK NXT FCST BY 060000Z<br><br>
<br><br>
CYOO 052100Z AUTO 15003KT 120V200 9SM OVC017 13/12 A2976 RMK SLP082<br><br>
CYOO 052020Z AUTO 14005KT 110V180 8SM SCT005 OVC013 12/11 A2976 RMK SLP083<br><br>
CYOO 052012Z AUTO 14005KT 110V200 7SM -RA SCT005 OVC013 12/11 A2977 RMK SLP084<br><br>
CYOO 052008Z AUTO 16005KT 110V200 6SM -RA BR BKN005 OVC013 12/11 A2977 RMK SLP084<br><br>
CYOO 052001Z AUTO 14005KT 4SM -RA BR BKN005 OVC011 12/11 A2977 RMK SLP084<br><br>
CYOO 052000Z AUTO 14006KT 4SM BR BKN005 OVC011 12/11 A2977 RMK SLP084<br><br>
CYOO 051944Z AUTO 13004KT 3SM BR BKN005 OVC008 12/11 A2977 RMK SLP084<br><br>
CYOO 051935Z AUTO 13004KT 110V170 2 1/4SM BR OVC005 12/11 A2977 RMK SLP084<br><br>
CYOO 051922Z AUTO 15003KT 110V170 2SM -RA BR OVC005 12/11 A2977 RMK SLP085<br><br>
CYOO has no TAF <br><br>
<br><br>
CYTR 052100Z 19007KT 15SM -RA OVC023 12/11 A2981 RMK SC8 PCPN VRY LGT SLP096<br><br>
CYTR 052036Z 19006KT 8SM -RA FEW007 OVC020 12/11 A2981 RMK SF1SC7 SLP098<br><br>
CYTR 052026Z 19005KT 5SM -RA BR FEW007 OVC020 12/11 A2981 RMK SF1SC7 SLP098<br><br>
CYTR 052000Z CCA 19005KT 4SM -RA BR OVC007 12/11 A2981 RMK SF8 PCPN VRY LGT SLP099<br><br>
TAF CYTR 051730Z 0518/0618 17012KT P6SM -RA SCT006 OVC015 TEMPO 0518/0523 2SM -RA BR OVC006 PROB30 0518/0519 VRB20G30KT 1SM TSRA BR BKN005 OVC040CB FM052300 19012G22KT 3SM -SHRA BR SCT005 OVC010 TEMPO 0523/0604 1SM +SHRA BR OVC005 PROB30 0523/0603 VRB20G35KT 3/4SM +TSRA BR BKN003 OVC030CB FM060400 20012KT 1SM -RA -DZ BR BKN004 OVC010 BECMG 0604/0606 25010KT FM060800 29010G20KT P6SM SCT012 BKN030 TEMPO 0608/0613 BKN012 OVC030 FM061500 29010G20KT P6SM SCT030 RMK NXT FCST BY 060000Z<br><br>
<br><br>
