RETRIEVED AT : May 22 2018 04:07 Local <br>
  RETRIEVED AT: May 22 2018 08:07 UTC<br><br>
CYSN has no TAF <br><br>
<br><br>
CYHM 220735Z 02008KT 5SM -SHRA BR OVC022 11/10 A3003 RMK SC8 VIS VRB 3 - 7 CVCTV CLD EMBD SLP169<br><br>
CYHM 220725Z 03007KT 4SM SHRA BR BKN028TCU OVC033 11/10 A3002 RMK TCU5SC3 SLP168<br><br>
CYHM 220700Z 01008KT 6SM -RA BR OVC030 OVC040 11/09 A3003 RMK SC8SC1 SC TR VIS VRB 4 - 8 SLP171<br><br>
CYHM 220611Z 03007KT 6SM -RA BR OVC034 13/11 A3005 RMK SC8 SLP176<br><br>
TAF CYHM 220539Z 2206/2306 VRB03KT P6SM -SHRA BKN040 OVC080 TEMPO 2206/2207 5SM -SHRA BR FM220700 05010KT 6SM -RA BR SCT008 OVC030 TEMPO 2207/2209 21/2SM SHRA BR BKN008 OVC015 FM220900 06010KT 1/2SM -RA -DZ FG OVC003 TEMPO 2209/2216 2SM -RA BR OVC006 BECMG 2212/2214 VRB03KT FM221600 26008KT 6SM BR OVC008 FM221800 26010G20KT P6SM -SHRA BKN015 PROB30 2220/2224 2SM SHRA BR BKN008 OVC020 FM230000 30010KT P6SM BKN025 FM230500 36005KT P6SM SCT020 PROB30 2305/2306 1/2SM FG RMK NXT FCST BY 221200Z<br><br>
<br><br>
KIAG 220538Z 2206/2306 12006KT 6SM -SHRA OVC080 FM220900 11009KT 4SM -SHRA OVC025 FM221100 14008KT 6SM BR OVC025 FM221200 18007KT P6SM BKN007 FM221600 24012G18KT P6SM BKN040 FM222000 25006KT P6SM OVC025<br><br>
<br><br>
KBUF 220754Z 13010G17KT 10SM -RA FEW040 OVC065 15/12 A3001 RMK AO2 LTG DSNT SW RAB45 SLP161 P0000 T01500117<br><br>
KBUF 220654Z 13012KT 10SM OVC055 15/12 A3005 RMK AO2 RAE54 SLP174 P0000 T01500117<br><br>
KBUF 220538Z 2206/2306 16005KT 6SM -SHRA OVC080 FM220900 11010KT 4SM -SHRA OVC030 FM221100 14008KT 6SM BR OVC025 FM221300 18007KT P6SM BKN007 FM221500 24012G18KT P6SM BKN040 FM222000 25006KT P6SM OVC025<br><br>
<br><br>
CYYZ 220700Z 15002KT 15SM -RA OVC060 14/05 A3005 RMK SC8 SLP177<br><br>
TAF CYYZ 220539Z 2206/2312 VRB03KT P6SM OVC060 TEMPO 2206/2209 5SM -SHRA BR OVC040 FM220900 06008KT 21/2SM -RA BR BKN008 OVC020 TEMPO 2209/2211 6SM BR OVC025 FM221100 07005KT 2SM -RA -DZ OVC004 PROB30 2211/2214 OVC003 FM221500 08008KT 3SM -DZ BR OVC006 FM221700 11007KT P6SM SCT009 OVC012 FM222000 15007KT P6SM -SHRA BKN020 PROB30 2221/2223 2SM SHRA BR OVC008 FM230100 35010G20KT 6SM BR SCT008 OVC025 BECMG 2304/2306 34010KT FM230600 34008KT P6SM FEW020 RMK NXT FCST BY 220900Z<br><br>
<br><br>
CYOO 220700Z AUTO VRB02KT 9SM OVC095 14/05 A3006 RMK SLP183<br><br>
CYOO has no TAF <br><br>
<br><br>
CYTR 220700Z 07002KT 15SM OVC110 14/09 A3007 RMK AC8 SLP182<br><br>
TAF CYTR 220530Z 2206/2306 VRB03KT P6SM OVC120 FM220800 VRB03KT P6SM OVC080 TEMPO 2208/2213 P6SM -SHRA OVC050 FM221300 VRB03KT 6SM -RA BR OVC020 TEMPO 2213/2218 3SM -SHRA BR OVC010 BECMG 2213/2215 08008KT FM221800 08010KT 6SM BR OVC015 TEMPO 2218/2222 3SM -SHRA BR OVC008 FM222200 01005KT P6SM BKN020 BECMG 2222/2224 VRB03KT FM230300 VRB03KT P6SM SCT020 RMK NXT FCST BY 221200Z<br><br>
<br><br>
