RETRIEVED AT : Nov 11 2018 23:05 Local <br>
  RETRIEVED AT: Nov 12 2018 04:05 UTC<br><br>
CYSN has no TAF <br><br>
<br><br>
CYHM 120300Z 22004KT 15SM OVC070 00/M03 A3027 RMK AC8 SLP263<br><br>
TAF CYHM 112338Z 1200/1224 20010KT P6SM SCT030 BKN080 BECMG 1201/1203 23005KT FM121000 VRB03KT P6SM BKN050 BKN200 FM121600 24005KT P6SM BKN030 BKN140 FM122100 21008KT P6SM -SHRA BKN025 OVC120 RMK NXT FCST BY 120600Z<br><br>
<br><br>
KIAG 120353Z 13004KT 10SM OVC075 01/M02 A3028 RMK AO2 SLP266 T00061022<br><br>
KIAG 120253Z 27003KT 10SM OVC070 02/M03 A3028 RMK AO2 SLP267 T00171028 58001<br><br>
KIAG 120241Z 1203/1224 VRB05KT P6SM OVC070 FM120500 24006KT 6SM -DZ BKN025 FM120600 24006KT 4SM -DZ BKN020 FM121100 21004KT 6SM -DZ BKN025 FM121500 21007KT P6SM BKN035 FM121900 22007KT P6SM BKN060<br><br>
<br><br>
KBUF 120354Z 14005KT 10SM BKN039 OVC046 01/M01 A3028 RMK AO2 SLP264 T00111006<br><br>
KBUF 120254Z 13003KT 10SM FEW030 SCT038 OVC070 01/M01 A3028 RMK AO2 SLP264 T00111006 50002<br><br>
KBUF 120241Z 1203/1224 VRB03KT P6SM BKN025 FM120400 22007KT 6SM -DZ BKN025 FM120600 22006KT 4SM -DZ BKN020 FM121200 19005KT 6SM -DZ BKN025 FM121500 20006KT P6SM BKN035 FM121700 21007KT P6SM BKN100 FM122000 22006KT P6SM BKN060<br><br>
<br><br>
CYYZ 120300Z 25007KT 15SM BKN075 02/M05 A3027 RMK AC7 SLP258<br><br>
TAF CYYZ 120238Z 1203/1306 24008KT P6SM SCT060 BKN080 FM120900 24005KT P6SM SCT050 BKN200 FM121600 24010KT P6SM SCT040 BKN140 FM122000 21008KT P6SM BKN030 BKN120 FM130200 22005KT 6SM -RA BR BKN012 OVC025 RMK NXT FCST BY 120600Z<br><br>
<br><br>
CYOO 120311Z AUTO 00000KT 6SM HZ FEW080 M02/ A3027 RMK TD MISG SLP257<br><br>
CYOO 120303Z AUTO 00000KT 5SM HZ FEW085 M02/ A3027 RMK TD MISG SLP259<br><br>
CYOO 120300Z AUTO 00000KT 6SM HZ FEW085 M02/ A3027 RMK TD MISG SLP259<br><br>
CYOO has no TAF <br><br>
<br><br>
CYTR 120331Z 11002KT 12SM -SHSN SCT029 OVC078 01/M00 A3029 RMK SC3AC5 SLP261<br><br>
CYTR 120300Z 12003KT 15SM FEW029 OVC078 01/01 A3030 RMK SC2AC6 SLP263<br><br>
TAF CYTR 112330Z 1200/1224 22005KT P6SM SCT012 BKN030 OVC120 TEMPO 1200/1207 3SM -SHSNRA BKN012 OVC030 BECMG 1203/1205 27005KT FM120700 VRB03KT P6SM SCT020 BKN040 FM121400 24005KT P6SM BKN030 BKN120 TEMPO 1214/1224 P6SM -SHRA BKN020 BECMG 1216/1218 22012KT RMK NXT FCST BY 120600Z<br><br>
<br><br>
