RETRIEVED AT : May 12 2018 15:05 Local <br>
  RETRIEVED AT: May 12 2018 19:05 UTC<br><br>
CYSN 121800Z 05011KT 15SM BKN076 BKN250 10/02 A3008 RMK AC6CI1 SLP190<br><br>
TAF CYSN 121243Z 1213/1301 06008KT P6SM SCT040 OVC100 TEMPO 1213/1215 P6SM -SHRA BKN040 FM121500 03012KT P6SM BKN140 TEMPO 1215/1218 P6SM -SHRA BKN070 FM122000 03008KT P6SM FEW200 BECMG 1223/1301 VRB03KT RMK NXT FCST BY 122000Z<br><br>
<br><br>
CYHM 121800Z 04012G17KT 15SM FEW059 SCT068 BKN140 09/M01 A3009 RMK SC1AC3AC3 SLP197<br><br>
TAF CYHM 121738Z 1218/1318 05010G20KT P6SM BKN070 BECMG 1222/1224 04006KT SCT200 FM130000 04005KT P6SM BKN200 FM130600 04005KT P6SM BKN140 FM131000 04006KT 6SM BR SCT006 BKN010 FM131300 04006KT P6SM BKN200 BECMG 1314/1316 04010KT RMK NXT FCST BY 130000Z<br><br>
<br><br>
KIAG 121853Z 03010KT 10SM BKN070 14/03 A3009 RMK AO2 SLP193 T01390028<br><br>
KIAG 121753Z 05011KT 10SM OVC075 13/03 A3008 RMK AO2 SLP190 60000 T01330028 10144 20083 53003<br><br>
KIAG 121730Z 1218/1312 03011G16KT P6SM OVC080 FM121900 04009KT P6SM BKN140 FM130000 03004KT P6SM SCT250 FM130800 09004KT P6SM BKN140<br><br>
<br><br>
KBUF 121854Z 02007KT 10SM BKN070 14/05 A3008 RMK AO2 SLP189 T01440050<br><br>
KBUF 121754Z 03009KT 10SM BKN080 16/07 A3007 RMK AO2 SLP183 60000 T01560067 10161 20089 53003<br><br>
KBUF 121730Z 1218/1312 36007KT P6SM BKN080 FM130400 08004KT P6SM BKN200 FM130600 11004KT P6SM BKN130<br><br>
<br><br>
CYYZ 121800Z 14007KT 15SM FEW090 BKN230 14/M01 A3009 RMK AC2CS5 SLP192<br><br>
TAF CYYZ 121738Z 1218/1324 11007KT P6SM BKN090 BECMG 1219/1221 SCT200 FM130100 15006KT P6SM BKN200 BECMG 1302/1304 VRB03KT FM130600 VRB03KT P6SM BKN140 BECMG 1315/1317 10008KT SCT200 FM132300 18007KT P6SM SCT200 RMK NXT FCST BY 122100Z<br><br>
<br><br>
CYOO 121800Z AUTO 14009KT 9SM CLR 13/M02 A3009 RMK SLP194<br><br>
CYOO has no TAF <br><br>
<br><br>
CYTR 121800Z 13006KT 15SM FEW036 SCT100 BKN240 17/01 A3007 RMK SC1AC2CI4 SLP186<br><br>
TAF CYTR 121730Z 1218/1318 10008KT P6SM SCT100 BKN240 BECMG 1219/1221 21008KT FM130000 21005KT P6SM FEW240 BECMG 1300/1302 VRB03KT FM131400 13008KT P6SM FEW260 RMK NXT FCST BY 130000Z<br><br>
<br><br>
