RETRIEVED AT : May 18 2020 01:05 Local <br>
  RETRIEVED AT: May 18 2020 05:05 UTC<br><br>
CYSN has no TAF <br><br>
<br><br>
CYHM 180400Z 05019KT 15SM -RA FEW016 BKN026 OVC064 09/08 A3006 RMK SF3SC4SC1 SLP185<br><br>
TAF AMD CYHM 180419Z 1804/1824 05020KT P6SM -RA SCT015 BKN030 OVC070 TEMPO 1804/1806 5SM -RA BR OVC012 FM180600 05022KT 2SM -RA BR OVC005 TEMPO 1806/1820 6SM BR SCT005 OVC010 FM182000 05015G25KT P6SM SCT010 BKN030 OVC070 RMK NXT FCST BY 180600Z<br><br>
<br><br>
KIAG 180453Z AUTO 08013KT 10SM -RA OVC040 12/11 A3007 RMK AO2 SLP185 P0003 T01170106 401830072 $<br><br>
KIAG 180353Z AUTO 07013KT 8SM -RA FEW030 BKN060 OVC100 12/11 A3008 RMK AO2 SLP187 P0013 T01220111 $<br><br>
KIAG 180504Z 1805/1824 08012KT 6SM -RA SCT025 OVC040 TEMPO 1805/1807 BKN025 FM180700 07014KT 5SM -RA BR BKN025 FM180900 07014KT 5SM -RA BR BKN007 FM181500 09014KT 4SM -RA OVC012 FM182100 07014KT P6SM OVC015<br><br>
<br><br>
KBUF 180454Z 06014KT 9SM -RA BKN034 BKN041 OVC085 13/12 A3007 RMK AO2 SLP182 P0005 T01330117 401940089 $<br><br>
KBUF 180354Z 04011KT 7SM -RA FEW015 OVC031 13/12 A3008 RMK AO2 SLP188 P0012 T01280117 $<br><br>
KBUF 180224Z 1802/1824 08012KT 5SM RA OVC025 FM180700 08012KT 3SM RA BR OVC008 FM181500 10014KT 4SM -RA OVC015 FM182100 08014KT P6SM OVC025<br><br>
<br><br>
CYYZ 180400Z 08009KT 12SM -RA OVC037 13/09 A3012 RMK SC8 SLP202<br><br>
TAF CYYZ 180238Z 1803/1906 07012KT P6SM BKN040 OVC090 TEMPO 1803/1809 5SM -RA BR OVC030 FM180900 08012KT 6SM -RA BR BKN012 OVC030 TEMPO 1809/1819 11/2SM -RA BR BKN006 OVC012 BECMG 1812/1814 09018G28KT FM181900 08015G25KT P6SM -SHRA SCT008 OVC020 FM190100 09015KT P6SM OVC030 RMK NXT FCST BY 180600Z<br><br>
<br><br>
CYOO 180400Z AUTO 05010G17KT 9SM -RA OVC046 14/09 A3014 RMK SLP208<br><br>
CYOO 180355Z AUTO 06011G17KT 9SM -RA OVC046 14/09 A3014 RMK SLP208<br><br>
TAF CYOO 180139Z 1802/1814 06007KT P6SM BKN060 OVC100 TEMPO 1802/1808 P6SM -RA OVC050 BECMG 1804/1806 07012KT FM180800 07012G22KT P6SM BKN040 OVC080 TEMPO 1808/1814 5SM -RA BR OVC030 RMK FCST BASED ON AUTO OBS. NXT FCST BY 180800Z<br><br>
<br><br>
CYTR 180400Z 06006KT 8SM -RA BKN021 OVC060 13/08 A3018 RMK SC5SC3 CIG VRB 15-27 SLP221<br><br>
TAF CYTR 172330Z 1800/1824 06008KT P6SM FEW050 OVC120 TEMPO 1800/1803 P6SM -RA BKN050 OVC120 FM180300 05005KT P6SM -RA SCT030 OVC050 TEMPO 1803/1809 5SM -RA BR BKN030 OVC050 FM180900 05010G20KT P6SM -RA FEW008 SCT015 OVC050 TEMPO 1809/1814 5SM -RA BR FEW008 BKN015 OVC050 FM181400 06012G22KT P6SM FEW015 BKN030 OVC050 FM182000 06012G22KT P6SM SCT030 OVC150 RMK NXT FCST BY 180600Z<br><br>
<br><br>
