RETRIEVED AT : Sep 25 2017 15:10 Local <br>
  RETRIEVED AT: Sep 25 2017 19:10 UTC<br><br>
CYSN 251900Z 01009KT 12SM FEW036 BKN250 29/21 A3003 RMK CU1CI6 CU TR SLP170 DENSITY ALT 2000FT<br><br>
CYSN 251800Z 01008KT 12SM FEW050 SCT140 BKN250 30/22 A3004 RMK CU2AC1CI2 SLP173 DENSITY ALT 2000FT<br><br>
TAF CYSN 251238Z 2513/2601 VRB03KT P6SM BKN250 BECMG 2517/2519 35008KT BECMG 2522/2524 VRB03KT RMK NXT FCST BY 252000Z<br><br>
<br><br>
CYHM 251800Z 16006KT 130V200 15SM FEW042 FEW240 31/17 A3007 RMK CU1CI2 CU TR SLP180 DENSITY ALT 2700FT<br><br>
TAF CYHM 251738Z 2518/2618 VRB03KT P6SM SCT300 PROB30 2609/2613 3/4SM BR RMK NXT FCST BY 260000Z<br><br>
<br><br>
KIAG 251853Z 00000KT 10SM FEW060 33/17 A3005 RMK AO2 SLP168 T03280172<br><br>
KIAG 251753Z 00000KT 10SM CLR 32/18 A3006 RMK AO2 SLP173 T03220183 10333 20194 58013<br><br>
KIAG 251727Z 2518/2618 VRB04KT P6SM FEW250 FM252000 05007KT P6SM FEW250 FM252300 08005KT P6SM FEW250 FM260200 VRB03KT P6SM FEW250 FM260700 VRB03KT 4SM BR SCT250 TEMPO 2610/2612 2SM BR FM261300 21005KT P6SM FEW250<br><br>
<br><br>
KBUF 251854Z 13006KT 10SM FEW050 FEW180 SCT260 SCT330 32/19 A3005 RMK AO2 SLP172 T03170189<br><br>
KBUF 251754Z 12008KT 10SM FEW050 FEW160 FEW210 FEW260 32/19 A3007 RMK AO2 SLP177 T03170189 10317 20194 58015<br><br>
KBUF 251727Z 2518/2618 12004KT P6SM FEW050 FM252000 05007KT P6SM FEW050 FM252300 08005KT P6SM FEW250 FM260300 13004KT P6SM FEW250 FM260700 16004KT 4SM BR SCT250 FM261300 22006KT P6SM SCT250<br><br>
<br><br>
CYYZ 251900Z 16006KT 100V170 15SM FEW060 SCT250 31/19 A3005 RMK CU1CI3 CU TR SLP173 DENSITY ALT 2500FT<br><br>
CYYZ 251800Z 15008KT 120V180 15SM FEW055 FEW240 SCT280 31/19 A3007 RMK CU1CI2CC1 CU TR SLP179 DENSITY ALT 2400FT<br><br>
TAF CYYZ 251738Z 2518/2624 15008KT P6SM SCT300 BECMG 2522/2524 VRB03KT BECMG 2614/2616 16008KT RMK NXT FCST BY 252100Z<br><br>
<br><br>
CYOO 251902Z AUTO 17004KT 080V230 9SM CLR 31/17 A3005 RMK SLP176 DENSITY ALT 2100FT<br><br>
CYOO 251900Z AUTO VRB02KT 4SM HZ CLR 30/18 A3005 RMK SLP176 DENSITY ALT 2100FT<br><br>
CYOO 251846Z AUTO 18004KT 140V200 5SM HZ CLR 30/18 A3006 RMK SLP177 DENSITY ALT 2100FT<br><br>
CYOO 251829Z AUTO 20006KT 120V220 6SM HZ CLR 30/17 A3006 RMK SLP179 DENSITY ALT 2100FT<br><br>
CYOO 251819Z AUTO 15005KT 130V230 4SM HZ CLR 30/17 A3006 RMK SLP180 DENSITY ALT 2100FT<br><br>
CYOO 251800Z AUTO 20005KT 9SM CLR 30/17 A3007 RMK SLP182 DENSITY ALT 2000FT<br><br>
CYOO 251750Z AUTO 19005KT 130V210 6SM HZ CLR 30/17 A3008 RMK SLP185 DENSITY ALT 2000FT<br><br>
CYOO 251740Z AUTO 14003KT 100V220 5SM HZ CLR 30/18 A3008 RMK SLP184 DENSITY ALT 2000FT<br><br>
CYOO 251730Z AUTO 17005KT 110V180 6SM HZ CLR 30/18 A3008 RMK SLP186 DENSITY ALT 2000FT<br><br>
CYOO 251720Z AUTO 14005KT 5SM HZ CLR 30/17 A3008 RMK SLP187 DENSITY ALT 2000FT<br><br>
CYOO has no TAF <br><br>
<br><br>
CYTR 251900Z 23005KT 15SM FEW020 FEW250 30/20 A3005 RMK CF1CI2 SLP175<br><br>
CYTR 251800Z 23007KT 15SM FEW250 29/21 A3006 RMK CI2 SLP180<br><br>
TAF CYTR 251730Z 2518/2618 21009KT P6SM SCT250 BECMG 2522/2524 VRB03KT FM260300 VRB03KT P6SM BKN250 TEMPO 2603/2612 3SM BR BECMG 2616/2618 20009KT RMK NXT FCST BY 260000Z<br><br>
<br><br>
