RETRIEVED AT : Oct 07 2017 19:10 Local <br>
  RETRIEVED AT: Oct 07 2017 23:10 UTC<br><br>
CYSN 072300Z 19009KT 15SM SCT170 23/16 A2975 RMK AC3 SLP075 DENSITY ALT 1600FT<br><br>
CYSN 072200Z 20014G22KT 15SM FEW040 BKN170 26/16 A2975 RMK SC1AC5 SLP076 DENSITY ALT 1900FT<br><br>
TAF CYSN 071938Z 0720/0801 22018G28KT P6SM SCT160 BECMG 0723/0801 18015KT RMK NXT FCST WILL BE ISSUED AT 081245Z<br><br>
<br><br>
CYHM 072300Z 20014KT 15SM FEW190 23/16 A2975 RMK AC1 SLP074 DENSITY ALT 2100FT<br><br>
CYHM 072200Z 20017G24KT 15SM FEW190 SCT250 24/16 A2975 RMK AC2CI1 SLP074 DENSITY ALT 2200FT<br><br>
TAF CYHM 071740Z 0718/0818 20015G25KT P6SM SCT150 BECMG 0722/0724 19012KT FM080200 19012KT WS005/19040KT P6SM BKN080 FM080400 20015KT WS005/20040KT 4SM -SHRA BR BKN020 OVC040 PROB30 0804/0808 VRB25G40KT 2SM +TSRA BKN008 OVC020CB FM080900 23015G30KT P6SM BKN025 FM081600 24015KT P6SM SKC RMK NXT FCST BY 080000Z<br><br>
<br><br>
KIAG 072253Z 20009KT 10SM CLR 24/15 A2977 RMK AO2 SLP078 T02440150<br><br>
KIAG 072153Z 22013KT 10SM CLR 27/15 A2978 RMK AO2 SLP080 T02670150<br><br>
KIAG 072101Z 0721/0818 22012G18KT P6SM SCT150 FM072300 20010KT P6SM FEW250 FM080600 20018G28KT 4SM SHRA OVC045 FM080900 22022G38KT P6SM VCSH BKN035 FM081300 24017G28KT P6SM SCT040<br><br>
<br><br>
KBUF 072254Z 19012KT 10SM FEW060 FEW150 FEW250 24/14 A2980 RMK AO2 SLP086 T02440144<br><br>
KBUF 072154Z 21012KT 10SM SCT060 SCT150 BKN250 24/16 A2980 RMK AO2 SLP088 T02440161<br><br>
KBUF 072101Z 0721/0818 22012G18KT P6SM SCT150 FM072300 20012KT P6SM SCT200 FM080600 19018G30KT 4SM SHRA OVC050 FM080900 23023G38KT P6SM VCSH BKN035 FM081300 25017G25KT P6SM SCT040<br><br>
<br><br>
CYYZ 072300Z 19012G21KT 15SM FEW150 FEW200 SCT260 25/15 A2973 RMK AC1CC2CI2 AC TR SLP066 DENSITY ALT 2100FT<br><br>
CYYZ 072200Z 20013G23KT 15SM FEW045 SCT200 BKN260 26/15 A2973 RMK CF1CC3CI4 CF TR SLP067 DENSITY ALT 2200FT<br><br>
TAF CYYZ 072038Z 0721/0824 20015G25KT P6SM FEW050 SCT180 BECMG 0800/0802 18015KT FM080300 18010KT WS005/19030KT P6SM FEW200 FM080500 18010KT WS010/18040KT 4SM -SHRA BR SCT020 BKN040 PROB30 0805/0809 VRB30G40KT 2SM +TSRA BKN008 OVC020CB FM080900 24025G40KT P6SM BKN025 BECMG 0810/0812 24015G30KT FM081600 25015G25KT P6SM SKC BECMG 0816/0818 24015KT BECMG 0821/0823 20008KT RMK NXT FCST BY 080000Z<br><br>
<br><br>
CYOO 072300Z AUTO 18007KT 9SM FEW210 21/16 A2975 RMK SLP075 DENSITY ALT 1400FT<br><br>
CYOO 072200Z AUTO 20010G17KT 9SM SCT190 BKN210 23/15 A2975 RMK SLP074 DENSITY ALT 1600FT<br><br>
CYOO has no TAF <br><br>
<br><br>
CYTR 072300Z 00000KT 15SM BKN160 BKN250 21/18 A2978 RMK AC5CI2 SLP087<br><br>
CYTR 072200Z 18004KT 15SM FEW080 SCT160 BKN250 22/18 A2979 RMK AC1AC3CI3 SLP087<br><br>
TAF CYTR 071730Z 0718/0818 18008KT P6SM FEW008 OVC080 TEMPO 0718/0720 4SM -RA BR BKN008 OVC080 FM072000 20010KT P6SM SCT080 BKN160 FM080300 20010KT WS005/18035KT P6SM FEW020 BKN080 TEMPO 0804/0808 5SM -SHRA BR BKN020 PROB30 0804/0808 VRB20G35KT 1SM TSRA BR BKN006 OVC020CB FM080800 20015G25KT 3SM -SHRA BR BKN010 OVC025 TEMPO 0808/0810 P6SM NSW FEW010 BKN025 PROB30 0809/0810 1SM TSRA BR BKN008 OVC025CB FM081000 24020G35KT P6SM FEW015 OVC030 TEMPO 0810/0818 5SM -SHRA BR BKN015 OVC030 PROB30 0810/0812 1SM TSRA BR BKN008 OVC030CB RMK NXT FCST BY 080000Z<br><br>
<br><br>
