RETRIEVED AT : Jun 21 2019 23:05 Local <br>
  RETRIEVED AT: Jun 22 2019 03:05 UTC<br><br>
CYSN has no TAF <br><br>
<br><br>
CYHM 220200Z 33006KT 15SM FEW040 16/10 A2997 RMK SC1 SLP151 DENSITY ALT 1000FT<br><br>
TAF CYHM 212338Z 2200/2224 33012KT P6SM FEW050 BECMG 2200/2202 34008KT FM221500 03008KT P6SM FEW040 RMK NXT FCST BY 220600Z<br><br>
<br><br>
KIAG 220253Z 32006KT 10SM CLR 16/11 A2996 RMK AO2 SLP145 T01560106 53015<br><br>
KIAG 220153Z 01006KT 10SM CLR 17/11 A2995 RMK AO2 SLP140 T01670106<br><br>
KIAG 220218Z 2202/2224 34006KT P6SM SCT050 FM220600 31006KT P6SM SKC<br><br>
<br><br>
KBUF 220254Z 32006KT 10SM FEW070 FEW080 FEW130 17/11 A2996 RMK AO2 SLP145 T01670106 53015<br><br>
KBUF 220154Z 35005KT 10SM FEW070 SCT080 SCT110 18/11 A2995 RMK AO2 SLP140 T01780111<br><br>
KBUF 220218Z 2202/2224 34006KT P6SM SCT050 FM220600 VRB04KT P6SM SKC FM221400 32006KT P6SM SKC FM222000 25006KT P6SM SKC<br><br>
<br><br>
CYYZ 220200Z 35004KT 320V040 15SM FEW065 FEW100 18/09 A2996 RMK CF1AC1 CF TR AC TR SLP147 DENSITY ALT 1100FT<br><br>
TAF CYYZ 220238Z 2203/2306 33012KT P6SM FEW060 BECMG 2211/2213 36012KT FM230300 32007KT P6SM SKC RMK NXT FCST BY 220600Z<br><br>
<br><br>
CYOO 220200Z AUTO 33005KT 9SM CLR 17/10 A2994 RMK SLP140 DENSITY ALT 800FT<br><br>
TAF CYOO 220138Z 2202/2214 33007KT P6SM SKC BECMG 2211/2213 35010KT RMK FCST BASED ON AUTO OBS. NXT FCST BY 220800Z<br><br>
<br><br>
CYTR 220200Z 32003KT 15SM FEW090 FEW250 18/08 A2990 RMK AC1CI2 SLP124<br><br>
TAF CYTR 212330Z 2200/2224 34006KT P6SM SCT080 BKN250 BECMG 2202/2204 FEW080 BECMG 2216/2218 21012KT RMK NXT FCST BY 220600Z<br><br>
<br><br>
