RETRIEVED AT : May 24 2020 04:05 Local <br>
  RETRIEVED AT: May 24 2020 08:05 UTC<br><br>
CYSN has no TAF <br><br>
<br><br>
CYHM 240700Z 08005KT 15SM SCT082 16/16 A3005 RMK AC2 SLP175 DENSITY ALT 1000FT<br><br>
TAF CYHM 240538Z 2406/2506 12005KT P6SM BKN040 BECMG 2408/2410 08006KT FM241000 08006KT P6SM FEW040 PROB30 2410/2412 3/4SM BR FM241400 19008KT P6SM SCT060 TEMPO 2414/2418 P6SM -SHRA BKN060 BECMG 2416/2418 18012G22KT FM242200 21012KT P6SM -SHRA BKN050 PROB30 2500/2503 3SM TSRA BKN040CB FM250300 19008KT P6SM SCT040 RMK NXT FCST BY 241200Z<br><br>
<br><br>
KIAG 240753Z AUTO 11004KT 5SM -RA BR OVC095 17/15 A3005 RMK AO2 RAE18B46 SLP173 P0001 T01670150<br><br>
KIAG 240653Z AUTO 00000KT 7SM -RA FEW075 OVC100 17/14 A3006 RMK AO2 RAB49 SLP178 P0000 T01670144<br><br>
KIAG 240531Z 2406/2506 13005KT P6SM BKN090 FM241100 16007KT P6SM SCT120 FM250200 19010KT P6SM BKN080 FM250500 19011G17KT 6SM BR VCSH BKN045<br><br>
<br><br>
KBUF 240754Z 14006KT 10SM OVC090 18/16 A3007 RMK AO2 SLP180 T01780156<br><br>
KBUF 240654Z 00000KT 10SM BKN095 18/16 A3006 RMK AO2 SLP179 T01780156<br><br>
KBUF 240531Z 2406/2506 13005KT P6SM SCT045 BKN090 FM241100 16008KT P6SM SCT120 FM241700 19009KT P6SM SCT120 FM250500 18010G16KT 6SM BR VCSH BKN070<br><br>
<br><br>
CYYZ 240700Z 13006KT 15SM BKN050 BKN070 17/12 A3006 RMK SC5AC2 SLP178 DENSITY ALT 800FT<br><br>
TAF CYYZ 240538Z 2406/2512 VRB03KT P6SM FEW012 BKN060 FM241200 13006KT P6SM SKC FM241500 16008KT P6SM SCT050 FM241800 17012G22KT P6SM -SHRA BKN060 FM250000 23008KT P6SM SCT020 OVC040 TEMPO 2500/2505 5SM -SHRA BR OVC020 PROB30 2500/2505 11/2SM TSRA BR OVC015CB FM250500 19008KT P6SM SCT040 BECMG 2507/2509 22006KT RMK NXT FCST BY 240900Z<br><br>
<br><br>
CYOO 240700Z AUTO 09006KT 9SM OVC100 17/12 A3007 RMK SLP182 DENSITY ALT 600FT<br><br>
TAF CYOO 240738Z 2408/2420 09006KT P6SM OVC090 FM241200 11008KT P6SM SCT015 OVC040 TEMPO 2412/2415 5SM -SHRA BR BKN015 OVC030 FM241500 16008KT P6SM SCT025 FM241800 14012KT P6SM SCT050 BKN180 RMK FCST BASED ON AUTO OBS. NXT FCST BY 241400Z<br><br>
<br><br>
CYTR 240700Z 05005KT 15SM FEW110 13/05 A3010 RMK AC1 SLP193<br><br>
TAF CYTR 240530Z 2406/2506 VRB03KT P6SM FEW210 FM241000 VRB03KT P6SM FEW020 SCT150 BKN240 BECMG 2412/2414 15008KT FM241600 15008KT P6SM SCT030 BKN100 OVC220 BECMG 2419/2421 15008G18KT FM250100 15008KT P6SM -SHRA FEW020 BKN040 OVC060 PROB30 2501/2505 VRB15G25KT 2SM TSRA BR SCT020 OVC030CB FM250500 20008KT 3SM -SHRA BR SCT005 OVC010 RMK NXT FCST BY 241200Z<br><br>
<br><br>
