RETRIEVED AT : Apr 06 2018 21:05 Local <br>
  RETRIEVED AT: Apr 07 2018 01:05 UTC<br><br>
CYSN 070000Z 27017G22KT 15SM FEW045 BKN061 BKN250 01/M02 A2971 RMK SC2SC3CI1 SLP066<br><br>
CYSN 062331Z 29021G29KT 15SM FEW025 SCT048 BKN250 01/M02 A2970 RMK SC2SC2CI1 WSHFT 2311 SLP062<br><br>
TAF CYSN 061940Z 0620/0701 25012G22KT P6SM -SHRA SCT020 BKN040 TEMPO 0620/0622 5SM -SHRA BR OVC020 FM062200 26015G25KT P6SM SCT020 BKN040 TEMPO 0622/0624 P6SM -SHRA BKN020 FM070000 27020G35KT P6SM BKN025 TEMPO 0700/0701 2SM -SHSN OVC020 RMK NXT FCST WILL BE ISSUED AT 071245Z<br><br>
<br><br>
CYHM 070044Z 28012G19KT 6SM -SN OVC015 M01/M04 A2975 RMK SC8 PRESRR SLP085<br><br>
CYHM 070000Z 28015G23KT 15SM FEW016 SCT035 M00/M03 A2971 RMK CU2SC1 CONTRAILS SLP072<br><br>
TAF CYHM 062338Z 0700/0724 28020G35KT P6SM -SHSN BKN030 TEMPO 0700/0702 1SM -SHSN VV007 FM070300 29015G25KT P6SM SCT030 BKN080 TEMPO 0703/0706 BKN020 BKN080 BECMG 0706/0708 27012KT FM071700 26015KT P6SM BKN030 BECMG 0722/0724 29010KT RMK NXT FCST BY 070600Z<br><br>
<br><br>
KIAG 070053Z 28020KT 10SM OVC090 02/M04 A2973 RMK AO2 LTG DSNT SE SNB2357E08 SLP081 P0000 T00171039<br><br>
KIAG 062353Z 29013KT 7SM BKN016 BKN037 OVC060 02/M02 A2970 RMK AO2 UPB03E07RAB07E12SNB12E34 SLP071 P0004 60006 T00171017 10067 20017 53019<br><br>
KIAG 062351Z 29012KT 7SM SCT016 BKN033 OVC060 02/M02 A2970 RMK AO2 UPB03E07RAB07E12SNB12E34 P0004<br><br>
KIAG 062316Z 27012KT 2SM R28R/4500VP6000FT -SN SCT006 BKN025 OVC075 02/M01 A2969 RMK AO2 UPB03E07RAB07E12SNB12 P0002 T00221006<br><br>
KIAG 062341Z 0700/0724 26012G25KT 3SM -RASN BKN015 TEMPO 0700/0702 27025G40KT 1SM -RASN OVC007 FM070200 28020G34KT P6SM BKN045 FM070400 28018G28KT P6SM SCT070 FM071000 28014KT P6SM SCT200 FM072200 26009KT P6SM BKN040<br><br>
<br><br>
KBUF 070100Z 27015G20KT 8SM -TSSN FEW008 FEW016 OVC040CB 01/M02 A2973 RMK AO2 TSB0059 OCNL LTGIC VC SE TS VC SE MOV E P0000 T00061017 $<br><br>
KBUF 070054Z 27012G20KT 7SM -SN FEW008 SCT015 OVC038 01/M02 A2973 RMK AO2 SLP075 P0001 T00061017 $<br><br>
KBUF 070052Z COR 28014G23KT 7SM -SN FEW008 BKN031 OVC038 01/M02 A2973 RMK AO2 P0001 $<br><br>
KBUF 070044Z 28016G23KT 4SM -SN BR FEW007 BKN021 OVC035 01/M01 A2973 RMK AO2 P0001 T00061011 $<br><br>
KBUF 070035Z 29019G25KT 2 1/2SM -SN BR SCT007 BKN014 OVC030 01/M01 A2972 RMK AO2 P0001 T00061006 $<br><br>
KBUF 070004Z 24015G22KT 4SM -SN BR FEW006 BKN016 OVC033 01/M01 A2970 RMK AO2 P0001 T00061006 $<br><br>
KBUF 062359Z 24016G25KT 1SM R23/3500VP6000FT -SN BR SCT006 OVC014 01/M01 A2969 RMK AO2 P0000 T00061006 $<br><br>
KBUF 062354Z 24017G25KT 1/2SM R23/3500V5500FT SN FG FEW003 OVC005 01/M01 A2969 RMK AO2 PK WND 27029/2342 RAE35 SLP063 P0001 60001 T00061006 10033 20006 51017 $<br><br>
KBUF 062335Z 28017G25KT 1/2SM R23/5500VP6000FT SN FG FEW005 BKN009 OVC018 01/M01 A2970 RMK AO2 RAE35 P0000 T00061006<br><br>
KBUF 062331Z 27018G25KT 1SM R23/6000VP6000FT -SNRA BR BKN015 BKN024 OVC034 01/M01 A2970 RMK AO2 P0000 T00111006<br><br>
KBUF 062323Z 26018G25KT 2SM -RASN BKN015 BKN024 OVC034 02/M01 A2970 RMK AO2 P0000 T00221006<br><br>
KBUF 062341Z 0700/0724 27016G28KT 3SM -RASN BKN015 TEMPO 0700/0702 27025G40KT 1SM -RASN OVC007 FM070200 28020G35KT P6SM BKN040 FM070400 28017G28KT P6SM SCT080 FM070800 28014KT P6SM FEW250 FM071200 27013KT P6SM BKN040<br><br>
<br><br>
CYYZ 070000Z 29016G22KT 15SM FEW025 BKN035 BKN045 OVC080 M00/M05 A2970 RMK CU2SC3SC2AC1 SLP066<br><br>
TAF CYYZ 062338Z 0700/0806 31020G35KT P6SM -SHSN BKN030 BKN070 TEMPO 0700/0702 1SM -SHSN BKN008 OVC030 FM070300 31020G32KT P6SM SCT030 BECMG 0703/0705 30015G25KT FM070900 29012KT P6SM SCT030 FM071600 29015KT P6SM BKN040 BECMG 0723/0801 29010KT FM080400 28008KT P6SM SCT030 RMK NXT FCST BY 070300Z<br><br>
<br><br>
CYOO 070000Z AUTO 28013G19KT 9SM SCT050 BKN055 BKN078 01/M05 A2966 RMK SLP050<br><br>
CYOO has no TAF <br><br>
<br><br>
CYTR 070000Z 24006KT 15SM FEW014 01/00 A2961 RMK SC2 SLP031<br><br>
CYTR 062338Z 25010G15KT 15SM SCT014 01/00 A2961 RMK SC3 SLP033<br><br>
CYTR 062322Z 24009KT 8SM -SHGS BKN014 02/00 A2961 RMK SC7 SLP033<br><br>
TAF CYTR 062330Z 0700/0724 24010KT P6SM SCT010 BKN030 BKN090 TEMPO 0700/0702 2SM -SHRASNGS BR BKN010 OVC030 BECMG 0700/0701 26025G35KT FM070200 28020G35KT P6SM FEW030 SCT070 BECMG 0705/0707 28020G30KT BECMG 0709/0711 28012G22KT FM071600 28012G22KT P6SM SCT050 TEMPO 0716/0724 BKN050 RMK NXT FCST BY 070600Z<br><br>
<br><br>
