RETRIEVED AT : Feb 28 2020 13:05 Local <br>
  RETRIEVED AT: Feb 28 2020 18:05 UTC<br><br>
CYSN 281700Z 24025G30KT 15SM SCT040 BKN160 OVC250 M04/M11 A2973 RMK SC3AC2CI3 SLP074<br><br>
TAF CYSN 281339Z 2814/2902 24020G30KT P6SM BKN040 FM281600 24020G30KT P6SM SCT020 OVC040 TEMPO 2816/2818 5SM -SHSN OVC020 FM281800 25020G30KT 6SM -SHSN OVC025 TEMPO 2818/2902 21/2SM -SHSN OVC020 PROB30 2818/2902 11/2SM -SHSN VV012 RMK NXT FCST BY 282000Z<br><br>
<br><br>
CYHM 281700Z 25022G29KT 15SM SCT032 BKN041 BKN250 M05/M12 A2970 RMK CU4SC2CI1 SLP073<br><br>
TAF CYHM 281738Z 2818/2918 25020G35KT P6SM BKN030 TEMPO 2818/2823 5SM -SHSN FM282300 25015G28KT P6SM -SHSN OVC030 TEMPO 2823/2904 11/2SM -SHSN BLSN OVC010 PROB30 2823/2903 3/4SM -SHSN BLSN VV006 FM290400 29010G20KT P6SM BKN030 BKN060 TEMPO 2904/2906 2SM -SHSN OVC020 FM290600 32007KT P6SM SCT030 BKN060 FM291700 28010G20KT P6SM -SHSN BKN030 RMK NXT FCST BY 290000Z<br><br>
<br><br>
KIAG 281753Z 24024G33KT 10SM BKN037 M04/M12 A2972 RMK AO2 PK WND 24033/1745 SLP082 T10441117 11044 21067 56003<br><br>
KIAG 281653Z 26026G32KT 10SM OVC037 M05/M12 A2972 RMK AO2 PK WND 26033/1558 SLP083 T10501117<br><br>
KIAG 281739Z 2818/2918 25022G34KT P6SM VCSH BKN035 FM282100 25022G33KT P6SM VCSH OVC030 FM282300 25019G28KT 2SM -SN BLSN OVC025 FM290200 27015G23KT 1SM -SN BLSN OVC012 FM290700 29011G17KT 2SM -SN OVC025 FM290900 30011KT 2SM -SN OVC030 FM291500 29012G18KT 2SM -SN OVC025<br><br>
<br><br>
KBUF 281754Z 25023G33KT 10SM -SN OVC035 M04/M12 A2971 RMK AO2 PK WND 25033/1753 SLP074 OCNL BINOVC PCPN VRY LGT 4/003 933004 P0000 60000 T10441117 11044 21061 58003<br><br>
KBUF 281654Z 25017G26KT 10SM -SN OVC035 M05/M11 A2972 RMK AO2 PK WND 25028/1617 SNB48 SLP077 OCNL BINOVC PCPN VRY LGT P0000 T10501111<br><br>
KBUF 281739Z 2818/2918 25022G33KT P6SM VCSH BKN035 FM282100 25021G32KT 2SM -SN BLSN OVC020 FM290000 25016G25KT 1SM -SN BLSN OVC015 FM290800 29010KT 2SM -SN OVC025 FM291100 29009KT 2SM -SN OVC035 FM291500 29012G18KT 2SM -SN OVC025<br><br>
<br><br>
CYYZ 281700Z 26024G31KT 15SM BKN035 BKN140 BKN240 M04/M11 A2965 RMK CF5AC1CI1 SLP050<br><br>
TAF CYYZ 281738Z 2818/2924 25020G35KT P6SM SCT030 FM282000 25018G32KT P6SM -SHSN BKN030 TEMPO 2820/2901 11/2SM -SHSN BLSN OVC012 PROB30 2821/2824 1/2SM SHSN BLSN VV005 FM290100 30012G22KT P6SM BKN040 TEMPO 2901/2903 4SM -SHSN FM290400 31010KT P6SM SCT030 BKN060 FM290800 35008KT P6SM BKN070 FM291100 01008KT P6SM FEW030 BKN090 FM291700 29012G22KT P6SM -SHSN BKN030 BECMG 2921/2923 31010KT RMK NXT FCST BY 282100Z<br><br>
<br><br>
CYOO 281801Z AUTO 25018G25KT 2 1/2SM -SN BKN030 OVC036 M04/M09 A2961 RMK VIS VRB 1 1/2-3 SLP036<br><br>
CYOO 281738Z AUTO 26020G29KT 220V280 5SM -SN OVC035 M04/M09 A2961 RMK SLP036<br><br>
CYOO 281716Z AUTO 26021G29KT 7SM -SN BKN035 OVC047 M04/M09 A2961 RMK SLP036<br><br>
CYOO 281715Z AUTO 26023G29KT 7SM BKN035 OVC047 M04/M10 A2961 RMK SLP035<br><br>
CYOO 281700Z AUTO 23019G30KT 6SM -SN BKN035 OVC045 M03/M10 A2961 RMK SLP036<br><br>
CYOO 281656Z AUTO 24018G30KT 6SM HZ BKN035 OVC045 M03/M10 A2961 RMK SLP036<br><br>
CYOO 281651Z AUTO 25024G32KT 5SM HZ BKN039 OVC050 M03/M10 A2961 RMK SLP036<br><br>
CYOO 281638Z AUTO 25017G31KT 6SM HZ BKN036 OVC043 M04/M10 A2961 RMK SLP036<br><br>
CYOO 281628Z AUTO 25024G33KT 5SM HZ OVC036 M04/M10 A2961 RMK SLP036<br><br>
TAF CYOO 281338Z 2814/2902 25018G30KT P6SM -SN BKN030 OVC050 TEMPO 2814/2816 2SM -SHSN BLSN OVC020 FM281600 25018G28KT 11/2SM -SHSN BLSN OVC012 TEMPO 2816/2821 6SM -SHSN OVC030 PROB30 2817/2820 1/2SM SHSN BLSN VV005 FM282100 29012G22KT P6SM -SN OVC030 TEMPO 2821/2823 11/2SM -SHSN BLSN OVC015 FM282300 29010G20KT P6SM BKN030 BKN050 TEMPO 2823/2902 4SM -SHSN BKN020 BKN040 RMK FCST BASED ON AUTO OBS. NXT FCST BY 282000Z<br><br>
<br><br>
CYTR 281748Z 32009KT 6SM -SHSN SCT030 OVC080 M05/M08 A2962 RMK SC4AC4 VIS VRB 4-8 SLP037<br><br>
CYTR 281700Z 31006KT 8SM -SHSN SCT030 BKN150 OVC250 M05/M09 A2963 RMK SC3AC4CI1 SLP039<br><br>
TAF CYTR 281730Z 2818/2918 31007KT 6SM -SN SCT030 BKN150 TEMPO 2818/2822 11/2SM -SHSN VV010 BECMG 2818/2820 25015G25KT FM282200 29010KT P6SM -SHSN BKN030 OVC080 TEMPO 2822/2824 2SM -SHSN BKN020 OVC080 FM290000 29008KT P6SM SCT030 BKN090 FM291400 29008KT P6SM BKN025 RMK NXT FCST BY 290000Z<br><br>
<br><br>
