RETRIEVED AT : Feb 21 2020 18:05 Local <br>
  RETRIEVED AT: Feb 21 2020 23:05 UTC<br><br>
CYSN 212200Z 23019G30KT 15SM FEW030 M01/M07 A3033 RMK SC1 SC TR SLP276<br><br>
TAF CYSN 211938Z 2120/2202 24020G30KT P6SM FEW030 RMK NXT FCST WILL BE ISSUED AT 221345Z<br><br>
<br><br>
CYHM 212200Z 21019G26KT 15SM FEW025 M02/M08 A3029 RMK CF1 CF TR SLP271<br><br>
TAF CYHM 211738Z 2118/2218 23015G25KT P6SM SKC BECMG 2118/2120 23018G28KT FM220400 24012G22KT P6SM SKC FM221000 24015KT P6SM BKN020 FM221700 24012G22KT P6SM SCT025 RMK NXT FCST BY 220000Z<br><br>
<br><br>
KIAG 212253Z 23015G28KT 10SM CLR M03/M08 A3030 RMK AO2 PK WND 24031/2200 SLP280 T10281083<br><br>
KIAG 212153Z 23021G30KT 10SM CLR M02/M08 A3032 RMK AO2 PK WND 23034/2106 SLP288 T10221083<br><br>
KIAG 212105Z 2121/2218 24020G30KT P6SM FEW035 FM212200 24018G26KT P6SM SKC<br><br>
<br><br>
KBUF 212254Z 23023G32KT 10SM CLR M01/M13 A3031 RMK AO2 PK WND 24035/2211 SLP274 T10111133<br><br>
KBUF 212154Z 23024G35KT 10SM FEW025 M01/M11 A3033 RMK AO2 PK WND 24035/2154 SLP284 T10111106<br><br>
KBUF 212105Z 2121/2218 23020G30KT P6SM SCT030 FM212200 24020G30KT P6SM SKC FM221400 24020G30KT P6SM SCT030<br><br>
<br><br>
CYYZ 212200Z 20016G23KT 15SM SKC M00/M10 A3026 RMK SLP259<br><br>
TAF CYYZ 212039Z 2121/2224 23015G25KT P6SM SKC FM220600 24010G20KT P6SM SKC FM220900 24015KT P6SM BKN020 TEMPO 2209/2212 SCT020 FM221600 24012G22KT P6SM BKN025 FM222100 24010G20KT P6SM SCT030 RMK NXT FCST BY 220000Z<br><br>
<br><br>
CYOO 212200Z AUTO 23008G17KT 9SM CLR 00/M11 A3025 RMK SLP255<br><br>
TAF CYOO 211938Z 2120/2208 25010G20KT P6SM SKC FM212200 25015G25KT P6SM SKC FM220700 25010G20KT P6SM BKN025 RMK FCST BASED ON AUTO OBS. NXT FCST BY 220200Z<br><br>
<br><br>
CYTR 212200Z 24017G25KT 15SM SKC M01/M08 A3025 RMK SLP250<br><br>
TAF CYTR 211730Z 2118/2218 23015G25KT P6SM FEW030 FM220000 25012KT P6SM FEW030 FM220800 26008KT P6SM BKN030 FM221400 26010G20KT P6SM BKN020 RMK NXT FCST BY 220000Z<br><br>
<br><br>
