RETRIEVED AT : Feb 23 2020 21:05 Local <br>
  RETRIEVED AT: Feb 24 2020 02:05 UTC<br><br>
CYSN 240100Z 21013G20KT 15SM FEW100 06/M06 A2992 RMK AC1 SLP135<br><br>
TAF CYSN 231942Z 2320/2402 22015G25KT P6SM SCT240 RMK NXT FCST WILL BE ISSUED AT 241345Z<br><br>
<br><br>
CYHM 240100Z 21009KT 15SM SKC 03/M05 A2991 RMK SLP139<br><br>
TAF CYHM 232338Z 2400/2424 22010G20KT P6SM FEW240 BECMG 2401/2403 23012KT FM241100 23008KT P6SM BKN015 BECMG 2417/2419 27006KT RMK NXT FCST BY 240600Z<br><br>
<br><br>
KIAG 240153Z 21013KT 10SM CLR 04/M06 A2992 RMK AO2 SLP144 T00441056<br><br>
KIAG 240053Z 23013KT 10SM CLR 04/M05 A2993 RMK AO2 SLP148 T00391050<br><br>
KIAG 232339Z 2400/2424 20009KT P6SM FEW250 FM240200 21014G20KT P6SM FEW250 WS020/23045KT FM240500 22014G21KT P6SM FEW250 FM241400 25010KT P6SM BKN035<br><br>
<br><br>
KBUF 240154Z 20008KT 10SM CLR 03/M04 A2994 RMK AO2 SLP145 T00281044<br><br>
KBUF 240054Z 22008KT 10SM CLR 04/M05 A2994 RMK AO2 SLP146 T00441050<br><br>
KBUF 232339Z 2400/2424 20007KT P6SM FEW250 FM240200 22011G17KT P6SM FEW250 WS020/24040KT FM240800 22012KT P6SM FEW250 FM241400 24013G20KT P6SM BKN035 FM242100 25006KT P6SM BKN035<br><br>
<br><br>
CYYZ 240100Z 19014G21KT 15SM SKC 06/M05 A2988 RMK SLP127<br><br>
TAF CYYZ 232338Z 2400/2506 20010G20KT P6SM SCT240 BECMG 2401/2403 23010KT FM241000 22008KT P6SM BKN020 FM241800 27008KT P6SM SCT030 FM250000 34007KT P6SM SCT030 BKN180 RMK NXT FCST BY 240300Z<br><br>
<br><br>
CYOO 240100Z AUTO 21003KT 9SM CLR 04/M03 A2990 RMK SLP132<br><br>
TAF CYOO 240138Z 2402/2414 22007KT P6SM SKC BECMG 2408/2410 25005KT RMK FCST BASED ON AUTO OBS. NXT FCST BY 240800Z<br><br>
<br><br>
CYTR 240100Z 20004KT 15SM SCT060 02/M03 A2992 RMK SC3 SLP137<br><br>
TAF CYTR 232330Z 2400/2424 VRB03KT P6SM BKN060 FM241200 25010KT P6SM SCT020 TEMPO 2412/2418 BKN020 BECMG 2415/2417 24010G20KT FM241800 24010KT P6SM FEW030 BKN210 RMK NXT FCST BY 240600Z<br><br>
<br><br>
