RETRIEVED AT : Dec 12 2017 07:10 Local <br>
  RETRIEVED AT: Dec 12 2017 12:10 UTC<br><br>
CYSN 121200Z 25008KT 2SM -SN BKN003 OVC010 M01/M01 A2951 RMK SF5SC3 SLP999<br><br>
CYSN has no TAF <br><br>
<br><br>
CYHM 121100Z 27005KT 3SM -SN BKN048 OVC055 M03/M04 A2951 RMK SN2SC3SC3 SLP006<br><br>
CYHM 121046Z 27005KT 3SM -SN SCT034 OVC046 M03/M04 A2951 RMK SN2SC2SC4 SLP006<br><br>
TAF CYHM 121138Z 1212/1312 27010KT 6SM -SN SCT030 OVC050 TEMPO 1212/1214 21/2SM -SN BLSN OVC025 BECMG 1212/1214 30015G25KT FM121400 29020G35KT P6SM -SN SCT030 OVC050 TEMPO 1214/1216 3SM -SHSN BLSN OVC030 FM121900 30020G30KT P6SM SCT050 BECMG 1220/1222 29015KT RMK NXT FCST BY 121800Z<br><br>
<br><br>
KIAG 121153Z 00000KT 1 1/4SM -SN BR BKN008 BKN012 OVC027 M01/M03 A2950 RMK AO2 SLP004 P0002 60015 70022 T10111028 11006 21022 56007<br><br>
KIAG 121144Z AUTO 00000KT 1 1/4SM R28R/5000VP6000FT -SN BR BKN010 OVC029 M01/M03 A2950 RMK AO2 P0002 T10111033<br><br>
KIAG 121133Z AUTO 00000KT 1 1/2SM -SN BR FEW014 OVC027 M01/M03 A2950 RMK AO2 P0001 T10111028<br><br>
KIAG 121102Z AUTO 00000KT 1 1/4SM -SN BR OVC021 M01/M03 A2950 RMK AO2 P0001 T10111033<br><br>
KIAG 121053Z AUTO 10003KT 1 1/2SM -SN BR FEW008 OVC023 M01/M03 A2950 RMK AO2 SLP006 P0001 T10111033<br><br>
KIAG 121051Z AUTO 00000KT 1 3/4SM -SN BR OVC023 M01/M03 A2950 RMK AO2 P0001<br><br>
KIAG 121120Z 1212/1312 28005KT 1SM -SN OVC015 FM121500 29013G20KT 1SM -SN OVC015 FM121800 27017G27KT P6SM VCSH OVC035 FM130200 30018G27KT 1SM -SN BLSN OVC015<br><br>
<br><br>
KBUF 121154Z 00000KT 2SM -SN BR FEW004 OVC030 M01/M02 A2950 RMK AO2 SLP997 4/005 P0002 60021 70030 T10111017 11006 21017 56013 $<br><br>
KBUF 121148Z 31003KT 2SM -SN BR FEW004 OVC030 M01/M02 A2949 RMK AO2 P0002 $<br><br>
KBUF 121141Z 31003KT 1 3/4SM -SN BR SCT004 OVC024 M01/M01 A2949 RMK AO2 P0001 T10111011 $<br><br>
KBUF 121131Z 32005KT 1 3/4SM -SN BR BKN004 OVC020 M01/M01 A2949 RMK AO2 P0001 T10061011 $<br><br>
KBUF 121122Z 26004KT 1 3/4SM -SN BR SCT004 OVC022 M01/M01 A2950 RMK AO2 P0001 T10061011 $<br><br>
KBUF 121054Z 25004KT 1 1/4SM R23/5500VP6000FT -SN BR OVC016 M01/M01 A2950 RMK AO2 SLP998 P0003 T10061011 $<br><br>
KBUF 121031Z 00000KT 1SM R23/5500VP6000FT -SN BR SCT004 OVC015 M01/M01 A2950 RMK AO2 P0002 T10111011 $<br><br>
KBUF 121023Z 00000KT 1SM R23/5000VP6000FT -SN BR BKN004 OVC011 M01/M02 A2950 RMK AO2 P0002 T10111017 $<br><br>
KBUF 121120Z 1212/1312 26006KT 1SM -SN OVC015 FM121500 28013G20KT 1SM -SN OVC015 FM121800 27017G27KT P6SM VCSH OVC035 FM130200 28016G25KT 1SM -SN BLSN BKN015<br><br>
<br><br>
CYYZ 121200Z 28007KT 4SM -SN OVC009 M03/M04 A2951 RMK SC8 /S04/ SLP005<br><br>
CYYZ 121100Z 31007KT 4SM -SN OVC009 M03/M04 A2951 RMK SC8 SLP004<br><br>
TAF CYYZ 121138Z 1212/1318 33007KT 4SM -SN BKN008 OVC015 TEMPO 1212/1215 6SM -SN SCT010 OVC025 BECMG 1212/1214 30015G25KT FM121500 30020G30KT P6SM -SN BKN030 OVC060 FM121700 29020G30KT P6SM SCT030 FM130200 33015G25KT P6SM -SHSN BKN025 TEMPO 1302/1305 2SM -SHSN BLSN OVC020 BECMG 1305/1307 33015KT FM131600 31015KT P6SM FEW025 RMK NXT FCST BY 121500Z<br><br>
<br><br>
CYOO has no TAF <br><br>
<br><br>
CYTR 121200Z 04007KT 1 1/2SM -SN OVC010 M08/M09 A2955 RMK SN5NS3 /S04/ SLP012<br><br>
CYTR 121100Z 04007KT 1 1/2SM -SN OVC010 M08/M09 A2956 RMK SN5NS3 /S03/ SLP016<br><br>
TAF CYTR 121130Z 1212/1312 05010KT 11/2SM -SN OVC010 TEMPO 1212/1216 3SM -SN OVC020 FM121600 02010KT 6SM -SN BKN015 OVC030 TEMPO 1216/1221 2SM -SN OVC012 FM122100 29012G22KT 3SM -SN BLSN BKN020 OVC040 BECMG 1302/1304 33012G22KT FM130900 32012G22KT P6SM BKN020 RMK NXT FCST BY 121800Z<br><br>
<br><br>
