RETRIEVED AT : Jun 20 2020 04:05 Local <br>
  RETRIEVED AT: Jun 20 2020 08:05 UTC<br><br>
CYSN has no TAF <br><br>
<br><br>
TAF CYHM 200539Z 2006/2106 VRB03KT P6SM FEW060 PROB30 2007/2009 1SM BR FM200900 26005KT P6SM SCT060 TEMPO 2009/2014 BKN060 PROB30 2009/2012 1SM BR FM201400 26008KT P6SM SCT060 PROB30 2018/2023 2SM TSRA BR BKN060CB FM210000 23007KT P6SM SCT060 BECMG 2102/2104 20005KT RMK NXT FCST BY 201200Z<br><br>
<br><br>
KIAG 200540Z 2006/2106 21006KT P6SM SCT250 FM201600 23006KT P6SM SCT050 SCT100 TEMPO 2017/2021 BKN050 FM202100 33004KT P6SM SCT050 BKN250 FM210000 VRB04KT P6SM SCT050 BKN250<br><br>
<br><br>
KBUF 200540Z 2006/2106 21006KT P6SM FEW050 SCT250 FM201500 23006KT P6SM BKN050 FM202300 17004KT P6SM SCT050 BKN250<br><br>
<br><br>
TAF CYYZ 200539Z 2006/2112 VRB03KT P6SM SKC PROB30 2009/2012 2SM BR FM201500 16012KT P6SM SCT060 BECMG 2102/2104 11007KT FM210600 13006KT P6SM FEW030 RMK NXT FCST BY 200900Z<br><br>
<br><br>
TAF CYOO 200742Z 2008/2020 VRB03KT P6SM FEW060 FM200900 VRB03KT P6SM FEW008 SCT060 TEMPO 2009/2015 BKN060 PROB30 2009/2012 1SM BR FM201500 17006KT P6SM SCT060 RMK FCST BASED ON AUTO OBS. NXT FCST BY 201400Z<br><br>
<br><br>
TAF CYTR 200530Z 2006/2106 VRB03KT P6SM SKC TEMPO 2010/2017 BKN100 BECMG 2015/2017 20010KT FM210000 VRB03KT P6SM SKC RMK NXT FCST BY 201200Z<br><br>
<br><br>
