RETRIEVED AT : May 15 2020 08:06 Local <br>
  RETRIEVED AT: May 15 2020 12:06 UTC<br><br>
CYSN 151137Z 20009KT 4SM -RA BR SCT020 OVC030 15/15 A2988 RMK SC3SC5 SLP121 DENSITY ALT 500FT<br><br>
CYSN 151100Z 21008KT 12SM -RA OVC020 15/15 A2987 RMK SC8 SLP118 DENSITY ALT 500FT<br><br>
CYSN has no TAF <br><br>
<br><br>
CYHM 151125Z 20007KT 10SM -RA FEW012 SCT033 OVC099 14/14 A2988 RMK SC2SC1AC5 SLP123 DENSITY ALT 1000FT<br><br>
CYHM 151100Z 19008KT 8SM -RA FEW006 BKN011 OVC028 14/14 A2987 RMK SF2SC5SC1 SLP121 DENSITY ALT 1000FT<br><br>
CYHM 151048Z 20007KT 7SM -RA BKN007 BKN012 OVC028 14/14 A2987 RMK SF5SC2SC1 SLP121 DENSITY ALT 1000FT<br><br>
TAF CYHM 151144Z 1512/1612 20008KT P6SM -SHRA SCT008 OVC030 TEMPO 1512/1515 2SM SHRA BR BKN008 OVC030 BECMG 1512/1514 21010G20KT FM151500 22015G25KT P6SM SCT020 BKN030 TEMPO 1515/1518 BKN020 OVC030 FM151800 22018G28KT P6SM -SHRA BKN020 OVC030 FM152100 30010KT P6SM SCT020 BKN030 FM160000 35008KT P6SM SKC BECMG 1601/1603 VRB03KT FM160700 VRB03KT P6SM SKC PROB30 1607/1612 1SM BR BKN003 RMK NXT FCST BY 151800Z<br><br>
<br><br>
KIAG 151153Z 21008KT 10SM FEW028 BKN039 OVC046 14/13 A2990 RMK AO2 RAE24 SLP128 P0003 60013 70022 T01390128 10144 20133 53006<br><br>
KIAG 151129Z 22007KT 10SM OVC029 14/13 A2990 RMK AO2 RAE24 P0003 T01390133<br><br>
KIAG 151053Z 21005KT 6SM -RA BR FEW022 OVC032 14/13 A2989 RMK AO2 RAB0958 SLP126 P0010 T01390133<br><br>
KIAG 151047Z 21006KT 3SM -RA BR SCT022 BKN030 OVC035 14/13 A2989 RMK AO2 RAB0958 P0010<br><br>
KIAG 151043Z AUTO 22005KT 2 1/2SM R28R/5000VP6000FT +RA BR BKN022 OVC032 14/13 A2989 RMK AO2 RAB0958 P0009 T01390133<br><br>
KIAG 151120Z 1512/1612 22010KT 6SM BR VCSH SCT025 BKN035 FM151900 24014G24KT 4SM -SHRA OVC025 FM152200 27006KT P6SM VCSH BKN007 FM160300 VRB03KT P6SM BKN015<br><br>
<br><br>
KBUF 151154Z 21005KT 10SM -RA BKN030 OVC045 16/14 A2991 RMK AO2 RAB36 SLP130 P0000 60001 70013 T01560139 10156 20128 53005<br><br>
KBUF 151054Z 19004KT 5SM BR SCT035 OVC044 13/12 A2990 RMK AO2 RAB0956E17B38E47 SLP127 P0001 T01330122<br><br>
KBUF 151120Z 1512/1612 22008KT P6SM VCSH SCT035 BKN050 FM151500 23014G22KT P6SM BKN035 TEMPO 1515/1518 BKN025 FM151900 24014G24KT 4SM -SHRA OVC025 FM152200 27010KT P6SM VCSH OVC007 FM160100 VRB03KT P6SM BKN007<br><br>
<br><br>
CYYZ 151154Z 14006KT 1/2SM R15L/P6000FT/D R24R/5000VP6000FT/D R23/P6000FT/D FG VV001 11/11 A2987 RMK FG8 SLP118<br><br>
CYYZ 151150Z 15006KT 5/8SM R15L/P6000FT/D R24R/5500VP6000FT/D R23/P6000FT/D BR OVC002 11/11 A2987 RMK FG6ST2 SLP119<br><br>
CYYZ 151141Z 15006KT 3/4SM R15L/P6000FT/D R06L/P6000FT/U R05/P6000FT/U BR OVC002 11/11 A2987 RMK FG6ST2 SLP120<br><br>
CYYZ 151117Z VRB02KT 1SM R15L/P6000FT/N R06L/P6000FT/U R05/P6000FT/U BR OVC003 11/11 A2987 RMK FG4ST4 SLP119<br><br>
CYYZ 151100Z 01002KT 3/4SM R15L/P6000FT/D R06L/P6000FT/D R05/P6000FT/N BR OVC002 11/11 A2986 RMK FG6ST2 SLP117<br><br>
TAF CYYZ 151144Z 1512/1618 16006KT 1SM -SHRA BR BKN003 OVC030 TEMPO 1512/1515 3SM SHRA BR BKN005 OVC030 FM151500 20010G20KT P6SM SCT008 BKN025 TEMPO 1515/1521 5SM -SHRA BR BKN008 OVC025 BECMG 1519/1521 30012G22KT FM152100 35012KT P6SM BKN015 OVC025 FM160000 02012KT P6SM FEW030 FM160800 36006KT P6SM SKC BECMG 1613/1615 03010KT RMK NXT FCST BY 151500Z<br><br>
<br><br>
CYOO 151100Z AUTO 05003KT 1SM BR OVC004 09/09 A2988 RMK SLP121<br><br>
TAF CYOO 150738Z 1508/1520 VRB03KT 1SM -RA BR OVC004 TEMPO 1508/1513 6SM BR SCT004 OVC008 PROB30 1508/1513 1/2SM -DZ FG VV002 FM151300 20006KT 2SM -SHRA BR BKN004 OVC010 TEMPO 1513/1516 6SM BR SCT004 OVC010 FM151600 23010G20KT P6SM -SHRA BKN015 OVC025 RMK FCST BASED ON AUTO OBS. NXT FCST BY 151400Z<br><br>
<br><br>
CYTR 151100Z CCA 21006KT 6SM BR BKN020 OVC070 10/08 A2990 RMK SC6AC2 SLP126<br><br>
TAF CYTR 151130Z 1512/1612 21005KT 6SM BR FEW012 BKN025 OVC070 TEMPO 1512/1515 4SM -SHRA BR BKN012 OVC020 PROB30 1512/1515 2SM -SHRA BR OVC008 FM151500 20005KT 4SM BR SCT005 OVC015 TEMPO 1515/1521 11/2SM -SHRA BR OVC005 PROB30 1517/1521 VRB15G25KT 3/4SM TSRA BR BKN005 OVC030CB FM152100 25012KT P6SM -SHRA SCT006 BKN012 OVC040 FM152300 32007KT P6SM SCT025 RMK NXT FCST BY 151800Z<br><br>
<br><br>
