RETRIEVED AT : Dec 12 2017 12:10 Local <br>
  RETRIEVED AT: Dec 12 2017 17:10 UTC<br><br>
CYSN 121700Z 29017G25KT 240V310 8SM -SN OVC028 M03/M08 A2958 RMK SC8 SLP023<br><br>
CYSN 121600Z 26014G23KT 4SM -SN OVC022 M03/M07 A2958 RMK SC8 SLP022<br><br>
TAF CYSN 121339Z 1214/1302 27012G22KT 2SM -SN BLSN OVC015 TEMPO 1214/1216 6SM -SN SCT015 OVC030 FM121600 28020G30KT P6SM BKN025 OVC050 TEMPO 1216/1219 21/2SM -SHSN BLSN OVC025 FM122100 27020G30KT P6SM BKN040 RMK NXT FCST BY 122000Z<br><br>
<br><br>
TAF CYHM 121138Z 1212/1312 27010KT 6SM -SN SCT030 OVC050 TEMPO 1212/1214 21/2SM -SN BLSN OVC025 BECMG 1212/1214 30015G25KT FM121400 29020G35KT P6SM -SN SCT030 OVC050 TEMPO 1214/1216 3SM -SHSN BLSN OVC030 FM121900 30020G30KT P6SM SCT050 BECMG 1220/1222 29015KT RMK NXT FCST BY 121800Z<br><br>
<br><br>
KIAG 121653Z 27016KT 3SM -SN FEW020 BKN040 OVC050 M03/M08 A2956 RMK AO2 SLP027 P0000 T10281078<br><br>
KIAG 121553Z 27018KT 3SM -SN FEW027 BKN036 OVC045 M03/M07 A2956 RMK AO2 SLP027 P0000 T10281067<br><br>
KIAG 121547Z 27017KT 3SM -SN FEW014 BKN029 OVC039 M03/M07 A2956 RMK AO2 P0000<br><br>
KIAG 121521Z 1215/1312 29019G30KT 3/4SM -SN BKN012 OVC020 FM121700 27017G27KT P6SM VCSH OVC035 FM130200 30018G27KT 1SM -SN BLSN OVC015<br><br>
<br><br>
KBUF 121654Z 26013G18KT 10SM -SN FEW014 BKN021 OVC055 M04/M07 A2957 RMK AO2 SLP021 PCPN VRY LGT P0000 T10391072<br><br>
KBUF 121646Z 26008G17KT 10SM -SN FEW014 BKN021 OVC055 M04/M07 A2957 RMK AO2 PCPN VRY LGT P0000 T10391072<br><br>
KBUF 121624Z COR 27013KT 4SM R23/6000VP6000FT -SN FEW014 SCT021 OVC050 M04/M06 A2957 RMK AO2 VIS HYR S-W P0000 T10391061<br><br>
KBUF 121554Z 27015KT 1 1/4SM R23/5500VP6000FT -SN BLSN BKN015 BKN023 OVC034 M04/M06 A2957 RMK AO2 PK WND 28027/1520 SLP024 P0000 T10391061<br><br>
KBUF 121524Z 29019G27KT 1SM R23/4500V6000FT -SN BLSN SCT010 BKN021 OVC034 M04/M06 A2956 RMK AO2 PK WND 28027/1520 P0000 T10391056<br><br>
KBUF 121521Z 1215/1312 30012G21KT 1SM -SN BLSN FEW007 OVC012 FM121700 27017G27KT P6SM VCSH OVC035 FM130200 28016G25KT 1SM -SN BLSN BKN015<br><br>
<br><br>
CYYZ 121700Z 29018G25KT 15SM DRSN FEW025 SCT060 BKN080 M04/M11 A2955 RMK CU2SC2AC3 SLP016<br><br>
CYYZ 121615Z 30018G26KT 12SM DRSN SCT025 BKN063 M04/M09 A2954 RMK CU3SC4 SLP013<br><br>
CYYZ 121600Z 30018G27KT 12SM -SN DRSN SCT025 BKN055 M04/M09 A2954 RMK CU3SC4 SLP013<br><br>
TAF CYYZ 121438Z 1215/1318 28015G25KT P6SM -SN BKN030 OVC060 TEMPO 1215/1217 4SM -SHSN OVC030 FM121700 29020G30KT P6SM SCT030 TEMPO 1217/1302 BKN030 FM130200 33015G25KT P6SM -SHSN BKN025 TEMPO 1302/1305 2SM -SHSN BLSN OVC020 BECMG 1305/1307 33015KT FM131600 31015KT P6SM FEW025 RMK NXT FCST BY 121800Z<br><br>
<br><br>
CYOO 121700Z AUTO 28014G19KT 1 1/2SM -SN FEW007 SCT012 OVC018 M04/M06 A2951 RMK SLP002<br><br>
CYOO 121600Z AUTO 26008KT 2 1/2SM -SN FEW014 OVC021 M03/M04 A2950 RMK VIS VRB 1 1/2-3 SLP999<br><br>
CYOO 121548Z AUTO 25005KT 1 3/4SM -SN SCT017 OVC023 M03/M05 A2950 RMK VIS VRB 3/4-2 1/2 SLP998<br><br>
CYOO has no TAF <br><br>
<br><br>
TAF AMD CYTR 121311Z 1213/1312 02010KT 6SM -SN SCT012 OVC030 TEMPO 1213/1221 11/2SM -SN OVC012 FM122100 29012G22KT 3SM -SN BLSN BKN020 OVC040 BECMG 1302/1304 33012G22KT FM130900 32012G22KT P6SM BKN020 RMK NXT FCST BY 121800Z<br><br>
<br><br>
