RETRIEVED AT : Sep 25 2017 06:10 Local <br>
  RETRIEVED AT: Sep 25 2017 10:10 UTC<br><br>
CYSN has no TAF <br><br>
<br><br>
CYHM 251000Z 03003KT 15SM SKC 19/17 A3009 RMK SLP187 DENSITY ALT 1300FT<br><br>
CYHM 250900Z 04002KT 15SM SKC 21/17 A3009 RMK SLP185 DENSITY ALT 1500FT<br><br>
TAF CYHM 250538Z 2506/2606 VRB03KT P6SM SKC PROB30 2510/2513 2SM BR RMK NXT FCST BY 251200Z<br><br>
<br><br>
KIAG 251006Z AUTO 00000KT 3/4SM R28R/1200V4500FT HZ VV004 19/16 A3008 RMK AO2 T01890161<br><br>
KIAG 251003Z AUTO 00000KT 1 1/4SM R28R/1200V4500FT HZ SCT005 19/16 A3008 RMK AO2 T01890161<br><br>
KIAG 250953Z AUTO 00000KT 1 1/4SM R28R/3000VP6000FT BR CLR 18/16 A3008 RMK AO2 SLP180 T01830161<br><br>
KIAG 250940Z AUTO 00000KT 2SM BR FEW003 19/17 A3008 RMK AO2 T01890167<br><br>
KIAG 250931Z AUTO 00000KT 1 3/4SM BR FEW003 19/17 A3008 RMK AO2 T01940172<br><br>
KIAG 250917Z AUTO 00000KT 2 1/2SM HZ FEW004 19/17 A3008 RMK AO2 T01940167<br><br>
KIAG 250853Z AUTO 00000KT 3SM HZ CLR 20/17 A3007 RMK AO2 SLP178 T02000172 57005<br><br>
KIAG 250828Z AUTO 06003KT 3SM HZ FEW003 19/17 A3007 RMK AO2 T01940167<br><br>
KIAG 250900Z 2509/2606 00000KT 2SM BR SKC FM251300 15004KT P6SM SCT250 FM251900 05006KT P6SM SCT250 FM260200 00000KT P6SM SCT250<br><br>
<br><br>
KBUF 250954Z 13004KT 8SM CLR 19/18 A3009 RMK AO2 SLP184 T01940178<br><br>
KBUF 250854Z 11004KT 8SM CLR 19/18 A3009 RMK AO2 SLP183 T01940183 56005<br><br>
KBUF 250900Z 2509/2606 14003KT 6SM BR SKC FM251300 16004KT P6SM SCT250 FM251900 05006KT P6SM SCT250 FM260200 14004KT P6SM SCT250<br><br>
<br><br>
CYYZ 251000Z VRB02KT 15SM SKC 21/17 A3008 RMK SLP184 DENSITY ALT 1200FT<br><br>
CYYZ 250900Z 32005KT 15SM SKC 21/17 A3007 RMK SLP182 DENSITY ALT 1300FT<br><br>
TAF CYYZ 250841Z 2509/2612 VRB03KT P6SM SKC FM251700 15008KT P6SM SCT240 BECMG 2600/2602 VRB03KT RMK NXT FCST BY 251200Z<br><br>
<br><br>
CYOO 251000Z AUTO 00000KT 9SM CLR 19/16 A3007 RMK SLP182 DENSITY ALT 800FT<br><br>
CYOO 250900Z AUTO 35003KT 9SM CLR 19/16 A3006 RMK SLP180 DENSITY ALT 800FT<br><br>
CYOO has no TAF <br><br>
<br><br>
CYTR 251000Z 03003KT 4SM BR SKC 18/18 A3007 RMK SLP183<br><br>
CYTR 250900Z 04003KT 4SM BR SKC 17/17 A3007 RMK SLP182<br><br>
TAF CYTR 250530Z 2506/2606 VRB03KT P6SM SKC TEMPO 2506/2512 3SM BR BECMG 2515/2517 20008KT RMK NXT FCST BY 251200Z<br><br>
<br><br>
