RETRIEVED AT : Dec 05 2017 02:10 Local <br>
  RETRIEVED AT: Dec 05 2017 07:10 UTC<br><br>
CYSN has no TAF <br><br>
<br><br>
CYHM 050700Z 18017KT 15SM -RA BKN054 OVC098 09/05 A2978 RMK SC6AC2 PRESFR SLP091<br><br>
CYHM 050600Z 18014KT 15SM -RA BKN052 OVC090 08/05 A2981 RMK SC6AC2 SLP099<br><br>
TAF CYHM 050540Z 0506/0606 18010G20KT 5SM -RA BR BKN025 OVC050 TEMPO 0506/0508 P6SM NSW BKN050 OVC090 FM050800 19015G25KT P6SM BKN030 OVC080 TEMPO 0508/0510 5SM -SHRA BR BKN015 OVC030 FM051000 20020G30KT 6SM -RA BR OVC020 TEMPO 0510/0516 3SM SHRA BR OVC008 FM051600 23022G35KT P6SM SCT012 BKN240 TEMPO 0516/0521 BKN012 FM052100 24020G30KT P6SM -SHSNRA BKN015 FM060000 24018G28KT P6SM BKN030 RMK NXT FCST BY 051200Z<br><br>
<br><br>
KIAG 050533Z 0506/0606 18012G20KT P6SM VCSH SCT070 OVC150 WS020/19040KT FM050700 18015G25KT 5SM -RA OVC035 WS020/20045KT FM051600 20015G25KT P6SM OVC025 FM052000 23018G27KT P6SM SCT035 OVC140 FM060200 25020G30KT P6SM OVC250<br><br>
<br><br>
KBUF 050654Z 20008KT 10SM OVC095 11/M01 A2989 RMK AO2 SLP124 T01061006<br><br>
KBUF 050554Z COR 18015G22KT 10SM FEW060 OVC120 11/00 A2988 RMK AO2 PK WND 20028/0543 SLP122 60000 T01060000 10111 20106 58013<br><br>
KBUF 050533Z 0506/0606 17012G20KT P6SM VCSH SCT070 OVC200 WS020/19045KT FM050800 18015G25KT 6SM -RA OVC045 WS020/20045KT FM051400 19015G25KT 5SM -RA OVC035 WS020/21045KT FM051700 20015G25KT 6SM -RA OVC030 FM051900 21015G25KT P6SM OVC025 FM052100 24020G30KT P6SM SCT035 OVC130<br><br>
<br><br>
CYYZ 050700Z 17009KT 15SM -RA OVC047 08/05 A2981 RMK SC8 SLP099<br><br>
CYYZ 050600Z 17007KT 15SM -RA BKN051 OVC082 08/05 A2982 RMK SC5AC3 SLP104<br><br>
TAF CYYZ 050540Z 0506/0612 18012KT P6SM -SHRA BKN040 OVC080 TEMPO 0506/0508 6SM -SHRA BR BKN020 OVC040 FM050800 18012G22KT P6SM BKN025 OVC050 TEMPO 0508/0511 5SM -SHRA BR BKN012 OVC025 FM051100 19015G25KT 6SM -RA BR SCT008 OVC025 TEMPO 0511/0516 3SM -SHRA BR BKN008 OVC020 FM051600 21020G30KT P6SM SCT015 BKN240 TEMPO 0516/0518 BKN015 FM051800 23022G35KT P6SM SCT020 BKN220 BECMG 0520/0522 23020G30KT FM060000 24020G30KT P6SM BKN030 FM060300 25015G25KT P6SM SCT040 RMK NXT FCST BY 050900Z<br><br>
<br><br>
CYOO 050700Z AUTO 10006KT 9SM -RA FEW038 OVC055 06/05 A2985 RMK SLP113<br><br>
CYOO 050636Z AUTO 10005KT 6SM -RA BR OVC050 06/05 A2986 RMK SLP117<br><br>
CYOO 050626Z AUTO 11006KT 5SM -RA BR OVC048 06/05 A2986 RMK SLP118<br><br>
CYOO 050600Z AUTO 12005KT 7SM -RA FEW049 BKN065 OVC082 07/04 A2987 RMK PCPN 0.8MM PAST HR SLP121<br><br>
CYOO has no TAF <br><br>
<br><br>
TAF CYTR 050530Z 0506/0606 18010KT P6SM OVC100 TEMPO 0508/0510 P6SM -SHRA BKN030 OVC100 FM051000 18012G22KT P6SM -RA SCT015 OVC030 TEMPO 0510/0518 3SM -RA BR SCT008 OVC015 FM051800 20012G22KT P6SM SCT015 OVC025 TEMPO 0518/0523 P6SM -SHRA BKN015 OVC025 BECMG 0518/0520 24015G25KT FM052300 24018G28KT P6SM SCT015 BKN030 BKN180 FM060400 24018G28KT P6SM SCT030 RMK NXT FCST BY 051200Z<br><br>
<br><br>
