RETRIEVED AT : Jun 14 2020 06:05 Local <br>
  RETRIEVED AT: Jun 14 2020 10:05 UTC<br><br>
CYSN has no TAF <br><br>
<br><br>
TAF CYHM 140538Z 1406/1506 03006KT P6SM SCT220 PROB30 1409/1412 1SM BR BKN004 FM141200 05010KT P6SM SKC BECMG 1415/1417 06018KT BECMG 1500/1502 06010KT RMK NXT FCST BY 141200Z<br><br>
<br><br>
KIAG 140930Z 1410/1506 09005KT P6SM BKN250 FM141400 06012KT P6SM SCT050 FM150100 06006KT P6SM FEW250<br><br>
<br><br>
KBUF 140930Z 1410/1506 04004KT P6SM SCT250 FM141400 07009KT P6SM SCT050 FM142200 06011KT P6SM FEW250<br><br>
<br><br>
TAF CYYZ 140838Z 1409/1512 04005KT P6SM FEW240 BECMG 1412/1414 10010KT FM141500 11012KT P6SM FEW060 FM150000 09008KT P6SM SKC BECMG 1500/1502 04006KT RMK NXT FCST BY 141200Z<br><br>
<br><br>
TAF CYOO 140738Z 1408/1420 VRB03KT P6SM SKC PROB30 1409/1412 2SM BR BECMG 1413/1415 12010KT RMK FCST BASED ON AUTO OBS. NXT FCST BY 141400Z<br><br>
<br><br>
TAF CYTR 140530Z 1406/1506 VRB03KT P6SM SKC PROB30 1407/1411 2SM BR FM141300 07005KT P6SM FEW050 BECMG 1418/1420 21008KT SCT060 FM150200 VRB03KT P6SM FEW060 RMK NXT FCST BY 141200Z<br><br>
<br><br>
