RETRIEVED AT : Apr 14 2018 20:57 Local <br>
  RETRIEVED AT: Apr 15 2018 00:57 UTC<br><br>
CYSN 150025Z 05018G24KT 1/2SM -PLSN BKN003 OVC012 M02/M03 A3019 RMK SF5SC3 SLP229<br><br>
CYSN 150011Z 05019G25KT 1SM -PLSN BKN004 OVC014 M02/M03 A3019 RMK SF5SC3 SLP230<br><br>
CYSN 150000Z 06017G24KT 1SM -PL OVC004 M02/M03 A3020 RMK PL4SF4 SLP232<br><br>
CYSN 142300Z 06021G30KT 1 1/2SM -PL SCT007 OVC026 M02/M03 A3020 RMK SF4SC4 SLP231<br><br>
TAF AMD CYSN 142207Z 1422/1501 05020G34KT 6SM -SN OVC015 TEMPO 1422/1501 3/8SM -FZRA -PL SN BKN004 RMK NXT FCST WILL BE ISSUED AT 151245Z<br><br>
<br><br>
CYHM 150020Z 05030G40KT 1SM R12/P6000FT/N -PLSN BR BKN006 OVC013 M04/M04 A3012 RMK PL2SC5SC1 SLP210<br><br>
CYHM 150000Z CCA 04027G37KT 3/4SM R12/6000FT/U -PLSN BR OVC005 M04/M04 A3011 RMK PL3SC5 PRESFR SLP209<br><br>
CYHM 142307Z 05027G34KT 5/8SM R12/5500FT/U -PLSN BKN004 OVC010 M03/M04 A3013 RMK PL4SC3SC1 SLP216<br><br>
CYHM 142300Z 05025G35KT 1/2SM R12/3500V5000FT/U PLSN OVC004 M03/M04 A3013 RMK PL5SC3 SLP216<br><br>
TAF AMD CYHM 150040Z 1500/1524 05025G40KT 11/2SM -PLSN BR BKN006 OVC012 TEMPO 1500/1501 6SM BR SCT006 OVC012 FM150100 05025G40KT 6SM BR SCT008 OVC015 TEMPO 1501/1507 3SM -FZRA -PL BR BKN008 OVC015 FM150700 05025G40KT 6SM -FZRA BR OVC010 TEMPO 1507/1510 2SM -FZRA -PL BR OVC005 FM151000 05025G40KT 11/2SM FZRA BR OVC004 TEMPO 1510/1517 4SM -FZRA BR OVC010 FM151700 05025G35KT 3/4SM -DZ -RA BR OVC002 RMK NXT FCST BY 150600Z<br><br>
<br><br>
KIAG 150053Z 06014KT 1 1/4SM -SN BR FEW007 SCT013 OVC023 M02/M04 A3017 RMK AO2 PK WND 04030/0036 UPE46SNB39E44B46 SLP231 P0007 T10171039 $<br><br>
KIAG 150050Z 06015KT 1 1/4SM -SN SCT010 SCT015 OVC023 M02/M04 A3017 RMK AO2 PK WND 04030/0036 UPE46SNB39E44B46 P0006 $<br><br>
KIAG 150022Z 06017KT 2 1/2SM UP FEW009 BKN021 OVC036 M02/M04 A3017 RMK AO2 P0005 T10171044 $<br><br>
KIAG 150015Z 06020G25KT 2 1/2SM UP FEW012 BKN025 OVC038 M02/M04 A3017 RMK AO2 P0005 T10171044 $<br><br>
KIAG 150005Z 06016G22KT 2SM UP FEW011 BKN030 OVC039 M02/M04 A3018 RMK AO2 P0004 T10171044 $<br><br>
KIAG 142348Z 06018G27KT 1 1/2SM R28R/5500VP6000FT UP FEW009 BKN027 OVC040 M02/M04 A3018 RMK AO2 PK WND 06028/2259 UPB42PLE42 SLP235 P0008 6//// I6000 T10171044 10017 21017 53020 $<br><br>
KIAG 142347Z 06018G27KT 1 1/2SM R28R/5500VP6000FT UP FEW009 SCT022 OVC027 M02/M05 A3018 RMK AO2 PK WND 06028/2259 UPB42PLE42 P0008 $<br><br>
KIAG 142337Z 06018KT 1 1/4SM R28R/5000V6000FT PL FEW007 OVC023 M02/M04 A3018 RMK AO2 PK WND 06028/2259 P0005 T10171044 $<br><br>
KIAG 142318Z 05014G25KT 1 3/4SM PL SCT009 BKN018 OVC024 M02/M04 A3018 RMK AO2 PK WND 06028/2259 P0002 T10171044 $<br><br>
KIAG 142310Z 04014KT 1 1/4SM R28R/5500VP6000FT PL FEW009 OVC022 M02/M04 A3016 RMK AO2 PK WND 06028/2259 P0001 T10171044 $<br><br>
KIAG 142332Z 1500/1524 05020G30KT 1SM FZRAPL OVC007 FM150300 06020G30KT 4SM -FZRAPL OVC007 FM150900 06020G30KT 5SM -FZRA OVC007 FM151100 07020G30KT 4SM FZRA OVC007 FM151400 08020G30KT 6SM -FZRA OVC007 FM151900 08020G30KT 6SM -RA OVC007<br><br>
<br><br>
KBUF 150054Z 06017G24KT 3SM -FZRAPLSN BR BKN013 OVC018 M02/M03 A3016 RMK AO2 PK WND 05029/0020 SNB38 SLP221 P0005 I1000 T10221033 $<br><br>
KBUF 150038Z 06017G25KT 3SM -FZRAPLSN BR BKN013 BKN026 OVC050 M02/M03 A3015 RMK AO2 PK WND 05029/0020 SNB38 P0003 I1000 T10221033 $<br><br>
KBUF 150024Z 05021G29KT 2 1/2SM -FZRAPL BR FEW010 BKN035 OVC049 M02/M04 A3014 RMK AO2 PK WND 05029/0020 P0001 I1000 T10221039 $<br><br>
KBUF 150004Z 05020G25KT 2SM -FZRAPL BR FEW008 BKN023 OVC044 M02/M03 A3016 RMK AO2 PRESFR P0000 I1000 T10221033 $<br><br>
KBUF 142354Z COR 05015G18KT 1 1/2SM R23/5500VP6000FT -FZRAPL BR FEW005 BKN011 OVC020 M02/M03 A3018 RMK AO2 SNE36PLB36 SLP228 P0004 60010 I1000 I6001 T10221033 10011 21022 53020 $<br><br>
KBUF 142336Z 03013G20KT 1 3/4SM -FZRAPL BR BKN009 OVC017 M02/M03 A3017 RMK AO2 SNE36PLB36 PRESRR P0003 I1000 T10221033 $<br><br>
KBUF 142315Z 06018G23KT 1SM R23/6000VP6000FT -FZRASN BR SCT009 OVC017 M02/M03 A3013 RMK AO2 P0001 I1000 T10221033 $<br><br>
KBUF 142308Z 06017G25KT 1 1/4SM R23/6000VP6000FT -FZRASN BR SCT011 OVC017 M02/M03 A3013 RMK AO2 P0001 I1000 T10171033 $<br><br>
KBUF 142332Z 1500/1524 05015G25KT 1SM FZRAPL SCT007 OVC012 FM150300 05015G25KT 4SM -FZRAPL SCT007 OVC012 FM150700 06015G25KT 5SM -FZRA SCT007 OVC012 FM151000 06015G25KT 4SM FZRA OVC012 FM151400 08015G25KT 6SM -FZRA OVC012 FM151700 08015G25KT 6SM -RA OVC012<br><br>
<br><br>
CYYZ 150036Z 04017KT 10SM OVC017 M04/M06 A3023 RMK SF8 SLP248<br><br>
CYYZ 150000Z CCA 03016KT 4SM -FZRA -PL FEW010 OVC027 M04/M06 A3024 RMK SF1NS7 /S03/ SLP249<br><br>
CYYZ 142347Z 03016KT 2 1/4SM -FZRA -PL BR FEW015 OVC026 M04/M06 A3024 RMK SN1SF1NS6 SLP251<br><br>
CYYZ 142306Z 05011G18KT 1 1/2SM R06R/5500VP6000FT/U R05/4500FT/N -FZRA -PL BR OVC028 M04/M06 A3023 RMK SN2NS6 SLP248<br><br>
CYYZ 142300Z 04013G20KT 1SM R06R/5500VP6000FT/D R06L/5500VP6000FT/N R05/4500FT/N -PL BR VV012 M04/M06 A3023 RMK SN8 VIS VRB 3/4-11/4 SLP248<br><br>
TAF AMD CYYZ 150043Z 1500/1606 04015G25KT P6SM SCT015 OVC025 TEMPO 1500/1509 5SM -FZRA -PL BR OVC015 FM150900 06020G30KT 6SM -FZRA BR SCT007 OVC020 TEMPO 1509/1514 2SM -FZRA -PL BR BKN007 OVC020 FM151400 08020G35KT 2SM FZRA BR OVC008 TEMPO 1514/1519 4SM -FZRA BR OVC010 FM151900 08025G40KT 2SM -DZ -RA BR OVC005 FM152300 08020G30KT 1SM -RA BR OVC004 RMK NXT FCST BY 150300Z<br><br>
<br><br>
CYOO 150054Z AUTO 04016G24KT 9SM OVC036 M04/M07 A3026 RMK ICG PAST HR SLP257<br><br>
CYOO 150040Z AUTO 04015G21KT 9SM -SN OVC034 M04/M07 A3026 RMK ICG PAST HR SLP255<br><br>
CYOO 150028Z AUTO 03016G23KT 9SM OVC034 M04/M07 A3026 RMK ICG PAST HR SLP256<br><br>
CYOO 150019Z AUTO 02013G19KT 9SM -RA OVC034 M04/M07 A3027 RMK ICG PAST HR SLP258<br><br>
CYOO 150018Z AUTO 03011G19KT 9SM -FZRA OVC034 M04/M07 A3027 RMK ICG PAST HR SLP260<br><br>
CYOO 150000Z AUTO 03014G21KT 9SM -FZRA OVC034 M04/M07 A3027 RMK ICG PCPN 1.0MM PAST HR SLP259<br><br>
CYOO 142358Z AUTO 03016G21KT 9SM -FZRA OVC034 M04/M07 A3027 RMK ICG SLP258<br><br>
CYOO 142352Z AUTO 03014G19KT 8SM -FZRA -SN OVC034 M04/M06 A3026 RMK ICG SLP256<br><br>
CYOO 142341Z AUTO 04011G20KT 6SM -SN OVC034 M04/M06 A3026 RMK ICG SLP255<br><br>
CYOO 142338Z AUTO 03012G20KT 5SM -SN OVC034 M04/M06 A3026 RMK ICG SLP255<br><br>
CYOO 142300Z AUTO 04012G20KT 4SM -SN OVC034 M04/M07 A3025 RMK SLP251<br><br>
CYOO has no TAF <br><br>
<br><br>
CYTR 150012Z 03016G22KT 2 1/2SM PL OVC012 M05/M06 A3030 RMK NS8 SLP267<br><br>
CYTR 150000Z 04012G17KT 3SM -PL OVC012 M04/M06 A3031 RMK NS8 /S06/ SLP268<br><br>
CYTR 142300Z 05016G24KT 3SM -PL OVC014 M04/M07 A3026 RMK NS8 /S04/ SLP253<br><br>
TAF AMD CYTR 142335Z 1500/1524 04015G25KT 4SM -PL SCT006 OVC015 TEMPO 1500/1520 2SM -PL -FZRA BR OVC006 FM152000 04015G25KT P6SM SCT006 OVC015 TEMPO 1520/1524 3SM -FZRA BR OVC006 RMK NXT FCST BY 150600Z<br><br>
<br><br>
