RETRIEVED AT : Sep 08 2019 22:05 Local <br>
  RETRIEVED AT: Sep 09 2019 02:05 UTC<br><br>
CYSN 090100Z 02004KT 15SM SCT037 BKN170 OVC210 15/09 A3018 RMK SC4AC2CI2 LAST STFD OBS / NEXT 091100 UTC SLP223<br><br>
CYSN has no TAF <br><br>
<br><br>
CYHM 090100Z 03005KT 15SM FEW035 BKN160 13/08 A3019 RMK SC1AC6 SLP228<br><br>
TAF CYHM 082338Z 0900/0924 09005KT P6SM SCT050 BKN160 TEMPO 0900/0903 BKN050 OVC160 FM090300 03006KT P6SM SCT040 BKN120 FM091200 03010KT P6SM SCT040 BKN080 FM092200 06008KT P6SM FEW040 RMK NXT FCST BY 090600Z<br><br>
<br><br>
KIAG 090153Z 00000KT 10SM SCT045 A3020 RMK AO2 SLPNO $<br><br>
KIAG 090053Z 00000KT 10SM SCT035 A3018 RMK AO2 SLPNO $<br><br>
KIAG 082337Z 0900/0924 35005KT P6SM SCT200 FM091000 VRB04KT 5SM BR SCT200 FM091300 08005KT P6SM SCT150 FM092300 06007KT P6SM FEW200<br><br>
<br><br>
KBUF 090154Z 03003KT 10SM FEW045 BKN200 15/10 A3020 RMK AO2 SLP226 T01500100<br><br>
KBUF 090054Z 01004KT 10SM SCT045 BKN200 16/10 A3019 RMK AO2 SLP223 T01560100<br><br>
KBUF 082337Z 0900/0924 02005KT P6SM SCT200 FM091000 VRB04KT 5SM BR SCT200 FM091200 08006KT P6SM SCT150 FM092300 06007KT P6SM FEW200<br><br>
<br><br>
CYYZ 090100Z 04010KT 15SM BKN180 13/07 A3020 RMK AC7 SLP231<br><br>
TAF CYYZ 082338Z 0900/1006 03010G20KT P6SM FEW050 BKN180 BECMG 0900/0902 01008KT FM091500 08009KT P6SM SCT025 BKN120 FM091800 12010KT P6SM BKN030 OVC100 FM092100 12010KT P6SM SCT030 FM100000 07007KT P6SM SKC RMK NXT FCST BY 090300Z<br><br>
<br><br>
CYOO 090100Z AUTO 34005KT 9SM BKN210 BKN230 BKN250 12/09 A3019 RMK SLP227<br><br>
TAF CYOO 090138Z 0902/0914 VRB03KT P6SM FEW030 BKN210 BECMG 0904/0906 04007KT BECMG 0912/0914 09008KT RMK FCST BASED ON AUTO OBS. NXT FCST BY 090800Z<br><br>
<br><br>
CYTR 090100Z 03008KT 15SM SCT050 BKN250 14/09 A3019 RMK SC4CI2 SLP226<br><br>
TAF CYTR 082330Z 0900/0924 34004KT P6SM SCT050 BKN220 BECMG 0903/0905 03005KT FM091100 05006KT P6SM SCT040 BKN150 FM092100 21005KT P6SM FEW040 RMK NXT FCST BY 090600Z<br><br>
<br><br>
