RETRIEVED AT : Dec 11 2017 17:10 Local <br>
  RETRIEVED AT: Dec 11 2017 22:10 UTC<br><br>
CYSN 112200Z 12006KT 1 1/2SM -SN VV012 M04/M05 A2990 RMK SN8 VIS VRB 1-2 PRESFR SLP132<br><br>
CYSN 112116Z 13006KT 1 1/2SM -SN VV011 M04/M05 A2993 RMK SN8 VIS VRB 1-2 SLP141<br><br>
CYSN 112100Z 13006KT 3SM -SN OVC036 M04/M05 A2993 RMK SN2SC6 VIS VRB 2-4 SLP142<br><br>
TAF AMD CYSN 112131Z 1121/1202 10008KT 11/2SM -SHSN VV012 TEMPO 1121/1202 6SM -SN OVC025 RMK NXT FCST WILL BE ISSUED AT 121345Z<br><br>
<br><br>
CYHM 112200Z 16003KT 1 1/4SM -SN OVC019 M05/M06 A2987 RMK SN5SC3 SLP129<br><br>
CYHM 112100Z 20004KT 1 1/2SM -SN OVC032 M05/M07 A2990 RMK SN2SC6 SLP138<br><br>
CYHM 112047Z 19005KT 1 1/2SM -SN OVC032 M04/M07 A2990 RMK SN2SC6 SLP138<br><br>
TAF AMD CYHM 112105Z 1121/1218 VRB03KT 6SM -SN OVC030 TEMPO 1121/1123 11/2SM -SHSN OVC015 FM112300 VRB03KT 6SM -SN OVC040 TEMPO 1123/1202 2SM -SHSN OVC015 FM120200 06008KT 1SM -SN BR OVC006 FM120800 05010KT 1/4SM -SN FG VV001 BECMG 1212/1214 29010G20KT FM121400 29018G28KT 3SM -SN BLSN OVC015 PROB30 1214/1218 1SM -SHSN BLSN VV008 RMK NXT FCST BY 120000Z<br><br>
<br><br>
KIAG 112153Z 10006KT 1 1/2SM -SN OVC033 M03/M07 A2990 RMK AO2 SLP142 P0000 T10331067<br><br>
KIAG 112129Z 10004KT 1 1/2SM -SN OVC032 M03/M07 A2991 RMK AO2 P0000 T10331067<br><br>
KIAG 112106Z 10005KT 2 1/2SM -SN OVC030 M03/M07 A2993 RMK AO2 P0000 T10331067<br><br>
KIAG 112053Z 12004KT 3SM -SN OVC028 M03/M07 A2993 RMK AO2 SLP151 P0001 60001 T10331067 56013<br><br>
KIAG 112145Z 1122/1218 09007KT 2SM -SN OVC025 FM120200 15007KT 2SM -SN OVC007 FM121200 25005KT 2SM -SN OVC007 FM121400 28011G19KT 2SM -SN OVC007<br><br>
<br><br>
KBUF 112154Z 07004KT 2SM -SN BR OVC025 M03/M06 A2990 RMK AO2 SLP136 P0001 T10331056<br><br>
KBUF 112137Z 09004KT 2SM -SN BR OVC021 M03/M06 A2990 RMK AO2 P0001 T10331056<br><br>
KBUF 112054Z 10006KT 5SM -SN FEW015 OVC025 M03/M06 A2992 RMK AO2 SLP141 P0000 60000 T10331061 58014<br><br>
KBUF 112017Z 07005KT 10SM -SN FEW017 OVC029 M03/M06 A2993 RMK AO2 PCPN VRY LGT P0000 T10331061<br><br>
KBUF 112145Z 1122/1218 12005KT 2SM -SN OVC025 FM120200 16007KT 2SM -SN OVC012 FM120900 16006KT 2SM -SN OVC007 FM121400 26010G17KT 2SM -SN OVC007<br><br>
<br><br>
CYYZ 112200Z 10007KT 1 3/4SM -SN SCT012 VV018 M04/M06 A2988 RMK SF4SN4 /S02/ SLP130<br><br>
CYYZ 112147Z 11010KT 1 1/2SM -SN SCT012 VV016 M04/M06 A2988 RMK SF3SN5 PRESFR SLP129<br><br>
CYYZ 112134Z 10008KT 1SM R06L/P6000FT/U R05/P6000FT/D -SN FEW006 VV010 M04/M07 A2989 RMK SF1SN7 SLP133<br><br>
CYYZ 112129Z 10008KT 3/4SM R06L/P6000FT/D R05/P6000FT/D -SN VV008 M04/M07 A2989 RMK SN8 PRESFR SLP134<br><br>
CYYZ 112116Z 11008KT 1SM R06L/P6000FT/D R05/P6000FT/D -SN VV010 M04/M07 A2990 RMK SN8 SLP138<br><br>
CYYZ 112100Z 12008KT 1 1/2SM -SN FEW009 BKN012 OVC022 M04/M07 A2991 RMK SN1SF1SF5SF2 SF TR SLP140<br><br>
CYYZ 112040Z 13006KT 2 1/2SM -SN FEW009 BKN013 OVC016 M04/M07 A2991 RMK SN1SF1SF5SF1 SLP140<br><br>
TAF CYYZ 112038Z 1121/1224 12008KT 6SM -SN SCT012 OVC030 TEMPO 1121/1202 2SM -SHSN OVC012 FM120200 10010KT 1SM -SN BKN008 OVC012 FM120400 10008KT 3/4SM -SN OVC008 FM121200 04012KT 11/2SM -SN OVC012 FM121400 34010G20KT 2SM -SHSN BLSN BKN030 OVC060 FM122100 30012G22KT 6SM -SHSN BLSN BKN030 OVC060 RMK NXT FCST BY 120000Z<br><br>
<br><br>
CYOO 112200Z AUTO 11008KT 1 1/2SM -SN OVC018 M05/M08 A2991 RMK SLP140<br><br>
CYOO 112142Z AUTO 11008KT 2 1/4SM -SN OVC024 M05/M09 A2993 RMK SLP144<br><br>
CYOO 112125Z AUTO 11009KT 4SM -SN BKN024 OVC036 M05/M09 A2994 RMK SLP148<br><br>
CYOO 112119Z AUTO 11009KT 5SM -SN SCT022 SCT029 OVC036 M05/M09 A2994 RMK SLP148<br><br>
CYOO 112100Z AUTO 13007KT 9SM -SN OVC034 M05/M10 A2994 RMK SLP149<br><br>
CYOO 112020Z AUTO 15006KT 110V170 9SM -SN OVC036 M05/M11 A2994 RMK SLP150<br><br>
CYOO has no TAF <br><br>
<br><br>
CYTR 112200Z 11003KT 15SM BKN036 OVC170 M06/M14 A2998 RMK SC6AS2 SLP160<br><br>
CYTR 112100Z 12004KT 15SM SCT041 OVC170 M06/M14 A3000 RMK SC3AS5 SLP164<br><br>
TAF AMD CYTR 112124Z 1121/1218 12005KT P6SM SCT040 OVC180 FM112300 07008KT 6SM -SN SCT020 OVC080 TEMPO 1123/1203 11/2SM -SN BKN020 OVC060 FM120300 07010KT 11/2SM -SN OVC012 FM120500 07012KT 3/4SM -SN VV008 FM121100 07012KT 11/2SM -SN OVC010 FM121600 05012KT 3SM -SN BKN012 OVC030 RMK NXT FCST BY 120000Z<br><br>
<br><br>
