RETRIEVED AT : Jun 01 2020 01:05 Local <br>
  RETRIEVED AT: Jun 01 2020 05:05 UTC<br><br>
CYSN has no TAF <br><br>
<br><br>
CYHM 010400Z 25005KT 15SM FEW100 09/03 A3023 RMK AC1 AC TR SLP242<br><br>
TAF CYHM 312338Z 0100/0124 33007KT P6SM BKN060 TEMPO 0100/0103 SCT060 FM010300 24007KT P6SM SCT060 BECMG 0113/0115 25015KT RMK NXT FCST BY 010600Z<br><br>
<br><br>
KIAG 010453Z AUTO 21007KT 10SM OVC070 10/08 A3022 RMK AO2 SLP239 T01000078 401500056<br><br>
KIAG 010353Z AUTO 22006KT 10SM FEW050 BKN080 OVC095 10/08 A3024 RMK AO2 RAB32E51 SLP244 P0000 T01000078<br><br>
KIAG 010239Z 0103/0124 23010KT P6SM BKN070 FM010500 24007KT P6SM SCT070 FM011200 27010KT P6SM FEW250 FM011400 24015G25KT P6SM FEW250 FM012200 23012G20KT P6SM FEW250<br><br>
<br><br>
KBUF 010454Z 22006KT 10SM FEW070 BKN100 10/08 A3023 RMK AO2 SLP240 T01000083 401330061 $<br><br>
KBUF 010354Z 22007KT 10SM SCT070 OVC090 10/08 A3025 RMK AO2 SLP245 T01000083 $<br><br>
KBUF 010239Z 0103/0124 23010KT P6SM BKN070 FM010600 24006KT P6SM SCT070 FM011200 27010KT P6SM FEW250 FM011400 26015G25KT P6SM FEW250 FM012200 24012G20KT P6SM FEW250<br><br>
<br><br>
CYYZ 010400Z 26008KT 15SM BKN065 11/02 A3021 RMK SC6 SLP234<br><br>
TAF CYYZ 010238Z 0103/0206 VRB03KT P6SM BKN060 TEMPO 0103/0105 P6SM -SHRA FM010500 VRB03KT P6SM SCT060 BECMG 0105/0107 17008KT BECMG 0112/0114 28010KT FM011500 27015G25KT P6SM SCT070 FM020300 22010KT P6SM FEW080 BKN140 RMK NXT FCST BY 010600Z<br><br>
<br><br>
CYOO 010455Z AUTO 00000KT 9SM BKN085 OVC110 09/06 A3020 RMK SLP230<br><br>
CYOO 010445Z AUTO VRB02KT 9SM -RA BKN080 OVC110 09/06 A3020 RMK SLP231<br><br>
CYOO 010400Z AUTO 00000KT 9SM BKN070 BKN082 BKN110 OVC130 09/05 A3021 RMK SLP233<br><br>
TAF CYOO 010142Z 0102/0114 30005KT P6SM SCT080 SCT120 TEMPO 0102/0106 BKN080 FM010800 VRB03KT P6SM FEW050 BECMG 0112/0114 22010KT RMK FCST BASED ON AUTO OBS. NXT FCST BY 010800Z<br><br>
<br><br>
CYTR 010400Z 31002KT 15SM BKN055 09/03 A3021 RMK SC5 SLP234<br><br>
TAF CYTR 312330Z 0100/0124 30010G20KT P6SM SCT060 FM010100 30008KT P6SM FEW100 BECMG 0104/0106 VRB03KT FM011400 24005KT P6SM BKN080 BECMG 0114/0116 24010G20KT BECMG 0119/0121 29012G22KT RMK NXT FCST BY 010600Z<br><br>
<br><br>
