RETRIEVED AT : Jun 08 2019 23:05 Local <br>
  RETRIEVED AT: Jun 09 2019 03:05 UTC<br><br>
CYSN has no TAF <br><br>
<br><br>
CYHM 090200Z 03010KT 15SM FEW140 BKN250 14/05 A3016 RMK AC2CI4 SLP214<br><br>
TAF CYHM 082338Z 0900/0924 05012G22KT P6SM BKN250 BECMG 0902/0904 04010KT FM091500 09010G20KT P6SM SCT180 BKN250 BECMG 0922/0924 11010KT RMK NXT FCST BY 090600Z<br><br>
<br><br>
KIAG 090253Z 09006KT 10SM CLR 16/06 A3016 RMK AO2 SLP211 T01610056 51006<br><br>
KIAG 090153Z 09007KT 10SM CLR 17/06 A3016 RMK AO2 SLP211 T01720061<br><br>
KIAG 090235Z 0902/0924 09005KT P6SM SCT250 FM090900 13004KT P6SM SCT250 FM091500 13010KT P6SM BKN250 FM092200 12010KT P6SM BKN060<br><br>
<br><br>
KBUF 090254Z 09008KT 10SM FEW200 SCT300 18/06 A3016 RMK AO2 SLP212 T01830056 50005<br><br>
KBUF 090154Z 07010KT 10SM SCT200 BKN300 19/07 A3017 RMK AO2 SLP213 T01890067<br><br>
KBUF 090235Z 0902/0924 09006KT P6SM SCT250 FM090900 13006KT P6SM SCT250 FM091500 12010KT P6SM BKN250 FM092200 12010KT P6SM BKN060<br><br>
<br><br>
CYYZ 090200Z 09008KT 15SM BKN250 18/M01 A3017 RMK CI5 SLP218 DENSITY ALT 900FT<br><br>
TAF CYYZ 090238Z 0903/1006 09010KT P6SM SCT250 FM090900 06005KT P6SM BKN250 BECMG 0914/0916 11010G20KT BECMG 0920/0922 09010KT FM100400 09008KT P6SM SCT050 BKN120 OVC200 RMK NXT FCST BY 090600Z<br><br>
<br><br>
CYOO 090200Z AUTO 11004KT 9SM CLR 18/05 A3017 RMK SLP218 DENSITY ALT 500FT<br><br>
TAF CYOO 090139Z 0902/0914 09007KT P6SM SKC BECMG 0911/0913 09010G20KT RMK FCST BASED ON AUTO OBS. NXT FCST BY 090800Z<br><br>
<br><br>
CYTR 090200Z 05004KT 15SM FEW200 16/09 A3019 RMK CI2 SLP223<br><br>
TAF CYTR 082330Z 0900/0924 10005KT P6SM FEW200 FM090600 07005KT P6SM SKC BECMG 0913/0915 13008KT BECMG 0916/0918 13008G18KT RMK NXT FCST BY 090600Z<br><br>
<br><br>
