RETRIEVED AT : Sep 06 2019 13:52 Local <br>
  RETRIEVED AT: Sep 06 2019 17:52 UTC<br><br>
CYSN 061746Z 03010KT 15SM -SHRA FEW025 SCT065 BKN110 20/15 A2988 RMK CU2SC2ACC2 SLP121 DENSITY ALT 1100FT<br><br>
CYSN 061700Z 02007KT 15SM FEW040TCU SCT065 BKN140 21/16 A2989 RMK TCU2SC2AC2 SLP125 DENSITY ALT 1200FT<br><br>
CYSN 061600Z 25005KT 15SM SCT036 BKN140 21/15 A2990 RMK CU3AC2 SLP128 DENSITY ALT 1100FT<br><br>
TAF CYSN 061243Z 0613/0701 VRB03KT P6SM FEW120 SCT220 FM061500 05006KT P6SM BKN100 FM061700 03012KT P6SM OVC070 TEMPO 0617/0620 P6SM -SHRA FM062000 04010KT P6SM BKN060 BECMG 0623/0701 VRB03KT RMK NXT FCST BY 062000Z<br><br>
<br><br>
CYHM 061700Z 04007KT 15SM FEW027 BKN047 BKN100 19/13 A2992 RMK CU1SC4AC2 SLP134 DENSITY ALT 1500FT<br><br>
CYHM 061600Z 03006KT 010V070 15SM FEW032 BKN100 BKN120 19/14 A2993 RMK CU1AC5AC1 SLP136 DENSITY ALT 1500FT<br><br>
TAF CYHM 061138Z 0612/0712 02006KT P6SM SCT120 TEMPO 0612/0613 3SM BR PROB30 0612/0613 1SM BR FM061300 04007KT P6SM BKN090 FM061600 05012KT P6SM BKN060 TEMPO 0616/0619 P6SM -SHRA FM061900 07010KT P6SM BKN060 BECMG 0700/0702 VRB03KT FM070600 VRB03KT 6SM BR BKN030 PROB30 0706/0712 11/2SM BR RMK NXT FCST BY 061800Z<br><br>
<br><br>
KIAG 061653Z 04005KT 10SM FEW040 BKN055 22/13 A2989 RMK AO2 SLP123 T02220128<br><br>
KIAG 061553Z 13005KT 10SM SCT038 20/12 A2991 RMK AO2 SLP128 T02000117<br><br>
KIAG 061135Z 0612/0712 VRB03KT P6SM SCT150 FM061500 VRB05KT P6SM BKN110 FM061900 02008KT P6SM VCSH BKN080 FM062300 03006KT P6SM BKN080 FM070300 VRB03KT P6SM BKN080 FM070900 29005KT P6SM BKN060<br><br>
<br><br>
KBUF 061654Z 00000KT 10SM FEW046 FEW130 FEW250 23/10 A2989 RMK AO2 SLP121 T02280100<br><br>
KBUF 061554Z 00000KT 10SM FEW042 FEW150 FEW250 22/11 A2991 RMK AO2 SLP127 T02170106<br><br>
KBUF 061135Z 0612/0712 10004KT P6SM SCT150 FM061600 10005KT P6SM BKN120 FM061900 02006KT P6SM VCSH BKN080 FM062300 02006KT P6SM BKN070 FM070300 VRB04KT P6SM SCT070 FM070900 26004KT P6SM BKN060<br><br>
<br><br>
CYYZ 061700Z 09012KT 15SM -RA FEW030 BKN100 BKN120 19/13 A2991 RMK CU1AC5AC1 SLP130 DENSITY ALT 1200FT<br><br>
CYYZ 061642Z 09010G15KT 15SM -RA FEW040 BKN100 BKN120 19/13 A2992 RMK CU2AC4AC1 SLP133 DENSITY ALT 1300FT<br><br>
CYYZ 061600Z 09010G22KT 040V150 15SM SCT030 BKN120 21/13 A2993 RMK CU4AC3 SLP136 DENSITY ALT 1400FT<br><br>
TAF CYYZ 061438Z 0615/0718 08012KT P6SM FEW050 BKN140 FM061600 07012KT P6SM SCT040 BKN080 TEMPO 0616/0619 P6SM -SHRA FM061900 05010G20KT P6SM BKN060 BECMG 0622/0624 05008KT FM070300 VRB03KT P6SM SCT030 BKN060 FM070800 33006KT 6SM BR SCT050 PROB30 0708/0712 1SM BR FM071400 32010KT P6SM BKN030 RMK NXT FCST BY 061800Z<br><br>
<br><br>
CYOO 061749Z AUTO 14005KT 9SM -RA OVC110 19/13 A2991 RMK SLP131 DENSITY ALT 1000FT<br><br>
CYOO 061700Z AUTO 08006KT 060V130 9SM SCT038 BKN110 20/13 A2993 RMK SLP136 DENSITY ALT 1100FT<br><br>
CYOO 061600Z AUTO 14006KT 090V170 9SM FEW100 BKN140 20/12 A2994 RMK SLP141 DENSITY ALT 1000FT<br><br>
TAF CYOO 061338Z 0614/0702 VRB03KT P6SM BKN150 FM061600 02007KT P6SM OVC090 TEMPO 0616/0620 P6SM -SHRA OVC070 FM062000 01007KT P6SM BKN050 RMK FCST BASED ON AUTO OBS. NXT FCST BY 062000Z<br><br>
<br><br>
CYTR 061700Z 03003KT 15SM FEW039 FEW095 22/12 A2992 RMK CU2AC1 SLP133<br><br>
CYTR 061600Z 07005KT 15SM SCT031 SCT140 21/13 A2994 RMK CU3AC1 SLP141<br><br>
TAF CYTR 061130Z 0612/0712 VRB03KT P6SM FEW030 SCT120 PROB30 0612/0614 1/2SM FG FM061600 04005KT P6SM FEW050 BKN120 TEMPO 0616/0622 P6SM -SHRA BKN050 OVC120 FM062200 03008KT P6SM BKN050 OVC080 FM070200 36005KT P6SM SCT020 BKN050 TEMPO 0702/0712 P6SM -SHRA BKN020 OVC050 RMK NXT FCST BY 061800Z<br><br>
<br><br>
