RETRIEVED AT : Jun 05 2018 05:59 Local <br>
  RETRIEVED AT: Jun 05 2018 09:59 UTC<br><br>
CYSN has no TAF <br><br>
<br><br>
TAF CYHM 050538Z 0506/0606 VRB03KT P6SM SCT040 BKN080 TEMPO 0506/0508 VRB15G25KT 5SM SHRA BR BKN040 BKN080 BECMG 0510/0512 30010G20KT FM051200 30010G20KT P6SM SCT020 SCT080 FM051800 30012KT P6SM BKN030 BKN070 FM052300 32010KT P6SM SCT040 SCT080 FM060300 34008KT P6SM BKN030 RMK NXT FCST BY 051200Z<br><br>
<br><br>
KIAG 050953Z AUTO 25006KT 10SM BKN065 OVC085 12/09 A2968 RMK AO2 RAE39 SLP052 P0001 T01220094<br><br>
KIAG 050853Z AUTO 31004KT 10SM -RA FEW060 OVC070 13/10 A2968 RMK AO2 RAE0756B32 SLP051 P0000 60010 T01280100 55005<br><br>
KIAG 050912Z 0509/0606 31004KT P6SM FEW060 OVC070 TEMPO 0509/0510 5SM -SHRA FM051400 28010G20KT P6SM BKN035 FM051600 29012KT P6SM BKN050 FM052300 34011KT P6SM BKN035<br><br>
<br><br>
KBUF 050954Z 26006KT 8SM -RA BKN055 OVC070 12/10 A2969 RMK AO2 RAB44 SLP054 P0000 T01170100<br><br>
KBUF 050854Z 24006KT 10SM OVC055 12/11 A2968 RMK AO2 RAE0759 SLP049 P0001 60004 T01170106 58005<br><br>
KBUF 050912Z 0509/0606 24006KT P6SM OVC060 TEMPO 0509/0510 5SM -SHRA FM051300 27010G17KT P6SM BKN035 FM052300 33010KT P6SM BKN035<br><br>
<br><br>
CYYZ 050900Z 29009KT 15SM BKN054 BKN095 11/08 A2968 RMK SC5AC2 SLP052<br><br>
CYYZ 050800Z 28010KT 15SM SCT081 BKN130 11/07 A2967 RMK AC3AC3 SLP048<br><br>
TAF CYYZ 050838Z 0509/0612 29010KT P6SM SCT060 TEMPO 0509/0513 BKN060 BECMG 0511/0513 30015G25KT FM051300 30015G25KT P6SM SCT020 BKN060 TEMPO 0513/0515 BKN020 BKN060 FM051500 31010G20KT P6SM SCT025 BKN060 TEMPO 0515/0523 BKN025 BKN060 FM052300 34010G20KT P6SM SCT030 FM060900 34012KT P6SM FEW020 BKN040 RMK NXT FCST BY 051200Z<br><br>
<br><br>
CYOO 050900Z AUTO 29008KT 9SM BKN055 OVC074 11/05 A2965 RMK SLP043<br><br>
CYOO 050800Z AUTO 27006KT 9SM CLR 11/06 A2965 RMK SLP043<br><br>
CYOO has no TAF <br><br>
<br><br>
CYTR 050900Z 27007KT 15SM FEW080 10/06 A2963 RMK AC2 SLP034<br><br>
CYTR 050800Z 25006KT 15SM FEW080 09/06 A2962 RMK AC2 SLP033<br><br>
TAF CYTR 050530Z 0506/0606 26008KT P6SM FEW110 FM051300 30010G20KT P6SM BKN040 BKN240 TEMPO 0520/0603 P6SM -SHRA BECMG 0523/0601 34008KT RMK NXT FCST BY 051200Z<br><br>
<br><br>
