RETRIEVED AT : Dec 11 2017 08:10 Local <br>
  RETRIEVED AT: Dec 11 2017 13:10 UTC<br><br>
CYSN 111300Z CCA 31006KT 12SM -SN FEW025 OVC045 M03/M07 A3003 RMK SC2SC6 SLP174<br><br>
CYSN 111200Z 29003KT 280V010 15SM SCT022 OVC049 M04/M08 A3001 RMK SC3SC5 SLP167<br><br>
CYSN has no TAF <br><br>
<br><br>
CYHM 111300Z 26003KT 15SM -SN OVC037 M05/M08 A3000 RMK SC8 SLP172<br><br>
CYHM 111200Z 25004KT 15SM -SHSN SCT036 OVC038 M05/M08 A2998 RMK SC3SC5 SLP167<br><br>
TAF CYHM 111140Z 1112/1212 33008KT P6SM OVC030 TEMPO 1112/1114 5SM -SN OVC020 BECMG 1112/1114 06007KT FM112100 06008KT 6SM -SN OVC100 TEMPO 1121/1202 2SM -SHSN OVC015 FM120200 06008KT 1SM -SN BR OVC006 FM120800 05010KT 1/4SM -SN FG VV001 RMK NXT FCST BY 111800Z<br><br>
<br><br>
KIAG 111253Z 00000KT 9SM -SN SCT015 BKN022 OVC049 M03/M07 A3001 RMK AO2 SLP179 P0000 T10331067<br><br>
KIAG 111212Z 02003KT 9SM -SN SCT015 BKN022 OVC049 M03/M07 A3000 RMK AO2 P0000 T10281072<br><br>
KIAG 111153Z COR 36007KT 8SM -SN SCT015 BKN020 OVC050 M03/M07 A2999 RMK AO2 SLP173 P0000 60000 T10281072 11011 21028 53022<br><br>
KIAG 111136Z 1112/1212 VRB04KT P6SM SCT015 BKN040 TEMPO 1112/1114 BKN015 FM112300 14006KT P6SM OVC025 FM120100 15008KT 2SM -SN OVC015 FM120900 13006KT 1SM -SN OVC012<br><br>
<br><br>
KBUF 111136Z 1112/1212 VRB04KT P6SM SCT015 BKN040 TEMPO 1112/1114 BKN015 FM112300 15005KT P6SM OVC025 FM120200 17007KT 2SM -SN OVC015 FM120900 15006KT 1SM -SN OVC012<br><br>
<br><br>
TAF CYYZ 111140Z 1112/1218 35010KT P6SM BKN030 TEMPO 1112/1115 P6SM -SN BKN020 FM111600 09008KT P6SM BKN180 FM111900 09008KT 6SM -SN BKN025 OVC080 TEMPO 1119/1202 2SM -SHSN BKN008 OVC020 FM120200 10010KT 1SM -SN BKN008 OVC012 FM120600 10008KT 3/4SM -SN OVC008 FM121100 04012KT 11/2SM -SN OVC012 FM121400 36008KT 21/2SM -SN OVC015 FM121600 33013G23KT 11/2SM -SHSN BKN030 OVC060 RMK NXT FCST BY 111500Z<br><br>
<br><br>
CYOO 111300Z AUTO 35009KT 9SM OVC042 M10/M13 A3002 RMK SLP177<br><br>
CYOO 111200Z AUTO 34006KT 9SM BKN044 M10/M13 A3000 RMK SLP170<br><br>
CYOO has no TAF <br><br>
<br><br>
TAF CYTR 111130Z 1112/1212 36005KT P6SM SKC FM111600 02005KT P6SM BKN200 FM112100 07005KT P6SM OVC100 BECMG 1201/1203 6SM -SN OVC020 FM120400 07010KT 11/2SM -SN OVC012 RMK NXT FCST BY 111800Z<br><br>
<br><br>
