RETRIEVED AT : Sep 18 2017 18:10 Local <br>
  RETRIEVED AT: Sep 18 2017 22:10 UTC<br><br>
CYSN 182200Z VRB02KT 15SM FEW140 BKN250 26/20 A3001 RMK AC2CI5 SLP162 DENSITY ALT 1700FT<br><br>
CYSN 182100Z 21006KT 15SM SCT160 BKN250 27/19 A3002 RMK AC3CI4 SLP165 DENSITY ALT 1700FT<br><br>
TAF CYSN 181938Z 1820/1901 02005KT P6SM BKN100 RMK NXT FCST WILL BE ISSUED AT 191245Z<br><br>
<br><br>
CYHM 182200Z 20005KT 15SM FEW030 BKN240 25/19 A3003 RMK CU1CI5 CU TR CONTRAILS SLP169 DENSITY ALT 2100FT<br><br>
CYHM 182100Z 18008KT 15SM FEW030 FEW200 BKN240 27/19 A3004 RMK CU1CI2CI4 CU TR SLP172 DENSITY ALT 2200FT<br><br>
TAF CYHM 181738Z 1818/1918 VRB03KT P6SM SCT050 BKN150 FM182000 23010KT P6SM -SHRA BKN040 PROB30 1820/1823 VRB15G25KT 2SM TSRA BR BKN020 OVC040CB FM182300 03007KT P6SM SCT040 BKN100 FM190200 VRB03KT 6SM BR SCT002 TEMPO 1902/1906 2SM BR PROB30 1902/1906 1/2SM FG BKN002 FM190600 VRB03KT 1/2SM FG BKN002 FM191100 01005KT 3SM -RA BR BKN005 OVC030 FM191400 05007KT 5SM -RA BR SCT005 BKN015 OVC030 FM191700 04007KT P6SM BKN080 RMK NXT FCST BY 190000Z<br><br>
<br><br>
KIAG 182153Z 21003KT 10SM CLR 28/17 A3003 RMK AO2 SLP163 T02780167<br><br>
KIAG 182053Z 22004KT 10SM CLR 28/18 A3003 RMK AO2 SLP165 T02780178 56007<br><br>
KIAG 182103Z 1821/1918 22004KT P6SM BKN150 FM190400 VRB03KT P6SM BKN080 FM191600 27004KT P6SM BKN050 FM191700 32006KT P6SM BKN045<br><br>
<br><br>
KBUF 182154Z 30003KT 10SM FEW040 SCT070 BKN150 OVC240 27/17 A3004 RMK AO2 SLP169 T02720172<br><br>
KBUF 182054Z 00000KT 10SM FEW040 SCT070 SCT130 BKN170 OVC230 27/18 A3004 RMK AO2 SLP169 T02670178 57008<br><br>
KBUF 182103Z 1821/1918 25005KT P6SM SCT040 BKN150 FM190200 00000KT P6SM BKN070 FM190500 17004KT P6SM BKN050 FM191500 22005KT P6SM BKN030 FM191700 31006KT P6SM SCT030<br><br>
<br><br>
CYYZ 182200Z 15007KT 15SM FEW050TCU SCT130 BKN250 25/18 A3002 RMK TCU1AC2CI3 TCU N- NE SLP165 DENSITY ALT 1800FT<br><br>
CYYZ 182100Z 15008KT 15SM FEW050 SCT150 BKN250 27/19 A3002 RMK CU2AC1CI4 TCU TOP DIST NE SLP166 DENSITY ALT 2000FT<br><br>
TAF CYYZ 182040Z 1821/1924 18007KT P6SM BKN150 PROB30 1821/1823 VRB15G25KT 2SM TSRA BR BKN020 OVC050CB FM182300 36007KT P6SM BKN100 FM190200 36005KT P6SM BKN150 FM190800 02005KT 6SM BR FEW002 BKN050 PROB30 1908/1913 1/2SM FG BKN002 FM191400 02005KT P6SM BKN010 OVC070 FM191700 14007KT P6SM -SHRA BKN030 PROB30 1918/1923 VRB15G25KT 2SM TSRA BR BKN015 OVC030CB RMK NXT FCST BY 190000Z<br><br>
<br><br>
CYOO 182200Z AUTO 12004KT 9SM CLR 25/16 A3003 RMK SLP168 DENSITY ALT 1500FT<br><br>
CYOO 182100Z AUTO 13006KT 9SM CLR 24/17 A3003 RMK SLP171 DENSITY ALT 1500FT<br><br>
CYOO has no TAF <br><br>
<br><br>
CYTR 182200Z 22003KT 15SM FEW180 OVC240 24/20 A3003 RMK AC2CI6 SLP171<br><br>
CYTR 182100Z 23005KT 15SM FEW030 FEW180 OVC240 25/20 A3004 RMK CF1AC2CI6 SLP173<br><br>
TAF CYTR 181730Z 1818/1918 16008KT P6SM SCT260 BECMG 1822/1824 VRB03KT FM190000 VRB03KT P6SM FEW010 SCT040 BKN100 TEMPO 1904/1914 3SM BR BKN010 PROB30 1906/1913 1/2SM FG FM191600 16008KT P6SM SCT030 RMK NXT FCST BY 190000Z<br><br>
<br><br>
