RETRIEVED AT : Jun 22 2020 07:05 Local <br>
  RETRIEVED AT: Jun 22 2020 11:05 UTC<br><br>
CYSN has no TAF <br><br>
<br><br>
TAF AMD CYHM 220631Z 2206/2306 VRB03KT P6SM FEW050 PROB30 2208/2211 1SM BR FM221200 22008KT P6SM BKN050 TEMPO 2215/2220 5SM -SHRA BR FM222200 18006KT P6SM SCT040 PROB30 2305/2306 1SM BR RMK NXT FCST BY 221200Z<br><br>
<br><br>
KIAG 220859Z 2209/2306 21006KT P6SM FEW120 BKN250 FM221200 22006KT P6SM BKN120 FM221800 VRB04KT P6SM VCSH BKN050 FM222300 14004KT P6SM BKN050<br><br>
<br><br>
KBUF 220858Z 2209/2306 20007KT P6SM FEW120 BKN250 FM221300 22007KT P6SM BKN120 FM221700 22005KT P6SM VCSH BKN050 FM222000 18005KT 6SM -SHRA VCTS BKN050CB FM222300 14005KT P6SM BKN050<br><br>
<br><br>
TAF CYYZ 220839Z 2209/2312 19003KT P6SM FEW250 FM221200 24008KT P6SM FEW060 BECMG 2214/2216 16010G20KT BKN060 FM222200 16010G20KT P6SM -SHRA BKN040 PROB30 2222/2301 VRB15G25KT 2SM TSRA BR OVC040CB FM230100 15009KT P6SM BKN040 PROB40 2304/2312 1SM BR OVC002 RMK NXT FCST BY 221200Z<br><br>
<br><br>
TAF CYOO 220738Z 2208/2220 VRB03KT P6SM SKC PROB30 2209/2211 1SM BR FM221100 20007KT P6SM SCT040 TEMPO 2219/2220 4SM SHRA OVC040 RMK FCST BASED ON AUTO OBS. NXT FCST BY 221400Z<br><br>
<br><br>
TAF CYTR 220530Z 2206/2306 VRB03KT P6SM FEW120 BECMG 2214/2216 21008KT SCT060 FM230300 23005KT P6SM BKN040 RMK NXT FCST BY 221200Z<br><br>
<br><br>
