RETRIEVED AT : Nov 05 2017 13:10 Local <br>
  RETRIEVED AT: Nov 05 2017 18:10 UTC<br><br>
CYSN 051800Z 19019KT 12SM OVC020 16/13 A2979 RMK SC8 SLP090 DENSITY ALT 700FT<br><br>
CYSN 051744Z 19018G24KT 10SM -RA OVC022 15/13 A2980 RMK SC8 SLP095 DENSITY ALT 600FT<br><br>
CYSN 051726Z 19019G25KT 10SM BKN026 OVC038 15/13 A2980 RMK SC5SC3 SLP094 DENSITY ALT 600FT<br><br>
CYSN 051700Z 18018G24KT 5SM -RA BR OVC024 14/13 A2980 RMK SC8 SLP095 DENSITY ALT 500FT<br><br>
CYSN 051614Z 18023G32KT 5SM -RA BR SCT023 BKN030 14/13 A2980 RMK SC3SC4 PRESFR SLP095 DENSITY ALT 400FT<br><br>
TAF AMD CYSN 051806Z 0518/0602 19015G25KT P6SM OVC025 TEMPO 0518/0521 5SM -SHRA -DZ BR OVC012 FM052100 19013G27KT 5SM SHRA BR BKN020 OVC150 PROB40 0521/0524 VRB20G35KT 21/2SM +TSRA BR BKN010CB FM060000 21012G25KT 3SM SHRA BR BKN010 OVC070 PROB30 0600/0602 VRB20G35KT 11/2SM +TSRA BR BKN005CB RMK NXT FCST BY 052000Z<br><br>
<br><br>
CYHM 051800Z 20015G25KT 12SM OVC006 15/15 A2977 RMK SC8 PCPN VRY LGT SLP086 DENSITY ALT 1200FT<br><br>
CYHM 051741Z 20016G21KT 15SM -RA OVC006 15/14 A2978 RMK SC8 PCPN VRY LGT SLP090 DENSITY ALT 1100FT<br><br>
CYHM 051700Z 20012G21KT 15SM -RA OVC005 14/13 A2980 RMK SC8 PCPN VRY LGT SLP096 DENSITY ALT 1000FT<br><br>
CYHM 051628Z 19015G24KT 3SM -RA BR OVC005 13/13 A2980 RMK SC8 SLP098 DENSITY ALT 900FT<br><br>
CYHM 051621Z 20019G26KT 2SM -RA BR OVC005 13/13 A2981 RMK FG1SC7 SLP101 DENSITY ALT 900FT<br><br>
TAF CYHM 051751Z 0518/0618 20015G25KT 2SM -RA -DZ BR OVC005 TEMPO 0518/0521 P6SM NSW OVC010 FM052100 21012G22KT 3SM -SHRA BR BKN006 OVC015 PROB40 0521/0524 VRB20G35KT 1SM +TSRA BR BKN004CB FM060000 23010KT 4SM -DZ BR OVC006 FM060400 30010KT 6SM BR SCT006 OVC010 FM061000 31007KT P6SM FEW008 BKN015 FM061200 31009KT P6SM SCT020 FM061500 31009G19KT P6SM FEW025 RMK NXT FCST BY 060000Z<br><br>
<br><br>
KIAG 051753Z 19015G25KT 10SM -RA OVC023 16/12 A2982 RMK AO2 RAB20 SLP101 P0000 60032 T01560117 10156 20122 58014<br><br>
KIAG 051653Z 18014G24KT 10SM OVC028 15/12 A2983 RMK AO2 PK WND 19026/1637 RAE42 SLP106 P0002 T01500117<br><br>
KIAG 051632Z 18014G25KT 3SM -RA BKN028 BKN036 OVC070 14/12 A2983 RMK AO2 PK WND 20026/1612 P0002 T01440117<br><br>
KIAG 051730Z 0518/0618 18015G25KT P6SM VCSH OVC030 FM052200 19014G20KT 2SM +RA VCTS OVC015CB FM060200 20014G20KT 2SM +RA VCTS OVC007CB FM060300 20015KT 4SM -RA BR OVC012 FM060800 29010KT P6SM OVC012<br><br>
<br><br>
KBUF 051754Z 19017G22KT 10SM FEW015 BKN026 OVC060 14/12 A2983 RMK AO2 RAB19E33 SLP104 P0000 60031 T01440117 10144 20111 58016 $<br><br>
KBUF 051733Z 19016G25KT 10SM FEW015 BKN028 OVC075 14/12 A2984 RMK AO2 RAB19E33 P0000 T01440122 $<br><br>
KBUF 051654Z 17017G24KT 10SM SCT030 BKN075 OVC090 13/12 A2984 RMK AO2 PK WND 18031/1631 RAE51 SLP109 P0005 T01330117 $<br><br>
KBUF 051730Z 0518/0618 18016G22KT P6SM VCSH SCT030 OVC070 FM052000 19016G22KT P6SM VCSH OVC025 FM052200 19013KT 2SM +RA VCTS OVC015CB FM060200 19014G20KT 2SM +RA VCTS OVC007CB FM060500 22013KT 4SM -RA BR OVC012 FM061000 30012KT P6SM OVC015<br><br>
<br><br>
CYYZ 051800Z 15003KT 130V220 1 1/2SM R23/5500VP6000FT/D -DZ BR BKN002 OVC006 13/12 A2978 RMK SF5ST3 SLP088 DENSITY ALT 600FT<br><br>
CYYZ 051739Z 16005KT 1 1/2SM R24R/4500VP6000FT/D -DZ BR OVC002 12/12 A2979 RMK ST8 SLP091 DENSITY ALT 600FT<br><br>
CYYZ 051734Z 16005KT 1SM R15L/P6000FT/D R24R/P6000FT/D R23/P6000FT/D SHRA BR OVC002 12/12 A2979 RMK ST8 CVCTV CLD EMBD SLP092 DENSITY ALT 600FT<br><br>
CYYZ 051700Z 16006KT 1 1/2SM -DZ BR OVC002 12/11 A2979 RMK ST8 SLP094<br><br>
TAF CYYZ 051751Z 0518/0624 16005KT 1SM SHRA -DZ BR OVC002 TEMPO 0518/0522 6SM BR OVC006 FM052200 21010G20KT 6SM -SHRA BR SCT010 OVC025 PROB30 0522/0602 VRB20G35KT 11/2SM +TSRA BR BKN006CB FM060200 25008KT 6SM -DZ BR BKN008 OVC020 FM060600 31010KT P6SM BKN025 TEMPO 0606/0618 SCT012 FM061800 33010G20KT P6SM FEW030 FEW260 BECMG 0619/0621 36010KT RMK NXT FCST BY 052100Z<br><br>
<br><br>
CYOO 051808Z AUTO 14003KT 110V170 6SM -RA BR OVC005 12/11 A2979 RMK SLP092<br><br>
CYOO 051800Z AUTO 13003KT 9SM OVC005 11/10 A2980 RMK PCPN 0.5MM PAST HR SLP095<br><br>
CYOO 051759Z AUTO 13003KT 090V170 9SM OVC005 11/10 A2980 RMK PCPN 0.5MM PAST HR SLP095<br><br>
CYOO 051753Z AUTO VRB02KT 6SM -RA BR OVC005 11/10 A2980 RMK SLP096<br><br>
CYOO 051748Z AUTO VRB02KT 3SM -RA BR OVC005 11/10 A2980 RMK SLP097<br><br>
CYOO 051732Z AUTO 11006KT 2 1/2SM -RA BR OVC005 11/10 A2980 RMK VIS VRB 1 1/4-3 SLP097<br><br>
CYOO 051717Z AUTO 11006KT 3SM -RA BR OVC007 11/10 A2981 RMK SLP099<br><br>
CYOO 051700Z AUTO 11007KT 1 1/2SM -RA BR OVC009 11/10 A2982 RMK SLP102<br><br>
CYOO 051649Z AUTO 10007KT 2 1/2SM -RA BR OVC009 11/10 A2982 RMK VIS VRB 1 1/4-3 SLP104<br><br>
CYOO 051645Z AUTO 10008KT 3SM -RA BR OVC009 11/10 A2983 RMK SLP105<br><br>
CYOO has no TAF <br><br>
<br><br>
CYTR 051800Z 19009KT 8SM -RA BKN008 OVC023 12/11 A2984 RMK SF7SC1 SLP106<br><br>
CYTR 051700Z 17007KT 8SM -RA BKN013 OVC047 12/10 A2987 RMK SF6SC2 SLP116<br><br>
CYTR 051652Z AUTO 17007KT 9SM -RA BKN011 OVC020 OVC032 12/ A2988<br><br>
CYTR 051650Z AUTO 18008KT 9SM BKN011 OVC020 OVC032 12/ A2988<br><br>
CYTR 051630Z AUTO 17006KT 9SM -RA OVC011 OVC032 11/ A2989<br><br>
CYTR 051621Z AUTO 15007KT 9SM OVC013 OVC032 12/ A2989<br><br>
TAF CYTR 051730Z 0518/0618 17012KT P6SM -RA SCT006 OVC015 TEMPO 0518/0523 2SM -RA BR OVC006 PROB30 0518/0519 VRB20G30KT 1SM TSRA BR BKN005 OVC040CB FM052300 19012G22KT 3SM -SHRA BR SCT005 OVC010 TEMPO 0523/0604 1SM +SHRA BR OVC005 PROB30 0523/0603 VRB20G35KT 3/4SM +TSRA BR BKN003 OVC030CB FM060400 20012KT 1SM -RA -DZ BR BKN004 OVC010 BECMG 0604/0606 25010KT FM060800 29010G20KT P6SM SCT012 BKN030 TEMPO 0608/0613 BKN012 OVC030 FM061500 29010G20KT P6SM SCT030 RMK NXT FCST BY 060000Z<br><br>
<br><br>
