RETRIEVED AT : Jun 28 2020 03:05 Local <br>
  RETRIEVED AT: Jun 28 2020 07:05 UTC<br><br>
CYSN has no TAF <br><br>
<br><br>
CYHM 280600Z 30004KT 15SM SCT081 19/18 A2973 RMK AC3 LTNG E +SW SLP064 DENSITY ALT 1700FT<br><br>
CYHM 280531Z 30005KT 15SM FEW045 SCT085 20/19 A2973 RMK SC2AC2 LTNG E SLP065 DENSITY ALT 1800FT<br><br>
TAF CYHM 280538Z 2806/2906 28006KT P6SM FEW040 SCT080 FM281100 30006KT P6SM SKC FM281700 05006KT P6SM BKN040 BECMG 2820/2822 12008KT FM290200 02006KT P6SM FEW040 RMK NXT FCST BY 281200Z<br><br>
<br><br>
KIAG 280653Z AUTO 21006KT 10SM BKN075 OVC085 19/19 A2970 RMK AO2 RAE05B27E40 TSE0555 SLP054 P0000 T01940189<br><br>
KIAG 280637Z AUTO 23006KT 7SM -RA FEW047 OVC070 19/19 A2971 RMK AO2 RAE05B27 TSE0555 P0000 T01940189<br><br>
KIAG 280616Z AUTO 21008KT 5SM VCTS BR FEW006 BKN075 OVC090 19/19 A2972 RMK AO2 LTG DSNT S AND SW RAE05 TSE0555 P0000 T01940189<br><br>
KIAG 280601Z AUTO 20006KT 7SM -RA FEW024 BKN049 OVC090 20/19 A2971 RMK AO2 LTG DSNT SW TSE0555 P0000 T02000189<br><br>
KIAG 280553Z AUTO 17007KT 2SM R28R/5500VP6000FT TSRA BR FEW023 BKN036 OVC090 20/19 A2971 RMK AO2 LTG DSNT SW AND W TSB40 SLP056 P0039 60040 T02000189 10228 20194 56003<br><br>
KIAG 280540Z AUTO 21004KT 1 1/2SM R28R/5000VP6000FT +TSRA BR SCT029 BKN060 OVC080 19/18 A2971 RMK AO2 LTG DSNT SW AND W TSB40 P0022 T01940183<br><br>
KIAG 280537Z AUTO 00000KT 1SM R28R/5000VP6000FT +RA BR FEW024 BKN060 OVC080 19/18 A2971 RMK AO2 LTG DSNT SW AND W P0021 T01940183<br><br>
KIAG 280531Z AUTO 36003KT 1 1/4SM R28R/5500VP6000FT VCTS +RA BR SCT031 SCT060 OVC080 20/18 A2971 RMK AO2 LTG DSNT SW AND W P0014 T02000183<br><br>
KIAG 280528Z AUTO 00000KT 2SM R28R/5500VP6000FT VCTS RA BR FEW034 SCT060 OVC080 20/18 A2971 RMK AO2 LTG DSNT SW AND W P0008 T02000183<br><br>
KIAG 280533Z 2806/2906 25007KT 4SM -SHRA VCTS BKN040CB TEMPO 2806/2807 2SM -SHRA BKN030 FM280700 25006KT P6SM BKN080 FM281100 VRB04KT P6SM SCT250 FM281700 31007KT P6SM FEW120 FM282200 29006KT P6SM FEW250<br><br>
<br><br>
KBUF 280654Z 26008KT 9SM -RA SCT007 SCT075 OVC095 19/18 A2971 RMK AO2 TSB18E42 SLP059 TS MOVD SE P0009 T01890183 $<br><br>
KBUF 280643Z 25007KT 8SM -RA FEW007 SCT013 OVC090 19/19 A2972 RMK AO2 LTG DSNT E TSB18E42 TS MOVD SE P0009 T01940189 $<br><br>
KBUF 280634Z 29006KT 6SM -TSRA BR FEW008 BKN016CB OVC090 19/19 A2972 RMK AO2 LTG DSNT E TSB18 OCNL LTGIC VC E-SE TS VC E-SE MOV SE P0007 T01940189 $<br><br>
KBUF 280624Z 26012G20KT 1 1/2SM +TSRA BR FEW003 OVC018CB 20/19 A2972 RMK AO2 LTG DSNT W TSB18 OCNL LTGIC OHD TS OHD MOV SE P0001 T02000189 $<br><br>
KBUF 280618Z 27012KT 4SM -TSRA BR SCT006 OVC020CB 21/19 A2973 RMK AO2 LTG DSNT E AND SW AND W TSB18 OCNL LTGIC W-NW TS W-NW MOV SE P0000 T02060194 $<br><br>
KBUF 280554Z 26007KT 8SM -RA SCT006 BKN012 OVC020 21/19 A2972 RMK AO2 LTG DSNT W AND NW RAB46 SLP063 OCNL LTGIC DSNT W-NW CB DSNT W-NW MOV SE P0000 60000 T02060189 10217 20194 55006 $<br><br>
KBUF 280546Z 27011KT 8SM -RA FEW009 BKN014 OVC024 21/19 A2973 RMK AO2 LTG DSNT W AND NW RAB46 OCNL LTGIC DSNT W-NW CB DSNT W-NW MOV SE P0000 T02060189 $<br><br>
KBUF 280528Z 30011KT 10SM SCT011 BKN019 BKN060 OVC230 20/19 A2973 RMK AO2 LTG DSNT W-NE OCNL LTGIC DSNT W CB DSNT W MOV SE SHRA VC NW-N T02000189<br><br>
KBUF 280658Z 2807/2906 24010KT 6SM -SHRA SCT025 OVC035 FM280800 25006KT P6SM BKN025 FM281200 25005KT P6SM BKN090 FM282100 27008KT P6SM FEW250<br><br>
<br><br>
CYYZ 280600Z 30007KT 15SM FEW180 20/19 A2970 RMK AC1 AC TR SLP055 DENSITY ALT 1600FT<br><br>
TAF CYYZ 280538Z 2806/2912 32006KT P6SM FEW080 BECMG 2810/2812 34012KT FM281700 35012KT P6SM SCT050 TEMPO 2817/2824 BKN050 FM290000 01010KT P6SM FEW050 RMK NXT FCST BY 280900Z<br><br>
<br><br>
CYOO 280654Z AUTO 30005KT 2 1/4SM BR BKN001 OVC033 19/19 A2968 RMK SLP052 DENSITY ALT 1300FT<br><br>
CYOO 280643Z AUTO 30003KT 3SM BR BKN001 OVC031 19/19 A2968 RMK SLP052 DENSITY ALT 1300FT<br><br>
CYOO 280623Z AUTO 27004KT 1/4SM FG BKN001 19/19 A2968 RMK SLP051 DENSITY ALT 1200FT<br><br>
CYOO 280604Z AUTO VRB02KT 2 1/2SM BR FEW001 20/20 A2968 RMK SLP051 DENSITY ALT 1300FT<br><br>
CYOO 280600Z AUTO VRB02KT 3SM BR FEW001 20/20 A2968 RMK SLP051 DENSITY ALT 1300FT<br><br>
CYOO 280526Z AUTO 00000KT 5SM BR OVC032 20/20 A2969 RMK SLP054 DENSITY ALT 1300FT<br><br>
TAF AMD CYOO 280638Z 2806/2814 VRB03KT 1/4SM FG VV001 TEMPO 2806/2812 3SM BR SCT001 FM281200 32006KT P6SM SKC TEMPO 2812/2813 5SM BR RMK FCST BASED ON AUTO OBS. NXT FCST BY 280800Z<br><br>
<br><br>
CYTR 280600Z 00000KT 15SM BKN070 22/19 A2967 RMK AC6 SLP045<br><br>
TAF CYTR 280530Z 2806/2906 VRB03KT P6SM BKN070 FM280800 VRB03KT P6SM FEW005 BKN030 PROB30 2808/2812 1SM BR OVC005 FM281200 VRB03KT P6SM SCT030 FM281600 25008KT P6SM BKN050 TEMPO 2816/2901 6SM -SHRA PROB30 2818/2901 2SM -TSRA BR BKN050CB FM290400 VRB03KT P6SM FEW050 RMK NXT FCST BY 281200Z<br><br>
<br><br>
