RETRIEVED AT : Feb 28 2020 08:05 Local <br>
  RETRIEVED AT: Feb 28 2020 13:05 UTC<br><br>
CYSN 281200Z 24021G32KT 15SM FEW010 BKN043 OVC170 M06/M12 A2972 RMK SC1SC6AC2 SC TR SLP072<br><br>
CYSN has no TAF <br><br>
<br><br>
CYHM 281200Z 24017G26KT 15SM -SN DRSN OVC036 M08/M13 A2971 RMK SC8 PCPN VRY LGT SLP074<br><br>
TAF CYHM 281138Z 2812/2912 25020G30KT P6SM -SHSN OVC030 TEMPO 2812/2815 5SM -SHSN BKN020 FM281500 25018G28KT 5SM -SHSN BLSN BKN020 TEMPO 2815/2818 P6SM NSW OVC030 FM281800 25018G28KT 3SM -SHSN BLSN BKN025 BKN070 FM290000 25018G28KT 11/2SM -SHSN BLSN OVC020 PROB30 2900/2903 3/4SM -SHSN BLSN FM290300 30012KT 21/2SM -SHSN SCT020 BKN030 FM290900 32007KT P6SM BKN040 RMK NXT FCST BY 281800Z<br><br>
<br><br>
KIAG 281253Z 25018G25KT 10SM OVC037 M07/M12 A2973 RMK AO2 PK WND 25030/1208 SLP085 T10671122<br><br>
KIAG 281153Z 25022G31KT 10SM OVC039 M07/M12 A2971 RMK AO2 PK WND 24031/1102 SLP081 T10671122 11067 21072 53002<br><br>
KIAG 281143Z 2812/2912 24022G32KT P6SM OVC040 FM281800 25022G32KT 2SM -SN OVC025 FM290200 27018KT 2SM -SN OVC007 FM291100 29010KT 1SM -SN OVC035<br><br>
<br><br>
KBUF 281254Z 26020G35KT 10SM BKN033 M06/M13 A2973 RMK AO2 PK WND 26038/1204 SLP079 T10611133<br><br>
KBUF 281154Z 25024G32KT 10SM OVC035 M06/M13 A2972 RMK AO2 PK WND 26039/1100 SLP075 4/003 70001 T10611128 11050 21061 50004<br><br>
KBUF 281143Z 2812/2912 25025G37KT P6SM OVC040 FM281700 25022G30KT P6SM VCSH BKN030 FM281900 25022G30KT 2SM -SN SCT007 OVC020 FM290000 25021G29KT 1SM -SN BLSN OVC025 FM290500 27013KT 1 1/2SM -SN OVC035<br><br>
<br><br>
CYYZ 281200Z 25017G24KT 15SM FEW040 BKN190 M06/M11 A2964 RMK SC1AC6 SLP049<br><br>
TAF CYYZ 281138Z 2812/2918 26020G30KT P6SM BKN040 TEMPO 2812/2817 3SM -SHSN BLSN BKN020 BKN040 FM281700 26018G28KT P6SM -SHSN OVC030 TEMPO 2817/2901 11/2SM -SHSN BLSN OVC020 PROB30 2820/2901 1/2SM SHSN BLSN VV005 FM290100 30010G20KT 4SM -SHSN BKN030 OVC060 FM290400 30012KT P6SM SCT030 BKN060 FM290800 31008KT P6SM BKN070 FM291100 02008KT P6SM BKN100 FM291700 31010G20KT P6SM BKN040 RMK NXT FCST BY 281500Z<br><br>
<br><br>
CYOO 281249Z AUTO 25019G25KT 9SM SCT029 BKN035 BKN043 M06/M10 A2962 RMK SLP039<br><br>
CYOO 281206Z AUTO 25017G23KT 9SM -SN OVC034 M06/M10 A2961 RMK SLP036<br><br>
CYOO 281200Z AUTO 25015G20KT 9SM OVC034 M06/M10 A2961 RMK SLP037<br><br>
CYOO 281136Z AUTO 26016G25KT 9SM BKN036 BKN170 M06/M11 A2961 RMK SLP035<br><br>
CYOO 281117Z AUTO 26014G29KT 9SM -SN FEW034 BKN180 M06/M10 A2961 RMK SLP035<br><br>
TAF CYOO 280738Z 2808/2820 26017G27KT 6SM -SHSN OVC030 TEMPO 2808/2816 11/2SM -SHSN BLSN OVC020 PROB30 2808/2810 3/4SM -SHSN BLSN VV006 FM281600 25018G28KT P6SM -SHSN OVC030 TEMPO 2816/2818 11/2SM -SHSN BLSN OVC020 PROB30 2816/2818 1/2SM SHSN BLSN VV005 FM281800 25020G30KT 11/2SM -SHSN BLSN OVC020 PROB40 2818/2820 1/2SM SHSN BLSN VV005 RMK FCST BASED ON AUTO OBS. NXT FCST BY 281400Z<br><br>
<br><br>
CYTR 281200Z 30007KT 3SM -SHSN BKN018 OVC040 M08/M11 A2961 RMK SN2SC5SC2 VIS VRB 2 1/4-4 SLP033<br><br>
TAF CYTR 281130Z 2812/2912 28015G25KT 6SM -SHSN SCT015 BKN030 TEMPO 2812/2816 2SM -SHSN OVC015 PROB30 2814/2816 11/2SM -SHSN FM281600 24015G25KT 3/4SM -SHSN VV008 TEMPO 2816/2822 3SM -SN OVC020 PROB30 2816/2822 1/4SM +SHSN BLSN VV002 FM282200 29010KT P6SM -SHSN BKN030 OVC080 FM290000 29008KT P6SM SCT030 BKN080 RMK NXT FCST BY 281800Z<br><br>
<br><br>
