RETRIEVED AT : May 05 2018 20:05 Local <br>
  RETRIEVED AT: May 06 2018 00:05 UTC<br><br>
CYSN 052300Z 26009G16KT 15SM BKN100 21/07 A2997 RMK AC7 SLP150 DENSITY ALT 1100FT<br><br>
TAF CYSN 051938Z 0520/0601 23015G25KT P6SM FEW050 SCT240 FM052200 24012G22KT P6SM FEW040 BKN080 TEMPO 0522/0601 P6SM -SHRA BECMG 0522/0524 26012KT RMK NXT FCST WILL BE ISSUED AT 061245Z<br><br>
<br><br>
CYHM 052300Z 22008KT 15SM FEW060TCU SCT097 BKN120 BKN250 20/06 A2998 RMK TCU1AC3AC4CI1 TCU TR CI TR SLP156 DENSITY ALT 1500FT<br><br>
TAF CYHM 052339Z 0600/0624 23008KT P6SM SCT070 BKN120 BECMG 0606/0608 VRB03KT FM061800 04008KT P6SM SCT040 BKN070 TEMPO 0618/0623 P6SM -SHRA BKN040 OVC070 FM062300 04010KT 5SM -SHRA BR SCT006 OVC040 PROB30 0623/0624 2SM TSRA BR BKN006 OVC040CB RMK NXT FCST BY 060600Z<br><br>
<br><br>
KIAG 052353Z 23008KT 10SM BKN100 21/03 A2998 RMK AO2 SLP154 T02060028 10244 20206 50000<br><br>
KIAG 052253Z 22013KT 10SM BKN095 22/02 A2999 RMK AO2 SLP155 T02170022<br><br>
KIAG 052340Z 0600/0624 22012KT P6SM BKN080 FM060200 21005KT P6SM BKN080 FM060900 VRB03KT P6SM BKN090 FM061700 35004KT P6SM BKN080 FM061800 03005KT P6SM VCSH SCT040 OVC080<br><br>
<br><br>
KBUF 052354Z 21011KT 10SM BKN100 BKN230 15/06 A3001 RMK AO2 SLP161 T01500061 10206 20150 58002<br><br>
KBUF 052254Z 23008KT 10SM BKN100 OVC230 18/05 A3001 RMK AO2 SLP162 T01780050<br><br>
KBUF 052340Z 0600/0624 22009KT P6SM SCT100 FM060400 VRB04KT P6SM BKN090 FM061700 06005KT P6SM BKN090 FM062100 02008KT P6SM BKN090 FM062300 04009KT P6SM VCSH SCT040 OVC090<br><br>
<br><br>
CYYZ 052300Z 21013G18KT 15SM FEW055 BKN110 20/08 A2996 RMK SC2AC5 SLP148 DENSITY ALT 1300FT<br><br>
CYYZ 052254Z CCA 23010G16KT 15SM FEW055 BKN110 21/07 A2996 RMK SC2AC5 OCNL -SHRA SLP147 DENSITY ALT 1400FT<br><br>
TAF CYYZ 052339Z 0600/0706 21008KT P6SM FEW050 BKN100 TEMPO 0600/0601 P6SM -SHRA BKN050 BKN100 PROB30 0600/0601 VRB15G25KT 3SM TSRA BR BKN040 OVC070CB FM060100 34008KT P6SM SCT080 TEMPO 0601/0612 BKN080 BECMG 0607/0609 VRB03KT FM061200 01005KT P6SM SCT040 SCT070 BECMG 0613/0615 09008KT FM061800 10010KT P6SM BKN050 BKN080 TEMPO 0618/0622 P6SM -SHRA FM062200 34012G22KT 5SM -SHRA BR SCT015 OVC040 FM070200 02010G20KT 6SM -RA -DZ BR SCT010 OVC030 RMK NXT FCST BY 060300Z<br><br>
<br><br>
CYOO 052300Z AUTO 11003KT 9SM SCT110 OVC130 18/11 A2994 RMK LTNG DIST SE SLP144 DENSITY ALT 900FT<br><br>
CYOO has no TAF <br><br>
<br><br>
CYTR 052300Z 21008KT 15SM BKN120 BKN250 15/08 A2994 RMK AC6CI1 SLP141<br><br>
TAF CYTR 052330Z 0600/0624 22008KT P6SM BKN120 BKN250 FM060200 20005KT P6SM FEW060 BKN250 FM061200 04008KT P6SM FEW050 SCT250 FM061800 04008KT P6SM BKN050 BKN250 RMK NXT FCST BY 060600Z<br><br>
<br><br>
