RETRIEVED AT : Mar 15 2020 12:05 Local <br>
  RETRIEVED AT: Mar 15 2020 16:05 UTC<br><br>
CYSN 151500Z 04014G20KT 15SM SKC 01/M08 A3063 RMK SLP379<br><br>
TAF CYSN 151238Z 1513/1601 04012KT P6SM FEW030 FM151800 06015KT P6SM SKC BECMG 1523/1601 08010KT RMK NXT FCST BY 152000Z<br><br>
<br><br>
CYHM 151500Z 04014G20KT 15SM SKC M01/M09 A3062 RMK SLP381<br><br>
TAF CYHM 151138Z 1512/1612 03012KT P6SM FEW030 FM151800 06015KT P6SM SKC BECMG 1523/1601 05010KT RMK NXT FCST BY 151800Z<br><br>
<br><br>
KIAG 151553Z 05010KT 10SM CLR 02/M08 A3062 RMK AO2 SLP382 T00171078<br><br>
KIAG 151453Z 03012KT 10SM CLR 01/M08 A3062 RMK AO2 SLP382 T00111083 51015<br><br>
KIAG 151500Z 1515/1612 04012KT P6SM SKC FM160100 VRB03KT P6SM FEW250 FM160600 10005KT P6SM FEW250<br><br>
<br><br>
KBUF 151554Z 01008KT 10SM CLR 02/M08 A3060 RMK AO2 SLP372 T00221083<br><br>
KBUF 151454Z 04009KT 10SM CLR 01/M08 A3060 RMK AO2 SLP370 T00111083 51014<br><br>
KBUF 151500Z 1515/1612 04010KT P6SM SKC FM160100 08005KT P6SM FEW250<br><br>
<br><br>
CYYZ 151500Z 06012G20KT 15SM SKC M00/M15 A3065 RMK SLP390<br><br>
TAF CYYZ 151438Z 1515/1618 05012KT P6SM SKC FM152000 08011KT P6SM SKC BECMG 1523/1601 11008KT BECMG 1602/1604 06008KT FM160600 05009KT P6SM FEW030 BECMG 1610/1612 11009KT RMK NXT FCST BY 151800Z<br><br>
<br><br>
CYOO 151500Z AUTO 06008KT 360V070 9SM CLR M01/M14 A3066 RMK SLP391<br><br>
TAF CYOO 151338Z 1514/1602 36010KT P6SM SKC BECMG 1514/1515 04008KT BECMG 1518/1520 09005KT RMK FCST BASED ON AUTO OBS. NXT FCST BY 152000Z<br><br>
<br><br>
CYTR 151500Z 05009KT 15SM SKC M01/M15 A3067 RMK SLP390<br><br>
TAF CYTR 151130Z 1512/1612 02008KT P6SM FEW160 RMK NXT FCST BY 151800Z<br><br>
<br><br>
