RETRIEVED AT : Nov 04 2017 16:10 Local <br>
  RETRIEVED AT: Nov 04 2017 20:10 UTC<br><br>
CYSN 042000Z 08015G21KT 15SM FEW025 BKN160 OVC240 09/03 A3018 RMK SC1AC5CI2 SLP225<br><br>
CYSN 041900Z 09015KT 15SM FEW025 BKN160 BKN230 08/02 A3021 RMK SC1AC4CI2 SLP233<br><br>
TAF CYSN 041938Z 0420/0501 09012G22KT P6SM SCT120 BKN160 BKN230 FM050000 09010G20KT P6SM BKN040 BKN120 OVC220 RMK NXT FCST WILL BE ISSUED AT 051245Z<br><br>
<br><br>
CYHM 042000Z 06018G29KT 15SM FEW020 BKN190 07/03 A3015 RMK SC2AC5 SLP218<br><br>
CYHM 041900Z 05020G26KT 15SM SCT020 BKN180 BKN220 08/03 A3017 RMK SC4AC1CS2 SLP227<br><br>
TAF AMD CYHM 041810Z 0418/0518 05015G25KT P6SM SCT012 BKN150 OVC220 TEMPO 0418/0421 BKN012 OVC150 FM050000 07010G20KT P6SM SCT030 BKN140 TEMPO 0500/0502 P6SM -SHRA OVC030 FM050200 07008KT P6SM FEW012 OVC025 TEMPO 0502/0507 3SM -SHRA BR OVC012 PROB30 0504/0507 VRB15G25KT 2SM TSRA BR OVC008CB FM050700 10008KT 21/2SM -SHRA BR OVC008 PROB30 0507/0510 VRB15G25KT 11/2SM TSRA BR OVC005CB FM051000 18012G22KT 21/2SM -SHRA BR OVC008 BECMG 0512/0514 19015G25KT RMK NXT FCST BY 050000Z<br><br>
<br><br>
KIAG 041953Z 08015G22KT 10SM CLR 09/01 A3018 RMK AO2 SLP231 T00890011<br><br>
KIAG 041853Z 08016KT 10SM CLR 09/01 A3021 RMK AO2 SLP241 T00890011<br><br>
KIAG 041732Z 0418/0518 08013KT P6SM BKN150 FM042200 09011KT P6SM BKN100 FM050100 09010KT P6SM VCSH BKN050 FM050500 16008KT P6SM OVC035 WS020/20040KT FM051000 18012KT 4SM SHRA OVC025 WS020/20045KT FM051400 18016G23KT P6SM VCSH OVC025<br><br>
<br><br>
KBUF 041954Z 06015KT 10SM FEW022 BKN150 BKN190 BKN250 08/03 A3018 RMK AO2 SLP224 T00830028<br><br>
KBUF 041854Z 08010KT 10SM FEW022 FEW110 FEW150 SCT190 BKN250 08/03 A3021 RMK AO2 SLP234 T00830028<br><br>
KBUF 041732Z 0418/0518 08013KT P6SM BKN150 FM042200 09012KT P6SM BKN120 FM050100 10009KT P6SM VCSH BKN050 FM050500 14009KT P6SM OVC045 WS020/20040KT FM051000 17014G20KT 4SM SHRA OVC025 WS020/20045KT FM051400 18017G25KT P6SM VCSH OVC025<br><br>
<br><br>
CYYZ 042000Z 08016G21KT 15SM FEW025 FEW090 SCT200 BKN260 06/00 A3022 RMK SC1AC1CI2CI4 AC TR SLP242<br><br>
CYYZ 041900Z 10014G20KT 15SM BKN020 OVC032 07/01 A3025 RMK SC7SC1 SLP251<br><br>
TAF CYYZ 041745Z 0418/0524 07012KT P6SM SCT015 OVC025 TEMPO 0418/0420 BKN015 OVC025 FM042000 09012G22KT P6SM FEW025 SCT120 BKN200 BECMG 0422/0424 09012KT FM050100 09010KT P6SM SCT040 BKN120 TEMPO 0501/0504 P6SM -SHRA BKN040 OVC120 FM050400 09008KT P6SM -SHRA SCT015 OVC030 TEMPO 0504/0506 5SM -SHRA BR OVC015 FM050600 09006KT 4SM -SHRA BR FEW006 OVC015 FM050800 13008KT 11/2SM -SHRA BR BKN003 OVC008 FM051200 19012G22KT 2SM -SHRA BR BKN006 OVC012 FM051700 20010G20KT 4SM -SHRA BR BKN008 OVC015 FM052100 21010G20KT 6SM -SHRA BR SCT008 OVC015 RMK NXT FCST BY 042100Z<br><br>
<br><br>
CYOO 042000Z AUTO 09013KT 9SM FEW026 OVC150 06/M00 A3026 RMK SLP255<br><br>
CYOO 041900Z AUTO 07009KT 9SM SCT028 BKN160 BKN180 06/00 A3029 RMK SLP265<br><br>
CYOO has no TAF <br><br>
<br><br>
CYTR 042000Z 09009KT 15SM FEW025 SCT098 BKN200 OVC250 06/00 A3033 RMK SC1AC3CS2CI2 SLP276<br><br>
CYTR 041900Z 09008KT 15SM FEW025 OVC096 06/01 A3032 RMK SC1AC8 SLP271<br><br>
TAF CYTR 041730Z 0418/0518 07005KT P6SM OVC090 BECMG 0418/0420 07010G20KT FM050300 12012KT P6SM -DZ SCT020 BKN040 FM050600 14012G22KT P6SM -RA BKN020 OVC040 TEMPO 0506/0518 3SM -RA BR OVC010 BECMG 0512/0514 16020G30KT RMK NXT FCST BY 050000Z<br><br>
<br><br>
