RETRIEVED AT : Mar 21 2020 12:05 Local <br>
  RETRIEVED AT: Mar 21 2020 16:05 UTC<br><br>
CYSN 211500Z 02009G16KT 320V050 15SM -SN BKN021 M04/M09 A3057 RMK SC7 -SN INTMT SLP359<br><br>
TAF CYSN 211238Z 2113/2201 35010KT P6SM BKN025 TEMPO 2113/2116 BKN020 FM211600 01010KT P6SM SCT020 TEMPO 2116/2118 BKN020 FM211800 01010KT P6SM SKC RMK NXT FCST BY 212000Z<br><br>
<br><br>
CYHM 211500Z 01008KT 15SM FEW030 M04/M12 A3054 RMK CU1 SLP356<br><br>
TAF CYHM 211138Z 2112/2212 01010KT P6SM FEW030 FM211400 03012KT P6SM SKC FM220200 02008KT P6SM SKC BECMG 2210/2212 06012KT RMK NXT FCST BY 211800Z<br><br>
<br><br>
KIAG 211553Z 03007KT 10SM BKN023 M03/M08 A3054 RMK AO2 UPE00 SLP360 P0000 T10281083<br><br>
KIAG 211542Z 01006KT 10SM SCT023 M03/M09 A3055 RMK AO2 UPE00 P0000 T10331089<br><br>
KIAG 211453Z COR 02006KT 10SM OVC021 M04/M09 A3054 RMK AO2 UPB53SNE28 SLP361 P0000 60000 T10391089 51025<br><br>
KIAG 211404Z 2114/2212 02008KT 6SM -SHSN OVC025 FM211600 36009KT P6SM SCT035 FM211700 36009KT P6SM SKC FM220000 03005KT P6SM SKC<br><br>
<br><br>
KBUF 211554Z VRB03KT 10SM BKN028 M02/M09 A3053 RMK AO2 SLP348 T10171089<br><br>
KBUF 211454Z COR 04007KT 10SM BKN026 M02/M09 A3052 RMK AO2 SLP347 T10221089 51025<br><br>
KBUF 211404Z 2114/2212 02008KT P6SM OVC025 FM211600 36008KT P6SM SCT025 FM211900 35008KT P6SM SKC FM220000 03005KT P6SM SKC<br><br>
<br><br>
CYYZ 211500Z 01007KT 350V060 15SM FEW250 M05/M13 A3056 RMK CI1 CI TR SLP360<br><br>
TAF CYYZ 211439Z 2115/2218 01008G18KT P6SM SKC BECMG 2120/2122 01010KT FM220100 02008KT P6SM SKC FM221400 08012KT P6SM BKN020 BECMG 2215/2217 09015G25KT RMK NXT FCST BY 211800Z<br><br>
<br><br>
CYOO 211500Z AUTO 02010G16KT 340V060 9SM CLR M05/M12 A3057 RMK SLP361<br><br>
TAF CYOO 211343Z 2114/2202 36010G20KT P6SM SKC BECMG 2115/2117 35010KT FM220000 36008KT P6SM SCT170 RMK FCST BASED ON AUTO OBS. NXT FCST BY 212000Z<br><br>
<br><br>
CYTR 211500Z 02010KT 15SM FEW030 M04/M14 A3058 RMK SC1 SLP360<br><br>
TAF CYTR 211130Z 2112/2212 35008KT P6SM SKC FM211700 35008KT P6SM SCT200 BECMG 2204/2206 03005KT RMK NXT FCST BY 211800Z<br><br>
<br><br>
