RETRIEVED AT : May 29 2018 06:07 Local <br>
  RETRIEVED AT: May 29 2018 10:07 UTC<br><br>
CYSN has no TAF <br><br>
<br><br>
TAF CYHM 290538Z 2906/3006 04005KT P6SM SCT250 BECMG 2912/2914 05015KT RMK NXT FCST BY 291200Z<br><br>
<br><br>
KIAG 290901Z 2909/3006 00000KT P6SM SKC FM291100 04005KT P6SM SKC FM291400 06012KT P6SM SKC FM300000 08008KT P6SM SKC<br><br>
<br><br>
KBUF 290954Z 00000KT 10SM FEW100 FEW250 18/17 A3000 RMK AO2 SLP153 T01830167<br><br>
KBUF 290854Z 00000KT 10SM CLR 19/17 A2999 RMK AO2 SLP152 T01890167 53006<br><br>
KBUF 290901Z 2909/3006 00000KT P6SM SKC FM291200 04005KT P6SM SKC FM291500 06012KT P6SM SKC FM300000 07008KT P6SM SKC<br><br>
<br><br>
CYYZ 291000Z 34005KT 15SM FEW260 19/15 A3001 RMK CI1 CI TR SLP161 DENSITY ALT 1100FT<br><br>
CYYZ 290900Z 35006KT 15SM SKC 19/16 A3000 RMK SLP157 DENSITY ALT 1200FT<br><br>
TAF CYYZ 290838Z 2909/3012 35006KT P6SM SKC FM291100 05010KT P6SM FEW030 BECMG 2913/2915 09010G20KT BECMG 2922/2924 08008KT RMK NXT FCST BY 291200Z<br><br>
<br><br>
CYOO 291000Z AUTO 01007KT 9SM CLR 19/15 A3000 RMK SLP158 DENSITY ALT 900FT<br><br>
CYOO 290900Z AUTO 01006KT 9SM CLR 19/15 A2998 RMK SLP152 DENSITY ALT 900FT<br><br>
CYOO has no TAF <br><br>
<br><br>
CYTR 291000Z 02008KT 15SM FEW150 19/15 A2998 RMK AC1 SLP154<br><br>
CYTR 290900Z 03005KT 15SM FEW250 19/15 A2997 RMK CI1 SLP150<br><br>
TAF CYTR 290530Z 2906/3006 VRB03KT 6SM BR FEW060 SCT150 TEMPO 2906/2908 2SM BR BECMG 2906/2908 35006KT FM290800 35006KT P6SM FEW060 BECMG 2910/2912 04010KT RMK NXT FCST BY 291200Z<br><br>
<br><br>
