RETRIEVED AT : May 04 2018 21:07 Local <br>
  RETRIEVED AT: May 05 2018 01:07 UTC<br><br>
CYSN 050100Z 28017G27KT 15SM SCT250 11/06 A2991 RMK CI3 LAST STFD OBS/NEXT 05 1100UTC PRESRR SLP130<br><br>
CYSN 050000Z 28021G35KT 15SM FEW050 BKN250 12/06 A2984 RMK SC1CI5 PRESRR SLP108<br><br>
TAF CYSN 041940Z 0420/0501 23030G45KT P6SM SCT040 TEMPO 0420/0422 P6SM -SHRA BKN020 OVC040 PROB30 0420/0421 VRB35G55KT 2SM +TSRA BR BKN020CB FM042200 27025G40KT P6SM SCT040 BECMG 0423/0501 27020G35KT RMK NXT FCST WILL BE ISSUED AT 051245Z<br><br>
<br><br>
CYHM 050100Z 29011G19KT 15SM FEW250 10/05 A2994 RMK CI2 PRESRR SLP143<br><br>
CYHM 050000Z 29015G37KT 15SM FEW025 BKN250 11/06 A2988 RMK CF1CI5 CF TR PRESRR SLP122<br><br>
TAF CYHM 042342Z 0500/0524 28025G35KT P6SM FEW025 FEW050 BKN240 BECMG 0500/0502 27015G25KT FM050300 27012KT P6SM FEW025 BECMG 0504/0506 22008KT RMK NXT FCST BY 050600Z<br><br>
<br><br>
KIAG 050053Z 29020G28KT 10SM CLR 12/05 A2992 RMK AO2 PK WND 29034/0020 SLP133 T01220050<br><br>
KIAG 042353Z 28026G35KT 10SM CLR 14/05 A2983 RMK AO2 PK WND 27042/2318 SLP104 T01390050 10267 20139 53081<br><br>
KIAG 042336Z 0500/0524 28024G46KT P6SM SCT250 FM050200 27016G26KT P6SM SCT250 FM050500 25009KT P6SM FEW250 FM051300 23011G22KT P6SM FEW250 FM052300 21008KT P6SM SCT080<br><br>
<br><br>
KBUF 050054Z 25009G18KT 10SM FEW040 FEW130 SCT170 BKN280 12/06 A2993 RMK AO2 PK WND 28028/2359 PRESRR SLP138 T01170061<br><br>
KBUF 042354Z 26018G27KT 10SM FEW045 FEW100 SCT180 BKN280 14/06 A2986 RMK AO2 PK WND 27040/2304 SLP111 60000 T01390056 10250 20128 53067<br><br>
KBUF 042336Z 0500/0524 27024G46KT P6SM SCT250 FM050200 27017G24KT P6SM SCT250 FM050500 25009KT P6SM FEW250 FM051300 23010G22KT P6SM FEW250 FM052300 22009KT P6SM SCT250<br><br>
<br><br>
CYYZ 050100Z 30020G26KT 15SM FEW025 FEW030 SCT240 10/05 A2988 RMK CF1SC1CI2 CF TR SLP124<br><br>
CYYZ 050000Z 29034G42KT 15SM FEW025 BKN035 BKN240 10/05 A2982 RMK CU2SC3CI1 PRESRR SLP103<br><br>
TAF CYYZ 042342Z 0500/0606 29030G40KT P6SM BKN030 BKN240 BECMG 0500/0502 29015G25KT SCT030 FM050300 29012G22KT P6SM FEW025 BECMG 0503/0505 27012KT RMK NXT FCST BY 050300Z<br><br>
<br><br>
CYOO 050100Z AUTO 30025G34KT 9SM BKN027 BKN031 09/04 A2985 RMK SLP113<br><br>
CYOO 050029Z AUTO 30027G36KT 9SM OVC027 10/04 A2982 RMK PRESRR SLP101<br><br>
CYOO 050000Z AUTO 30016G30KT 9SM BKN027 OVC033 11/05 A2977 RMK PRESRR SLP085<br><br>
CYOO has no TAF <br><br>
<br><br>
CYTR 050100Z 29025G33KT 15SM BKN024 BKN250 10/04 A2971 RMK SC6CI1 PRESRR SLP062<br><br>
CYTR 050000Z 27040G52KT 15SM BKN029 BKN250 12/05 A2958 RMK SC5CI2 PRESRR SLP018<br><br>
TAF AMD CYTR 050008Z 0500/0524 27025G40KT P6SM FEW020 SCT120 BKN250 TEMPO 0500/0503 27040G55KT BKN020 BKN120 FM050300 29020G30KT P6SM SCT120 BECMG 0503/0505 28015KT BECMG 0506/0508 26008KT FM051500 24012G22KT P6SM FEW060 FM051900 24012G22KT P6SM BKN060 RMK NXT FCST BY 050600Z<br><br>
<br><br>
