RETRIEVED AT : Mar 06 2020 14:05 Local <br>
  RETRIEVED AT: Mar 06 2020 19:05 UTC<br><br>
CYSN 061853Z 01014G19KT 2SM -SN OVC004 01/01 A2996 RMK SN2SC6 SLP149<br><br>
CYSN 061800Z 01014KT 3/4SM -SN OVC003 00/00 A2994 RMK SN6SC2 SLP144<br><br>
CYSN 061736Z 02013KT 1SM -SN OVC004 01/01 A2993 RMK SN3SC5 SLP141<br><br>
TAF AMD CYSN 061820Z 0618/0702 01012G22KT 3/4SM -SNRA BR OVC003 TEMPO 0618/0622 6SM -SN OVC015 FM062200 01018G28KT 4SM -SNRA BR BKN008 OVC015 TEMPO 0622/0702 6SM -RA BR OVC015 BECMG 0700/0702 01015G25KT RMK NXT FCST BY 062000Z<br><br>
<br><br>
CYHM 061800Z 01012KT 5/8SM R12/4500VP6000FT/N -SN VV006 00/M01 A2995 RMK SN8 /S02/ SLP154<br><br>
CYHM 061711Z 36011KT 5/8SM R12/4500FT/N -SN VV004 M00/M01 A2994 RMK SN8 SLP150<br><br>
TAF CYHM 061747Z 0618/0718 36010KT 5/8SM -SN VV004 TEMPO 0618/0620 3SM -SN OVC015 FM062000 01015G25KT 2SM -SN OVC008 TEMPO 0620/0624 6SM -SN OVC030 PROB30 0620/0622 1SM -SN VV005 FM070000 01012G22KT P6SM OVC020 FM070600 01010KT P6SM SCT020 FM071200 36006KT P6SM SKC BECMG 0716/0718 25009KT RMK NXT FCST BY 070000Z<br><br>
<br><br>
KIAG 061859Z 02011KT 1/2SM R28R/3500V6000FT SN FG BKN008 BKN015 OVC024 01/M01 A2993 RMK AO2 CIG 005V011 P0001 T00061011<br><br>
KIAG 061853Z 02014G21KT 3/4SM R28R/3500VP6000FT -SN BR SCT009 BKN015 OVC024 01/M01 A2993 RMK AO2 SLP150 P0000 T00061011<br><br>
KIAG 061848Z 02016G20KT 1SM R28R/4000VP6000FT -SN BR FEW009 BKN015 OVC024 01/M01 A2993 RMK AO2 P0000<br><br>
KIAG 061831Z 03015G21KT 1 3/4SM -SN BR BKN009 OVC024 01/M01 A2992 RMK AO2 P0000 T00111011<br><br>
KIAG 061753Z 03011KT 4SM -SN BKN009 OVC013 02/M01 A2991 RMK AO2 SNB26 SLP141 P0000 60002 T00171011 10017 21006 51019<br><br>
KIAG 061740Z 0618/0718 03008KT P6SM BKN009 OVC013 FM062200 01015G22KT 2SM -SN OVC012 FM070200 01014G23KT 6SM BR OVC020 FM070600 01011G19KT P6SM BKN035 FM071300 34006KT P6SM SCT250<br><br>
<br><br>
KBUF 061854Z 02010KT 9SM -SN SCT008 BKN015 OVC024 02/M01 A2990 RMK AO2 SLP135 P0001 T00221006<br><br>
KBUF 061852Z 02010KT 9SM -SN SCT008 BKN015 OVC024 02/M01 A2990 RMK AO2 P0001<br><br>
KBUF 061810Z 35006KT 5SM -SN BR OVC008 01/M01 A2990 RMK AO2 P0000 T00111006<br><br>
KBUF 061754Z 35006KT 5SM -SN BR FEW005 BKN013 OVC023 01/M01 A2990 RMK AO2 SLP131 P0000 60005 T00111006 10028 20006 51004<br><br>
KBUF 061751Z 34006KT 5SM -SN BR FEW005 BKN013 OVC023 01/M01 A2989 RMK AO2 P0000<br><br>
KBUF 061721Z 35004KT 2 1/2SM -SN BR SCT005 SCT013 OVC023 01/M01 A2989 RMK AO2 VIS OCNLY 3 P0000 T00111006<br><br>
KBUF 061740Z 0618/0718 35004KT 2SM -SN BR SCT005 SCT013 OVC023 TEMPO 0618/0619 1SM -SN OVC005 FM061900 01007KT 2SM -SN OVC012 FM062100 01012G19KT 2SM -SN OVC012 FM070400 01012G19KT P6SM OVC020 FM070800 36008KT P6SM BKN250<br><br>
<br><br>
CYYZ 061847Z 02007KT 10SM -RA SCT014 OVC022 02/00 A2998 RMK SF3SC5 SLP160<br><br>
CYYZ 061812Z 01005G18KT 350V050 4SM R06L/5500VP6000FT/D -RASN SCT008 OVC016 01/01 A2997 RMK SF3SC5 SLP157<br><br>
CYYZ 061800Z 03009G15KT 4SM R06L/5000VP6000FT/U -SN SCT008 OVC018 01/00 A2997 RMK SF3SC5 /S02/ SLP157<br><br>
CYYZ 061746Z 04013KT 1 1/4SM R33L/5500VP6000FT/U R06L/3500VP6000FT/D R05/5000FT/U -SN VV009 01/M00 A2997 RMK SN8 SLP157<br><br>
TAF AMD CYYZ 061830Z 0618/0724 01006KT 4SM -RASN OVC015 TEMPO 0618/0620 11/2SM -SN OVC015 FM062000 01017G27KT 3SM -SN OVC015 TEMPO 0620/0624 6SM -SN PROB30 0620/0622 1SM -SN FM070000 01017G27KT P6SM BKN015 OVC040 BECMG 0701/0703 01012G22KT FM070400 36012KT P6SM SCT030 FM071200 35010KT P6SM SKC BECMG 0716/0718 23009KT RMK NXT FCST BY 062100Z<br><br>
<br><br>
CYOO 061856Z AUTO 02016G21KT 9SM OVC030 03/M02 A2996 RMK SLP154<br><br>
CYOO 061846Z AUTO 02011G19KT 9SM -RA OVC030 03/M03 A2996 RMK SLP154<br><br>
CYOO 061800Z AUTO 02016G23KT 9SM OVC030 03/M02 A2995 RMK SLP150<br><br>
CYOO 061745Z AUTO 03015G23KT 9SM SCT028 OVC036 03/M02 A2995 RMK SLP149<br><br>
TAF AMD CYOO 061724Z 0617/0702 03012G22KT P6SM OVC050 TEMPO 0617/0619 5SM -SN FM061900 01012G22KT P6SM -RASN OVC030 TEMPO 0619/0702 5SM -SN BR OVC015 RMK FCST BASED ON AUTO OBS. NXT FCST BY 062000Z<br><br>
<br><br>
CYTR 061800Z 03016KT 15SM -SHSN BKN022 OVC076 03/M02 A2996 RMK SC6AC2 PCPN VRY LGT SLP148<br><br>
CYTR 061710Z 04017G22KT 15SM BKN022 OVC076 03/M02 A2995 RMK SC5AC3 SLP146<br><br>
TAF CYTR 061730Z 0618/0718 04015G25KT P6SM BKN025 OVC080 TEMPO 0618/0623 5SM -SHRASN BR BKN020 OVC080 BECMG 0618/0620 04018G28KT FM062300 03018G28KT P6SM BKN025 OVC080 BECMG 0702/0704 01015KT FM070500 01012KT P6SM SCT025 FM070800 36008KT P6SM SKC RMK NXT FCST BY 070000Z<br><br>
<br><br>
