RETRIEVED AT : Sep 03 2017 12:10 Local <br>
  RETRIEVED AT: Sep 03 2017 16:10 UTC<br><br>
CYSN 031600Z 28010G15KT 15SM SCT019 BKN097 20/16 A2984 RMK SC4AC3 SLP106 DENSITY ALT 1100FT<br><br>
CYSN 031500Z 25007KT 15SM SCT018 BKN120 BKN160 19/16 A2984 RMK SC4AC2AC1 SLP105 DENSITY ALT 1000FT<br><br>
TAF CYSN 031238Z 0313/0401 24008KT P6SM SCT010 OVC040 TEMPO 0313/0314 P6SM -SHRA BKN010 OVC030 FM031400 26010KT P6SM SCT020 BKN040 TEMPO 0314/0315 OVC020 FM031700 26012G22KT P6SM BKN040 PROB30 0317/0321 3SM TSRA BR BKN030CB BECMG 0322/0324 26010KT RMK NXT FCST BY 032000Z<br><br>
<br><br>
CYHM 031600Z 27010KT 15SM BKN014 BKN019 BKN075 19/15 A2986 RMK CU5SC1AC1 SLP113 DENSITY ALT 1500FT<br><br>
CYHM 031526Z 27008KT 9SM FEW009 SCT018 BKN082 BKN250 17/16 A2986 RMK SC2SC1AC3CI1 SLP114 DENSITY ALT 1300FT<br><br>
CYHM 031500Z 25008KT 8SM BKN008 OVC018 16/15 A2986 RMK SC6SC2 SLP114 DENSITY ALT 1200FT<br><br>
TAF AMD CYHM 031508Z 0315/0412 26010KT P6SM SCT015 BKN100 TEMPO 0315/0317 BKN009 OVC090 FM031700 26012G22KT P6SM BKN040 PROB30 0317/0320 3SM TSRA BR BKN030CB FM032300 28010KT P6SM SCT050 FM040300 22005KT P6SM SKC BECMG 0411/0412 22010KT RMK NXT FCST BY 031800Z<br><br>
<br><br>
KIAG 031553Z 28006KT 10SM SCT019 SCT060 SCT120 20/14 A2985 RMK AO2 SLP107 T02000139<br><br>
KIAG 031453Z 28007KT 10SM SCT011 SCT017 BKN100 18/14 A2985 RMK AO2 SLP107 60006 T01830139 51004<br><br>
KIAG 031413Z 29006KT 10SM SCT009 BKN100 18/14 A2984 RMK AO2 T01780144<br><br>
KIAG 031502Z 0315/0412 28007KT P6SM VCSH SCT011 BKN100 FM032000 27011G18KT P6SM BKN070 FM040800 22007KT P6SM FEW140<br><br>
<br><br>
KBUF 031554Z 29006KT 10SM SCT020 SCT100 BKN150 BKN200 19/13 A2985 RMK AO2 SLP108 T01890133 $<br><br>
KBUF 031454Z 26007KT 10SM SCT010 BKN040 BKN100 BKN150 17/14 A2986 RMK AO2 SLP110 60007 T01720144 53002 $<br><br>
KBUF 031502Z 0315/0412 26007KT P6SM SCT010 BKN040 FM031600 25011G20KT P6SM VCSH OVC035 FM032200 26011G17KT P6SM BKN035 FM032300 26010KT P6SM BKN035 FM040800 22008KT P6SM FEW250<br><br>
<br><br>
CYYZ 031600Z 30011KT 15SM SCT024 BKN090 19/14 A2983 RMK CU3AC4 SLP101 DENSITY ALT 1300FT<br><br>
CYYZ 031500Z 31013KT 15SM FEW052 BKN120 BKN160 18/14 A2983 RMK CU1AC4AC2 SLP101 DENSITY ALT 1200FT<br><br>
TAF CYYZ 031438Z 0315/0418 27010KT P6SM SCT030 BKN100 FM031700 28010G20KT P6SM BKN040 PROB30 0317/0321 VRB15G25KT 3SM TSRA BR OVC020CB FM032300 29015KT P6SM BKN040 FM040200 28008KT P6SM FEW040 BECMG 0408/0410 23008KT BECMG 0414/0416 22012G22KT FM041700 22020G30KT P6SM SCT100 RMK NXT FCST BY 031800Z<br><br>
<br><br>
CYOO 031600Z AUTO 29010G15KT 9SM FEW022 BKN100 BKN120 BKN140 19/13 A2981 RMK SLP096 DENSITY ALT 1000FT<br><br>
CYOO 031500Z AUTO 28009KT 9SM FEW011 BKN110 BKN250 17/14 A2981 RMK SLP096 DENSITY ALT 800FT<br><br>
CYOO 031414Z AUTO 28005KT 9SM SCT029 BKN035 BKN085 16/14 A2981 RMK SLP096 DENSITY ALT 700FT<br><br>
CYOO has no TAF <br><br>
<br><br>
CYTR 031600Z 24009KT 15SM -DZ OVC007 17/16 A2979 RMK SF8 SLP090<br><br>
CYTR 031545Z 27008KT 15SM -DZ BKN006 OVC020 17/16 A2979 RMK SF7SC1 SLP089<br><br>
CYTR 031500Z 25005KT 12SM -RA BKN008 OVC017 16/15 A2980 RMK SF7SC1 SLP092<br><br>
CYTR 031425Z 23006KT 15SM OVC006 16/15 A2981 RMK SF8 SLP094<br><br>
TAF AMD CYTR 031330Z 0313/0412 25006KT 6SM -DZ BR SCT002 OVC006 TEMPO 0313/0316 2SM -RA BR BKN002 OVC006 FM031600 26008KT P6SM SCT008 OVC015 TEMPO 0316/0318 3SM -RA -DZ BR BKN008 OVC015 FM031800 29010KT P6SM SCT015 BKN040 TEMPO 0318/0322 P6SM -SHRA BECMG 0319/0321 29012G22KT FM032300 29008KT P6SM SCT040 FM040500 VRB03KT P6SM FEW020 PROB40 0405/0412 11/2SM BR RMK NXT FCST BY 031800Z<br><br>
<br><br>
