RETRIEVED AT : Mar 22 2020 20:05 Local <br>
  RETRIEVED AT: Mar 23 2020 00:05 UTC<br><br>
CYSN 222300Z 05013KT 15SM FEW070 BKN180 M01/M06 A3049 RMK AC2CI5 SLP332<br><br>
TAF AMD CYSN 222022Z 2220/2301 07012G22KT P6SM SCT150 BKN190 FM230000 07010KT P6SM BKN150 RMK NXT FCST WILL BE ISSUED AT 231245Z<br><br>
<br><br>
CYHM 222300Z 04019G27KT 15SM BKN170 M02/M06 A3046 RMK AC7 SLP329<br><br>
TAF CYHM 222338Z 2300/2324 05015G25KT P6SM BKN160 OVC200 FM230200 05012G22KT P6SM BKN120 OVC180 FM230400 05012KT P6SM OVC070 TEMPO 2305/2307 11/2SM -SN OVC020 PROB30 2305/2307 P6SM -FZRA FM230700 05010KT 3/4SM -SN VV005 TEMPO 2307/2309 2SM -SN OVC008 FM231200 05010KT 3/4SM -SNRA BR OVC003 PROB30 2312/2315 1/8SM -SNRA FG VV001 FM231500 04007KT 3/4SM -RA BR OVC002 PROB30 2323/2324 1/8SM FG VV001 RMK NXT FCST BY 230600Z<br><br>
<br><br>
KIAG 222353Z 06011KT 10SM CLR M01/M07 A3046 RMK AO2 SLP333 T10111072 10033 21011 58013<br><br>
KIAG 222253Z 07013KT 10SM CLR 00/M07 A3047 RMK AO2 SLP338 T00001072<br><br>
KIAG 222328Z 2300/2324 07013KT P6SM BKN200 FM230700 14006KT 3SM -SN OVC015 FM231100 14007KT 4SM -SNRA OVC015 FM231400 17006KT 6SM -RA OVC012 FM232200 VRB03KT P6SM OVC007<br><br>
<br><br>
KBUF 222354Z 06013KT 10SM BKN160 BKN200 01/M08 A3045 RMK AO2 SLP320 T00111078 10044 20011 58013<br><br>
KBUF 222254Z 06013KT 10SM FEW130 SCT160 BKN210 02/M08 A3046 RMK AO2 SLP326 T00221078<br><br>
KBUF 222328Z 2300/2324 06013KT P6SM BKN200 FM230700 15005KT 3SM -SN OVC020 FM230900 13006KT 6SM -RA OVC025 FM231700 19009KT 6SM -RA OVC015 FM232000 23007KT P6SM OVC012<br><br>
<br><br>
CYYZ 222300Z 09014G21KT 15SM SCT180 BKN240 M01/M10 A3051 RMK AC3CI3 SLP344<br><br>
TAF CYYZ 222338Z 2300/2406 09012G22KT P6SM SCT180 BKN240 FM230200 09012KT P6SM BKN120 OVC180 FM230500 09012KT P6SM OVC070 FM230700 09012KT P6SM -SN BKN040 OVC070 TEMPO 2308/2309 2SM -SN OVC040 FM230900 09012KT 1SM -SN VV009 FM231300 09010KT 3/4SM -SNRA BR OVC004 FM231500 09010KT 1SM -RA BR OVC003 FM232100 07008KT 2SM -DZ BR OVC003 FM240200 32008KT 6SM BR FEW003 BKN020 PROB40 2402/2406 VRB03KT 1/8SM FG VV001 RMK NXT FCST BY 230300Z<br><br>
<br><br>
CYOO 222300Z AUTO 10012KT 9SM CLR M01/M10 A3055 RMK SLP353<br><br>
TAF CYOO 221938Z 2220/2308 10012G22KT P6SM SKC BECMG 2223/2301 08012KT FM230600 09012KT P6SM OVC080 TEMPO 2307/2308 P6SM -SN RMK FCST BASED ON AUTO OBS. NXT FCST BY 230200Z<br><br>
<br><br>
CYTR 222300Z 11009KT 15SM SCT200 01/M13 A3059 RMK CI4 SLP364<br><br>
TAF CYTR 222330Z 2300/2324 10008KT P6SM BKN200 FM230500 06008KT P6SM FEW050 OVC120 BECMG 2307/2309 14012G22KT FM230900 14012G22KT 6SM -RA BR SCT012 OVC025 FM231100 14012G22KT 3SM -SNRA BR SCT008 OVC012 FM231600 14012G22KT 2SM -RASN BR OVC008 FM232200 14012KT 2SM -DZ BR OVC006 RMK NXT FCST BY 230600Z<br><br>
<br><br>
