RETRIEVED AT : Sep 02 2018 23:05 Local <br>
  RETRIEVED AT: Sep 03 2018 03:05 UTC<br><br>
CYSN has no TAF <br><br>
<br><br>
CYHM 030200Z 21005KT 15SM SKC 22/21 A3013 RMK SLP203 DENSITY ALT 1600FT<br><br>
TAF CYHM 022338Z 0300/0324 22008KT P6SM FEW030 FM031400 24010KT P6SM BKN050 BECMG 0315/0317 24010G20KT FM031700 24010G20KT P6SM -SHRA SCT015 BKN030 RMK NXT FCST BY 030600Z<br><br>
<br><br>
KIAG 030253Z 20004KT 10SM CLR 23/21 A3015 RMK AO2 SLP205 T02280211 53012<br><br>
KIAG 030153Z 20005KT 6SM BR CLR 23/21 A3013 RMK AO2 SLP198 T02330211<br><br>
KIAG 030244Z 0303/0324 20007KT P6SM FEW250 FM031100 22010KT P6SM SCT250 FM031500 24015G22KT P6SM SCT040 FM031700 24017G26KT P6SM VCSH BKN040 FM032200 24012KT P6SM VCSH BKN040<br><br>
<br><br>
KBUF 030254Z 22004KT 10SM CLR 23/21 A3017 RMK AO2 SLP212 T02330211 53012<br><br>
KBUF 030154Z 19005KT 10SM CLR 23/22 A3015 RMK AO2 SLP204 T02330217<br><br>
KBUF 030244Z 0303/0324 19007KT P6SM FEW250 FM031100 22010KT P6SM SCT250 FM031500 23016G25KT P6SM SCT250 FM032300 24011KT P6SM SCT070<br><br>
<br><br>
CYYZ 030200Z 22005KT 15SM FEW070 26/21 A3011 RMK AC1 AC TR SLP194 DENSITY ALT 1800FT<br><br>
TAF CYYZ 030238Z 0303/0406 23008KT P6SM FEW040 BECMG 0314/0316 25010G20KT FM031700 25010G20KT P6SM -SHRA BKN040 FM032300 36008KT P6SM FEW050 FM040300 01005KT P6SM SCT030 RMK NXT FCST BY 030600Z<br><br>
<br><br>
CYOO 030200Z AUTO 23005KT 9SM CLR 24/22 A3010 RMK SLP194 DENSITY ALT 1400FT<br><br>
CYOO has no TAF <br><br>
<br><br>
CYTR 030200Z 21006KT 15SM SCT054 25/22 A3010 RMK SC4 SLP192<br><br>
TAF CYTR 022330Z 0300/0324 23008KT P6SM FEW020 SCT080 BKN200 FM030600 23006KT P6SM SCT030 BKN080 BECMG 0311/0313 24012G22KT FM031600 25012G22KT P6SM BKN030 OVC060 FM031800 25010G20KT 6SM -SHRA BR OVC030 PROB30 0318/0322 VRB15G25KT 3SM TSRA BR OVC020CB RMK NXT FCST BY 030600Z<br><br>
<br><br>
