RETRIEVED AT : Oct 14 2017 15:10 Local <br>
  RETRIEVED AT: Oct 14 2017 19:10 UTC<br><br>
CYSN 141900Z 34005KT 12SM SCT030 BKN140 20/17 A3012 RMK SC3AC4 SLP203 DENSITY ALT 800FT<br><br>
CYSN 141800Z 34003KT 12SM SCT027 BKN064 BKN230 21/16 A3014 RMK SC3SC3CI1 PRESFR SLP207 DENSITY ALT 900FT<br><br>
TAF CYSN 141238Z 1413/1501 22006KT P6SM BKN030 OVC060 BECMG 1414/1416 30006KT FM141900 34006KT 5SM -SHRA BR BKN015 OVC030 TEMPO 1419/1501 P6SM NSW SCT015 BKN040 OVC120 BECMG 1420/1422 07006KT RMK NXT FCST BY 142000Z<br><br>
<br><br>
CYHM 141900Z 00000KT 12SM SCT008 SCT095 BKN120 19/15 A3013 RMK SC3AC1AC3 SLP206 DENSITY ALT 1200FT<br><br>
CYHM 141800Z VRB02KT 15SM FEW013 SCT055 BKN110 18/16 A3015 RMK CU1SC3AC3 SLP211 DENSITY ALT 1100FT<br><br>
TAF CYHM 141740Z 1418/1518 VRB03KT 5SM -SHRA BR BKN012 OVC025 TEMPO 1418/1424 P6SM NSW SCT012 OVC025 BECMG 1420/1422 07006KT FM150000 07008KT 5SM -SHRA BR BKN040 OVC080 PROB30 1500/1505 11/2SM BR FM150500 12005KT P6SM BKN090 OVC200 BECMG 1507/1509 19008KT FM151100 21015G25KT P6SM BKN020 BECMG 1513/1515 21020G35KT RMK NXT FCST BY 150000Z<br><br>
<br><br>
KIAG 141853Z 13003KT 10SM SCT025 22/14 A3013 RMK AO2 SLP201 T02220144<br><br>
KIAG 141753Z 27003KT 10SM BKN020 OVC027 21/15 A3016 RMK AO2 SLP212 T02110150 10211 20161 58019<br><br>
KIAG 141730Z 1418/1518 VRB04KT P6SM SCT015 OVC070 FM142000 04005KT P6SM OVC040 FM150100 07007KT P6SM OVC035 FM150400 10008KT P6SM BKN060 FM151000 20016G23KT P6SM BKN060 FM151600 21022G34KT P6SM BKN045<br><br>
<br><br>
KBUF 141854Z 34003KT 10SM FEW025 SCT080 BKN130 22/15 A3013 RMK AO2 SLP202 T02170150<br><br>
KBUF 141754Z 28007KT 10SM FEW025 BKN070 BKN090 20/14 A3017 RMK AO2 SLP215 T02000144 10206 20133 58018<br><br>
KBUF 141730Z 1418/1518 24005KT P6SM BKN070 FM142100 07006KT P6SM BKN045 FM150200 09006KT P6SM BKN060 FM150500 15007KT P6SM SCT060 FM150800 19012G18KT P6SM SCT080 FM151600 21022G34KT P6SM BKN045<br><br>
<br><br>
CYYZ 141900Z 03005KT 15SM BKN020 OVC120 18/14 A3013 RMK SC7AC1 SLP207 DENSITY ALT 900FT<br><br>
CYYZ 141800Z 35002KT 15SM BKN022 OVC032 18/14 A3015 RMK SC7SC1 SLP213 DENSITY ALT 800FT<br><br>
TAF CYYZ 141740Z 1418/1524 VRB03KT P6SM SCT012 OVC030 TEMPO 1418/1420 5SM -SHRA BR BKN012 OVC025 FM142000 09007KT 3SM -SHRA BR BKN008 OVC015 TEMPO 1420/1424 6SM -SHRA BR SCT008 OVC015 PROB30 1501/1505 2SM -DZ BR BKN003 OVC008 FM150500 10005KT P6SM SCT005 BKN070 OVC120 TEMPO 1505/1507 5SM -RA -DZ BR BKN004 OVC070 FM150800 15005KT 6SM BR BKN040 OVC100 FM151100 19010KT WS005/21030KT P6SM BKN015 OVC025 FM151400 22020G35KT P6SM OVC020 FM151800 22025G40KT P6SM -SHRA OVC025 PROB30 1518/1521 VRB30G50KT 2SM +TSRA BR OVC020CB FM152100 25025G40KT P6SM BKN025 RMK NXT FCST BY 142100Z<br><br>
<br><br>
CYOO 141900Z AUTO 33003KT 9SM FEW017 SCT025 OVC140 18/15 A3014 RMK SLP210 DENSITY ALT 600FT<br><br>
CYOO 141851Z AUTO 33003KT 320V040 9SM SCT017 BKN025 BKN140 18/15 A3014 RMK SLP209 DENSITY ALT 600FT<br><br>
CYOO 141833Z AUTO VRB02KT 9SM SCT017 BKN023 BKN170 19/15 A3014 RMK SLP208 DENSITY ALT 700FT<br><br>
CYOO 141832Z AUTO VRB02KT 9SM SCT017 BKN025 BKN170 19/15 A3014 RMK SLP208 DENSITY ALT 700FT<br><br>
CYOO 141827Z AUTO VRB02KT 9SM BKN017 BKN170 19/15 A3014 RMK SLP210 DENSITY ALT 700FT<br><br>
CYOO 141800Z AUTO VRB02KT 9SM FEW031 BKN180 BKN210 18/14 A3014 RMK SLP210 DENSITY ALT 600FT<br><br>
CYOO has no TAF <br><br>
<br><br>
CYTR 141900Z 20005KT 15SM SCT012 BKN044 OVC080 18/16 A3014 RMK SC3SC3AC2 SLP206<br><br>
CYTR 141800Z 20004KT 15SM SCT012 OVC042 18/16 A3016 RMK SC3SC5 SLP213<br><br>
TAF CYTR 141730Z 1418/1518 22008KT P6SM SCT012 OVC040 TEMPO 1418/1422 P6SM -SHRA OVC012 FM142200 VRB03KT P6SM -RA SCT008 OVC020 TEMPO 1422/1509 4SM -RA BR OVC008 BECMG 1500/1502 12008KT FM150900 18012KT P6SM BKN030 BECMG 1513/1515 22020G30KT RMK NXT FCST BY 150000Z<br><br>
<br><br>
