RETRIEVED AT : Jun 19 2020 07:05 Local <br>
  RETRIEVED AT: Jun 19 2020 11:05 UTC<br><br>
CYSN has no TAF <br><br>
<br><br>
TAF CYHM 190543Z 1906/2006 VRB03KT P6SM FEW060 SCT240 BECMG 1911/1912 22008KT FM191500 20008KT P6SM BKN060 FM200100 VRB03KT P6SM SCT070 FM200500 25006KT P6SM FEW080 RMK NXT FCST BY 191200Z<br><br>
<br><br>
KIAG 190909Z 1909/2006 21006KT P6SM BKN070 FM191200 20008KT P6SM FEW070 SCT250 FM192000 24004KT P6SM BKN050<br><br>
<br><br>
KBUF 190908Z 1909/2006 19008KT P6SM BKN070 FM191200 20008KT P6SM SCT070 SCT250 FM191500 23008KT P6SM SCT050 SCT250 FM192000 22006KT P6SM VCSH BKN050 FM200000 VRB03KT P6SM SCT050<br><br>
<br><br>
TAF CYYZ 190838Z 1909/2012 VRB03KT P6SM FEW100 FEW250 FM191100 13005KT P6SM SCT060 BECMG 1914/1916 15012KT BECMG 1923/2001 30006KT FM200500 VRB03KT P6SM SKC PROB30 2009/2012 2SM BR RMK NXT FCST BY 191200Z<br><br>
<br><br>
TAF CYOO 190738Z 1908/1920 08005KT P6SM FEW250 FM191000 VRB03KT P6SM SCT050 BECMG 1914/1916 20010KT RMK FCST BASED ON AUTO OBS. NXT FCST BY 191400Z<br><br>
<br><br>
TAF CYTR 190530Z 1906/2006 VRB03KT P6SM FEW250 BECMG 1912/1914 21010KT BECMG 2000/2002 VRB03KT FM200500 VRB03KT P6SM BKN060 RMK NXT FCST BY 191200Z<br><br>
<br><br>
