RETRIEVED AT : May 11 2018 13:05 Local <br>
  RETRIEVED AT: May 11 2018 17:05 UTC<br><br>
CYSN 111600Z 05006KT 350V070 15SM SCT120 OVC250 08/M03 A3019 RMK AC3CI5 SLP227<br><br>
TAF CYSN 111238Z 1113/1201 03012KT P6SM BKN030 BECMG 1114/1116 SCT030 FM112000 04006KT P6SM BKN180 RMK NXT FCST BY 112000Z<br><br>
<br><br>
CYHM 111600Z 04008KT 350V070 15SM FEW150 BKN230 09/M01 A3018 RMK AC1CI6 SLP227<br><br>
TAF CYHM 111138Z 1112/1212 03010KT P6SM BKN030 BKN180 FM111500 05010KT P6SM FEW030 SCT180 FM112000 06010KT P6SM BKN150 FM120500 06008KT P6SM -SHRA OVC050 FM120800 05010KT P6SM -RA OVC030 FM121100 04012KT 11/2SM -RA BR SCT004 OVC008 RMK NXT FCST BY 111800Z<br><br>
<br><br>
KIAG 111653Z 02005KT 10SM CLR 11/M01 A3019 RMK AO2 SLP229 T01111011<br><br>
KIAG 111553Z VRB06KT 10SM CLR 11/M01 A3018 RMK AO2 SLP225 T01111011<br><br>
KIAG 111523Z 1115/1212 05005KT P6SM BKN200 FM111600 04005KT P6SM BKN200 FM120200 00000KT P6SM VCSH OVC070 FM120400 08005KT 6SM -RA OVC050 FM121100 05007KT 6SM -RA OVC025<br><br>
<br><br>
KBUF 111654Z 25003KT 10SM FEW120 BKN200 13/00 A3018 RMK AO2 SLP222 T01280000<br><br>
KBUF 111554Z VRB03KT 10SM FEW035 BKN200 12/M01 A3018 RMK AO2 SLP220 T01221006<br><br>
KBUF 111523Z 1115/1212 08004KT P6SM SCT035 BKN200 FM111800 36006KT P6SM SCT150 FM112300 VRB03KT P6SM OVC100 FM120200 VRB03KT P6SM VCSH OVC070 FM120400 11004KT 6SM -RA OVC050 FM121100 07008KT 6SM -RA OVC025<br><br>
<br><br>
CYYZ 111600Z VRB05KT 15SM SCT170 BKN230 10/M04 A3018 RMK AC3CI3 SLP225<br><br>
TAF CYYZ 111438Z 1115/1218 03007KT P6SM SCT240 BECMG 1118/1120 15008KT BKN150 FM120400 06005KT P6SM OVC080 FM120800 09005KT P6SM -SHRA OVC050 FM121100 05010KT P6SM -RA OVC030 FM121400 05012KT P6SM -SHRA BKN015 OVC025 FM121700 06012KT P6SM FEW015 SCT050 RMK NXT FCST BY 111800Z<br><br>
<br><br>
CYOO 111600Z AUTO VRB07KT 9SM CLR 10/M06 A3018 RMK SLP224<br><br>
CYOO has no TAF <br><br>
<br><br>
CYTR 111600Z 01006KT 15SM BKN250 10/M02 A3017 RMK CI5 SLP219<br><br>
TAF CYTR 111130Z 1112/1212 01010KT P6SM FEW040 BKN250 BECMG 1115/1117 22010KT FM120100 VRB03KT P6SM BKN180 FM120900 VRB03KT P6SM BKN120 RMK NXT FCST BY 111800Z<br><br>
<br><br>
