RETRIEVED AT : Apr 05 2020 21:05 Local <br>
  RETRIEVED AT: Apr 06 2020 01:05 UTC<br><br>
CYSN 060000Z 11003KT 15SM SKC 07/01 A3010 RMK SLP198<br><br>
TAF CYSN 051938Z 0520/0601 34008KT P6SM FEW030 BECMG 0522/0524 02006KT RMK NXT FCST WILL BE ISSUED AT 061245Z<br><br>
<br><br>
CYHM 060000Z 30004KT 15SM FEW035 FEW250 08/00 A3010 RMK SC1CI1 SC TR CI TR SLP200<br><br>
TAF CYHM 052340Z 0600/0624 30007KT P6SM FEW040 FM060400 VRB03KT P6SM SKC BECMG 0614/0616 23007KT FM062000 23008KT P6SM BKN100 OVC200 RMK NXT FCST BY 060600Z<br><br>
<br><br>
KIAG 060053Z 00000KT 10SM CLR 07/00 A3012 RMK AO2 SLP207 T00670000<br><br>
KIAG 052353Z 01004KT 10SM CLR 07/01 A3010 RMK AO2 SLP202 T00670006 10100 20067 51009<br><br>
KIAG 052329Z 0600/0624 34006KT P6SM SCT250 FM060400 VRB03KT P6SM SKC FM061500 26006KT P6SM SCT250<br><br>
<br><br>
KBUF 060054Z 25006KT 10SM FEW200 06/02 A3012 RMK AO2 SLP205 T00610017<br><br>
KBUF 052354Z 24006KT 10SM FEW120 SCT200 07/02 A3010 RMK AO2 SLP199 T00670022 10117 20067 51012<br><br>
KBUF 052329Z 0600/0624 25008KT P6SM BKN200 FM060200 30006KT P6SM SCT250 FM060600 VRB03KT P6SM SKC FM061500 24006KT P6SM FEW250<br><br>
<br><br>
CYYZ 060000Z 03009KT 15SM FEW035 07/M01 A3010 RMK CU1 CU TR SLP200<br><br>
TAF CYYZ 052340Z 0600/0706 02009KT P6SM FEW040 FEW200 FM060500 36008KT P6SM SKC BECMG 0609/0611 32008KT FM061600 15010KT P6SM SCT150 FM062100 15010KT P6SM BKN100 OVC200 BECMG 0701/0703 03006KT RMK NXT FCST BY 060300Z<br><br>
<br><br>
CYOO 060000Z AUTO 31006KT 9SM CLR 06/00 A3010 RMK SLP199<br><br>
TAF CYOO 051938Z 0520/0608 33015KT P6SM FEW030 BECMG 0600/0602 34008KT RMK FCST BASED ON AUTO OBS. NXT FCST BY 060200Z<br><br>
<br><br>
CYTR 060000Z AUTO 28007KT 9SM CLR 09/01 A3006 RMK SLP182<br><br>
TAF CYTR 052330Z 0600/0624 30008KT P6SM SKC BECMG 0608/0610 VRB03KT BECMG 0616/0618 21010KT FM062000 21010KT P6SM FEW120 BKN200 FM062300 24005KT P6SM BKN080 RMK NXT FCST BY 060600Z<br><br>
<br><br>
