RETRIEVED AT : Feb 24 2020 04:05 Local <br>
  RETRIEVED AT: Feb 24 2020 09:05 UTC<br><br>
CYSN has no TAF <br><br>
<br><br>
CYHM 240800Z 21009KT 15SM SKC 02/M02 A2986 RMK SLP119<br><br>
TAF CYHM 240538Z 2406/2506 22010G20KT P6SM SKC BECMG 2406/2408 22010KT FM241100 23008KT P6SM SCT015 FM242300 VRB03KT P6SM SCT030 OVC130 RMK NXT FCST BY 241200Z<br><br>
<br><br>
KIAG 240853Z AUTO 23015KT 10SM CLR 04/M03 A2988 RMK AO2 SLP127 T00391033 58007<br><br>
KIAG 240753Z AUTO 23014KT 10SM CLR 04/M04 A2988 RMK AO2 SLP129 T00441039<br><br>
KIAG 240852Z 2409/2506 22015KT P6SM SKC FM241400 22011G18KT P6SM SCT250 FM242000 25006KT P6SM BKN090 FM250300 05005KT P6SM OVC040<br><br>
<br><br>
KBUF 240854Z 23014G23KT 10SM CLR 06/M04 A2989 RMK AO2 SLP127 T00611044 58006<br><br>
KBUF 240754Z 23016G23KT 10SM CLR 07/M05 A2989 RMK AO2 SLP126 T00671050<br><br>
KBUF 240852Z 2409/2506 21012G22KT P6SM SKC FM241100 22014KT P6SM FEW250 FM241400 22012G18KT P6SM FEW250 FM242000 25007KT P6SM BKN090 FM250200 05004KT P6SM OVC040<br><br>
<br><br>
CYYZ 240800Z 20008KT 15SM SKC 02/M02 A2984 RMK SLP112<br><br>
TAF CYYZ 240838Z 2409/2512 21008KT P6SM FEW020 FM241800 27008KT P6SM FEW030 BECMG 2421/2423 VRB03KT FM250000 02007KT P6SM FEW030 BKN150 FM251000 03010KT P6SM BKN030 OVC090 RMK NXT FCST BY 241200Z<br><br>
<br><br>
CYOO 240800Z AUTO 04003KT 9SM CLR M03/M04 A2984 RMK SLP111<br><br>
TAF CYOO 240738Z 2408/2420 22005KT P6SM SKC BECMG 2414/2416 24008KT RMK FCST BASED ON AUTO OBS. NXT FCST BY 241400Z<br><br>
<br><br>
CYTR 240800Z 22008KT 15SM SKC 04/M02 A2986 RMK SLP116<br><br>
TAF CYTR 240530Z 2406/2506 VRB03KT P6SM SKC FM241200 25010KT P6SM SCT020 TEMPO 2412/2415 BKN020 BECMG 2415/2417 24010G20KT FM241800 24010KT P6SM FEW030 BKN210 BECMG 2500/2502 VRB03KT RMK NXT FCST BY 241200Z<br><br>
<br><br>
