RETRIEVED AT : Jun 02 2018 07:09 Local <br>
  RETRIEVED AT: Jun 02 2018 11:09 UTC<br><br>
CYSN 021100Z 04010KT 15SM OVC024 15/12 A2995 RMK SC8 SLP143 DENSITY ALT 400FT<br><br>
CYSN has no TAF <br><br>
<br><br>
TAF CYHM 020538Z 0206/0306 01007KT P6SM FEW020 TEMPO 0206/0210 BKN020 FM021000 03010G20KT P6SM BKN030 TEMPO 0210/0215 BKN020 FM022100 06010G20KT P6SM SCT050 FM030500 06015KT P6SM FEW050 RMK NXT FCST BY 021200Z<br><br>
<br><br>
KIAG 020903Z 0209/0306 03011KT P6SM OVC021 FM021200 04010KT P6SM BKN025 FM021500 04009KT P6SM SCT030 FM021700 05009KT P6SM FEW250 FM030000 08005KT P6SM SKC<br><br>
<br><br>
KBUF 021054Z 04009KT 10SM FEW015 OVC020 16/12 A2993 RMK AO2 SLP134 T01560117<br><br>
KBUF 020954Z 02010KT 10SM FEW012 OVC016 16/13 A2991 RMK AO2 SLP125 T01610133<br><br>
KBUF 020903Z 0209/0306 02008KT P6SM OVC018 FM021600 04009KT P6SM SCT025 FM021800 05009KT P6SM FEW250 FM030400 VRB03KT P6SM FEW250<br><br>
<br><br>
CYYZ 021100Z 36013KT 15SM BKN017 BKN024 14/10 A2998 RMK SC5SC2 PRESRR SLP152 DENSITY ALT 600FT<br><br>
CYYZ 021000Z 36009G18KT 15SM FEW018 BKN025 15/11 A2995 RMK SC2SC5 SLP141 DENSITY ALT 700FT<br><br>
TAF CYYZ 020838Z 0209/0312 36010G20KT P6SM SCT015 BKN030 TEMPO 0209/0215 BKN015 BECMG 0213/0215 04010KT FM022000 08007KT P6SM SCT050 BECMG 0223/0301 13007KT FM030600 09010KT P6SM SKC FM030900 08015KT P6SM BKN050 RMK NXT FCST BY 021200Z<br><br>
<br><br>
CYOO has no TAF <br><br>
<br><br>
CYTR 021100Z 02010KT 15SM BKN017 13/09 A2995 RMK SC7 SLP143<br><br>
CYTR 021000Z 01012G17KT 15SM BKN050 13/08 A2992 RMK SC5 SLP134<br><br>
TAF AMD CYTR 021104Z 0211/0306 02010KT P6SM SCT015 BKN050 TEMPO 0211/0214 BKN015 BKN050 FM021400 03012KT P6SM SCT030 FM022000 04012KT P6SM SKC BECMG 0304/0306 07012KT RMK NXT FCST BY 021200Z<br><br>
<br><br>
