RETRIEVED AT : May 16 2020 20:05 Local <br>
  RETRIEVED AT: May 17 2020 00:05 UTC<br><br>
CYSN 162300Z 06008KT 15SM BKN250 16/08 A3017 RMK CI5 SLP220<br><br>
TAF CYSN 161938Z 1620/1701 02006KT P6SM FEW030 RMK NXT FCST WILL BE ISSUED AT 171245Z<br><br>
<br><br>
CYHM 162300Z 09008KT 15SM FEW030 BKN260 16/09 A3018 RMK CU1CI6 SLP225 DENSITY ALT 900FT<br><br>
TAF CYHM 162338Z 1700/1724 09008KT P6SM FEW030 BKN250 FM170300 06008KT P6SM SKC FM171000 06012KT P6SM SCT040 BKN200 FM171600 05015G25KT P6SM SCT040 BKN140 FM171800 05015G25KT P6SM -RA SCT020 BKN040 OVC080 TEMPO 1718/1721 5SM -RA BR BKN020 OVC040 FM172100 05015G25KT 2SM -RA BR OVC006 RMK NXT FCST BY 170600Z<br><br>
<br><br>
KIAG 162353Z 05007KT 10SM CLR 16/08 A3019 RMK AO2 SLP229 T01560083 10189 20156 53007<br><br>
KIAG 162253Z 05004KT 10SM CLR 17/07 A3018 RMK AO2 SLP225 T01720067<br><br>
KIAG 162320Z 1700/1724 05005KT P6SM SCT250 FM171400 09014G22KT P6SM OVC100 FM172100 07016G24KT 6SM -SHRA OVC025<br><br>
<br><br>
KBUF 162354Z 03008KT 10SM FEW180 BKN240 17/07 A3019 RMK AO2 SLP226 T01670072 10194 20167 53008<br><br>
KBUF 162254Z 01005KT 10SM FEW045 SCT180 BKN240 18/07 A3018 RMK AO2 SLP221 T01780072<br><br>
KBUF 162320Z 1700/1724 05005KT P6SM SCT250 FM171400 09012G20KT P6SM OVC100 FM172000 07012G20KT 6SM -SHRA OVC025<br><br>
<br><br>
CYYZ 162300Z 15009KT 15SM FEW050 BKN260 14/07 A3019 RMK SC1CI4 SLP228<br><br>
TAF CYYZ 162338Z 1700/1806 15010KT P6SM FEW050 BKN250 BECMG 1701/1703 06007KT FM170900 08008KT P6SM SCT050 BKN220 FM171200 09012KT P6SM SCT050 OVC150 BECMG 1717/1719 09012G22KT FM172100 09012G22KT P6SM -RA BKN030 OVC070 TEMPO 1721/1803 3SM -RA BR BKN012 OVC030 FM180300 09012KT 2SM -RA BR OVC008 RMK NXT FCST BY 170300Z<br><br>
<br><br>
CYOO 162300Z AUTO 15004KT 100V180 9SM CLR 13/07 A3020 RMK SLP232<br><br>
TAF CYOO 161938Z 1620/1708 20008KT P6SM FEW050 TEMPO 1620/1701 BKN050 BECMG 1622/1624 12005KT FM170100 VRB03KT P6SM FEW050 FM170600 05007KT P6SM FEW040 SCT240 RMK FCST BASED ON AUTO OBS. NXT FCST BY 170200Z<br><br>
<br><br>
CYTR 162300Z 21007KT 15SM FEW040 SCT250 13/06 A3022 RMK SC1CI3 SLP236<br><br>
TAF CYTR 162330Z 1700/1724 22008KT P6SM FEW040 BECMG 1700/1702 VRB03KT BECMG 1706/1708 04008KT FM171200 05010KT P6SM BKN200 BECMG 1716/1718 09010KT OVC150 FM172200 06008KT P6SM SCT060 OVC100 TEMPO 1722/1724 P6SM -RA BKN060 OVC100 RMK NXT FCST BY 170600Z<br><br>
<br><br>
