RETRIEVED AT : Mar 20 2020 17:05 Local <br>
  RETRIEVED AT: Mar 20 2020 21:05 UTC<br><br>
CYSN 202000Z 29023G30KT 15SM SCT029 OVC200 08/03 A2986 RMK SC4CI4 PRESRR SLP113<br><br>
TAF CYSN 201938Z 2020/2101 30020G30KT P6SM SCT030 TEMPO 2020/2101 BKN030 BECMG 2022/2024 29015G25KT RMK NXT FCST WILL BE ISSUED AT 211245Z<br><br>
<br><br>
CYHM 202000Z 28020G32KT 15SM OVC018 05/01 A2988 RMK SC8 PRESRR SLP123<br><br>
TAF CYHM 201739Z 2018/2118 28025G40KT P6SM OVC015 TEMPO 2018/2021 SCT015 OVC025 FM202100 29022G32KT P6SM BKN030 TEMPO 2021/2024 BKN020 BECMG 2022/2024 30015G25KT FM210000 30015G25KT P6SM SCT030 BECMG 2104/2106 36008KT FM211000 03010KT P6SM SCT020 FM211200 04010KT P6SM SKC RMK NXT FCST BY 210000Z<br><br>
<br><br>
KIAG 202053Z 29020G27KT 10SM OVC030 07/02 A2992 RMK AO2 PK WND 29031/2015 SLP135 T00670017 53067<br><br>
KIAG 201953Z 30022G31KT 10SM BKN024 BKN030 09/03 A2985 RMK AO2 PK WND 29037/1854 PRESRR SLP112 T00890033<br><br>
KIAG 201928Z 31017G26KT 10SM BKN024 BKN030 10/05 A2981 RMK AO2 PK WND 29037/1854 PRESRR T01000050<br><br>
KIAG 201737Z 2018/2118 25027G45KT P6SM BKN050 FM202000 27023G35KT P6SM BKN025 FM210300 31016G24KT P6SM BKN035 FM210900 34010G16KT P6SM BKN080<br><br>
<br><br>
KBUF 202054Z 30015KT 10SM SCT029 OVC036 09/03 A2990 RMK AO2 PK WND 28029/2015 SLP127 OCNL BINOVC T00890033 53061<br><br>
KBUF 202012Z 28016G25KT 10SM BKN030 OVC037 11/04 A2986 RMK AO2 T01110044<br><br>
KBUF 202001Z 27019G25KT 10SM OVC028 11/05 A2985 RMK AO2 T01110050<br><br>
KBUF 201954Z 28016G27KT 10SM FEW029 BKN048 BKN060 11/05 A2984 RMK AO2 PK WND 27033/1858 SLP106 T01110050<br><br>
KBUF 201737Z 2018/2118 25030G49KT P6SM BKN050 FM202000 27024G35KT P6SM OVC025 FM210200 30016G24KT P6SM BKN025 FM210400 31013G21KT P6SM BKN035 FM211600 36007KT P6SM FEW250<br><br>
<br><br>
CYYZ 202000Z 31029G38KT 15SM BKN025 BKN110 05/00 A2984 RMK SC7AC1 AC TR SLP111<br><br>
TAF CYYZ 202038Z 2021/2124 30025G35KT P6SM SCT020 BKN100 TEMPO 2021/2102 BKN020 OVC100 BECMG 2022/2024 31018G28KT FM210200 33015G25KT P6SM BKN025 FM210600 35015G25KT P6SM SCT025 FM210900 01012G22KT P6SM SKC BECMG 2112/2114 01012KT FM211800 01012KT P6SM SCT200 RMK NXT FCST BY 210000Z<br><br>
<br><br>
CYOO 202059Z AUTO 30016G24KT 9SM BKN024 OVC034 06/02 A2986 RMK PRESRR SLP118<br><br>
CYOO 202000Z AUTO 30016G28KT 9SM BKN026 OVC035 07/02 A2980 RMK PRESRR SLP095<br><br>
TAF CYOO 201939Z 2020/2108 30025G35KT P6SM BKN030 FM210000 30018G28KT P6SM BKN025 FM210400 34012G22KT P6SM FEW030 RMK FCST BASED ON AUTO OBS. NXT FCST BY 210200Z<br><br>
<br><br>
CYTR 202000Z 29026G38KT 15SM BKN030 09/03 A2971 RMK SC7 SLP062<br><br>
TAF CYTR 201730Z 2018/2118 24018G28KT P6SM SCT012 OVC025 TEMPO 2018/2019 VRB20G35KT 2SM TSRA BR BKN012 OVC025CB FM201830 28020G35KT P6SM FEW012 OVC025 TEMPO 2018/2020 3SM -SHRA BR BKN012 OVC025 PROB30 2018/2019 VRB20G35KT 2SM TSRA BR BKN012 OVC025CB FM202000 28020G35KT P6SM BKN025 TEMPO 2020/2022 5SM -SHRA BR BKN020 FM210200 30015G25KT P6SM SCT025 BECMG 2102/2104 34010G20KT FM210800 35008KT P6SM SKC FM211700 35008KT P6SM SCT210 RMK NXT FCST BY 210000Z<br><br>
<br><br>
