RETRIEVED AT : Oct 01 2017 12:10 Local <br>
  RETRIEVED AT: Oct 01 2017 16:10 UTC<br><br>
CYSN 011600Z VRB02KT 15SM FEW030 FEW250 16/05 A3040 RMK CU1CI1 CU TR CI TR SLP298<br><br>
CYSN 011501Z VRB02KT 15SM FEW025 FEW250 15/05 A3042 RMK SC1CI1 CI TR SLP304<br><br>
CYSN 011500Z 18003KT 130V250 15SM FEW025 FEW250 15/05 A3042 RMK SC1CI1 CI TR SLP304<br><br>
TAF CYSN 011238Z 0113/0201 VRB03KT P6SM FEW030 BECMG 0115/0116 12005KT RMK NXT FCST BY 012000Z<br><br>
<br><br>
CYHM 011600Z VRB02KT 15SM FEW030 SCT035 BKN250 15/06 A3040 RMK CU1SC2CI2 CONTROLS SLP299<br><br>
CYHM 011500Z 18004KT 070V200 60SM FEW030 SCT250 14/06 A3042 RMK CU2CI1 SLP306<br><br>
TAF CYHM 011138Z 0112/0212 VRB03KT P6SM SKC FM011700 09008KT P6SM FEW030 FM020200 06007KT P6SM SKC RMK NXT FCST BY 011800Z<br><br>
<br><br>
KIAG 011553Z 00000KT 10SM CLR 16/04 A3041 RMK AO2 SLP302 T01560039<br><br>
KIAG 011453Z 18006KT 10SM CLR 14/05 A3042 RMK AO2 SLP309 T01440050 50003<br><br>
KIAG 011501Z 0115/0212 20005KT P6SM SKC FM012000 VRB03KT P6SM SKC<br><br>
<br><br>
KBUF 011554Z 00000KT 10SM FEW040 FEW050 FEW180 14/04 A3041 RMK AO2 SLP302 T01390044 $<br><br>
KBUF 011454Z 00000KT 10SM FEW050 FEW180 13/04 A3043 RMK AO2 SLP309 T01280044 50002 $<br><br>
KBUF 011501Z 0115/0212 21005KT P6SM SKC FM020000 09004KT P6SM SKC FM020300 VRB03KT P6SM SKC<br><br>
<br><br>
CYYZ 011600Z 30004KT 190V340 15SM FEW040 FEW250 16/04 A3039 RMK CU1CI1 CU TR SLP296<br><br>
CYYZ 011500Z 16003KT 100V250 15SM FEW250 14/04 A3041 RMK CI1 SLP303<br><br>
TAF CYYZ 011439Z 0115/0218 VRB03KT P6SM SKC BECMG 0115/0117 20008KT FM020000 VRB03KT P6SM SKC FM021600 12010KT P6SM SCT180 RMK NXT FCST BY 011800Z<br><br>
<br><br>
CYOO 011600Z AUTO 25007KT 240V320 9SM CLR 15/04 A3040 RMK SLP299<br><br>
CYOO 011500Z AUTO 26007KT 210V280 9SM CLR 14/04 A3042 RMK SLP306<br><br>
CYOO 011450Z AUTO 28007KT 200V280 6SM HZ CLR 14/04 A3042 RMK SLP305<br><br>
CYOO 011444Z AUTO 24006KT 190V280 4SM HZ CLR 14/04 A3042 RMK SLP305<br><br>
CYOO has no TAF <br><br>
<br><br>
CYTR 011600Z 32008KT 15SM FEW050 15/06 A3040 RMK SC1 SLP299<br><br>
CYTR 011500Z 31003KT 15SM FEW050 13/07 A3042 RMK SC1 SLP306<br><br>
TAF CYTR 011130Z 0112/0212 VRB03KT P6SM SKC BECMG 0116/0118 22008KT BECMG 0123/0201 VRB03KT FM020800 VRB03KT P6SM SKC PROB30 0208/0212 1/2SM FG RMK NXT FCST BY 011800Z<br><br>
<br><br>
