RETRIEVED AT : Mar 22 2020 22:05 Local <br>
  RETRIEVED AT: Mar 23 2020 02:05 UTC<br><br>
CYSN 230100Z 08010KT 15SM OVC160 M01/M07 A3045 RMK AS8 LAST STFD OBS / NEXT 231100 UTC SLP316<br><br>
CYSN has no TAF <br><br>
<br><br>
CYHM 230100Z 05017G23KT 15SM OVC130 M01/M05 A3041 RMK AC8 SLP312<br><br>
TAF CYHM 222338Z 2300/2324 05015G25KT P6SM BKN160 OVC200 FM230200 05012G22KT P6SM BKN120 OVC180 FM230400 05012KT P6SM OVC070 TEMPO 2305/2307 11/2SM -SN OVC020 PROB30 2305/2307 P6SM -FZRA FM230700 05010KT 3/4SM -SN VV005 TEMPO 2307/2309 2SM -SN OVC008 FM231200 05010KT 3/4SM -SNRA BR OVC003 PROB30 2312/2315 1/8SM -SNRA FG VV001 FM231500 04007KT 3/4SM -RA BR OVC002 PROB30 2323/2324 1/8SM FG VV001 RMK NXT FCST BY 230600Z<br><br>
<br><br>
KIAG 230153Z 08012KT 10SM CLR M01/M07 A3041 RMK AO2 SLP314 T10111067<br><br>
KIAG 230053Z 07011KT 10SM CLR M01/M07 A3044 RMK AO2 SLP325 T10111072<br><br>
KIAG 222328Z 2300/2324 07013KT P6SM BKN200 FM230700 14006KT 3SM -SN OVC015 FM231100 14007KT 4SM -SNRA OVC015 FM231400 17006KT 6SM -RA OVC012 FM232200 VRB03KT P6SM OVC007<br><br>
<br><br>
KBUF 230154Z 07011KT 10SM BKN150 OVC180 01/M07 A3041 RMK AO2 SLP308 T00061072<br><br>
KBUF 230054Z 06010KT 10SM BKN160 OVC200 01/M07 A3044 RMK AO2 SLP316 T00061072<br><br>
KBUF 222328Z 2300/2324 06013KT P6SM BKN200 FM230700 15005KT 3SM -SN OVC020 FM230900 13006KT 6SM -RA OVC025 FM231700 19009KT 6SM -RA OVC015 FM232000 23007KT P6SM OVC012<br><br>
<br><br>
CYYZ 230100Z 09014KT 15SM SCT130 BKN180 BKN240 M01/M07 A3046 RMK AC3AC3CI1 SLP326<br><br>
TAF CYYZ 222338Z 2300/2406 09012G22KT P6SM SCT180 BKN240 FM230200 09012KT P6SM BKN120 OVC180 FM230500 09012KT P6SM OVC070 FM230700 09012KT P6SM -SN BKN040 OVC070 TEMPO 2308/2309 2SM -SN OVC040 FM230900 09012KT 1SM -SN VV009 FM231300 09010KT 3/4SM -SNRA BR OVC004 FM231500 09010KT 1SM -RA BR OVC003 FM232100 07008KT 2SM -DZ BR OVC003 FM240200 32008KT 6SM BR FEW003 BKN020 PROB40 2402/2406 VRB03KT 1/8SM FG VV001 RMK NXT FCST BY 230300Z<br><br>
<br><br>
CYOO 230100Z AUTO 08008KT 9SM BKN140 OVC170 M02/M09 A3049 RMK SLP334<br><br>
TAF CYOO 230140Z 2302/2314 08010KT P6SM BKN140 OVC170 FM230600 09012KT P6SM FEW020 OVC080 TEMPO 2306/2308 2SM -SN BKN020 OVC080 FM230800 09010KT 11/2SM -SN BKN005 OVC010 FM231200 10012KT 2SM -RASN BR BKN005 OVC010 RMK FCST BASED ON AUTO OBS. NXT FCST BY 230800Z<br><br>
<br><br>
CYTR 230100Z 07006KT 15SM FEW180 M01/M12 A3054 RMK AC1 SLP349<br><br>
TAF CYTR 222330Z 2300/2324 10008KT P6SM BKN200 FM230500 06008KT P6SM FEW050 OVC120 BECMG 2307/2309 14012G22KT FM230900 14012G22KT 6SM -RA BR SCT012 OVC025 FM231100 14012G22KT 3SM -SNRA BR SCT008 OVC012 FM231600 14012G22KT 2SM -RASN BR OVC008 FM232200 14012KT 2SM -DZ BR OVC006 RMK NXT FCST BY 230600Z<br><br>
<br><br>
