RETRIEVED AT : Oct 10 2017 09:10 Local <br>
  RETRIEVED AT: Oct 10 2017 13:10 UTC<br><br>
CYSN 101300Z 23004KT 12SM SCT240 16/15 A3011 RMK CI4 SLP197<br><br>
CYSN 101200Z 22004KT 9SM FEW140 SCT250 13/13 A3009 RMK AC1CI3 SLP191<br><br>
TAF CYSN 101238Z 1013/1101 23005KT P6SM FEW007 SCT140 TEMPO 1013/1015 4SM BR FM101500 28007KT P6SM FEW030 BECMG 1018/1020 36008KT RMK NXT FCST BY 102000Z<br><br>
<br><br>
CYHM 101300Z 24004KT 3/8SM R12/3000FT/N FG BKN250 13/13 A3012 RMK FG2CI4 VIS NE 1 1/2 SLP203<br><br>
CYHM 101229Z 24005KT 3/8SM R12/4000VP6000FT/D FG BKN250 12/12 A3012 RMK FG3CI4 SLP202<br><br>
CYHM 101209Z 27003KT 1 1/2SM R12/2600V3500FT/U BR BKN250 12/12 A3012 RMK FG2CI4 VIS E-SW 1/2SM SLP201<br><br>
CYHM 101200Z 26003KT 3/8SM R12/2000FT/U FG BKN250 12/12 A3011 RMK FG2CI4 SLP200<br><br>
