RETRIEVED AT : Oct 05 2018 23:41 Local <br>
  RETRIEVED AT: Oct 06 2018 03:41 UTC<br><br>
CYSN has no TAF <br><br>
<br><br>
CYHM 060300Z 05009G15KT 15SM OVC023 11/08 A3010 RMK SC8 SLP197<br><br>
CYHM 060200Z 06012KT 15SM OVC030 11/08 A3010 RMK SC8 SLP198<br><br>
TAF AMD CYHM 060310Z 0603/0624 05012KT P6SM OVC020 TEMPO 0603/0610 OVC030 BECMG 0606/0608 06007KT FM061000 05008KT 5SM -RA BR SCT006 OVC012 FM061200 09006KT 21/2SM -SHRA BR OVC004 FM061700 21015G25KT P6SM FEW008 BKN012 FM062300 26010KT 5SM -SHRA BR SCT008 OVC015 PROB30 0623/0624 VRB15G30KT 11/2SM +TSRA BR BKN006 OVC015CB RMK NXT FCST BY 060600Z<br><br>
<br><br>
KIAG 060253Z 09008KT 10SM OVC035 10/06 A3010 RMK AO2 SLP199 60000 T01000056 58006<br><br>
KIAG 060153Z 10009KT 10SM OVC044 10/06 A3011 RMK AO2 SLP202 T01000056<br><br>
KIAG 060245Z 0603/0624 10008KT P6SM OVC045 FM060500 10005KT P6SM OVC025 FM060900 11004KT P6SM VCSH OVC015 FM061400 17006KT 6SM -SHRA OVC012 FM061700 21010KT P6SM VCSH BKN050<br><br>
<br><br>
KBUF 060254Z 09007KT 10SM BKN037 BKN060 BKN140 11/07 A3009 RMK AO2 SLP192 T01060067 58008<br><br>
KBUF 060154Z 09010KT 10SM SCT044 BKN055 BKN070 BKN130 10/07 A3012 RMK AO2 SLP201 T01000067<br><br>
KBUF 060245Z 0603/0624 09010KT P6SM OVC045 FM060500 10006KT P6SM OVC025 FM060800 14005KT P6SM VCSH OVC015 FM061400 19007KT 6SM -SHRA OVC012 FM061800 22010KT P6SM VCSH BKN040<br><br>
<br><br>
CYYZ 060300Z 11009KT 15SM SCT035 BKN050 BKN083 OVC085 12/06 A3011 RMK SC3SC2AC1AC2 SLP200<br><br>
CYYZ 060200Z 11010KT 15SM FEW025 BKN040 BKN100 12/06 A3012 RMK SC1SC5AC1 SLP206<br><br>
TAF CYYZ 060238Z 0603/0706 11010KT P6SM FEW025 BKN040 FM060400 05008KT P6SM OVC020 TEMPO 0604/0607 BKN025 OVC040 FM060700 03007KT 6SM -DZ BR SCT008 OVC020 FM061000 03005KT 3SM -RA BR BKN007 OVC015 BECMG 0614/0616 13007KT FM061700 16010KT P6SM BKN008 OVC015 FM062000 21012G22KT P6SM BKN030 FM062300 28012KT 5SM -SHRA BR SCT008 OVC015 PROB30 0623/0702 VRB15G25KT 2SM +TSRA BR BKN007 OVC020CB FM070300 35010KT 6SM -SHRA BR SCT008 OVC015 RMK NXT FCST BY 060600Z<br><br>
<br><br>
CYOO 060300Z AUTO 08008KT 9SM BKN043 OVC050 10/03 A3013 RMK SLP208<br><br>
CYOO 060200Z AUTO 08009KT 9SM BKN060 OVC073 09/02 A3015 RMK SLP213<br><br>
CYOO has no TAF <br><br>
<br><br>
CYTR 060300Z 05005KT 15SM BKN059 BKN090 09/03 A3016 RMK SC6AC1 SLP218<br><br>
CYTR 060200Z 06004KT 15SM FEW065 BKN085 09/03 A3017 RMK SC2AC6 SLP220<br><br>
TAF CYTR 052330Z 0600/0624 06005KT P6SM BKN080 OVC200 FM060600 04008KT P6SM SCT020 BKN040 TEMPO 0606/0613 5SM -SHRA BR BKN020 OVC040 FM061300 06008KT P6SM -SHRA SCT008 BKN020 OVC040 TEMPO 0613/0618 3SM -SHRA BR BKN008 OVC020 FM061800 13005KT 3SM -SHRA -DZ BR BKN006 OVC012 BECMG 0620/0622 20005KT RMK NXT FCST BY 060600Z<br><br>
<br><br>
