RETRIEVED AT : Sep 08 2018 06:05 Local <br>
  RETRIEVED AT: Sep 08 2018 10:05 UTC<br><br>
CYSN has no TAF <br><br>
<br><br>
CYHM 080900Z 03011KT 15SM FEW025 BKN240 15/09 A3022 RMK CF1CI7 CF TR SLP234<br><br>
TAF CYHM 080538Z 0806/0906 03008KT P6SM FEW020 BKN200 BECMG 0808/0810 03012KT BECMG 0814/0816 05015G25KT FM090000 06012G22KT P6SM BKN200 RMK NXT FCST BY 081200Z<br><br>
<br><br>
KIAG 080953Z AUTO 05012KT 10SM CLR 16/11 A3022 RMK AO2 SLP231 T01610111<br><br>
KIAG 080853Z AUTO 05013KT 10SM CLR 17/11 A3021 RMK AO2 SLP228 T01670111 53002<br><br>
KIAG 080900Z 0809/0906 04013KT P6SM OVC200 FM081200 05014G21KT P6SM OVC250 FM081900 05012KT P6SM BKN250 FM090100 06008KT P6SM BKN250<br><br>
<br><br>
KBUF 080954Z 04012G18KT 10SM FEW150 OVC230 16/12 A3021 RMK AO2 SLP228 T01610117<br><br>
KBUF 080854Z 03009KT 10SM FEW150 OVC230 17/12 A3020 RMK AO2 SLP225 T01670117 55000<br><br>
KBUF 080900Z 0809/0906 04012KT P6SM OVC200 FM081300 05013G20KT P6SM OVC250 FM081900 05011KT P6SM BKN250 FM090100 06008KT P6SM BKN250<br><br>
<br><br>
CYYZ 080900Z 03009G15KT 15SM OVC260 15/08 A3025 RMK CI8 SLP243<br><br>
TAF CYYZ 080838Z 0809/0912 04010KT P6SM BKN250 FM081600 07012KT P6SM BKN250 BECMG 0901/0903 04010KT FM091000 04013KT P6SM BKN030 RMK NXT FCST BY 081200Z<br><br>
<br><br>
CYOO 080900Z AUTO 02008KT 9SM CLR 14/07 A3025 RMK SLP244<br><br>
CYOO has no TAF <br><br>
<br><br>
CYTR 080900Z 03008KT 15SM OVC250 13/07 A3026 RMK CI8 SLP249<br><br>
TAF CYTR 080530Z 0806/0906 VRB03KT P6SM SCT060 OVC250 BECMG 0806/0808 01010KT FM081200 04012G22KT P6SM FEW030 BKN250 BECMG 0817/0819 04010KT RMK NXT FCST BY 081200Z<br><br>
<br><br>
