RETRIEVED AT : Sep 06 2019 22:05 Local <br>
  RETRIEVED AT: Sep 07 2019 02:05 UTC<br><br>
CYSN 070100Z 02003KT 15SM SCT078 BKN110 15/15 A2988 RMK AC4AC3 LAST STFD OBS/NEXT 071100Z SLP121 DENSITY ALT 500FT<br><br>
CYSN has no TAF <br><br>
<br><br>
CYHM 070100Z 03004KT 15SM BKN090 16/13 A2991 RMK AC7 SLP129 DENSITY ALT 1100FT<br><br>
TAF CYHM 062339Z 0700/0724 04008KT P6SM FEW020 BKN090 BECMG 0700/0702 VRB03KT FM070600 VRB03KT P6SM BKN030 FM070900 VRB03KT 6SM BR FEW008 BKN015 PROB30 0709/0713 11/2SM BR FM071500 27008KT P6SM BKN020 FM071700 28012KT P6SM BKN030 BECMG 0718/0720 29010G20KT BECMG 0722/0724 30007KT RMK NXT FCST BY 070600Z<br><br>
<br><br>
KIAG 070153Z 34004KT 10SM CLR 14/13 A2989 RMK AO2 SLP123 T01440128<br><br>
KIAG 070053Z 00000KT 10SM SCT075 OVC110 16/14 A2989 RMK AO2 SLP123 T01610139<br><br>
KIAG 062331Z 0700/0724 03005KT P6SM BKN090 FM070200 VRB03KT P6SM SCT090 FM071100 29006KT P6SM BKN060 FM071400 30007KT P6SM SCT050 FM072300 30010KT P6SM SCT080<br><br>
<br><br>
KBUF 070154Z 00000KT 10SM FEW045 SCT060 BKN075 16/14 A2989 RMK AO2 SLP120 T01610139<br><br>
KBUF 070054Z 03003KT 10SM FEW045 OVC100 16/13 A2989 RMK AO2 SLP122 OCNL BINOVC T01610133<br><br>
KBUF 062331Z 0700/0724 03006KT P6SM BKN100 FM070200 VRB04KT P6SM SCT080 FM071200 28006KT P6SM BKN035 FM071400 29007KT P6SM BKN025 FM071600 28008KT P6SM BKN035 FM072300 29009KT P6SM SCT060<br><br>
<br><br>
CYYZ 070100Z 04007KT 330V050 15SM SCT080 BKN100 15/12 A2991 RMK AC3AC3 SLP129 DENSITY ALT 700FT<br><br>
TAF CYYZ 062339Z 0700/0806 03008KT P6SM FEW015 BKN080 FM070300 01008KT P6SM SCT030 BKN060 FM070900 33007KT 6SM BR BKN020 PROB30 0709/0712 11/2SM BR FM071500 31010KT P6SM BKN030 FM071900 30012G22KT P6SM -SHRA BKN040 FM072300 30012KT P6SM SCT040 BECMG 0803/0805 35008KT RMK NXT FCST BY 070300Z<br><br>
<br><br>
CYOO 070100Z AUTO 36009KT 9SM OVC065 15/13 A2989 RMK SLP125 DENSITY ALT 500FT<br><br>
TAF CYOO 070138Z 0702/0714 36008KT P6SM BKN070 FM070700 36007KT 6SM BR BKN090 TEMPO 0707/0712 2SM BR PROB30 0708/0712 1SM BR FM071200 30007KT P6SM BKN060 RMK FCST BASED ON AUTO OBS. NXT FCST BY 070800Z<br><br>
<br><br>
CYTR 070115Z 35007KT 15SM FEW078 OVC110 15/14 A2989 RMK AC2AC6 SLP122<br><br>
CYTR 070100Z 35007KT 15SM -SHRA BKN078 OVC100 15/14 A2989 RMK AC5AC3 PCPN VRY LGT SLP122<br><br>
TAF CYTR 062330Z 0700/0724 VRB03KT P6SM FEW030 BKN060 BKN100 TEMPO 0700/0702 P6SM -SHRA BKN030 OVC060 FM070400 33005KT P6SM SCT015 BKN050 TEMPO 0704/0715 BKN015 OVC050 PROB30 0706/0710 3/4SM BR FM071500 30010KT P6SM BKN040 BECMG 0717/0719 27015KT RMK NXT FCST BY 070600Z<br><br>
<br><br>
