RETRIEVED AT : May 06 2018 18:05 Local <br>
  RETRIEVED AT: May 06 2018 22:05 UTC<br><br>
CYSN 062100Z 32007KT 15SM OVC070 13/08 A2992 RMK AC8 SLP136<br><br>
TAF CYSN 061939Z 0620/0701 02010KT P6SM SCT140 OVC240 FM070000 32010KT P6SM BKN050 TEMPO 0700/0701 P6SM -SHRA RMK NXT FCST WILL BE ISSUED AT 071245Z<br><br>
<br><br>
CYHM 062100Z 05012G18KT 15SM FEW048 BKN074 OVC110 14/06 A2993 RMK CU1AC6AC2 CU TR SLP140 DENSITY ALT 800FT<br><br>
TAF AMD CYHM 062145Z 0621/0718 04012KT P6SM FEW030 SCT090 BKN120 TEMPO 0621/0623 VRB15G25KT 2SM TSRA BR BKN008 OVC060CB FM062230 04012KT P6SM OVC060 TEMPO 0622/0624 5SM -SHRA BR BKN020 OVC060 PROB30 0622/0624 VRB15G25KT 2SM TSRA BR BKN008 OVC060CB FM070000 03010G20KT P6SM BKN040 OVC080 TEMPO 0700/0703 6SM -SHRA BR SCT008 OVC040 FM070700 05010KT P6SM BKN040 FM071200 05012G22KT P6SM SCT040 RMK NXT FCST BY 070000Z<br><br>
<br><br>
KIAG 062153Z 01011KT 10SM BKN070 20/05 A2992<br><br>
KIAG 062053Z 02007KT 10SM SCT070 BKN110 21/07 A2991 RMK AO2 SLP128 T02060072 56006<br><br>
KIAG 062105Z 0621/0718 03009KT P6SM BKN050 BKN110 FM070200 02011KT P6SM VCSH BKN060 FM070600 03007KT P6SM BKN045 FM070900 04009KT P6SM SCT035<br><br>
<br><br>
KBUF 062154Z 02009KT 10SM BKN070 OVC110 19/09 A2991 RMK AO2 SLP130 T01940089<br><br>
KBUF 062054Z 33011KT 10SM SCT049 BKN110 BKN150 BKN200 21/10 A2990 RMK AO2 SLP122 T02110100 56009<br><br>
KBUF 062105Z 0621/0718 VRB04KT P6SM BKN050 BKN110 FM062300 04008KT P6SM BKN050 FM070200 02011KT P6SM VCSH BKN050 FM070600 03007KT P6SM BKN040 FM070900 04009KT P6SM SCT035<br><br>
<br><br>
CYYZ 062111Z 25003KT 160V280 15SM -RA OVC065 15/07 A2995 RMK SC8 SLP146 DENSITY ALT 700FT<br><br>
CYYZ 062100Z 00000KT 15SM BKN065 OVC075 15/07 A2995 RMK SC6AC2 SH DIST SW-N SLP145 DENSITY ALT 700FT<br><br>
CYYZ 062024Z 16006KT 15SM VCSH SCT060 OVC072 15/06 A2994 RMK SC3AC5 SLP142 DENSITY ALT 800FT<br><br>
TAF CYYZ 062038Z 0621/0724 15005KT P6SM -SHRA OVC070 BECMG 0621/0623 03008KT FM070100 01010G20KT P6SM BKN040 BKN100 TEMPO 0701/0703 P6SM -SHRA BECMG 0701/0703 01012KT FM070600 03010KT P6SM BKN040 FM071000 03008KT P6SM FEW040 BECMG 0713/0715 10012KT FM071800 12010KT P6SM SKC RMK NXT FCST BY 070000Z<br><br>
<br><br>
CYOO 062100Z AUTO 26003KT 240V300 9SM OVC070 16/04 A2994 RMK SLP143 DENSITY ALT 600FT<br><br>
CYOO has no TAF <br><br>
<br><br>
CYTR 062100Z 05009KT 15SM OVC067 21/03 A2991 RMK AC8 SLP131<br><br>
TAF AMD CYTR 062035Z 0620/0718 05008KT P6SM OVC070 TEMPO 0620/0704 P6SM -SHRA SCT040 OVC070 FM070400 03012KT P6SM SCT060 FM070700 03008KT P6SM SKC BECMG 0717/0718 20008KT RMK NXT FCST BY 070000Z<br><br>
<br><br>
