RETRIEVED AT : Oct 01 2017 08:10 Local <br>
  RETRIEVED AT: Oct 01 2017 12:10 UTC<br><br>
CYSN 011200Z 18003KT 15SM FEW030 06/05 A3041 RMK SC1 SC TR SLP302<br><br>
CYSN 011100Z 17005KT 15SM FEW030 FEW250 05/04 A3040 RMK SC1CI1 SC TR CI TR SLP299<br><br>
CYSN has no TAF <br><br>
<br><br>
CYHM 011200Z 00000KT 15SM FEW030 06/01 A3041 RMK SC1 SLP305<br><br>
CYHM 011100Z VRB02KT 15SM FEW240 04/01 A3039 RMK CI1 CI TR SLP299<br><br>
TAF CYHM 011138Z 0112/0212 VRB03KT P6SM SKC FM011700 09008KT P6SM FEW030 FM020200 06007KT P6SM SKC RMK NXT FCST BY 011800Z<br><br>
<br><br>
KIAG 011153Z 00000KT 8SM CLR 04/02 A3041 RMK AO2 SLP309 T00390017 10061 20033 53005<br><br>
KIAG 011053Z 00000KT 10SM CLR 03/01 A3041 RMK AO2 SLP305 T00330006<br><br>
KIAG 011130Z 0112/0212 00000KT P6SM SKC FM011400 20004KT P6SM SKC FM012000 VRB03KT P6SM SKC<br><br>
<br><br>
KBUF 011154Z 16004KT 10SM FEW055 04/03 A3042 RMK AO2 SLP308 T00440033 10056 20033 53007 $<br><br>
KBUF 011054Z 15005KT 10SM FEW055 04/02 A3041 RMK AO2 SLP303 T00390022 $<br><br>
KBUF 011130Z 0112/0212 VRB03KT P6SM SKC FM011400 21004KT P6SM SKC FM020000 09004KT P6SM SKC FM020300 VRB03KT P6SM SKC<br><br>
<br><br>
CYYZ 011200Z 32002KT 15SM FEW250 05/02 A3042 RMK CI1 CI TR SLP305<br><br>
CYYZ 011100Z VRB02KT 15SM SKC 04/01 A3039 RMK SLP298<br><br>
TAF CYYZ 011138Z 0112/0218 VRB03KT P6SM SKC BECMG 0115/0117 20008KT FM020000 VRB03KT P6SM SKC FM021600 12010KT P6SM SCT180 RMK NXT FCST BY 011500Z<br><br>
<br><br>
CYOO 011200Z AUTO 35003KT 9SM CLR 04/03 A3041 RMK SLP305<br><br>
CYOO 011100Z AUTO 35003KT 6SM BR CLR 03/02 A3040 RMK SLP299<br><br>
CYOO has no TAF <br><br>
<br><br>
CYTR 011200Z 00000KT 15SM SKC 06/05 A3042 RMK SLP304<br><br>
CYTR 011100Z 00000KT 15SM SKC 04/04 A3041 RMK SLP299<br><br>
TAF CYTR 011130Z 0112/0212 VRB03KT P6SM SKC BECMG 0116/0118 22008KT BECMG 0123/0201 VRB03KT FM020800 VRB03KT P6SM SKC PROB30 0208/0212 1/2SM FG RMK NXT FCST BY 011800Z<br><br>
<br><br>
