RETRIEVED AT : Nov 13 2017 09:10 Local <br>
  RETRIEVED AT: Nov 13 2017 14:10 UTC<br><br>
CYSN 131400Z 25002KT 8SM OVC016 03/02 A3036 RMK SC8 SLP286<br><br>
CYSN 131300Z 21002KT 8SM OVC016 02/01 A3035 RMK SC8 SLP281<br><br>
TAF CYSN 131338Z 1314/1402 VRB03KT P6SM OVC015 TEMPO 1314/1316 4SM BR OVC007 FM131900 30007KT P6SM BKN030 TEMPO 1319/1402 OVC020 RMK NXT FCST BY 132000Z<br><br>
<br><br>
CYHM 131400Z 27003KT 3SM BR SCT003 OVC010 02/02 A3035 RMK SF3SC5 SLP289<br><br>
CYHM 131300Z 30002KT 2SM BR OVC012 02/01 A3034 RMK SC8 SLP285<br><br>
CYHM 131216Z 31002KT 1 3/4SM BR SCT004 OVC015 01/01 A3033 RMK FG1SF2SC5 SLP280<br><br>
TAF CYHM 131138Z 1312/1412 VRB03KT 2SM -DZ -RA BR OVC004 TEMPO 1312/1314 6SM BR SCT004 OVC008 FM131400 VRB03KT 4SM BR OVC006 TEMPO 1314/1316 P6SM NSW SCT006 OVC012 FM131600 30007KT P6SM SCT012 BKN030 TEMPO 1316/1318 OVC012 BECMG 1404/1406 27005KT RMK NXT FCST BY 131800Z<br><br>
<br><br>
KIAG 131353Z 00000KT 7SM OVC015 03/M01 A3035 RMK AO2 SLP290 T00281006<br><br>
KIAG 131306Z 00000KT 5SM BR BKN016 BKN043 OVC055 02/00 A3034 RMK AO2 T00220000 $<br><br>
KIAG 131253Z 00000KT 5SM BR SCT016 BKN045 OVC055 02/00 A3034 RMK AO2 SLP285 T00220000 $<br><br>
KIAG 131217Z 00000KT 6SM BR SCT016 OVC045 02/00 A3033 RMK AO2 T00220000 $<br><br>
KIAG 131139Z 1312/1412 00000KT P6SM VCSH OVC020 FM131400 32004KT P6SM OVC015 FM140500 VRB03KT P6SM OVC035<br><br>
<br><br>
KBUF 131356Z 00000KT 7SM BKN005 BKN019 OVC041 02/01 A3034 RMK AO2 T00220011<br><br>
KBUF 131354Z 00000KT 7SM SCT005 SCT019 OVC041 02/01 A3034 RMK AO2 RAE09 SLP282 P0000 T00220011<br><br>
KBUF 131320Z 34003KT 6SM BR FEW008 SCT019 BKN037 02/01 A3034 RMK AO2 RAE09 P0000 T00170011<br><br>
KBUF 131254Z 00000KT 8SM -RA BKN019 OVC037 01/01 A3032 RMK AO2 SLP277 P0000 T00110006<br><br>
KBUF 131139Z 1312/1412 00000KT P6SM VCSH OVC025 FM131300 VRB03KT P6SM OVC025 FM131800 32004KT P6SM OVC015 FM140400 VRB03KT P6SM OVC035<br><br>
<br><br>
CYYZ 131400Z 00000KT 8SM OVC011 03/01 A3036 RMK SC8 SLP287<br><br>
CYYZ 131300Z VRB02KT 8SM SCT009 OVC017 03/01 A3035 RMK SF3SC5 SLP284<br><br>
TAF CYYZ 131138Z 1312/1418 34006KT P6SM -DZ -RA BKN009 OVC025 TEMPO 1312/1314 P6SM NSW SCT009 OVC025 FM131400 28008KT P6SM OVC025 TEMPO 1314/1320 OVC015 FM132000 VRB03KT P6SM BKN030 TEMPO 1320/1323 P6SM -SHRA BKN020 BECMG 1404/1406 30005KT FM141300 29007KT P6SM SCT030 BECMG 1416/1418 VRB03KT RMK NXT FCST BY 131500Z<br><br>
<br><br>
CYOO 131400Z AUTO 01004KT 9SM OVC020 03/02 A3036 RMK SLP288<br><br>
CYOO 131300Z AUTO 03002KT 9SM OVC022 03/02 A3035 RMK SLP284<br><br>
CYOO 131217Z AUTO 04002KT 9SM BKN018 OVC024 02/02 A3034 RMK SLP280<br><br>
CYOO has no TAF <br><br>
<br><br>
CYTR 131400Z 07004KT 12SM BKN006 OVC034 02/02 A3037 RMK SF5SC3 SLP289<br><br>
CYTR 131300Z 05004KT 12SM SCT008 OVC034 02/02 A3037 RMK SF3SC5 SLP287<br><br>
TAF CYTR 131130Z 1312/1412 02004KT 6SM -RASN BR BKN010 OVC020 TEMPO 1312/1315 P6SM NSW SCT010 OVC030 FM131500 05007KT P6SM SCT015 OVC030 TEMPO 1315/1322 BKN015 OVC030 FM132200 04004KT P6SM BKN040 RMK NXT FCST BY 131800Z<br><br>
<br><br>
