RETRIEVED AT : Nov 06 2017 02:10 Local <br>
  RETRIEVED AT: Nov 06 2017 07:10 UTC<br><br>
CYSN has no TAF <br><br>
<br><br>
CYHM 060700Z 29009KT 15SM FEW016 OVC023 10/08 A2981 RMK SF1SC7 PRESRR SLP097<br><br>
CYHM 060600Z 29008KT 15SM FEW015 OVC023 11/10 A2978 RMK SC1SC7 SLP088<br><br>
TAF CYHM 060539Z 0606/0706 30010G20KT P6SM SCT004 OVC015 TEMPO 0606/0610 4SM -DZ -RA BR BKN004 OVC015 FM061000 31010KT P6SM SCT008 OVC025 TEMPO 0610/0613 5SM BR BKN008 OVC020 FM061300 31010KT P6SM BKN025 TEMPO 0613/0617 OVC020 FM061700 32010KT P6SM BKN030 FM070200 33005KT P6SM FEW030 SCT140 RMK NXT FCST BY 061200Z<br><br>
<br><br>
KIAG 060653Z 30010KT 10SM BKN017 OVC023 13/10 A2977 RMK AO2 WSHFT 0613 RAE41 SLP084 P0002 T01330100<br><br>
KIAG 060643Z 31011KT 7SM SCT006 BKN018 OVC023 13/11 A2977 RMK AO2 WSHFT 0613 RAE41 P0002 T01330106<br><br>
KIAG 060627Z 30017G25KT 3SM -RA BKN006 OVC018 14/11 A2977 RMK AO2 WSHFT 0613 P0002 T01390111<br><br>
KIAG 060618Z 24014KT 4SM -RA BKN006 OVC010 16/13 A2975 RMK AO2 P0001 T01610133<br><br>
KIAG 060606Z 23012KT 4SM -RA BKN010 OVC013 16/13 A2975 RMK AO2 CIG 006V011 P0000 T01610133<br><br>
KIAG 060553Z 23013KT 4SM -RA BKN009 OVC017 16/13 A2975 RMK AO2 RAB33 CIG 007V011 SLP076 P0000 60007 T01610133 10167 20161 51006<br><br>
KIAG 060549Z 24012KT 5SM -RA BKN011 OVC019 16/13 A2975 RMK AO2 RAB33 P0000<br><br>
KIAG 060538Z 0606/0706 21012KT P6SM OVC025 FM060800 31012KT P6SM OVC015 FM061000 33012G19KT P6SM OVC020 FM061800 31012KT P6SM BKN030 FM062000 32011KT P6SM BKN070 FM070100 33007KT P6SM SCT030<br><br>
<br><br>
KBUF 060658Z 23010KT 2 1/2SM -RA BR BKN004 OVC008 14/13 A2976 RMK AO2 P0001 T01440128 $<br><br>
KBUF 060654Z 23010KT 3SM -RA SCT004 BKN008 OVC014 14/12 A2976 RMK AO2 RAB0557 CIG 006V010 SLP078 P0003 T01440117 $<br><br>
KBUF 060647Z 24011KT 4SM -RA BR FEW004 BKN008 OVC014 15/13 A2976 RMK AO2 RAB0557 CIG 006V010 P0003 T01500133 $<br><br>
KBUF 060633Z 24010KT 8SM -RA FEW009 BKN013 OVC022 15/13 A2976 RMK AO2 RAB0557 P0002 T01500128 $<br><br>
KBUF 060554Z 21012KT 10SM OVC023 16/14 A2975 RMK AO2 RAE15B44E54 SLP074 P0000 60062 T01560139 10156 20144 55003 $<br><br>
KBUF 060538Z 0606/0706 20012KT P6SM -RA OVC025 TEMPO 0606/0609 2SM -SHRA OVC007 FM060900 32010G18KT P6SM OVC007 TEMPO 0609/0610 4SM -SHRA OVC003 FM061200 32010G18KT P6SM VCSH OVC020 FM061400 31011G17KT P6SM BKN020 FM062100 32009KT P6SM BKN070 FM070400 33005KT P6SM SCT070<br><br>
<br><br>
CYYZ 060700Z 31009KT 15SM FEW010 OVC032 11/08 A2978 RMK SF1SC7 PRESRR SLP089<br><br>
CYYZ 060600Z 31013KT 15SM FEW010 BKN030 OVC042 12/09 A2976 RMK SF1SC4SC3 SLP080<br><br>
TAF CYYZ 060539Z 0606/0712 31010G20KT P6SM SCT008 OVC025 TEMPO 0606/0611 5SM -DZ BR BKN008 OVC020 BECMG 0606/0608 31010KT FM061100 32010KT P6SM BKN025 TEMPO 0611/0614 OVC020 BECMG 0614/0615 33012G22KT FM061700 33012G22KT P6SM SCT030 BECMG 0622/0623 35010KT FM070400 29007KT P6SM FEW030 SCT140 RMK NXT FCST BY 060900Z<br><br>
<br><br>
CYOO 060700Z AUTO 33009KT 9SM BKN025 OVC042 11/09 A2974 RMK SLP075<br><br>
CYOO 060648Z AUTO 33007KT 9SM OVC025 11/09 A2974 RMK SLP076<br><br>
CYOO 060600Z AUTO 33008KT 9SM OVC021 12/10 A2973 RMK SLP072<br><br>
CYOO 060536Z AUTO 33009G15KT 9SM FEW002 OVC019 12/10 A2973 RMK SLP070<br><br>
CYOO 060529Z AUTO 33009G16KT 6SM -RA BR SCT002 SCT007 OVC019 12/11 A2973 RMK SLP070<br><br>
CYOO 060527Z AUTO 33011G17KT 5SM -RA BR SCT002 SCT007 OVC019 12/11 A2973 RMK SLP070<br><br>
CYOO 060518Z AUTO 32014KT 3SM -RA BR BKN002 BKN007 OVC016 12/11 A2973 RMK WSHFT AT 0507Z PRESRR SLP071<br><br>
CYOO has no TAF <br><br>
<br><br>
CYTR 060700Z 22007KT 2SM -DZ BR BKN003 OVC010 13/12 A2971 RMK SF6SF2 VIS VRB 1 1/2-2 1/2 CIG VRB 2-4 SLP063<br><br>
CYTR 060631Z 22006KT 2SM -DZ BR BKN004 OVC010 13/13 A2971 RMK SF5SF3 VIS VRB 1 1/2-2 1/2 SLP065<br><br>
CYTR 060600Z 21005KT 3SM -DZ BR OVC004 13/13 A2971 RMK SF8 SLP063<br><br>
CYTR 060527Z 22006KT 3SM -DZ BR OVC003 13/12 A2971 RMK SF8 VIS VRB 2 1/4-4 CIG VRB 2-4 SLP065<br><br>
TAF CYTR 060530Z 0606/0706 21008KT 3SM -RA -DZ BR BKN004 OVC010 TEMPO 0606/0608 P6SM -RA -DZ SCT004 OVC010 FM060800 29010G20KT P6SM SCT012 BKN030 TEMPO 0608/0613 BKN012 OVC030 FM061500 30010G20KT P6SM SCT030 BECMG 0620/0622 32008KT SKC RMK NXT FCST BY 061200Z<br><br>
<br><br>
