RETRIEVED AT : May 18 2020 07:05 Local <br>
  RETRIEVED AT: May 18 2020 11:05 UTC<br><br>
CYSN has no TAF <br><br>
<br><br>
CYHM 181000Z 05017G22KT 1/8SM R12/1600FT/N -RA FG OVC002 08/07 A3006 RMK FG5SF3 SLP184<br><br>
TAF AMD CYHM 181018Z 1810/1906 05020G30KT 1/4SM -RA FG OVC002 TEMPO 1810/1812 1/8SM FG FM181200 05020G30KT 1/4SM -RA FG OVC002 TEMPO 1812/1815 2SM BR OVC006 FM181500 05020G30KT 3SM -RA BR OVC005 TEMPO 1815/1818 P6SM NSW OVC008 FM181800 05018G28KT 5SM BR OVC008 TEMPO 1818/1820 P6SM NSW SCT010 OVC030 FM182000 05015G25KT P6SM SCT012 BKN030 OVC070 FM190000 05015KT P6SM BKN040 OVC100 FM190500 04015KT P6SM SCT050 BKN150 RMK NXT FCST BY 181200Z<br><br>
<br><br>
KIAG 181053Z 07012KT 8SM -RA OVC006 11/11 A3006 RMK AO2 SLP185 P0001 T01110106 $<br><br>
KIAG 180953Z AUTO 08011KT 10SM -RA OVC006 11/10 A3007 RMK AO2 RAE02B18 SLP187 P0001 T01110100 $<br><br>
KIAG 180852Z 1809/1906 07012KT 6SM -RA OVC007 FM181300 10014G22KT 5SM RA BR OVC015 FM182200 08014G24KT P6SM VCSH OVC025 FM190200 08012KT P6SM OVC040<br><br>
<br><br>
KBUF 181054Z 06013KT 6SM -RA BR BKN005 OVC060 12/11 A3006 RMK AO2 RAB01 SLP182 P0004 T01220106 $<br><br>
KBUF 180954Z 06010KT 10SM OVC006 12/11 A3006 RMK AO2 SLP181 T01220106 $<br><br>
KBUF 180852Z 1809/1906 05012KT 6SM -RA OVC007 FM181200 07014G20KT 4SM RA BR BKN015 FM181600 10014G22KT 6SM -SHRA OVC015 FM182100 08014G22KT P6SM VCSH OVC025 FM190100 07012KT P6SM OVC040<br><br>
<br><br>
CYYZ 181000Z 08016G23KT 10SM -RA BKN013 OVC023 11/10 A3010 RMK SF5SC3 SLP196<br><br>
TAF CYYZ 180839Z 1809/1912 08015G25KT P6SM -RA SCT012 OVC025 TEMPO 1809/1812 5SM -RA BR BKN009 OVC020 FM181200 08018G28KT P6SM BKN040 OVC080 TEMPO 1812/1818 P6SM -RA BKN012 OVC040 FM181800 08018G28KT P6SM BKN040 OVC100 BECMG 1822/1824 08015KT RMK NXT FCST BY 181200Z<br><br>
<br><br>
CYOO 181052Z AUTO 07013KT 9SM OVC095 11/11 A3012 RMK SLP204<br><br>
CYOO 181000Z AUTO 07008KT 9SM -RA OVC031 11/10 A3013 RMK SLP206<br><br>
TAF CYOO 180738Z 1808/1820 07012KT P6SM -RA OVC030 TEMPO 1808/1813 5SM -RA BR OVC020 FM181300 08012G22KT P6SM BKN040 OVC100 TEMPO 1813/1818 BKN020 OVC040 FM181800 08015G25KT P6SM FEW040 BKN100 RMK FCST BASED ON AUTO OBS. NXT FCST BY 181400Z<br><br>
<br><br>
CYTR 181044Z 07008KT 15SM OVC045 12/09 A3015 RMK SC8 SLP212<br><br>
CYTR 181000Z 06009KT 12SM -RA BKN026 OVC047 12/09 A3015 RMK SC5SC3 SLP213<br><br>
CYTR 180925Z 07008KT 10SM -RA BKN023 OVC046 12/09 A3016 RMK SC5SC3 SLP216<br><br>
TAF CYTR 180530Z 1806/1906 07005KT P6SM -RA SCT015 OVC060 TEMPO 1806/1812 5SM -RA BR BKN015 OVC060 FM181200 06008KT P6SM FEW015 BKN030 OVC060 BECMG 1814/1816 06012G22KT FM182000 06012G22KT P6SM SCT060 BKN180 BECMG 1900/1902 06010KT RMK NXT FCST BY 181200Z<br><br>
<br><br>
