RETRIEVED AT : Feb 22 2020 12:05 Local <br>
  RETRIEVED AT: Feb 22 2020 17:05 UTC<br><br>
CYSN 221600Z 24014G20KT 15SM SCT043 BKN250 03/M06 A3021 RMK SC3CI3 SLP234<br><br>
TAF CYSN 221338Z 2214/2302 24010G20KT P6SM SKC FM221700 24012G22KT P6SM SCT025 RMK NXT FCST BY 222000Z<br><br>
<br><br>
CYHM 221600Z 24015G21KT 15SM FEW240 01/M07 A3018 RMK CI1 SLP233<br><br>
TAF CYHM 221138Z 2212/2312 24010G20KT P6SM FEW020 FM221700 24012G22KT P6SM SCT025 FM230600 24010KT P6SM SCT015 FM230900 24010KT P6SM FEW020 BKN260 RMK NXT FCST BY 221800Z<br><br>
<br><br>
KIAG 221653Z 23018G22KT 10SM BKN026 02/M04 A3021 RMK AO2 SLP243 T00221044<br><br>
KIAG 221600Z 22018G22KT 10SM BKN026 02/M04 A3021 RMK AO2 T00171044<br><br>
KIAG 221553Z 23018G22KT 10SM CLR 01/M05 A3021 RMK AO2 SLP244 T00111050<br><br>
KIAG 221605Z 2216/2312 24018G26KT P6SM SCT025 FM221800 23016G24KT P6SM SKC FM222300 23014G22KT P6SM SCT250<br><br>
<br><br>
KBUF 221654Z 24021G35KT 10SM BKN022 01/M05 A3022 RMK AO2 PK WND 25035/1652 SLP241 T00111050<br><br>
KBUF 221554Z 23016G30KT 10SM BKN022 00/M06 A3022 RMK AO2 PK WND 23030/1549 SLP242 T00001056<br><br>
KBUF 221605Z 2216/2312 24020G30KT P6SM BKN025 FM221700 24016G24KT P6SM SCT030 FM230000 23014G22KT P6SM SCT250<br><br>
<br><br>
CYYZ 221600Z 25008G18KT 15SM FEW250 02/M07 A3016 RMK CI1 CI TR SLP223<br><br>
TAF CYYZ 221438Z 2215/2318 24012G22KT P6SM SCT025 FM230200 23010KT P6SM FEW015 FM230900 23008KT P6SM FEW015 BKN270 FM231500 22010G20KT P6SM FEW025 BKN180 RMK NXT FCST BY 221800Z<br><br>
<br><br>
CYOO 221600Z AUTO 26012G17KT 9SM CLR 00/M07 A3016 RMK SLP221<br><br>
TAF CYOO 221339Z 2214/2302 25010KT P6SM SKC FM221600 25012G22KT P6SM SCT030 TEMPO 2216/2221 BKN030 BECMG 2300/2302 23012KT RMK FCST BASED ON AUTO OBS. NXT FCST BY 222000Z<br><br>
<br><br>
CYTR 221600Z 25012KT 15SM FEW250 01/M06 A3016 RMK CI2 SLP217<br><br>
TAF CYTR 221130Z 2212/2312 26010KT P6SM FEW020 FEW250 BECMG 2221/2223 25008KT RMK NXT FCST BY 221800Z<br><br>
<br><br>
