RETRIEVED AT : May 31 2018 06:40 Local <br>
  RETRIEVED AT: May 31 2018 10:40 UTC<br><br>
CYSN has no TAF <br><br>
<br><br>
TAF AMD CYHM 311026Z 3110/0106 18012G22KT P6SM BKN030 TEMPO 3110/3114 2SM -SHRA BR FM311400 21015G25KT P6SM BKN015 TEMPO 3114/3120 BKN025 FM312000 21020G30KT P6SM -SHRA BKN030 TEMPO 3122/0103 P6SM VCTS SCT030CB FM010300 21012KT P6SM SCT030 RMK NXT FCST BY 311200Z<br><br>
<br><br>
KIAG 310908Z 3109/0106 17011G19KT P6SM SCT060 FM311200 19015G22KT 4SM -SHRA OVC035 FM311600 19015G24KT P6SM OVC035 FM312000 20013G23KT P6SM BKN060 FM312300 20009KT P6SM SCT070<br><br>
<br><br>
KBUF 310954Z 17012KT 10SM SCT060 BKN080 BKN160 23/19 A2981 RMK AO2 SLP087 T02330189<br><br>
KBUF 310854Z 17010KT 10SM FEW049 SCT055 BKN120 23/18 A2981 RMK AO2 SLP088 60000 T02330183 56008<br><br>
KBUF 310908Z 3109/0106 17010KT P6SM SCT060 BKN120 FM311400 18013G23KT P6SM OVC035 FM311900 20010G21KT P6SM OVC060 FM312000 20009KT P6SM BKN060 FM010200 20006KT P6SM BKN250<br><br>
<br><br>
CYYZ 311020Z 14007KT 15SM BKN044 BKN090 21/18 A2975 RMK SC7AC1 AC TR TCU TOPS SW-W SLP073 DENSITY ALT 1600FT<br><br>
CYYZ 311000Z 15008KT 15SM -RA SCT030 BKN042 BKN080 21/17 A2975 RMK SC4SC2AC1 SLP073 DENSITY ALT 1600FT<br><br>
CYYZ 310952Z 16006KT 15SM -RA SCT030 BKN045 BKN080 21/18 A2975 RMK SC4SC2AC1 SLP073 DENSITY ALT 1700FT<br><br>
CYYZ 310900Z 15006KT 15SM SCT035 BKN080 BKN140 22/18 A2976 RMK SC3AC2AC2 SLP075 DENSITY ALT 1700FT<br><br>
TAF CYYZ 310839Z 3109/0112 16010KT P6SM SCT040 BKN080 TEMPO 3109/3114 5SM -SHRA BR OVC020 PROB30 3110/3114 2SM -SHRA BR OVC005 FM311400 20012G22KT P6SM OVC020 TEMPO 3114/3117 OVC025 FM311700 21015G25KT P6SM -SHRA BKN040 PROB30 3120/0101 VRB20G30KT 2SM +TSRA BR BKN020 OVC040CB FM010200 22010KT P6SM BKN040 FM010500 VRB03KT 6SM BR FEW030 FM011000 26006KT P6SM FEW030 RMK NXT FCST BY 311200Z<br><br>
<br><br>
CYOO has no TAF <br><br>
<br><br>
CYTR 311000Z 16008KT 15SM BKN045 21/17 A2984 RMK SC7 SLP106<br><br>
CYTR 310900Z 15006KT 15SM BKN054 21/16 A2985 RMK SC7 SLP107<br><br>
TAF CYTR 310530Z 3106/0106 16008KT P6SM SCT050 BKN120 TEMPO 3106/3115 OVC050 FM311500 15012G22KT P6SM BKN030 TEMPO 3115/3121 5SM -SHRA BR BKN020 FM312100 17010KT P6SM BKN030 TEMPO 3121/0106 P6SM -SHRA BKN025 BECMG 0102/0104 22008KT RMK NXT FCST BY 311200Z<br><br>
<br><br>
