RETRIEVED AT : Jun 08 2019 00:05 Local <br>
  RETRIEVED AT: Jun 08 2019 04:05 UTC<br><br>
CYSN has no TAF <br><br>
<br><br>
CYHM 080300Z 02007KT 15SM FEW230 17/09 A3007 RMK CI1 SLP182 DENSITY ALT 1100FT<br><br>
TAF CYHM 072338Z 0800/0824 04005KT P6SM FEW240 FM080300 03005KT P6SM SKC BECMG 0812/0814 05015KT RMK NXT FCST BY 080600Z<br><br>
<br><br>
KIAG 080353Z AUTO 36003KT 10SM CLR 16/09 A3007 RMK AO2 SLP181 T01560094 $<br><br>
KIAG 080253Z 00000KT 10SM CLR 16/10 A3005 RMK AO2 SLP176 T01610100 $<br><br>
KIAG 080234Z 0803/0824 VRB03KT P6SM FEW250 FM080900 08005KT P6SM FEW250 FM081500 07010KT P6SM FEW250<br><br>
<br><br>
KBUF 080354Z 17003KT 10SM FEW280 17/10 A3006 RMK AO2 SLP178 T01720100<br><br>
KBUF 080254Z 02004KT 10SM SCT270 19/08 A3006 RMK AO2 SLP178 T01940083 53018<br><br>
KBUF 080234Z 0803/0824 VRB03KT P6SM FEW250 FM080900 10005KT P6SM FEW250 FM081500 07009KT P6SM FEW250<br><br>
<br><br>
CYYZ 080300Z 04007KT 15SM SKC 18/09 A3007 RMK SLP182 DENSITY ALT 900FT<br><br>
TAF AMD CYYZ 080346Z 0803/0906 04007KT P6SM SKC BECMG 0809/0811 08010KT FM081400 09012G22KT P6SM SKC BECMG 0900/0902 09010KT RMK NXT FCST BY 080600Z<br><br>
<br><br>
CYOO 080300Z AUTO 34008KT 9SM CLR 18/10 A3005 RMK SLP177 DENSITY ALT 800FT<br><br>
TAF CYOO 080138Z 0802/0814 33007KT P6SM SKC BECMG 0804/0806 04008KT BECMG 0811/0813 11012KT RMK FCST BASED ON AUTO OBS. NXT FCST BY 080800Z<br><br>
<br><br>
CYTR 080300Z 05002KT 15SM FEW250 15/11 A3004 RMK CI1 SLP175<br><br>
TAF CYTR 072330Z 0800/0824 23010KT P6SM FEW050 FEW250 BECMG 0800/0802 VRB03KT BECMG 0804/0806 04007KT FM081400 09007KT P6SM SKC BECMG 0816/0818 21010KT RMK NXT FCST BY 080600Z<br><br>
<br><br>
