RETRIEVED AT : May 06 2018 00:05 Local <br>
  RETRIEVED AT: May 06 2018 04:05 UTC<br><br>
CYSN has no TAF <br><br>
<br><br>
CYHM 060300Z 05004KT 15SM BKN130 16/04 A3001 RMK AC7 SLP164 DENSITY ALT 1100FT<br><br>
TAF CYHM 052339Z 0600/0624 23008KT P6SM SCT070 BKN120 BECMG 0606/0608 VRB03KT FM061800 04008KT P6SM SCT040 BKN070 TEMPO 0618/0623 P6SM -SHRA BKN040 OVC070 FM062300 04010KT 5SM -SHRA BR SCT006 OVC040 PROB30 0623/0624 2SM TSRA BR BKN006 OVC040CB RMK NXT FCST BY 060600Z<br><br>
<br><br>
KIAG 060353Z AUTO 21003KT 10SM SCT120 13/06 A3001 RMK AO2 SLP162 T01330061<br><br>
KIAG 060253Z 20003KT 10SM BKN120 14/06 A3001 RMK AO2 SLP164 T01390061 51010<br><br>
KIAG 052340Z 0600/0624 22012KT P6SM BKN080 FM060200 21005KT P6SM BKN080 FM060900 VRB03KT P6SM BKN090 FM061700 35004KT P6SM BKN080 FM061800 03005KT P6SM VCSH SCT040 OVC080<br><br>
<br><br>
KBUF 060354Z 21004KT 10SM SCT090 BKN110 16/05 A3001 RMK AO2 SLP163 T01560050<br><br>
KBUF 060254Z 00000KT 10SM SCT090 BKN120 16/05 A3003 RMK AO2 SLP167 T01560050 53006<br><br>
KBUF 052340Z 0600/0624 22009KT P6SM SCT100 FM060400 VRB04KT P6SM BKN090 FM061700 06005KT P6SM BKN090 FM062100 02008KT P6SM BKN090 FM062300 04009KT P6SM VCSH SCT040 OVC090<br><br>
<br><br>
CYYZ 060323Z 02004KT 15SM FEW075 BKN150 16/12 A2999 RMK AC1AC5 SLP157 DENSITY ALT 800FT<br><br>
CYYZ 060300Z 02006KT 15SM -RA BKN070 BKN140 16/12 A2999 RMK AC5AC2 SLP157 DENSITY ALT 800FT<br><br>
CYYZ 060229Z 08003KT 360V080 15SM -SHRA SCT045 BKN070 OVC100 16/10 A3000 RMK SC3AC4AC1 CVCTV CLD EMBD SLP160 DENSITY ALT 800FT<br><br>
TAF CYYZ 060238Z 0603/0706 VRB03KT P6SM SCT050 BKN100 FM061200 01005KT P6SM SCT040 SCT070 BECMG 0613/0615 09008KT FM061800 09008KT P6SM BKN050 BKN080 TEMPO 0618/0621 P6SM -SHRA FM062100 34012G22KT 5SM -SHRA BR SCT015 OVC040 FM070200 02010G20KT 6SM -RA -DZ BR SCT010 OVC030 RMK NXT FCST BY 060600Z<br><br>
<br><br>
CYOO 060300Z AUTO 33002KT 9SM BKN140 OVC160 15/05 A3000 RMK SLP160<br><br>
CYOO has no TAF <br><br>
<br><br>
CYTR 060300Z 00000KT 15SM BKN120 BKN250 11/07 A2998 RMK AC6CI2 SLP156<br><br>
TAF CYTR 052330Z 0600/0624 22008KT P6SM BKN120 BKN250 FM060200 20005KT P6SM FEW060 BKN250 FM061200 04008KT P6SM FEW050 SCT250 FM061800 04008KT P6SM BKN050 BKN250 RMK NXT FCST BY 060600Z<br><br>
<br><br>
