RETRIEVED AT : Jun 09 2018 23:42 Local <br>
  RETRIEVED AT: Jun 10 2018 03:42 UTC<br><br>
CYSN has no TAF <br><br>
<br><br>
TAF CYHM 092338Z 1000/1024 06006KT P6SM BKN120 FM101500 06015G25KT P6SM BKN080 BECMG 1021/1023 SCT050 RMK NXT FCST BY 100600Z<br><br>
<br><br>
KIAG 100253Z 08003KT 10SM CLR 18/10 A3009 RMK AO2 SLP189 T01780100 51006<br><br>
KIAG 100153Z 05004KT 10SM CLR 19/11 A3009 RMK AO2 SLP188 T01890106<br><br>
KIAG 100253Z 1003/1024 08004KT P6SM BKN120 FM101300 08011KT P6SM BKN150 FM101400 08012G20KT P6SM BKN200 FM102300 07010KT P6SM SCT200<br><br>
<br><br>
KBUF 100254Z 05007KT 10SM SCT090 BKN130 BKN200 18/11 A3010 RMK AO2 SLP190 T01830106 50005<br><br>
KBUF 100154Z 04005KT 10SM BKN130 BKN200 19/12 A3010 RMK AO2 SLP191 T01940117<br><br>
KBUF 100253Z 1003/1024 06006KT P6SM BKN120 FM101400 08011G20KT P6SM BKN130 FM101800 07014KT P6SM BKN130 FM102000 06013KT P6SM SCT110<br><br>
<br><br>
CYYZ 100300Z 10002KT 15SM FEW080 BKN220 19/09 A3009 RMK AC1CI6 AC TR SLP190 DENSITY ALT 1100FT<br><br>
CYYZ 100200Z 14003KT 15SM FEW040 FEW180 BKN260 20/09 A3009 RMK CF1AC1CI5 CF TR SLP191 DENSITY ALT 1100FT<br><br>
TAF CYYZ 100238Z 1003/1106 13005KT P6SM FEW040 BKN240 BECMG 1004/1006 04007KT FM101200 08012KT P6SM SCT050 BKN180 FM101500 09012G22KT P6SM SCT050 BKN180 FM102200 09012KT P6SM SKC BECMG 1023/1101 09008KT RMK NXT FCST BY 100600Z<br><br>
<br><br>
CYOO 100300Z AUTO 03003KT 9SM CLR 15/10 A3009 RMK SLP190<br><br>
CYOO 100200Z AUTO 01003KT 9SM SCT200 16/10 A3010 RMK SLP193 DENSITY ALT 500FT<br><br>
CYOO has no TAF <br><br>
<br><br>
CYTR 100300Z 01002KT 15SM FEW079 15/12 A3009 RMK AC2 SLP190<br><br>
CYTR 100200Z 00000KT 15SM SCT061 BKN220 17/13 A3009 RMK SC3CI2 SLP189<br><br>
TAF CYTR 092330Z 1000/1024 22008KT P6SM FEW060 BKN220 BECMG 1000/1002 VRB03KT BECMG 1010/1012 06012KT RMK NXT FCST BY 100600Z<br><br>
<br><br>
