RETRIEVED AT : Oct 01 2017 03:10 Local <br>
  RETRIEVED AT: Oct 01 2017 07:10 UTC<br><br>
CYSN has no TAF <br><br>
<br><br>
CYHM 010700Z 00000KT 15SM SKC 06/02 A3039 RMK SLP297<br><br>
CYHM 010600Z 08003KT 15SM SKC 05/02 A3040 RMK SLP301<br><br>
TAF CYHM 010538Z 0106/0206 VRB03KT P6SM SKC FM011700 09008KT P6SM FEW030 FM020200 06007KT P6SM SKC RMK NXT FCST BY 011200Z<br><br>
<br><br>
KIAG 010653Z AUTO 00000KT 8SM CLR 06/02 A3041 RMK AO2 SLP303 T00560022<br><br>
KIAG 010553Z AUTO 00000KT 10SM CLR 06/03 A3041 RMK AO2 SLP303 T00610028 10106 20050 55000<br><br>
KIAG 010528Z 0106/0206 VRB03KT P6SM SKC FM011400 20004KT P6SM SKC FM012000 VRB03KT P6SM SKC<br><br>
<br><br>
KBUF 010654Z 15003KT 10SM CLR 05/04 A3041 RMK AO2 SLP301 T00500039 $<br><br>
KBUF 010554Z 15003KT 10SM CLR 06/04 A3041 RMK AO2 SLP302 T00560039 10094 20056 53000 $<br><br>
KBUF 010528Z 0106/0206 VRB03KT P6SM SKC FM011400 21004KT P6SM SKC FM020000 09004KT P6SM SKC FM020300 VRB03KT P6SM SKC<br><br>
<br><br>
CYYZ 010700Z 01004KT 15SM SKC 07/02 A3039 RMK SLP297<br><br>
CYYZ 010600Z 34003KT 15SM SKC 07/03 A3041 RMK SLP302<br><br>
TAF CYYZ 010538Z 0106/0212 32007KT P6SM SKC BECMG 0115/0117 20008KT FM020000 VRB03KT P6SM SKC RMK NXT FCST BY 010900Z<br><br>
<br><br>
CYOO 010700Z AUTO 34002KT 9SM CLR 05/04 A3040 RMK SLP299<br><br>
CYOO 010600Z AUTO 33003KT 9SM CLR 06/04 A3040 RMK SLP300<br><br>
CYOO has no TAF <br><br>
<br><br>
CYTR 010700Z 33006KT 15SM SKC 06/04 A3039 RMK SLP295<br><br>
CYTR 010600Z 34002KT 15SM SKC 04/04 A3039 RMK SLP296<br><br>
TAF CYTR 010530Z 0106/0206 VRB03KT P6SM SKC BECMG 0116/0118 22008KT BECMG 0123/0201 VRB03KT RMK NXT FCST BY 011200Z<br><br>
<br><br>
