RETRIEVED AT : May 20 2018 03:54 Local <br>
  RETRIEVED AT: May 20 2018 07:54 UTC<br><br>
CYSN has no TAF <br><br>
<br><br>
CYHM 200700Z 28010G17KT 15SM FEW007 OVC037 16/14 A2987 RMK SF2SC6 PRESRR SLP117 DENSITY ALT 1200FT<br><br>
CYHM 200600Z 26009KT 6SM -DZ BR OVC005 18/17 A2985 RMK SF8 SLP110 DENSITY ALT 1400FT<br><br>
TAF AMD CYHM 200724Z 2007/2106 30012KT P6SM FEW007 BKN015 TEMPO 2007/2014 SCT015 BKN025 FM201400 36006KT P6SM BKN020 FM201700 05006KT P6SM BKN030 BECMG 2019/2021 VRB03KT FM210200 07008KT P6SM BKN020 RMK NXT FCST BY 201200Z<br><br>
<br><br>
KIAG 200751Z AUTO 27006KT 4SM BR OVC005 18/17 A2985 RMK AO2 RAE0657 CIG 003V009 P0000<br><br>
KIAG 200711Z AUTO 23006KT 8SM OVC004 18/16 A2984 RMK AO2 RAE0657 P0000 T01780161<br><br>
KIAG 200653Z AUTO 24008KT 6SM -RA BR OVC006 18/16 A2984 RMK AO2 RAB01E10B29 SLP103 P0000 T01830161<br><br>
KIAG 200628Z AUTO 23010KT 10SM OVC009 19/16 A2984 RMK AO2 RAB01E10 CIG 007V011 P0000 T01890156<br><br>
KIAG 200537Z 2006/2106 22010KT P6SM VCSH OVC008 FM200900 29010KT P6SM BKN003 OVC008 FM201300 31009KT P6SM OVC015 FM201600 31008KT P6SM SCT130 FM210000 28004KT P6SM FEW040 FM210500 VRB03KT P6SM SKC<br><br>
<br><br>
KBUF 200736Z COR 23011G18KT 3SM RA OVC004 19/17 A2985 RMK AO2 P0008 T01940167<br><br>
KBUF 200700Z 24012G19KT 4SM -RA OVC013 21/17 A2984 RMK AO2 P0000 T02110172<br><br>
KBUF 200654Z 23011KT 6SM -RA OVC015 21/17 A2984 RMK AO2 RAB45 SLP103 P0001 T02110172<br><br>
KBUF 200537Z 2006/2106 22010KT P6SM VCSH BKN025 FM200700 28008KT P6SM OVC008 FM201300 30006KT P6SM OVC015 FM201600 31006KT P6SM OVC025 FM201800 31007KT P6SM SCT080 FM210300 26004KT P6SM FEW130<br><br>
<br><br>
TAF CYYZ 200538Z 2006/2112 32005KT P6SM OVC050 TEMPO 2006/2008 5SM -SHRA BR BKN008 OVC012 BECMG 2006/2008 33010KT FM200800 33013KT P6SM BKN012 BECMG 2010/2012 35013G23KT BECMG 2013/2015 35010G20KT FM201700 35012KT P6SM FEW025 BECMG 2101/2103 35008KT RMK NXT FCST BY 200900Z<br><br>
<br><br>
CYOO 200745Z AUTO 32010G15KT 9SM BKN016 BKN046 BKN065 OVC100 16/13 A2984 RMK SLP107 DENSITY ALT 700FT<br><br>
CYOO 200726Z AUTO 32012KT 270V350 9SM SCT016 BKN044 BKN095 OVC120 16/14 A2983 RMK SLP103 DENSITY ALT 700FT<br><br>
CYOO 200700Z AUTO 27002KT 8SM FEW021 SCT040 BKN065 OVC084 14/14 A2982 RMK SLP100 DENSITY ALT 600FT<br><br>
CYOO 200651Z AUTO 25003KT 9SM FEW021 BKN038 BKN065 OVC078 14/14 A2982 RMK SLP100 DENSITY ALT 600FT<br><br>
CYOO 200645Z AUTO 26004KT 6SM -RA BR FEW027 BKN038 OVC060 15/14 A2982 RMK SLP099 DENSITY ALT 600FT<br><br>
CYOO 200640Z AUTO 27004KT 5SM -RA BR FEW011 SCT027 BKN036 OVC055 14/14 A2981 RMK SLP098 DENSITY ALT 600FT<br><br>
CYOO 200638Z AUTO 27004KT 5SM BR FEW011 SCT027 BKN036 OVC050 14/14 A2981 RMK SLP098 DENSITY ALT 600FT<br><br>
CYOO 200629Z AUTO 26003KT 9SM SCT011 BKN027 OVC036 14/14 A2982 RMK SLP100 DENSITY ALT 600FT<br><br>
CYOO 200609Z AUTO 26003KT 9SM SCT009 OVC013 14/13 A2982 RMK SLP100 DENSITY ALT 500FT<br><br>
CYOO 200600Z AUTO 27003KT 9SM BKN007 OVC013 14/13 A2982 RMK SLP099 DENSITY ALT 500FT<br><br>
CYOO has no TAF <br><br>
<br><br>
CYTR 200700Z 21009KT 2 1/2SM BR OVC002 15/14 A2979 RMK SF8 CIG VRB 1-3 SLP089<br><br>
CYTR 200648Z 20007KT 2SM BR OVC002 14/13 A2979 RMK SF8 CIG VRB 1-3 SLP088<br><br>
CYTR 200627Z 19008KT 6SM BR OVC003 14/13 A2979 RMK SF8 CIG VRB 2-4 SLP089<br><br>
CYTR 200600Z 19004KT 8SM OVC004 14/13 A2979 RMK SF8 SLP089<br><br>
TAF AMD CYTR 200708Z 2007/2106 20008KT 2SM -SHRA BR OVC002 BECMG 2007/2009 31010KT P6SM NSW SCT008 OVC025 FM200900 31010KT P6SM SCT008 OVC025 TEMPO 2009/2012 OVC008 BECMG 2010/2012 35010G20KT FM201200 35010G20KT P6SM SCT012 OVC025 TEMPO 2012/2014 OVC012 FM201600 35008KT P6SM SCT040 BKN200 BECMG 2021/2023 27006KT RMK NXT FCST BY 201200Z<br><br>
<br><br>
