RETRIEVED AT : Nov 11 2017 22:10 Local <br>
  RETRIEVED AT: Nov 12 2017 03:10 UTC<br><br>
CYSN 120200Z 07004KT 15SM OVC180 M02/M08 A3037 RMK AC8 LAST STFD OBS/NEXT 121200UTC SLP292<br><br>
CYSN has no TAF <br><br>
<br><br>
CYHM 120300Z 06006KT 15SM SCT110 BKN190 OVC210 M03/M07 A3033 RMK AC3AC4CI1 SLP284<br><br>
CYHM 120200Z 06006KT 15SM SCT110 BKN170 OVC250 M03/M08 A3034 RMK AC3AC2CI3 SLP288<br><br>
TAF CYHM 112338Z 1200/1224 11012KT P6SM FEW030 BKN240 FM120200 VRB03KT P6SM BKN060 OVC240 FM121700 08005KT P6SM -SHRASN OVC030 FM121900 05005KT P6SM -SHRA BKN015 OVC030 FM122300 05005KT 6SM -SHRA BR OVC010 PROB30 1223/1224 OVC008 RMK NXT FCST BY 120600Z<br><br>
<br><br>
KIAG 120253Z 12006KT 10SM CLR M01/M09 A3035 RMK AO2 SLP292 T10061094 58015 $<br><br>
KIAG 120153Z 10005KT 10SM CLR M01/M10 A3037 RMK AO2 SLP301 T10061100 $<br><br>
KIAG 120243Z 1203/1224 15005KT P6SM BKN120 FM120800 18005KT P6SM OVC070 FM121600 18005KT P6SM BKN045 FM122000 VRB03KT P6SM OVC040<br><br>
<br><br>
KBUF 120254Z 15005KT 10SM BKN180 M01/M09 A3035 RMK AO2 SLP287 T10061089 58013<br><br>
KBUF 120154Z 12007KT 10SM BKN180 M01/M09 A3037 RMK AO2 SLP294 T10061089<br><br>
KBUF 120243Z 1203/1224 17004KT P6SM BKN140 FM120500 18004KT P6SM BKN110 FM120900 18004KT P6SM OVC070 FM121600 18004KT P6SM BKN045 FM121900 VRB03KT P6SM OVC040<br><br>
<br><br>
CYYZ 120300Z 12004KT 15SM OVC120 01/M08 A3035 RMK AC8 SLP288<br><br>
CYYZ 120200Z 12007KT 15SM SCT110 BKN160 01/M08 A3036 RMK AC3AS4 SLP293<br><br>
TAF CYYZ 120238Z 1203/1306 12007KT P6SM SCT110 BKN160 FM120500 VRB03KT P6SM BKN060 TEMPO 1210/1216 P6SM -SN OVC050 FM121600 15005KT P6SM OVC030 TEMPO 1216/1222 P6SM -RASN FM122200 VRB03KT 6SM -RASN BR OVC025 FM130200 VRB03KT 4SM -RASN BR OVC010 PROB30 1304/1306 OVC008 RMK NXT FCST BY 120600Z<br><br>
<br><br>
CYOO 120300Z AUTO 06004KT 9SM OVC130 M01/M06 A3037 RMK SLP293<br><br>
CYOO 120200Z AUTO 07003KT 030V140 9SM SCT120 BKN140 OVC160 M00/M07 A3039 RMK SLP301<br><br>
CYOO has no TAF <br><br>
<br><br>
CYTR 120300Z 05004KT 15SM OVC120 M03/M07 A3042 RMK AC8 SLP309<br><br>
CYTR 120200Z 06006KT 15SM OVC120 M03/M07 A3043 RMK AC8 SLP312<br><br>
TAF CYTR 112330Z 1200/1224 10005KT P6SM FEW030 BKN120 OVC220 FM121200 VRB03KT P6SM SCT030 BKN060 OVC100 BECMG 1213/1215 11008KT RMK NXT FCST BY 120600Z<br><br>
<br><br>
