RETRIEVED AT : May 18 2018 04:37 Local <br>
  RETRIEVED AT: May 18 2018 08:37 UTC<br><br>
CYSN has no TAF <br><br>
<br><br>
CYHM 180800Z 06020G25KT 15SM BKN250 10/01 A3023 RMK CI5 SLP240<br><br>
CYHM 180700Z 06020G29KT 15SM SCT250 11/03 A3022 RMK CI4 SLP236<br><br>
TAF AMD CYHM 180717Z 1807/1906 05020G30KT P6SM BKN250 FM182100 05015G25KT P6SM OVC200 BECMG 1822/1824 05015KT OVC180 RMK NXT FCST BY 181200Z<br><br>
<br><br>
KIAG 180753Z AUTO 07013KT 10SM CLR 13/00 A3023 RMK AO2 SLP237 T01280000<br><br>
KIAG 180653Z AUTO 07012KT 10SM CLR 13/01 A3023 RMK AO2 SLP235 T01330011<br><br>
KIAG 180808Z 1808/1906 07014G22KT P6SM BKN250 FM182300 08010KT P6SM OVC200 FM190500 10008KT P6SM OVC050<br><br>
<br><br>
KBUF 180754Z 07017G24KT 10SM OVC260 15/01 A3022 RMK AO2 SLP232 T01500006<br><br>
KBUF 180654Z 06012KT 10SM OVC260 16/01 A3022 RMK AO2 SLP231 T01560011<br><br>
