RETRIEVED AT : May 16 2020 15:05 Local <br>
  RETRIEVED AT: May 16 2020 19:05 UTC<br><br>
CYSN 161800Z 03006KT 310V060 15SM FEW030 FEW250 16/11 A3020 RMK SC1CI1 SLP228<br><br>
TAF AMD CYSN 161405Z 1614/1701 35005KT 4SM BR OVC006 TEMPO 1614/1616 P6SM NSW OVC015 FM161600 36006KT P6SM SCT015 TEMPO 1616/1617 BKN015 FM161700 36006KT P6SM FEW040 BECMG 1620/1622 02006KT RMK NXT FCST BY 162000Z<br><br>
<br><br>
CYHM 161800Z 06008KT 020V100 15SM FEW030 FEW250 16/09 A3019 RMK CU1CI1 CU TR CI TR SLP228 DENSITY ALT 800FT<br><br>
TAF CYHM 161741Z 1618/1718 05007KT P6SM FEW030 FM170100 06005KT P6SM SKC FM171000 06012KT P6SM SCT040 BKN180 FM171600 05015G25KT P6SM SCT040 BKN140 RMK NXT FCST BY 170000Z<br><br>
<br><br>
KIAG 161853Z 05010KT 10SM CLR 18/08 A3019 RMK AO2 SLP225 T01780083<br><br>
KIAG 161753Z 01006KT 10SM SCT028 16/08 A3020 RMK AO2 SLP230 T01610083 10172 20094 51003<br><br>
KIAG 161714Z 31007KT 10SM SCT030 BKN039 16/09 A3020 RMK AO2 T01610094<br><br>
KIAG 161723Z 1618/1718 VRB05KT P6SM BKN040 FM162200 05005KT P6SM SCT250 FM170400 08005KT P6SM SCT250 FM171400 09011G18KT P6SM OVC100<br><br>
<br><br>
KBUF 161854Z 36009KT 10SM SCT037 19/08 A3018 RMK AO2 SLP222 T01890083<br><br>
KBUF 161754Z VRB04KT 10SM BKN036 17/09 A3019 RMK AO2 SLP226 T01720089 10183 20089 50000<br><br>
KBUF 161716Z 02007KT 10SM BKN037 17/09 A3020 RMK AO2 T01720089<br><br>
KBUF 161723Z 1618/1718 VRB05KT P6SM BKN035 FM162200 04006KT P6SM SCT250 FM170200 07006KT P6SM SCT250 FM171500 09011G17KT P6SM OVC100<br><br>
<br><br>
CYYZ 161800Z 15009KT 120V180 15SM BKN050 15/08 A3020 RMK SC7 SLP230<br><br>
TAF AMD CYYZ 161743Z 1618/1724 14012KT P6SM BKN030 TEMPO 1618/1621 SCT030 FM162100 13008KT P6SM SCT040 BECMG 1701/1703 07007KT FM170900 08008KT P6SM SCT050 BKN220 FM171200 09012KT P6SM SCT050 OVC150 BECMG 1717/1719 09012G22KT FM172100 09012G22KT P6SM -RA BKN030 OVC070 RMK NXT FCST BY 162100Z<br><br>
<br><br>
CYOO 161800Z AUTO 20009G15KT 160V240 9SM BKN048 14/09 A3020 RMK SLP230<br><br>
TAF CYOO 161338Z 1614/1702 03006KT P6SM SKC FM161500 34006KT P6SM SCT030 BECMG 1618/1620 17005KT BECMG 1700/1702 VRB03KT RMK FCST BASED ON AUTO OBS. NXT FCST BY 162000Z<br><br>
<br><br>
CYTR 161800Z 36006KT 15SM OVC030 15/06 A3021 RMK SC8 SLP231<br><br>
TAF CYTR 161731Z 1618/1718 31005KT P6SM BKN030 BECMG 1618/1619 20008KT FM170200 VRB03KT P6SM FEW030 BECMG 1706/1708 04007KT FM171200 05010KT P6SM BKN200 RMK NXT FCST BY 170000Z<br><br>
<br><br>
