RETRIEVED AT : Feb 28 2020 15:05 Local <br>
  RETRIEVED AT: Feb 28 2020 20:05 UTC<br><br>
CYSN 281900Z 25021G31KT 15SM SCT040 BKN087 M04/M11 A2972 RMK SC3AC4 SLP072<br><br>
TAF CYSN 281938Z 2820/2902 25020G30KT 6SM -SHSN OVC025 TEMPO 2820/2902 21/2SM -SHSN OVC020 PROB30 2820/2902 11/2SM -SHSN VV012 RMK NXT FCST WILL BE ISSUED AT 291345Z<br><br>
<br><br>
CYHM 281900Z 25024G33KT 15SM SCT032 BKN041 BKN250 M05/M12 A2969 RMK CU4SC2CI1 SLP070<br><br>
TAF CYHM 281738Z 2818/2918 25020G35KT P6SM BKN030 TEMPO 2818/2823 5SM -SHSN FM282300 25015G28KT P6SM -SHSN OVC030 TEMPO 2823/2904 11/2SM -SHSN BLSN OVC010 PROB30 2823/2903 3/4SM -SHSN BLSN VV006 FM290400 29010G20KT P6SM BKN030 BKN060 TEMPO 2904/2906 2SM -SHSN OVC020 FM290600 32007KT P6SM SCT030 BKN060 FM291700 28010G20KT P6SM -SHSN BKN030 RMK NXT FCST BY 290000Z<br><br>
<br><br>
KIAG 281953Z 25022G29KT 10SM SCT042 BKN060 OVC080 M04/M12 A2972 RMK AO2 PK WND 25033/1911 SLP083 T10441117<br><br>
KIAG 281853Z 25023G31KT 10SM FEW040 OVC095 M05/M12 A2971 RMK AO2 PK WND 25035/1815 SLP080 T10501122<br><br>
KIAG 281739Z 2818/2918 25022G34KT P6SM VCSH BKN035 FM282100 25022G33KT P6SM VCSH OVC030 FM282300 25019G28KT 2SM -SN BLSN OVC025 FM290200 27015G23KT 1SM -SN BLSN OVC012 FM290700 29011G17KT 2SM -SN OVC025 FM290900 30011KT 2SM -SN OVC030 FM291500 29012G18KT 2SM -SN OVC025<br><br>
<br><br>
KBUF 281954Z 25016G29KT 9SM -SN BKN029 BKN037 OVC050 M04/M10 A2971 RMK AO2 PK WND 25030/1906 SLP072 P0000 T10391100<br><br>
KBUF 281854Z 25015G24KT 9SM -SN OVC033 M04/M11 A2971 RMK AO2 PK WND 24029/1842 SLP071 P0000 T10441106<br><br>
KBUF 281739Z 2818/2918 25022G33KT P6SM VCSH BKN035 FM282100 25021G32KT 2SM -SN BLSN OVC020 FM290000 25016G25KT 1SM -SN BLSN OVC015 FM290800 29010KT 2SM -SN OVC025 FM291100 29009KT 2SM -SN OVC035 FM291500 29012G18KT 2SM -SN OVC025<br><br>
<br><br>
CYYZ 281900Z 25016G27KT 15SM BKN035 OVC100 M04/M10 A2965 RMK SC6AC2 SLP050<br><br>
TAF CYYZ 281738Z 2818/2924 25020G35KT P6SM SCT030 FM282000 25018G32KT P6SM -SHSN BKN030 TEMPO 2820/2901 11/2SM -SHSN BLSN OVC012 PROB30 2821/2824 1/2SM SHSN BLSN VV005 FM290100 30012G22KT P6SM BKN040 TEMPO 2901/2903 4SM -SHSN FM290400 31010KT P6SM SCT030 BKN060 FM290800 35008KT P6SM BKN070 FM291100 01008KT P6SM FEW030 BKN090 FM291700 29012G22KT P6SM -SHSN BKN030 BECMG 2921/2923 31010KT RMK NXT FCST BY 282100Z<br><br>
<br><br>
CYOO 281953Z AUTO 27015G21KT 2SM -SN BKN023 BKN029 OVC036 M04/M08 A2964 RMK VIS VRB 1-3 SLP045<br><br>
CYOO 281916Z AUTO 25017G24KT 1 1/4SM -SN SCT020 BKN025 BKN033 OVC042 M04/M09 A2962 RMK VIS VRB 5/8-3 SLP039<br><br>
CYOO 281900Z AUTO 27013KT 1SM -SN VV014 M05/M07 A2963 RMK SLP042<br><br>
CYOO 281833Z AUTO 25019G27KT 1 3/4SM -SN BKN024 OVC034 M04/M08 A2962 RMK VIS VRB 5/8-3 SLP038<br><br>
CYOO 281832Z AUTO 25018G27KT 3SM -SN BKN024 OVC034 M04/M08 A2962 RMK SLP038<br><br>
CYOO 281813Z AUTO 25019G28KT 3SM -SN BKN030 OVC036 M04/M09 A2961 RMK SLP035<br><br>
TAF CYOO 281941Z 2820/2908 25018G28KT 1SM -SHSN BLSN OVC012 TEMPO 2820/2822 6SM -SHSN OVC030 FM282200 27015G25KT P6SM -SN OVC030 TEMPO 2822/2824 2SM -SHSN BLSN OVC020 FM290000 29012G22KT P6SM BKN030 BKN050 TEMPO 2900/2902 4SM -SHSN BKN020 BKN040 FM290400 32008KT P6SM SCT030 BKN060 RMK FCST BASED ON AUTO OBS. NXT FCST BY 290200Z<br><br>
<br><br>
CYTR 281946Z 28008KT 2 1/2SM -SHSN OVC020 M04/M07 A2963 RMK SN3SC5 VIS VRB 1 3/4-4 SLP040<br><br>
CYTR 281935Z 31002KT 5SM -SHSN BKN023 OVC095 M05/M07 A2963 RMK SC5AC3 VIS VRB 3-7 SLP040<br><br>
CYTR 281900Z 29005KT 2 1/2SM -SHSN BKN022 OVC092 M05/M07 A2963 RMK SN3SC3AC2 VIS VRB 1 3/4-4 SLP039<br><br>
CYTR 281822Z 32008KT 2SM -SHSN OVC022 M06/M08 A2963 RMK SN4SC4 VIS VRB 1 1/2-2 1/2 SLP039<br><br>
TAF CYTR 281730Z 2818/2918 31007KT 6SM -SN SCT030 BKN150 TEMPO 2818/2822 11/2SM -SHSN VV010 BECMG 2818/2820 25015G25KT FM282200 29010KT P6SM -SHSN BKN030 OVC080 TEMPO 2822/2824 2SM -SHSN BKN020 OVC080 FM290000 29008KT P6SM SCT030 BKN090 FM291400 29008KT P6SM BKN025 RMK NXT FCST BY 290000Z<br><br>
<br><br>
