RETRIEVED AT : Sep 24 2017 16:10 Local <br>
  RETRIEVED AT: Sep 24 2017 20:10 UTC<br><br>
CYSN 242000Z 36007KT 12SM FEW040 31/20 A3009 RMK CU1 SLP189 DENSITY ALT 2100FT<br><br>
CYSN 241900Z 36008KT 15SM FEW040 32/19 A3010 RMK CU1 SLP192 DENSITY ALT 2200FT<br><br>
TAF CYSN 241938Z 2420/2501 36006KT P6SM FEW040 FM242300 VRB03KT P6SM SKC RMK NXT FCST WILL BE ISSUED AT 251245Z<br><br>
<br><br>
CYHM 242000Z 17004KT 070V200 15SM FEW056 32/18 A3011 RMK CU1 SLP195 DENSITY ALT 2700FT<br><br>
CYHM 241900Z 31002KT 15SM FEW048 31/19 A3013 RMK CU1 SLP201 DENSITY ALT 2600FT<br><br>
TAF CYHM 241738Z 2418/2518 VRB03KT P6SM SKC RMK NXT FCST BY 250000Z<br><br>
<br><br>
KIAG 241953Z 01003KT 10SM CLR 33/18 A3010 RMK AO2 SLP186 T03330183<br><br>
KIAG 241853Z 30004KT 10SM CLR 33/19 A3011 RMK AO2 SLP189 T03280189<br><br>
KIAG 241729Z 2418/2518 VRB03KT P6SM SKC FM241900 01006KT P6SM SKC FM242300 VRB04KT P6SM SKC FM250800 VRB03KT 3SM BR FEW250 FM251200 VRB03KT P6SM FEW250<br><br>
<br><br>
KBUF 241954Z 28006KT 10SM FEW045 32/19 A3011 RMK AO2 SLP193 T03220194<br><br>
KBUF 241854Z 30005KT 10SM FEW045 32/19 A3012 RMK AO2 SLP196 T03170189<br><br>
KBUF 241729Z 2418/2518 VRB03KT P6SM SKC FM242000 25005KT P6SM SKC FM250000 19004KT P6SM SKC FM250800 VRB03KT 4SM BR FEW250 FM251200 15004KT P6SM FEW250<br><br>
<br><br>
CYYZ 242000Z 16007KT 15SM FEW065 33/19 A3009 RMK CU2 SLP188 DENSITY ALT 2600FT<br><br>
CYYZ 241900Z 25005KT 210V280 15SM FEW060 33/19 A3010 RMK CU1 SLP191 DENSITY ALT 2600FT<br><br>
TAF CYYZ 241738Z 2418/2524 VRB03KT P6SM SKC FM251700 15008KT P6SM SCT240 RMK NXT FCST BY 242100Z<br><br>
<br><br>
CYOO 242000Z AUTO 17007KT 150V220 9SM CLR 31/19 A3009 RMK SLP188 DENSITY ALT 2100FT<br><br>
CYOO 241900Z AUTO 20005KT 9SM CLR 31/18 A3010 RMK SLP193 DENSITY ALT 2100FT<br><br>
CYOO 241825Z AUTO 19007KT 6SM HZ CLR 30/19 A3011 RMK SLP195 DENSITY ALT 2100FT<br><br>
CYOO has no TAF <br><br>
<br><br>
CYTR 242000Z 19008KT 15SM SKC 29/21 A3006 RMK SLP179<br><br>
CYTR 241900Z 21008KT 15SM FEW025 29/22 A3008 RMK CF1 SLP186<br><br>
TAF CYTR 241730Z 2418/2518 21009KT P6SM SKC BECMG 2423/2501 VRB03KT FM250400 VRB03KT P6SM SKC TEMPO 2504/2512 3SM BR BECMG 2515/2517 20008KT RMK NXT FCST BY 250000Z<br><br>
<br><br>
