RETRIEVED AT : Nov 05 2017 01:10 Local <br>
  RETRIEVED AT: Nov 05 2017 05:10 UTC<br><br>
CYSN has no TAF <br><br>
<br><br>
CYHM 050500Z 06009KT 15SM OVC028 05/05 A2999 RMK SC8 SLP163<br><br>
CYHM 050431Z 05011KT 15SM SCT029 BKN068 OVC120 05/04 A3000 RMK SC3AC4AC1 SLP166<br><br>
CYHM 050400Z 05011KT 10SM -RA FEW070 OVC120 05/04 A3000 RMK AC2AC6 SLP166<br><br>
CYHM 050349Z 06012KT 6SM RA OVC088 05/04 A3001 RMK AC8 PRESFR SLP169<br><br>
TAF CYHM 042338Z 0500/0524 06015G25KT P6SM BKN050 OVC140 TEMPO 0500/0501 P6SM -SHRA BKN020 OVC050 FM050100 07012KT P6SM FEW012 OVC025 TEMPO 0501/0507 3SM -SHRA BR OVC012 PROB30 0501/0507 VRB15G25KT 2SM TSRA BR OVC008CB FM050700 10008KT 21/2SM -SHRA BR OVC008 TEMPO 0507/0509 6SM -SHRA BR OVC010 PROB30 0507/0509 VRB15G25KT 11/2SM TSRA BR OVC005CB FM050900 18012G22KT 6SM -SHRA BR OVC008 TEMPO 0509/0523 21/2SM -SHRA BR OVC005 BECMG 0512/0514 19015G25KT FM052300 21012G22KT 11/2SM SHRA BR OVC005 PROB40 0523/0524 VRB20G35KT 1SM +TSRA BR OVC004CB RMK NXT FCST BY 050600Z<br><br>
<br><br>
KIAG 050502Z AUTO 10004KT 2SM +RA OVC037 07/03 A3002 RMK AO2 LTG DSNT S P0007 T00670028<br><br>
KIAG 050453Z AUTO 10008KT 2SM VCTS +RA OVC037 07/03 A3002 RMK AO2 LTG DSNT S AND SW RAB0359 SLP172 P0019 T00670028 400890011<br><br>
KIAG 050438Z AUTO 00000KT 2 1/2SM VCTS +RA OVC034 07/03 A3005 RMK AO2 LTG DSNT S AND SW RAB0359 P0007 T00720028<br><br>
KIAG 050353Z AUTO 08005KT 10SM OVC035 08/02 A3002 RMK AO2 SLP175 T00780017<br><br>
KIAG 050241Z 0503/0524 09010KT P6SM VCSH BKN050 FM050500 16008KT P6SM OVC035 WS020/20040KT FM051000 18012KT 4SM SHRA OVC025 WS020/20045KT FM051400 18016G23KT P6SM VCSH OVC025<br><br>
<br><br>
KBUF 050505Z 06005KT 3SM +TSRA BR BKN036CB OVC045 06/04 A3003 RMK AO2 LTG DSNT S AND SW OCNL LTGIC VC S TSB03 TS VC S MOV NE P0005 T00610044 $<br><br>
KBUF 050454Z VRB04KT 4SM +RA SCT036 BKN045 OVC065 07/04 A3006 RMK AO2 LTG DSNT SW AND W RAB29 PRESRR SLP184 OCNL LTGIC DSNT SW-NW CB DSNT SW-NW MOV NE P0002 T00670039 400890017 $<br><br>
KBUF 050354Z 05004KT 10SM BKN036 BKN044 OVC095 07/03 A3002 RMK AO2 SLP169 T00720028<br><br>
KBUF 050241Z 0503/0524 10009KT P6SM VCSH BKN050 FM050500 14009KT P6SM OVC045 WS020/20040KT FM051000 17014G20KT 4SM SHRA OVC025 WS020/20045KT FM051400 18017G25KT P6SM VCSH OVC025<br><br>
<br><br>
CYYZ 050500Z 10010KT 15SM FEW011 BKN026 OVC090 06/05 A3001 RMK SF1SC6AC1 SLP169<br><br>
CYYZ 050435Z 08009KT 15SM FEW011 OVC032 06/04 A3002 RMK SF1SC7 SLP172<br><br>
CYYZ 050400Z 10004KT 060V130 15SM -RA SCT011 BKN035 OVC080 06/04 A3005 RMK SF3SC4AC1 SLP182<br><br>
CYYZ 050323Z 09010KT 15SM -RA SCT013 BKN035 OVC085 06/03 A3005 RMK SC3SC4AC1 PRESFR SLP182<br><br>
TAF CYYZ 050239Z 0503/0606 08012KT P6SM BKN040 OVC080 TEMPO 0503/0505 5SM -SHRA BR BKN015 OVC040 FM050500 09007KT 6SM -SHRA BR SCT006 OVC015 TEMPO 0505/0508 21/2SM -SHRA BR BKN006 OVC015 FM050800 14010KT 11/2SM -SHRA BR BKN003 OVC006 TEMPO 0508/0512 3SM -SHRA BR SCT003 OVC006 FM051200 19012G22KT 2SM -SHRA BR BKN006 OVC012 FM051700 20010G20KT 4SM -SHRA BR BKN008 OVC015 FM052100 21010G20KT 6SM -SHRA BR SCT008 OVC015 FM060000 19008KT 11/2SM SHRA BR OVC006 PROB40 0600/0603 VRB20G35KT 1SM +TSRA BR OVC004CB FM060300 26006KT 6SM BR BKN012 OVC070 FM060500 31012KT P6SM -SHRA SCT012 OVC030 RMK NXT FCST BY 050600Z<br><br>
<br><br>
