RETRIEVED AT : Oct 28 2018 09:05 Local <br>
  RETRIEVED AT: Oct 28 2018 13:05 UTC<br><br>
CYSN 281220Z 27005KT 5SM BR OVC008 03/03 A2976 RMK SC8 SLP082<br><br>
CYSN 281200Z 28003KT 4SM -RA BR OVC006 03/03 A2976 RMK SC8 SLP082<br><br>
TAF CYSN 281242Z 2813/2901 27005KT 5SM -RA -DZ BR OVC008 TEMPO 2813/2819 P6SM NSW OVC015 FM281900 24008KT P6SM -RA BKN015 BKN050 TEMPO 2819/2822 P6SM NSW SCT012 BKN050 FM282200 22008KT P6SM -SHRA OVC015 BECMG 2822/2824 VRB03KT RMK NXT FCST BY 282000Z<br><br>
<br><br>
CYHM 281200Z 30003KT 3/4SM R12/P6000FT/D -SN SCT004 OVC012 00/00 A2976 RMK SN2SF2SC4 SLP086<br><br>
CYHM 281115Z 29003KT 1SM R12/P6000FT/D -SN BKN004 OVC011 00/00 A2976 RMK SN1SF5SC2 SLP087<br><br>
TAF CYHM 281145Z 2812/2912 33005KT 1SM -SNRA BR BKN004 OVC012 TEMPO 2812/2815 3SM BR SCT004 OVC015 FM281500 23005KT P6SM -RA -DZ BKN008 OVC025 TEMPO 2815/2819 P6SM NSW SCT010 OVC025 FM281900 23005KT P6SM BKN012 OVC040 TEMPO 2819/2821 SCT012 OVC040 FM282100 VRB03KT P6SM -SHRA OVC015 FM290300 35008KT P6SM OVC025 FM290500 31008KT P6SM SCT020 BKN050 BECMG 2907/2909 27010KT RMK NXT FCST BY 281800Z<br><br>
<br><br>
KIAG 281253Z 27004KT 3SM BR OVC005 02/02 A2975 RMK AO2 SLP085 T00220017<br><br>
KIAG 281153Z 33004KT 6SM BR OVC005 02/01 A2975 RMK AO2 RAE20 SLP086 P0000 60007 70039 T00220011 10028 20022 51002<br><br>
KIAG 281129Z 34004KT 5SM BR OVC005 02/01 A2975 RMK AO2 RAE20 CIG 004V008 P0000 T00220011<br><br>
KIAG 281120Z 2812/2912 VRB03KT 6SM -SHRA OVC005 FM281600 27004KT P6SM VCSH OVC007 FM281800 24009KT P6SM VCSH OVC012 FM290100 00000KT 6SM -SHRA OVC012 FM291000 29009KT P6SM VCSH OVC020<br><br>
<br><br>
KBUF 281301Z 25004KT 5SM -DZ BR OVC004 02/02 A2975 RMK AO2 CIG 003V008 P0000 T00220022<br><br>
KBUF 281254Z 00000KT 4SM -DZ BR OVC006 02/02 A2975 RMK AO2 CIG 003V008 SLP080 P0000 T00220022<br><br>
KBUF 281238Z 29004KT 5SM -DZ BR BKN006 BKN010 OVC026 02/02 A2975 RMK AO2 P0000 T00220017<br><br>
KBUF 281229Z 27004KT 5SM -DZ BR SCT006 BKN010 OVC026 02/02 A2975 RMK AO2 P0000 T00220022<br><br>
KBUF 281154Z 28004KT 7SM -DZ OVC007 02/02 A2975 RMK AO2 CIG 004V009 SLP081 RAE35DZB35 P0001 60005 70038 T00220017 10033 20022 51005<br><br>
KBUF 281120Z 2812/2912 27004KT 6SM -SHRA OVC005 FM281600 25008KT P6SM VCSH OVC012 FM290000 00000KT P6SM VCSH OVC007 FM290100 00000KT 6SM -SHRA OVC007 FM291100 28008KT P6SM VCSH OVC020<br><br>
<br><br>
CYYZ 281231Z 28004KT 6SM BR SCT006 OVC032 01/00 A2974 RMK SC4SC4 SLP080<br><br>
CYYZ 281200Z 31004KT 6SM -RASN SCT005 OVC035 01/00 A2975 RMK SF4SC4 SLP083<br><br>
CYYZ 281124Z 32006KT 5SM -RASN SCT005 OVC018 01/00 A2975 RMK SF4SC4 SLP083<br><br>
TAF CYYZ 281145Z 2812/2918 30006KT 6SM -RASN SCT005 OVC025 TEMPO 2812/2816 21/2SM -SN BKN005 OVC030 FM281600 26007KT P6SM BKN015 OVC030 TEMPO 2816/2818 P6SM -SHRA FM282300 VRB03KT 5SM -SHRA BR OVC012 FM290400 29006KT P6SM SCT020 OVC050 BECMG 2907/2909 27010KT FM291400 29010G20KT P6SM -SHRA OVC025 FM291700 29015G25KT P6SM SCT030 BKN100 RMK NXT FCST BY 281500Z<br><br>
<br><br>
CYOO 281239Z AUTO 28003KT 9SM SCT022 BKN047 OVC055 01/ A2974 RMK TD MISG SLP079<br><br>
CYOO 281210Z AUTO 27003KT 9SM BKN024 OVC048 01/ A2974 RMK TD MISG SLP079<br><br>
CYOO 281205Z AUTO 28003KT 9SM -UP BKN024 OVC048 01/ A2974 RMK TD MISG SLP079<br><br>
CYOO 281200Z AUTO 29003KT 9SM -SN -UP BKN024 OVC048 01/ A2974 RMK TD MISG SLP079<br><br>
CYOO 281159Z AUTO 29003KT 9SM -SN -UP BKN024 OVC048 01/ A2974 RMK TD MISG SLP079<br><br>
CYOO 281158Z AUTO 29003KT 9SM -SN BKN024 OVC048 01/ A2974 RMK TD MISG SLP079<br><br>
CYOO 281152Z AUTO 29003KT 9SM -RASN BKN024 OVC048 01/ A2974 RMK TD MISG SLP079<br><br>
CYOO 281143Z AUTO 29003KT 9SM -RA OVC024 01/ A2975 RMK TD MISG SLP080<br><br>
CYOO 281140Z AUTO 28003KT 9SM -RA -UP OVC024 01/ A2974 RMK TD MISG SLP079<br><br>
CYOO 281137Z AUTO 28003KT 9SM -RASN -UP FEW017 OVC024 01/ A2974 RMK TD MISG SLP079<br><br>
CYOO 281134Z AUTO 28003KT 9SM -SN -UP FEW017 OVC024 01/ A2974 RMK TD MISG SLP079<br><br>
CYOO 281132Z AUTO 28003KT 9SM -SN FEW017 OVC024 01/ A2974 RMK TD MISG SLP079<br><br>
CYOO 281128Z AUTO 28003KT 9SM -SN -UP SCT015 OVC024 01/ A2974 RMK TD MISG SLP079<br><br>
CYOO 281113Z AUTO 28003KT 9SM -UP BKN015 OVC021 01/01 A2975 RMK SLP080<br><br>
CYOO 281107Z AUTO 28003KT 9SM -RA -UP OVC017 01/01 A2975 RMK SLP081<br><br>
CYOO has no TAF <br><br>
<br><br>
CYTR 281221Z 31004KT 7SM OVC021 01/01 A2973 RMK SC8 SLP072<br><br>
CYTR 281200Z 32004KT 7SM -SN OVC021 01/01 A2973 RMK SC8 PCPN VRY LGT /S01/ SLP071<br><br>
CYTR 281129Z 32005KT 6SM -SN BR OVC021 01/01 A2972 RMK SC8 PCPN VRY LGT SLP069<br><br>
TAF CYTR 281130Z 2812/2912 32005KT 6SM -SNRA BR SCT007 BKN012 OVC025 TEMPO 2812/2821 P6SM NSW SCT012 OVC025 BECMG 2816/2818 24005KT FM282100 24005KT P6SM SCT015 OVC025 TEMPO 2821/2903 6SM -RA BR OVC015 FM290300 VRB03KT P6SM SCT020 BKN060 RMK NXT FCST BY 281800Z<br><br>
<br><br>
