RETRIEVED AT : Sep 03 2017 01:10 Local <br>
  RETRIEVED AT: Sep 03 2017 05:10 UTC<br><br>
CYSN has no TAF <br><br>
<br><br>
CYHM 030500Z 18007KT 2 1/2SM RA BR BKN005 OVC042 14/13 A2992 RMK SF6SC2 SLP132 DENSITY ALT 900FT<br><br>
CYHM 030433Z 18009KT 5SM -RA BR OVC005 14/13 A2993 RMK SF8 SLP138 DENSITY ALT 900FT<br><br>
CYHM 030427Z 18008KT 12SM -RA OVC012 14/13 A2993 RMK SC8 SLP138 DENSITY ALT 900FT<br><br>
CYHM 030419Z 19007KT 15SM -RA OVC009 14/13 A2994 RMK SF8 SLP140 DENSITY ALT 900FT<br><br>
CYHM 030400Z 18008KT 15SM -RA OVC011 15/13 A2994 RMK SC8 SLP142 DENSITY ALT 900FT<br><br>
TAF AMD CYHM 030439Z 0304/0324 18008KT 3SM -RA BR OVC005 TEMPO 0304/0309 6SM -RA BR OVC010 FM030900 25006KT 5SM -RA BR OVC008 TEMPO 0309/0311 P6SM -RA OVC010 FM031100 27010G20KT P6SM SCT012 BKN080 TEMPO 0311/0314 OVC012 FM031700 26015G25KT P6SM BKN040 PROB30 0317/0320 3SM TSRA BR BKN030CB FM032300 28010KT P6SM SCT050 RMK NXT FCST BY 030600Z<br><br>
<br><br>
KIAG 030453Z AUTO 19006KT 10SM -RA OVC028 16/12 A2993 RMK AO2 RAB42 SLP134 P0001 T01610117 402330067<br><br>
KIAG 030407Z AUTO 19008KT 10SM BKN029 OVC034 17/11 A2995 RMK AO2 T01670106<br><br>
KIAG 030353Z AUTO 19008KT 10SM FEW028 OVC034 17/11 A2996 RMK AO2 SLP146 T01670106<br><br>
KIAG 030234Z 0303/0324 13007KT P6SM OVC035 FM030400 16006KT P6SM -RA OVC025 FM031000 19008KT 5SM -RA OVC007 FM031200 22008KT 5SM -RA OVC012 FM031600 26012G19KT 6SM -RA OVC060 FM032000 27012G19KT P6SM OVC040<br><br>
<br><br>
KBUF 030454Z 16006KT 9SM -RA OVC029 14/12 A2994 RMK AO2 SLP139 PCPN VRY LGT P0001 T01390122 402170061<br><br>
KBUF 030354Z 20006KT 9SM -RA OVC038 14/12 A2997 RMK AO2 RAB28 SLP149 P0001 T01390122<br><br>
KBUF 030234Z 0303/0324 13006KT P6SM BKN035 FM030400 16006KT 6SM -RA OVC020 FM030900 19008KT P6SM OVC009 FM031100 20008KT 5SM -RA OVC015 FM031700 26014G20KT 6SM -RA OVC045 FM032200 25012G20KT P6SM BKN060<br><br>
<br><br>
CYYZ 030500Z 17006KT 140V200 15SM OVC019 16/12 A2991 RMK SC8 SLP131 DENSITY ALT 900FT<br><br>
CYYZ 030400Z 18004KT 130V200 15SM BKN019 OVC028 16/12 A2993 RMK SC7SC1 SLP138 DENSITY ALT 900FT<br><br>
TAF CYYZ 030238Z 0303/0406 16008KT P6SM SCT015 OVC040 TEMPO 0303/0306 P6SM -SHRA OVC015 FM030600 16010KT 3SM -RA BR OVC007 TEMPO 0306/0308 6SM -RA BR OVC012 PROB30 0308/0311 2SM TSRA BR OVC003CB FM031200 30010G20KT P6SM SCT010 OVC060 FM031400 29010G20KT P6SM BKN025 BKN080 FM031700 28012G22KT P6SM BKN040 PROB30 0317/0321 VRB15G25KT 3SM TSRA BR OVC020CB FM032300 29015KT P6SM FEW040 BECMG 0402/0404 28008KT RMK NXT FCST BY 030600Z<br><br>
<br><br>
CYOO 030500Z AUTO 15008KT 120V190 9SM BKN023 OVC028 17/11 A2992 RMK SLP133 DENSITY ALT 700FT<br><br>
CYOO 030434Z AUTO 13004KT 110V170 9SM BKN023 BKN029 OVC033 17/12 A2993 RMK SLP138 DENSITY ALT 700FT<br><br>
CYOO 030400Z AUTO 20004KT 9SM OVC037 17/12 A2995 RMK SLP143 DENSITY ALT 800FT<br><br>
CYOO has no TAF <br><br>
<br><br>
CYTR 030500Z 16006KT 15SM OVC024 17/11 A2997 RMK SC8 SLP151<br><br>
CYTR 030446Z 15005KT 15SM OVC024 17/11 A2998 RMK SC8 SLP155<br><br>
CYTR 030400Z 19010KT 15SM OVC027 17/11 A3000 RMK SC8 SLP160<br><br>
TAF AMD CYTR 030455Z 0304/0324 14010KT P6SM BKN050 TEMPO 0304/0307 5SM -RA BR SCT008 OVC015 FM030700 14010KT 6SM -RA BR SCT015 OVC030 TEMPO 0307/0309 3SM -RA BR SCT008 OVC015 FM030900 14010KT 3SM -RA BR BKN008 OVC015 TEMPO 0309/0317 6SM -RA BR SCT008 OVC015 BECMG 0313/0315 22005KT FM031700 29012KT P6SM SCT015 BKN080 TEMPO 0317/0322 P6SM -SHRA RMK NXT FCST BY 030600Z<br><br>
<br><br>
