RETRIEVED AT : Mar 21 2020 00:05 Local <br>
  RETRIEVED AT: Mar 21 2020 04:05 UTC<br><br>
CYSN has no TAF <br><br>
<br><br>
CYHM 210300Z 31011G18KT 15SM OVC022 M02/M07 A3028 RMK SC8 SLP260<br><br>
TAF CYHM 202338Z 2100/2124 30015G25KT P6SM OVC020 TEMPO 2100/2110 SCT020 BKN030 BECMG 2104/2106 36008KT FM211000 03010KT P6SM SCT020 FM211200 04010KT P6SM SKC FM211800 06008KT P6SM SCT200 RMK NXT FCST BY 210600Z<br><br>
<br><br>
KIAG 210353Z AUTO 32017KT 10SM OVC022 M01/M06 A3029 RMK AO2 SLP266 T10111056<br><br>
KIAG 210253Z 31017KT 10SM OVC019 M01/M04 A3026 RMK AO2 SLP254 T10061044 53047<br><br>
KIAG 210258Z 2103/2124 31017KT P6SM OVC019 FM210600 32015G22KT P6SM BKN060 FM211000 34011G17KT P6SM BKN070 FM211300 35010KT P6SM FEW250<br><br>
<br><br>
KBUF 210354Z 32014KT 10SM OVC021 M01/M05 A3028 RMK AO2 SLP258 T10061050<br><br>
KBUF 210254Z 30018G26KT 10SM OVC022 00/M04 A3024 RMK AO2 PK WND 32026/0249 SLP245 T00001044 51048<br><br>
KBUF 210258Z 2103/2124 30014G20KT P6SM OVC019 FM210600 33011G17KT P6SM OVC040 FM211400 36007KT P6SM SCT250<br><br>
<br><br>
CYYZ 210300Z 35014G30KT 15SM BKN025 M02/M07 A3026 RMK SC7 PRESRR SLP252<br><br>
TAF CYYZ 210238Z 2103/2206 33018G28KT P6SM BKN025 TEMPO 2103/2106 OVC020 FM210600 35015G25KT P6SM SCT025 TEMPO 2106/2108 BKN020 FM210900 01012G22KT P6SM SKC BECMG 2110/2112 01012KT FM211800 01012KT P6SM SCT200 FM220000 36008KT P6SM SKC RMK NXT FCST BY 210600Z<br><br>
<br><br>
CYOO 210329Z AUTO 33015G26KT 9SM BKN024 M03/M07 A3026 RMK PRESRR SLP252<br><br>
CYOO 210326Z AUTO 33014G26KT 9SM SCT024 M03/M07 A3025 RMK SLP250<br><br>
CYOO 210321Z AUTO 33016G24KT 9SM BKN024 M03/M07 A3024 RMK SLP247<br><br>
CYOO 210300Z AUTO 33018G27KT 9SM SCT022 M03/M07 A3023 RMK PRESRR SLP242<br><br>
TAF CYOO 210138Z 2102/2114 31018G28KT P6SM OVC020 TEMPO 2102/2106 BKN025 BECMG 2104/2106 34012G22KT FM210600 34012G22KT P6SM SCT020 TEMPO 2106/2108 BKN020 FM211000 34010KT P6SM SKC RMK FCST BASED ON AUTO OBS. NXT FCST BY 210800Z<br><br>
<br><br>
CYTR 210300Z 32015G21KT 15SM BKN020 00/M05 A3016 RMK SC5 SLP217<br><br>
TAF AMD CYTR 210156Z 2101/2124 30015G25KT P6SM BKN020 OVC250 BECMG 2102/2104 34010G20KT SCT020 FM210700 35008KT P6SM SKC FM211700 35008KT P6SM SCT210 RMK NXT FCST BY 210600Z<br><br>
<br><br>
