RETRIEVED AT : Sep 18 2017 16:10 Local <br>
  RETRIEVED AT: Sep 18 2017 20:10 UTC<br><br>
CYSN 182000Z 07003KT 15SM FEW045 SCT160 OVC250 27/21 A3002 RMK SC1AC2CI5 SLP166 DENSITY ALT 1700FT<br><br>
CYSN 181900Z 02005KT 15SM FEW024 SCT100 OVC250 27/20 A3003 RMK CU2AC2CI4 SLP169 DENSITY ALT 1600FT<br><br>
TAF CYSN 181938Z 1820/1901 02005KT P6SM BKN100 RMK NXT FCST WILL BE ISSUED AT 191245Z<br><br>
<br><br>
CYHM 182000Z 19008KT 12SM FEW036 BKN230 26/19 A3005 RMK CU1CI6 CU TR SLP174 DENSITY ALT 2100FT<br><br>
CYHM 181900Z 18009KT 15SM FEW030 BKN240 27/19 A3005 RMK CU1CI6 SLP176 DENSITY ALT 2200FT<br><br>
TAF CYHM 181738Z 1818/1918 VRB03KT P6SM SCT050 BKN150 FM182000 23010KT P6SM -SHRA BKN040 PROB30 1820/1823 VRB15G25KT 2SM TSRA BR BKN020 OVC040CB FM182300 03007KT P6SM SCT040 BKN100 FM190200 VRB03KT 6SM BR SCT002 TEMPO 1902/1906 2SM BR PROB30 1902/1906 1/2SM FG BKN002 FM190600 VRB03KT 1/2SM FG BKN002 FM191100 01005KT 3SM -RA BR BKN005 OVC030 FM191400 05007KT 5SM -RA BR SCT005 BKN015 OVC030 FM191700 04007KT P6SM BKN080 RMK NXT FCST BY 190000Z<br><br>
<br><br>
KIAG 181953Z 20006KT 10SM CLR 28/18 A3004 RMK AO2 SLP168 T02780178<br><br>
KIAG 181853Z 25005KT 10SM CLR 28/17 A3004 RMK AO2 SLP169 T02830172<br><br>
KIAG 181740Z 1818/1918 24005KT P6SM SCT040 FM182000 28004KT P6SM SCT080 FM190400 VRB03KT P6SM BKN080 FM191600 27004KT P6SM BKN050 FM191700 32006KT P6SM BKN045<br><br>
<br><br>
KBUF 181954Z 24005KT 10SM FEW040 FEW070 FEW110 FEW180 OVC230 27/17 A3005 RMK AO2 SLP172 T02670172<br><br>
KBUF 181854Z 26005KT 10SM FEW040 FEW070 FEW110 OVC250 27/17 A3005 RMK AO2 SLP174 T02720172<br><br>
KBUF 181740Z 1818/1918 24005KT P6SM SCT040 FM181900 25005KT P6SM BKN080 FM190200 00000KT P6SM BKN070 FM190500 17004KT P6SM BKN050 FM191500 22005KT P6SM BKN030 FM191700 31006KT P6SM SCT030<br><br>
<br><br>
CYYZ 182000Z 18007KT 15SM FEW050 SCT180 BKN250 27/19 A3002 RMK CU1AC2CI4 TCU TOP DIST NE SLP167 DENSITY ALT 2000FT<br><br>
CYYZ 181900Z 16006KT 120V190 12SM FEW050TCU SCT180 BKN240 26/19 A3004 RMK TCU1AC2CS4 TCU W-NE SLP171 DENSITY ALT 1800FT<br><br>
TAF CYYZ 181738Z 1818/1924 15007KT P6SM BKN150 FM182000 24007KT P6SM -SHRA OVC030 TEMPO 1820/1823 4SM -SHRA BR OVC020 PROB30 1820/1823 VRB15G25KT 2SM TSRA BR BKN007 OVC020CB FM182300 36007KT P6SM BKN100 FM190200 36005KT P6SM BKN150 FM190800 02005KT 6SM BR FEW002 BKN050 PROB30 1908/1913 1/2SM FG BKN002 FM191400 02005KT P6SM BKN010 OVC070 FM191700 14007KT P6SM -SHRA BKN030 PROB30 1918/1923 VRB15G25KT 2SM TSRA BR BKN015 OVC030CB RMK NXT FCST BY 182100Z<br><br>
<br><br>
CYOO 182000Z AUTO 12005KT 9SM CLR 25/18 A3003 RMK SLP172 DENSITY ALT 1500FT<br><br>
CYOO 181900Z AUTO 17005KT 130V210 9SM CLR 26/17 A3004 RMK SLP174 DENSITY ALT 1600FT<br><br>
CYOO 181819Z AUTO 14005KT 8SM CLR 25/17 A3005 RMK SLP176 DENSITY ALT 1500FT<br><br>
CYOO 181814Z AUTO 16005KT 120V190 5SM HZ CLR 25/17 A3006 RMK SLP178 DENSITY ALT 1500FT<br><br>
CYOO has no TAF <br><br>
<br><br>
CYTR 182000Z 21007KT 15SM FEW030 OVC240 25/20 A3004 RMK SC2CI6 CB EMBD E SLP173<br><br>
CYTR 181900Z 21006KT 15SM FEW030 BKN240 26/21 A3004 RMK SC2CI6 CB EMBD E SLP173<br><br>
TAF CYTR 181730Z 1818/1918 16008KT P6SM SCT260 BECMG 1822/1824 VRB03KT FM190000 VRB03KT P6SM FEW010 SCT040 BKN100 TEMPO 1904/1914 3SM BR BKN010 PROB30 1906/1913 1/2SM FG FM191600 16008KT P6SM SCT030 RMK NXT FCST BY 190000Z<br><br>
<br><br>
