RETRIEVED AT : Oct 16 2018 04:16 Local <br>
  RETRIEVED AT: Oct 16 2018 08:16 UTC<br><br>
CYSN has no TAF <br><br>
<br><br>
CYHM 160800Z 24007KT 15SM FEW040 00/M02 A3013 RMK SC1 SLP213<br><br>
CYHM 160700Z 24007KT 15SM FEW040 00/M02 A3014 RMK SC2 SLP216<br><br>
TAF CYHM 160538Z 1606/1706 24008KT P6SM SCT040 FM161500 23015G25KT P6SM FEW030 BECMG 1616/1618 24020G30KT FM162300 24012G22KT P6SM SCT030 BKN120 FM170200 24012KT P6SM BKN030 RMK NXT FCST BY 161200Z<br><br>
<br><br>
KIAG 160753Z AUTO 25013KT 10SM CLR 03/M03 A3013 RMK AO2 SLP211 T00281028<br><br>
KIAG 160653Z AUTO 25010KT 10SM CLR 03/M03 A3014 RMK AO2 SLP213 T00281028<br><br>
KIAG 160524Z 1606/1706 26012KT P6SM SCT050 FM161400 25015G25KT P6SM SCT035 FM161800 24020G30KT P6SM BKN040<br><br>
<br><br>
KBUF 160754Z 26011KT 10SM CLR 03/M03 A3013 RMK AO2 SLP208 T00331028<br><br>
KBUF 160654Z 26011KT 10SM CLR 04/M03 A3014 RMK AO2 SLP209 T00391033<br><br>
KBUF 160524Z 1606/1706 26010G18KT P6SM FEW050 FM161000 25010KT P6SM SCT050 FM161500 25015G25KT P6SM SCT030 BKN035 TEMPO 1615/1619 BKN030 FM161900 23020G30KT P6SM BKN040 FM170500 25018G28KT P6SM BKN040<br><br>
<br><br>
CYYZ 160800Z 27009KT 15SM FEW040 02/M02 A3010 RMK SC1 SC TR SLP200<br><br>
CYYZ 160700Z 27006KT 15SM FEW040 02/M03 A3011 RMK SC1 SC TR SLP202<br><br>
TAF CYYZ 160538Z 1606/1712 27010KT P6SM FEW040 FM161500 24015G25KT P6SM BKN030 BECMG 1615/1616 25020G30KT FM162300 24015G25KT P6SM BKN040 BKN120 FM170400 25012KT P6SM BKN025 FM170700 26010KT P6SM -SHRA BKN020 BECMG 1710/1712 29012KT RMK NXT FCST BY 160900Z<br><br>
<br><br>
CYOO 160800Z AUTO 25005KT 9SM CLR 03/M01 A3008 RMK SLP191<br><br>
CYOO 160700Z AUTO 25004KT 9SM CLR 03/M01 A3008 RMK SLP189<br><br>
CYOO has no TAF <br><br>
<br><br>
CYTR 160800Z 24008KT 15SM FEW038 03/M01 A3005 RMK SC1 SLP180<br><br>
CYTR 160700Z 24009KT 15SM FEW038 03/M01 A3005 RMK SC1 SLP179<br><br>
TAF CYTR 160530Z 1606/1706 25010KT P6SM BKN030 TEMPO 1606/1620 SCT030 BECMG 1613/1615 25015G25KT FM170000 25012KT P6SM BKN040 RMK NXT FCST BY 161200Z<br><br>
<br><br>
