RETRIEVED AT : Jun 04 2019 17:29 Local <br>
  RETRIEVED AT: Jun 04 2019 21:29 UTC<br><br>
CYSN 042100Z 22015KT 15SM SCT120 OVC180 21/09 A2988 RMK AC4CI4 SLP120 DENSITY ALT 1100FT<br><br>
CYSN 042000Z 22008G17KT 15SM SCT075 OVC120 19/08 A2994 RMK AC3AC5 PRESFR SLP140 DENSITY ALT 900FT<br><br>
TAF CYSN 041938Z 0420/0501 22012G22KT P6SM BKN070 TEMPO 0420/0424 SCT070 BKN140 FM050000 23012KT P6SM BKN060 RMK NXT FCST WILL BE ISSUED AT 051245Z<br><br>
<br><br>
CYHM 042100Z 23015G21KT 15SM FEW100 BKN170 OVC240 21/10 A2988 RMK AC1AC5CS2 SLP123 DENSITY ALT 1700FT<br><br>
CYHM 042000Z 24016G22KT 15SM FEW110 SCT190 OVC250 22/09 A2991 RMK AC1AC2CS5 SLP132 DENSITY ALT 1900FT<br><br>
TAF CYHM 041738Z 0418/0518 22012G22KT P6SM BKN060 OVC110 FM042000 23015G25KT P6SM SCT050 BKN100 FM042300 24012G22KT P6SM SCT040 OVC070 TEMPO 0423/0510 P6SM -SHRA OVC040 BECMG 0504/0506 21010KT FM051000 21010KT P6SM -SHRA SCT006 BKN030 PROB30 0510/0513 4SM -SHRA BR BKN006 OVC030 FM051300 22012KT P6SM BKN030 BECMG 0515/0517 22012G22KT RMK NXT FCST BY 050000Z<br><br>
<br><br>
KIAG 042053Z 23012G21KT 10SM OVC110 19/07 A2991 RMK AO2 SLP132 60000 T01890067 58034<br><br>
KIAG 041953Z 23012KT 10SM SCT070 OVC085 18/07 A2995 RMK AO2 RAE1858 SLP146 P0000 T01830072<br><br>
KIAG 042102Z 0421/0518 23013G20KT P6SM BKN120 FM050000 23011KT P6SM BKN070 FM050300 23009KT P6SM BKN070 WS020/24040KT FM050500 23007KT P6SM BKN050 FM051500 22012KT P6SM BKN060<br><br>
<br><br>
KBUF 042054Z 24013KT 10SM FEW065 BKN120 OVC150 19/06 A2993 RMK AO2 SLP137 T01890061 58031<br><br>
KBUF 041954Z 25011G16KT 10SM BKN065 BKN090 OVC130 18/07 A2997 RMK AO2 SLP150 SHRA DSNT NE T01780067<br><br>
KBUF 042102Z 0421/0518 24013KT P6SM SCT040 BKN120 FM042300 23012KT P6SM BKN060 FM050300 23009KT P6SM BKN060 WS020/24040KT FM050600 22008KT P6SM BKN060 FM051500 24011KT P6SM BKN060<br><br>
<br><br>
CYYZ 042100Z 12007G17KT 15SM BKN065 OVC170 16/09 A2988 RMK SC7AC1 SLP123 DENSITY ALT 900FT<br><br>
CYYZ 042000Z 11008G18KT 100V160 15SM BKN070 BKN170 17/09 A2991 RMK AC5AC2 SLP133 DENSITY ALT 1000FT<br><br>
TAF CYYZ 042038Z 0421/0524 12010G20KT P6SM BKN070 FM050300 VRB03KT P6SM BKN040 FM050600 VRB03KT P6SM -SHRA OVC030 FM050900 22006KT P6SM OVC020 FM051600 15010KT P6SM SCT030 FM051800 17012KT P6SM -SHRA BKN030 FM052200 20010G20KT 4SM SHRA BR FEW008 SCT030 OVC070 PROB30 0522/0524 VRB15G25KT 1SM +TSRA BR OVC008CB RMK NXT FCST BY 050000Z<br><br>
<br><br>
CYOO 042100Z AUTO 13003KT 9SM OVC070 12/10 A2991 RMK SLP134<br><br>
CYOO 042000Z AUTO 09005KT 9SM OVC065 12/11 A2994 RMK SLP145<br><br>
TAF CYOO 041938Z 0420/0508 10005KT P6SM -RA OVC060 FM042200 10010KT P6SM SCT030 BKN050 FM050300 VRB03KT P6SM OVC040 TEMPO 0504/0508 4SM BR FEW006 OVC020 PROB30 0506/0508 2SM BR OVC006 RMK FCST BASED ON AUTO OBS. NXT FCST BY 050200Z<br><br>
<br><br>
CYTR 042117Z 00000KT 10SM -SHRA FEW009 OVC024 12/11 A2996 RMK SF2SC6 SLP147<br><br>
CYTR 042100Z 05002KT 6SM -SHRA BR FEW009 OVC024 12/11 A2996 RMK SF2SC6 SLP146<br><br>
CYTR 042043Z 11002KT 6SM -SHRA BR FEW009 OVC024 12/11 A2996 RMK SF2SC6 SLP148<br><br>
CYTR 042000Z 23003KT 6SM -SHRA BR BKN023 OVC050 12/10 A2999 RMK SC6SC2 SLP158<br><br>
TAF CYTR 041730Z 0418/0518 23010KT P6SM FEW020 SCT040 OVC080 TEMPO 0418/0506 4SM -SHRA BR BKN020 OVC040 BECMG 0500/0502 VRB03KT FM050600 25005KT P6SM SCT020 BKN040 FM050900 25005KT P6SM OVC020 PROB30 0509/0512 3/4SM BR RMK NXT FCST BY 050000Z<br><br>
<br><br>
