RETRIEVED AT : Jun 09 2019 01:05 Local <br>
  RETRIEVED AT: Jun 09 2019 05:05 UTC<br><br>
CYSN has no TAF <br><br>
<br><br>
CYHM 090400Z 03008KT 15SM BKN230 13/07 A3015 RMK CI5 SLP213<br><br>
TAF CYHM 082338Z 0900/0924 05012G22KT P6SM BKN250 BECMG 0902/0904 04010KT FM091500 09010G20KT P6SM SCT180 BKN250 BECMG 0922/0924 11010KT RMK NXT FCST BY 090600Z<br><br>
<br><br>
KIAG 090453Z AUTO 10006KT 10SM CLR 16/06 A3017 RMK AO2 SLP215 T01560056 402610106<br><br>
KIAG 090353Z AUTO 10007KT 10SM CLR 16/06 A3016 RMK AO2 SLP210 T01560056<br><br>
KIAG 090235Z 0902/0924 09005KT P6SM SCT250 FM090900 13004KT P6SM SCT250 FM091500 13010KT P6SM BKN250 FM092200 12010KT P6SM BKN060<br><br>
<br><br>
KBUF 090454Z 12008KT 10SM FEW200 BKN300 17/06 A3018 RMK AO2 SLP217 T01720056 402670117<br><br>
KBUF 090354Z 10011KT 10SM FEW200 BKN300 18/06 A3017 RMK AO2 SLP212 T01830056<br><br>
KBUF 090235Z 0902/0924 09006KT P6SM SCT250 FM090900 13006KT P6SM SCT250 FM091500 12010KT P6SM BKN250 FM092200 12010KT P6SM BKN060<br><br>
<br><br>
CYYZ 090400Z 09008KT 15SM BKN250 17/01 A3017 RMK CI6 SLP219 DENSITY ALT 700FT<br><br>
TAF CYYZ 090238Z 0903/1006 09010KT P6SM SCT250 FM090900 06005KT P6SM BKN250 BECMG 0914/0916 11010G20KT BECMG 0920/0922 09010KT FM100400 09008KT P6SM SCT050 BKN120 OVC200 RMK NXT FCST BY 090600Z<br><br>
<br><br>
CYOO 090400Z AUTO VRB02KT 9SM CLR 15/06 A3018 RMK SLP222<br><br>
TAF CYOO 090139Z 0902/0914 09007KT P6SM SKC BECMG 0911/0913 09010G20KT RMK FCST BASED ON AUTO OBS. NXT FCST BY 090800Z<br><br>
<br><br>
CYTR 090400Z 05003KT 15SM FEW200 14/08 A3019 RMK CI1 SLP225<br><br>
TAF CYTR 082330Z 0900/0924 10005KT P6SM FEW200 FM090600 07005KT P6SM SKC BECMG 0913/0915 13008KT BECMG 0916/0918 13008G18KT RMK NXT FCST BY 090600Z<br><br>
<br><br>
