RETRIEVED AT : Apr 03 2020 16:05 Local <br>
  RETRIEVED AT: Apr 03 2020 20:05 UTC<br><br>
CYSN 031900Z 31007KT 270V330 15SM OVC025 09/02 A2999 RMK SC8 SLP160<br><br>
TAF CYSN 031938Z 0320/0401 31007KT P6SM OVC025 TEMPO 0320/0322 OVC020 FM032200 VRB03KT P6SM SCT015 OVC025 TEMPO 0322/0401 P6SM -RA BKN015 OVC025 RMK NXT FCST WILL BE ISSUED AT 041245Z<br><br>
<br><br>
CYHM 031900Z 36004KT 330V090 15SM BKN025 BKN034 10/04 A2998 RMK SC5SC2 SLP159<br><br>
TAF CYHM 031738Z 0318/0418 03008KT P6SM BKN030 FM040100 05005KT P6SM BKN030 BKN060 TEMPO 0401/0404 6SM -SHRA BR BKN012 OVC030 PROB30 0402/0404 5SM -SHRA BR OVC008 FM040400 03005KT P6SM BKN012 OVC030 PROB30 0404/0409 5SM -DZ BR BKN008 OVC030 FM040900 VRB03KT 6SM BR FEW002 BKN008 OVC030 PROB30 0409/0414 03005KT 1SM -DZ BR BKN002 OVC008 FM041400 VRB03KT P6SM BKN012 BKN030 FM041700 VRB03KT P6SM BKN025 RMK NXT FCST BY 040000Z<br><br>
<br><br>
KIAG 031953Z 30007KT 10SM BKN022 OVC055 09/03 A2998 RMK AO2 SLP162 T00890028<br><br>
KIAG 031853Z 32010KT 10SM OVC021 08/02 A2998 RMK AO2 SLP163 T00780022<br><br>
KIAG 031739Z 0318/0418 33010KT P6SM VCSH OVC015 FM032300 VRB03KT 5SM -DZ BR OVC007 FM040400 00000KT 2SM BR OVC003 FM041400 VRB03KT P6SM BKN008 FM041600 VRB05KT P6SM BKN025<br><br>
<br><br>
KBUF 031954Z 28006KT 10SM BKN015 BKN022 OVC032 08/03 A2999 RMK AO2 DZE29 SLP159 P0000 T00780028<br><br>
KBUF 031930Z 29005KT 10SM BKN015 BKN022 OVC032 07/03 A2999 RMK AO2 DZE29 P0000 T00720028<br><br>
KBUF 031854Z 32008KT 10SM -DZ BKN013 OVC020 07/03 A2999 RMK AO2 SLP159 PCPN VRY LGT P0000 T00670033<br><br>
KBUF 031739Z 0318/0418 33010KT P6SM VCSH OVC015 FM032300 VRB03KT 5SM -DZ BR OVC007 FM040400 00000KT 2SM BR OVC003 FM041400 VRB03KT P6SM BKN008 FM041700 25005KT P6SM BKN025<br><br>
<br><br>
CYYZ 031900Z 35005KT 300V050 15SM FEW035 BKN056 BKN250 10/03 A2998 RMK CU1SC6CI1 CI TR SLP159<br><br>
TAF CYYZ 031738Z 0318/0424 01010KT P6SM BKN040 BKN250 FM032200 02010KT P6SM BKN030 OVC070 TEMPO 0322/0403 P6SM -SHRA FM040300 01008KT P6SM BKN030 TEMPO 0403/0415 BKN020 PROB30 0403/0415 5SM -DZ BR BKN008 OVC020 FM041500 11008KT P6SM BKN010 OVC040 FM042000 14008KT P6SM BKN020 FM042300 13008KT P6SM BKN030 BKN080 RMK NXT FCST BY 032100Z<br><br>
<br><br>
CYOO 031900Z AUTO 34008G15KT 310V010 9SM BKN027 OVC036 10/05 A2996 RMK SLP151<br><br>
TAF CYOO 031938Z 0320/0408 35012KT P6SM OVC030 TEMPO 0320/0324 P6SM -RA OVC020 FM040000 35006KT P6SM SCT012 BKN030 TEMPO 0400/0408 5SM -DZ BR BKN012 OVC030 PROB30 0406/0408 3SM -DZ BR BKN006 OVC012 RMK FCST BASED ON AUTO OBS. NXT FCST BY 040200Z<br><br>
<br><br>
CYTR 031952Z 35009KT 8SM -DZ FEW012 OVC017 08/06 A2996 RMK CF2SC6 SLP148<br><br>
CYTR 031900Z 01011KT 10SM -RA BKN017 OVC080 09/06 A2996 RMK SC7AS1 SLP147<br><br>
TAF CYTR 031730Z 0318/0418 01012KT P6SM -RA SCT012 OVC020 TEMPO 0318/0322 5SM -RA BR OVC012 FM032200 02008KT P6SM -RA OVC012 TEMPO 0322/0403 5SM -RA BR OVC015 FM040300 02005KT P6SM SCT008 BKN012 OVC020 TEMPO 0403/0415 5SM -RA BR FM041500 VRB03KT P6SM BKN015 OVC025 RMK NXT FCST BY 040000Z<br><br>
<br><br>
