RETRIEVED AT : Jul 06 2020 06:05 Local <br>
  RETRIEVED AT: Jul 06 2020 10:05 UTC<br><br>
CYSN has no TAF <br><br>
<br><br>
CYHM 060900Z 05005KT 15SM FEW075 FEW250 20/16 A3000 RMK AC1CI1 AC TR CI TR SLP155 DENSITY ALT 1500FT<br><br>
TAF CYHM 060539Z 0606/0706 06005KT P6SM SCT240 FM061700 07007KT P6SM SCT070 FM070300 15005KT P6SM FEW060 RMK NXT FCST BY 061200Z<br><br>
<br><br>
KIAG 060953Z AUTO 06004KT 10SM CLR 17/14 A3000 RMK AO2 SLP152 T01720144<br><br>
KIAG 060853Z AUTO 00000KT 10SM CLR 18/14 A2999 RMK AO2 SLP150 T01780144 55004<br><br>
KIAG 060906Z 0609/0706 VRB03KT P6SM SCT250 FM061500 07005KT P6SM SCT150 FM061800 06009KT P6SM SCT200 FM070200 12004KT P6SM SCT250<br><br>
<br><br>
KBUF 060954Z 09003KT 10SM FEW250 21/14 A3000 RMK AO2 SLP155 T02060139<br><br>
KBUF 060854Z 12004KT 10SM CLR 21/14 A3000 RMK AO2 SLP152 T02060139 56003<br><br>
KBUF 060906Z 0609/0706 12004KT P6SM SCT250 FM061500 06005KT P6SM SCT150 FM061800 07008KT P6SM SCT200 FM070200 13004KT P6SM SCT250<br><br>
<br><br>
CYYZ 060900Z VRB02KT 15SM FEW180 21/17 A2999 RMK AC2 SLP155 DENSITY ALT 1400FT<br><br>
TAF CYYZ 060838Z 0609/0712 02005KT P6SM SCT180 FM061600 13010KT P6SM FEW070 BECMG 0700/0702 04005KT RMK NXT FCST BY 061200Z<br><br>
<br><br>
CYOO 060900Z AUTO 08005KT 9SM OVC190 22/16 A3000 RMK SLP158 DENSITY ALT 1300FT<br><br>
TAF CYOO 060738Z 0608/0620 VRB03KT P6SM BKN170 FM061200 10010KT P6SM FEW100 RMK FCST BASED ON AUTO OBS. NXT FCST BY 061400Z<br><br>
<br><br>
CYTR 060900Z AUTO 03004KT 9SM CLR 20/17 A3000 RMK SLP160<br><br>
TAF CYTR 060530Z 0606/0706 03005KT P6SM SCT100 BECMG 0615/0617 20008KT FM061700 20008KT P6SM SCT040 TEMPO 0620/0624 BKN040 BECMG 0700/0702 VRB03KT RMK FCST BASED ON AUTO OBS 060600-061000Z. NXT FCST BY 061200Z<br><br>
<br><br>
