RETRIEVED AT : Sep 18 2017 14:10 Local <br>
  RETRIEVED AT: Sep 18 2017 18:10 UTC<br><br>
CYSN 181800Z 34003KT 300V040 15SM SCT025 BKN160 OVC200 27/21 A3004 RMK CU3AC2CI3 SLP173 DENSITY ALT 1700FT<br><br>
CYSN 181700Z 34006KT 15SM FEW025 SCT140 OVC220 28/22 A3005 RMK CU2AC2CI4 SLP177 DENSITY ALT 1800FT<br><br>
TAF CYSN 181238Z 1813/1901 VRB03KT P6SM FEW100 BKN200 TEMPO 1813/1814 4SM BR FM181700 35005KT P6SM BKN050 PROB30 1820/1823 VRB15G30KT 2SM TSRA BR BKN015 OVC030CB RMK NXT FCST BY 182000Z<br><br>
<br><br>
CYHM 181800Z 19010KT 15SM FEW030 SCT042 OVC220 27/19 A3006 RMK CU2SC1CI5 SLP180 DENSITY ALT 2200FT<br><br>
CYHM 181700Z 00000KT 15SM FEW025 SCT180 BKN230 26/20 A3008 RMK CU1AC2CI4 SLP185 DENSITY ALT 2100FT<br><br>
TAF CYHM 181738Z 1818/1918 VRB03KT P6SM SCT050 BKN150 FM182000 23010KT P6SM -SHRA BKN040 PROB30 1820/1823 VRB15G25KT 2SM TSRA BR BKN020 OVC040CB FM182300 03007KT P6SM SCT040 BKN100 FM190200 VRB03KT 6SM BR SCT002 TEMPO 1902/1906 2SM BR PROB30 1902/1906 1/2SM FG BKN002 FM190600 VRB03KT 1/2SM FG BKN002 FM191100 01005KT 3SM -RA BR BKN005 OVC030 FM191400 05007KT 5SM -RA BR SCT005 BKN015 OVC030 FM191700 04007KT P6SM BKN080 RMK NXT FCST BY 190000Z<br><br>
<br><br>
KIAG 181753Z 22005KT 10SM FEW036 29/18 A3005 RMK AO2 SLP172 T02890183 10289 20172 58008<br><br>
KIAG 181653Z 18004KT 10SM CLR 28/18 A3007 RMK AO2 SLP177 T02830178<br><br>
KIAG 181740Z 1818/1918 24005KT P6SM SCT040 FM182000 28004KT P6SM SCT080 FM190400 VRB03KT P6SM BKN080 FM191600 27004KT P6SM BKN050 FM191700 32006KT P6SM BKN045<br><br>
<br><br>
KBUF 181754Z 25005KT 10SM FEW036 FEW110 BKN250 27/18 A3006 RMK AO2 SLP176 T02720178 10278 20178 58008<br><br>
KBUF 181654Z 26005KT 10SM FEW036 FEW110 BKN250 28/18 A3008 RMK AO2 SLP182 T02780183<br><br>
KBUF 181740Z 1818/1918 24005KT P6SM SCT040 FM181900 25005KT P6SM BKN080 FM190200 00000KT P6SM BKN070 FM190500 17004KT P6SM BKN050 FM191500 22005KT P6SM BKN030 FM191700 31006KT P6SM SCT030<br><br>
<br><br>
CYYZ 181800Z 14008KT 130V190 12SM FEW050TCU SCT180 BKN240 25/18 A3005 RMK TCU1AC2CS4 TCU W-NE HALO SLP176 DENSITY ALT 1700FT<br><br>
CYYZ 181700Z 15007KT 110V190 12SM FEW045 SCT150 BKN240 24/18 A3007 RMK CU1AC3CS3 HALO SLP181 DENSITY ALT 1700FT<br><br>
TAF CYYZ 181738Z 1818/1924 15007KT P6SM BKN150 FM182000 24007KT P6SM -SHRA OVC030 TEMPO 1820/1823 4SM -SHRA BR OVC020 PROB30 1820/1823 VRB15G25KT 2SM TSRA BR BKN007 OVC020CB FM182300 36007KT P6SM BKN100 FM190200 36005KT P6SM BKN150 FM190800 02005KT 6SM BR FEW002 BKN050 PROB30 1908/1913 1/2SM FG BKN002 FM191400 02005KT P6SM BKN010 OVC070 FM191700 14007KT P6SM -SHRA BKN030 PROB30 1918/1923 VRB15G25KT 2SM TSRA BR BKN015 OVC030CB RMK NXT FCST BY 182100Z<br><br>
<br><br>
CYOO 181800Z AUTO 13005KT 9SM CLR 24/18 A3006 RMK SLP178 DENSITY ALT 1400FT<br><br>
CYOO 181747Z AUTO 15005KT 130V200 7SM CLR 24/18 A3006 RMK SLP180 DENSITY ALT 1400FT<br><br>
CYOO 181742Z AUTO 17005KT 130V200 5SM HZ CLR 25/19 A3006 RMK SLP181 DENSITY ALT 1500FT<br><br>
CYOO 181741Z AUTO 18005KT 130V200 6SM HZ CLR 25/19 A3006 RMK SLP181 DENSITY ALT 1500FT<br><br>
CYOO 181737Z AUTO 17004KT 140V220 5SM HZ CLR 24/18 A3006 RMK SLP181 DENSITY ALT 1400FT<br><br>
CYOO 181700Z AUTO 18005KT 090V230 8SM CLR 25/18 A3007 RMK SLP183 DENSITY ALT 1500FT<br><br>
CYOO 181612Z AUTO 18006KT 9SM CLR 24/18 A3008 RMK SLP186 DENSITY ALT 1400FT<br><br>
CYOO has no TAF <br><br>
<br><br>
CYTR 181800Z CCA 16003KT 15SM FEW040 BKN240 27/22 A3005 RMK SC2CI6 MDT CU EMBD SLP177<br><br>
CYTR 181700Z 09002KT 15SM FEW040 BKN240 27/22 A3007 RMK CU2CI6 CC ASOCTD SLP182<br><br>
TAF CYTR 181730Z 1818/1918 16008KT P6SM SCT260 BECMG 1822/1824 VRB03KT FM190000 VRB03KT P6SM FEW010 SCT040 BKN100 TEMPO 1904/1914 3SM BR BKN010 PROB30 1906/1913 1/2SM FG FM191600 16008KT P6SM SCT030 RMK NXT FCST BY 190000Z<br><br>
<br><br>
