RETRIEVED AT : May 12 2018 03:05 Local <br>
  RETRIEVED AT: May 12 2018 07:05 UTC<br><br>
CYSN has no TAF <br><br>
<br><br>
CYHM 120600Z 04008KT 15SM SCT095 BKN120 07/00 A3009 RMK AC3AC3 PRESFR SLP194<br><br>
TAF CYHM 120538Z 1206/1306 05005KT P6SM -RA OVC110 TEMPO 1206/1211 OVC080 FM121100 05012KT P6SM BKN060 FM121400 05012KT P6SM SCT020 BKN080 FM121700 05015KT P6SM FEW030 SCT120 BKN250 BECMG 1218/1220 SKC BECMG 1222/1224 04007KT RMK NXT FCST BY 121200Z<br><br>
<br><br>
KIAG 120653Z AUTO 07006KT 10SM SCT055 OVC100 10/M01 A3009 RMK AO2 SLP193 T01001011<br><br>
KIAG 120553Z AUTO 08004KT 10SM FEW110 10/M01 A3011 RMK AO2 SLP200 60000 T01001011 10111 20094 58012<br><br>
KIAG 120526Z 1206/1306 07006KT P6SM OVC090 FM120900 07006KT P6SM -RA OVC070 FM121200 06007KT P6SM VCSH OVC040 FM121500 05008KT P6SM OVC045 FM121800 04008KT P6SM BKN090 FM130100 VRB03KT P6SM BKN250<br><br>
<br><br>
KBUF 120654Z 08005KT 10SM BKN100 OVC160 11/M01 A3008 RMK AO2 SLP189 T01061011<br><br>
KBUF 120554Z 07006KT 10SM FEW085 SCT110 BKN170 OVC210 11/M01 A3011 RMK AO2 SLP197 60000 T01111011 10128 20111 58012<br><br>
KBUF 120526Z 1206/1306 07007KT P6SM OVC090 FM120900 07006KT 6SM -RA OVC040 FM121300 06007KT P6SM VCSH OVC035 FM121900 04007KT P6SM BKN080 FM130200 VRB03KT P6SM BKN250<br><br>
<br><br>
CYYZ 120600Z 11004KT 15SM SCT110 BKN140 09/M05 A3012 RMK AC3AC4 SLP203<br><br>
TAF CYYZ 120538Z 1206/1312 09003KT P6SM OVC120 TEMPO 1207/1211 P6SM -RA OVC080 BECMG 1208/1210 02005KT FM121400 06010KT P6SM FEW080 SCT220 BECMG 1218/1220 12008KT BECMG 1304/1306 35005KT FM131000 06005KT P6SM SCT006 RMK NXT FCST BY 120900Z<br><br>
<br><br>
CYOO 120600Z AUTO 02003KT 9SM BKN210 BKN230 04/01 A3012 RMK SLP206<br><br>
CYOO has no TAF <br><br>
<br><br>
CYTR 120600Z 35002KT 15SM BKN240 02/M01 A3014 RMK CI6 SLP209<br><br>
TAF CYTR 120530Z 1206/1306 VRB03KT P6SM OVC250 FM120900 VRB03KT P6SM BKN100 BECMG 1214/1216 09008KT SCT180 RMK NXT FCST BY 121200Z<br><br>
<br><br>
