RETRIEVED AT : Mar 06 2020 19:05 Local <br>
  RETRIEVED AT: Mar 07 2020 00:05 UTC<br><br>
CYSN 062322Z 36016G22KT 6SM -SN SCT015 OVC033 02/M01 A3012 RMK SC3SC5 SLP204<br><br>
CYSN 062300Z 01017G23KT 8SM SCT015 OVC032 02/M00 A3010 RMK SC4SC4 SLP199<br><br>
CYSN 062253Z 36015G23KT 8SM SCT015 OVC032 02/M00 A3010 RMK SC4SC4 SLP197<br><br>
TAF AMD CYSN 062306Z 0623/0702 01015G25KT P6SM SCT015 OVC030 TEMPO 0623/0702 4SM -SN OVC015 BECMG 0700/0702 01015G25KT RMK NXT FCST WILL BE ISSUED AT 071345Z<br><br>
<br><br>
CYHM 062349Z 01013KT 1 1/2SM -SN BKN012 OVC038 00/M02 A3015 RMK SN3SC3SC2 SLP221<br><br>
CYHM 062300Z 01011G16KT 8SM -SN SCT016 BKN020 OVC029 00/M02 A3012 RMK SC3SC2SC1 SLP210<br><br>
CYHM 062206Z 01012G19KT 3SM -SN FEW013 BKN015 OVC026 01/M01 A3008 RMK CF1SC5SC2 SLP196<br><br>
TAF CYHM 062338Z 0700/0724 01012G22KT 5SM -SN OVC020 TEMPO 0700/0706 P6SM NSW OVC030 FM070600 01010KT P6SM SCT020 FM071200 36006KT P6SM SKC FM071800 25009KT P6SM FEW120 BECMG 0722/0724 21009KT RMK NXT FCST BY 070600Z<br><br>
<br><br>
KIAG 062353Z 01008KT 5SM -SN BR FEW011 OVC028 01/M01 A3012 RMK AO2 SLP215 P0001 60004 T00061006 10017 20000 51041<br><br>
KIAG 062253Z 03011KT 5SM -SN BR BKN009 OVC030 01/M01 A3008 RMK AO2 CIG 006V012 SLP201 P0000 T00061006<br><br>
KIAG 062239Z 04012KT 4SM -SN BR BKN009 OVC029 00/M01 A3007 RMK AO2 P0000 T00001011<br><br>
KIAG 062332Z 0700/0724 01014G22KT 2SM -SN OVC008 FM070100 01014G22KT 6SM -SHSN OVC015 FM070300 01014KT P6SM BKN025 FM070600 01012KT P6SM SCT040 FM071600 29006KT P6SM BKN100<br><br>
<br><br>
KBUF 062354Z 02009KT 1 1/2SM -SN BR BKN007 OVC012 01/M01 A3011 RMK AO2 SLP203 4/001 P0003 60011 T00061011 10022 20006 51042<br><br>
KBUF 062312Z 02009G16KT 1SM R23/5500VP6000FT -SN BR BKN007 OVC012 01/M01 A3008 RMK AO2 P0001 T00061011<br><br>
KBUF 062254Z 02011G18KT 1/2SM R23/5500VP6000FT SN FG BKN004 OVC010 01/M01 A3006 RMK AO2 SLP189 P0001 T00061011<br><br>
KBUF 062245Z 02012G19KT 1/2SM R23/5500VP6000FT SN FG BKN004 OVC010 01/M01 A3006 RMK AO2 P0001 T00061011<br><br>
KBUF 062217Z 01010G17KT 3/4SM R23/5000VP6000FT -SN BR BKN006 OVC009 01/M01 A3004 RMK AO2 P0001 T00061006<br><br>
KBUF 062206Z 02011KT 3/4SM R23/4500VP6000FT -SN BR SCT007 BKN012 OVC019 01/M01 A3003 RMK AO2 P0000 T00061011<br><br>
KBUF 062332Z 0700/0724 02012KT 1SM -SN OVC008 FM070100 01012KT 2SM -SN OVC012 FM070230 01012KT P6SM BKN025 FM070600 36008KT P6SM SCT040 FM071700 25010KT P6SM BKN100<br><br>
<br><br>
CYYZ 062300Z 02011G24KT 15SM FEW020 BKN040 OVC250 01/M03 A3014 RMK CF2SC4CI2 SLP215<br><br>
CYYZ 062239Z 02016G25KT 15SM SCT021 BKN031 OVC250 01/M03 A3012 RMK CF3SC3CI2 SLP208<br><br>
TAF CYYZ 062338Z 0700/0806 02015G25KT P6SM FEW020 BKN040 OVC250 FM070600 36012G22KT P6SM SCT025 FM070900 36012KT P6SM SKC FM071500 35008KT P6SM FEW120 BECMG 0715/0717 23009KT RMK NXT FCST BY 070300Z<br><br>
<br><br>
CYOO 062300Z AUTO 03011G20KT 9SM OVC036 02/M04 A3012 RMK SLP206<br><br>
TAF CYOO 061938Z 0620/0708 01012G22KT P6SM -RASN OVC030 TEMPO 0620/0624 5SM -SN BR OVC015 FM070000 01015G25KT P6SM OVC030 FM070600 36010KT P6SM FEW030 RMK FCST BASED ON AUTO OBS. NXT FCST BY 070200Z<br><br>
<br><br>
CYTR 062300Z 03014G20KT 15SM OVC024 01/M04 A3010 RMK SC8 VIRGA W SLP199<br><br>
CYTR 062247Z 03014G24KT 15SM OVC024 01/M04 A3010 RMK SC8 SLP197<br><br>
CYTR 062217Z 03018KT 15SM -SHSN OVC024 02/M03 A3007 RMK SC8 SLP187<br><br>
TAF CYTR 062330Z 0700/0724 03015G25KT P6SM OVC025 TEMPO 0700/0702 P6SM -SHSN OVC020 BECMG 0702/0704 01015KT FM070500 01012KT P6SM SCT025 FM070800 36008KT P6SM SKC BECMG 0718/0720 26008KT RMK NXT FCST BY 070600Z<br><br>
<br><br>
