RETRIEVED AT : Jun 04 2019 20:05 Local <br>
  RETRIEVED AT: Jun 05 2019 00:05 UTC<br><br>
CYSN 042300Z 23013KT 15SM OVC096 21/10 A2984 RMK AC8 SLP108 DENSITY ALT 1300FT<br><br>
TAF CYSN 041938Z 0420/0501 22012G22KT P6SM BKN070 TEMPO 0420/0424 SCT070 BKN140 FM050000 23012KT P6SM BKN060 RMK NXT FCST WILL BE ISSUED AT 051245Z<br><br>
<br><br>
CYHM 042300Z 22012KT 15SM BKN087 BKN170 OVC250 20/11 A2986 RMK AC6AC1CI1 SLP114 DENSITY ALT 1700FT<br><br>
TAF CYHM 042338Z 0500/0524 23012G22KT P6SM SCT040 OVC070 BECMG 0504/0506 21010KT FM051000 21010KT P6SM -SHRA FEW006 BKN030 PROB30 0510/0513 4SM -SHRA BR BKN006 OVC030 FM051300 22012KT P6SM BKN030 FM051800 22012G22KT P6SM BKN030 TEMPO 0518/0521 4SM SHRA BR FM052100 21012G22KT 3SM SHRA BR FEW008 BKN030 OVC070 PROB30 0521/0524 VRB20G35KT 1SM +TSRA BR OVC008CB RMK NXT FCST BY 050600Z<br><br>
<br><br>
KIAG 042353Z 22014KT 10SM OVC090 19/09 A2986 RMK AO2 SLP113 60000 T01890089 10200 20150 56017<br><br>
KIAG 042253Z 22010KT 10SM OVC090 19/08 A2987 RMK AO2 SLP117 T01940078<br><br>
KIAG 042320Z 0500/0524 23010KT P6SM OVC090 WS015/24040KT FM051200 21008KT P6SM BKN050 FM051500 22012G18KT P6SM BKN040 FM051800 22013G20KT P6SM VCSH OVC040 FM052100 22012KT 6SM -SHRA BR OVC050<br><br>
<br><br>
KBUF 042354Z 23011KT 10SM BKN090 BKN130 OVC170 17/08 A2988 RMK AO2 SLP119 T01720083 10194 20156 56017<br><br>
KBUF 042254Z 23008KT 10SM BKN085 BKN120 OVC150 17/07 A2990 RMK AO2 SLP125 T01720067<br><br>
KBUF 042320Z 0500/0524 23009KT P6SM OVC090 WS015/24040KT FM051200 20008KT P6SM BKN050 FM051500 22011G17KT P6SM BKN050 FM051800 22013G20KT P6SM VCSH OVC040 FM052100 22011KT 6SM -SHRA OVC040<br><br>
<br><br>
CYYZ 042300Z 12006KT 15SM FEW061 BKN072 OVC160 15/07 A2985 RMK SC2AC4AC2 SLP111 DENSITY ALT 900FT<br><br>
TAF CYYZ 042338Z 0500/0606 12010KT P6SM BKN070 OVC160 FM050300 VRB03KT P6SM BKN040 FM050900 22006KT P6SM OVC020 TEMPO 0509/0516 P6SM -SHRA FM051600 15010KT P6SM SCT030 FM051800 17012KT P6SM -SHRA BKN030 TEMPO 0518/0522 4SM SHRA BR FM052200 20010G20KT 4SM SHRA BR FEW008 SCT030 OVC070 PROB30 0522/0524 VRB15G30KT 1SM +TSRA BR OVC008CB FM060000 VRB03KT 6SM -SHRA BR OVC012 TEMPO 0600/0602 3SM SHRA BR VCTS OVC008CB FM060200 34006KT 6SM -RA BR OVC010 PROB30 0602/0605 VRB03KT 2SM -RA BR OVC006 FM060500 34010KT P6SM OVC012 RMK NXT FCST BY 050300Z<br><br>
<br><br>
CYOO 042300Z AUTO 09005KT 9SM OVC065 11/10 A2986 RMK SLP116<br><br>
CYOO 042220Z AUTO 09008KT 9SM BKN070 BKN088 11/10 A2988 RMK SLP123<br><br>
TAF CYOO 041938Z 0420/0508 10005KT P6SM -RA OVC060 FM042200 10010KT P6SM SCT030 BKN050 FM050300 VRB03KT P6SM OVC040 TEMPO 0504/0508 4SM BR FEW006 OVC020 PROB30 0506/0508 2SM BR OVC006 RMK FCST BASED ON AUTO OBS. NXT FCST BY 050200Z<br><br>
<br><br>
CYTR 042339Z 12003KT 8SM SCT005 OVC027 11/10 A2989 RMK SF3SC5 SLP126<br><br>
CYTR 042300Z 13003KT 6SM -SHRA BR SCT005 OVC027 11/10 A2990 RMK SF3SC5 SLP129<br><br>
CYTR 042240Z 16004KT 6SM -SHRA BR FEW009 BKN030 OVC060 11/10 A2992 RMK SF1SC6SC2 SLP134<br><br>
TAF CYTR 042330Z 0500/0524 VRB03KT P6SM -SHRA SCT020 OVC030 TEMPO 0500/0503 4SM -SHRA BR SCT005 OVC020 PROB30 0500/0503 4SM -SHRA BR BKN005 OVC020 FM050300 VRB03KT 6SM BR SCT006 OVC020 TEMPO 0503/0512 2SM -DZ BR OVC006 PROB30 0506/0512 1/2SM FG VV002 FM051800 21008KT P6SM SCT020 OVC030 TEMPO 0518/0524 4SM -SHRA BR OVC020 RMK NXT FCST BY 050600Z<br><br>
<br><br>
