RETRIEVED AT : Oct 10 2017 08:10 Local <br>
  RETRIEVED AT: Oct 10 2017 12:10 UTC<br><br>
CYSN 101200Z 22004KT 9SM FEW140 SCT250 13/13 A3009 RMK AC1CI3 SLP191<br><br>
CYSN 101100Z 23005KT 9SM FEW140 SCT250 12/12 A3008 RMK AC2CI1 SLP189<br><br>
CYSN has no TAF <br><br>
<br><br>
CYHM 101200Z 26003KT 3/8SM R12/2000FT/U FG BKN250 12/12 A3011 RMK FG2CI4 SLP200<br><br>
CYHM 101100Z 26005KT 1/4SM R12/1800FT/N FG SCT080 BKN250 13/13 A3009 RMK FG3AC1CI4 AC TR SLP192<br><br>
TAF CYHM 101141Z 1012/1112 26005KT 1/4SM FG SCT002 TEMPO 1012/1013 2SM BR FM101300 28005KT P6SM SKC TEMPO 1013/1015 2SM BR FEW004 FM101600 33007KT P6SM SCT040 BKN150 FM110900 03008KT P6SM -SHRA SCT020 OVC080 RMK NXT FCST BY 101800Z<br><br>
<br><br>
KIAG 101204Z 00000KT 2 1/2SM BR CLR 14/13 A3010 RMK AO2 T01390128<br><br>
KIAG 101153Z 00000KT 3SM BR CLR 14/12 A3010 RMK AO2 SLP193 70088 T01390122 10172 20128 51015 $<br><br>
KIAG 101134Z 00000KT 2SM BR FEW003 14/12 A3009 RMK AO2 T01390122 $<br><br>
KIAG 101125Z 00000KT 1 1/2SM BR SCT003 14/12 A3009 RMK AO2 VIS 1V2 1/2 T01390117 $<br><br>
KIAG 101123Z 00000KT 1SM R28R/P6000FT BR VV003 14/12 A3009 RMK AO2 VIS 1/4V2 1/2 T01390117 $<br><br>
KIAG 101116Z COR 00000KT 1/4SM R28R/1400VP6000FT FG CLR 13/12 A3010 RMK AO2 T01330117 $<br><br>
KIAG 101105Z COR 00000KT 1/4SM R28R/1200V3000FT FG 1OVC 13/11 A3009 RMK AO2 T01280111 $<br><br>
KIAG 101053Z COR 1OVC 00000KT 1/4SM R28R/0800V2000FT FG 13/12 A3009 RMK AO2 SLP190 T01280117 $<br><br>
KIAG 101045Z AUTO 00000KT 1/4SM R28R/1200V5500FT FG 13/12 A3009 RMK AO2 T01330117 $<br><br>
KIAG 101038Z AUTO 00000KT 1/4SM R28R/1400V2400FT FG VV002 13/12 A3009 RMK AO2 T01330117<br><br>
KIAG 101022Z AUTO 00000KT 1/4SM R28R/1000VP6000FT FG VV003 13/12 A3008 RMK AO2 T01330122<br><br>
KIAG 101148Z 1012/1112 00000KT 2SM BR SCT002 FM101300 21004KT P6SM SCT250 FM101800 25006KT P6SM SCT200 FM102000 32004KT P6SM FEW200 FM110200 36004KT P6SM SCT200<br><br>
<br><br>
KBUF 101154Z 00000KT 3SM BR FEW036 BKN250 14/14 A3011 RMK AO2 SLP195 70098 T01440144 10178 20139 51017<br><br>
KBUF 101054Z 22004KT 4SM BR FEW036 FEW250 15/14 A3009 RMK AO2 SLP190 T01500144 $<br><br>
KBUF 101038Z 25006KT 3SM BR CLR 15/14 A3009 RMK AO2 T01500144 $<br><br>
KBUF 101027Z 22006KT 2 1/2SM BR CLR 14/14 A3008 RMK AO2 T01440139 $<br><br>
KBUF 101120Z 1012/1112 25006KT 3SM BR SKC FM101300 23005KT P6SM FEW250 FM102000 29005KT P6SM FEW200 FM102300 VRB03KT P6SM SCT200<br><br>
<br><br>
CYYZ 101200Z 31004KT 15SM FEW025 SCT220 14/11 A3009 RMK CU1CI3 CU TR SLP193<br><br>
CYYZ 101100Z 33003KT 15SM FEW025 FEW055 SCT070 14/11 A3008 RMK CU1SC1AC1 SLP189<br><br>
TAF CYYZ 101141Z 1012/1118 33005KT P6SM FEW008 SCT025 BECMG 1014/1016 35010KT FM102300 36015KT P6SM SCT040 BKN150 FM111000 03008KT P6SM -SHRA BKN030 OVC080 RMK NXT FCST BY 101500Z<br><br>
<br><br>
CYOO 101200Z AUTO 30004KT 9SM CLR 12/11 A3009 RMK SLP193<br><br>
CYOO 101100Z AUTO 23002KT 9SM CLR 11/10 A3007 RMK SLP185<br><br>
CYOO has no TAF <br><br>
<br><br>
CYTR 101200Z 31003KT 15SM FEW035 FEW230 13/13 A3008 RMK SC1CI1 SLP186<br><br>
CYTR 101100Z 30004KT 10SM SKC 13/13 A3005 RMK SLP179<br><br>
TAF CYTR 101130Z 1012/1112 30004KT 6SM BR FEW006 TEMPO 1012/1013 2SM BR BKN006 FM101300 27005KT P6SM SCT008 TEMPO 1013/1016 5SM BR BKN008 FM101600 27005KT P6SM BKN020 TEMPO 1016/1019 SCT020 BECMG 1017/1019 24008KT FM101900 24008KT P6SM BKN030 FM102300 32010KT P6SM FEW030 FM110300 34008KT P6SM FEW030 BKN250 FM110900 02008KT P6SM FEW030 BKN140 RMK NXT FCST BY 101800Z<br><br>
<br><br>
