RETRIEVED AT : Sep 08 2019 23:05 Local <br>
  RETRIEVED AT: Sep 09 2019 03:05 UTC<br><br>
CYSN has no TAF <br><br>
<br><br>
CYHM 090200Z 02006KT 15SM FEW034 BKN160 BKN250 11/06 A3021 RMK SC1AC5CI1 SC TR CI TR SLP235<br><br>
TAF CYHM 082338Z 0900/0924 09005KT P6SM SCT050 BKN160 TEMPO 0900/0903 BKN050 OVC160 FM090300 03006KT P6SM SCT040 BKN120 FM091200 03010KT P6SM SCT040 BKN080 FM092200 06008KT P6SM FEW040 RMK NXT FCST BY 090600Z<br><br>
<br><br>
KIAG 090253Z 00000KT 10SM SCT045 A3022 RMK AO2 SLPNO 52020 $<br><br>
KIAG 090153Z 00000KT 10SM SCT045 A3020 RMK AO2 SLPNO $<br><br>
KIAG 090250Z 0903/0924 35005KT P6SM SCT200 FM091000 VRB04KT 5SM BR SCT200 FM091300 08005KT P6SM SCT150 FM092300 06007KT P6SM FEW200<br><br>
<br><br>
KBUF 090254Z 01004KT 10SM BKN180 14/10 A3022 RMK AO2 SLP233 T01440100 53017<br><br>
KBUF 090154Z 03003KT 10SM FEW045 BKN200 15/10 A3020 RMK AO2 SLP226 T01500100<br><br>
KBUF 090250Z 0903/0924 02005KT P6SM SCT200 FM091000 VRB04KT 5SM BR SCT200 FM091200 08006KT P6SM SCT150 FM092300 06007KT P6SM FEW200<br><br>
<br><br>
CYYZ 090200Z 04009KT 350V060 15SM FEW180 12/07 A3022 RMK AC2 SLP237<br><br>
TAF CYYZ 090238Z 0903/1006 03008KT P6SM FEW050 SCT180 FM091500 08009KT P6SM SCT025 BKN120 FM091800 12010KT P6SM BKN030 OVC100 FM092100 12010KT P6SM SCT030 FM100000 07007KT P6SM SKC RMK NXT FCST BY 090600Z<br><br>
<br><br>
CYOO 090200Z AUTO 34004KT 9SM FEW230 11/08 A3021 RMK SLP233<br><br>
TAF CYOO 090138Z 0902/0914 VRB03KT P6SM FEW030 BKN210 BECMG 0904/0906 04007KT BECMG 0912/0914 09008KT RMK FCST BASED ON AUTO OBS. NXT FCST BY 090800Z<br><br>
<br><br>
CYTR 090200Z 05008KT 15SM SCT050 BKN250 13/09 A3021 RMK SC4CI2 SLP233<br><br>
TAF CYTR 082330Z 0900/0924 34004KT P6SM SCT050 BKN220 BECMG 0903/0905 03005KT FM091100 05006KT P6SM SCT040 BKN150 FM092100 21005KT P6SM FEW040 RMK NXT FCST BY 090600Z<br><br>
<br><br>
