RETRIEVED AT : Sep 09 2018 19:05 Local <br>
  RETRIEVED AT: Sep 09 2018 23:05 UTC<br><br>
CYSN 092200Z 07013KT 15SM FEW030 SCT160 OVC200 15/07 A3017 RMK SC2AC2CI4 SLP219<br><br>
TAF CYSN 091943Z 0920/1001 08012G22KT P6SM FEW025 OVC250 FM092200 09015G25KT P6SM SCT030 OVC100 TEMPO 0922/1001 P6SM -RA RMK NXT FCST WILL BE ISSUED AT 101245Z<br><br>
<br><br>
CYHM 092200Z 06023G30KT 15SM FEW030 BKN048 BKN180 14/08 A3017 RMK SC1SC5AC2 SC TR SLP220<br><br>
TAF CYHM 091745Z 0918/1018 08020G30KT P6SM FEW030 OVC200 FM092300 09018G28KT P6SM BKN040 OVC100 FM100200 07015G25KT P6SM -RA BKN020 OVC060 FM100400 07015G25KT 5SM -RA BR BKN008 OVC015 FM100600 07015G25KT 2SM -RA BR OVC004 PROB30 1008/1012 1/4SM SHRA FG VV001 FM101200 08015G25KT 3SM -DZ BR OVC005 RMK NXT FCST BY 100000Z<br><br>
<br><br>
KIAG 092253Z 07011KT 10SM BKN060 14/07 A3018 RMK AO2 SLP224 T01390067<br><br>
KIAG 092153Z 08013G21KT 10SM CLR 14/06 A3017 RMK AO2 SLP223 T01390056<br><br>
KIAG 092124Z 0921/1018 07017KT P6SM OVC250 FM092200 08012KT P6SM OVC100 FM100400 10012KT 6SM -RA OVC060 FM100700 10014G22KT 2SM +RA BR OVC025 FM101200 10016G24KT 6SM -RA OVC015 FM101700 10014G22KT P6SM VCSH BKN025<br><br>
<br><br>
KBUF 092254Z 07013KT 10SM BKN050 BKN075 OVC150 14/08 A3017 RMK AO2 SLP220 T01390078<br><br>
KBUF 092154Z 07011G19KT 10SM SCT050 BKN120 OVC160 14/07 A3017 RMK AO2 SLP219 T01440072<br><br>
KBUF 092124Z 0921/1018 08012KT P6SM BKN050 BKN120 OVC160 FM100300 10010KT 6SM -RA OVC050 FM100600 09014KT 2SM +RA BR OVC025 FM101200 10014G22KT 6SM -RA OVC015 FM101700 11012G20KT P6SM VCSH BKN025<br><br>
<br><br>
CYYZ 092200Z 07015G24KT 15SM FEW035 BKN220 BKN260 15/06 A3021 RMK CF1CS6CI1 CI TR SLP232<br><br>
TAF CYYZ 092038Z 0921/1024 09015G25KT P6SM BKN030 OVC200 BECMG 0922/0924 08012G22KT FM100300 09012G22KT P6SM BKN030 OVC100 FM100600 10012G22KT P6SM -RA BKN020 OVC070 FM100800 10018G28KT 5SM -RA BR OVC008 PROB40 1008/1014 2SM -RA BR BKN003 OVC008 FM101400 10018G28KT 5SM -DZ -RA BR OVC006 PROB30 1014/1020 BKN003 FM102000 10012G22KT 5SM -DZ BR OVC006 PROB30 1020/1023 BKN003 FM102300 09010KT 5SM BR OVC006 PROB30 1023/1024 BKN003 RMK NXT FCST BY 100000Z<br><br>
<br><br>
CYOO 092200Z AUTO 07009G15KT 9SM SCT250 14/05 A3023 RMK SLP239<br><br>
CYOO has no TAF <br><br>
<br><br>
CYTR 092200Z 07006KT 15SM FEW040 BKN120 OVC200 15/04 A3025 RMK SC1AS6CI2 SUN DIMLY VISBL SLP247<br><br>
TAF CYTR 091730Z 0918/1018 07010G20KT P6SM FEW025 OVC200 BECMG 0922/0924 07010KT FM100400 08010KT P6SM FEW040 OVC150 FM101000 12010KT P6SM -RA BKN030 OVC060 FM101300 12015KT 3SM -RA BR SCT006 OVC012 RMK NXT FCST BY 100000Z<br><br>
<br><br>
