RETRIEVED AT : Sep 19 2017 11:10 Local <br>
  RETRIEVED AT: Sep 19 2017 15:10 UTC<br><br>
CYSN 191500Z 00000KT 10SM FEW010 SCT018 BKN200 24/20 A3003 RMK SF2CU2CI2 SLP168 DENSITY ALT 1400FT<br><br>
CYSN 191400Z 34003KT 260V360 8SM FEW008 SCT075 OVC190 22/20 A3002 RMK SF1ACC2CC5 SLP167 DENSITY ALT 1100FT<br><br>
TAF AMD CYSN 191308Z 1913/2001 VRB03KT 6SM BR SCT008 BKN150 TEMPO 1913/1915 2SM BR BKN008 FM191500 VRB03KT P6SM BKN050 TEMPO 1915/1917 BKN020 FM192000 03005KT P6SM BKN100 RMK NXT FCST BY 192000Z<br><br>
<br><br>
CYHM 191500Z 06006KT 6SM BR FEW005 SCT009 BKN240 21/19 A3005 RMK SF1SC3CI1 SLP176 DENSITY ALT 1500FT<br><br>
CYHM 191400Z 06008KT 4SM BR FEW004 SCT010 BKN140 20/19 A3004 RMK SF2SC1AC2 SLP174 DENSITY ALT 1500FT<br><br>
CYHM 191324Z 05006KT 1 3/4SM BR BKN004 OVC140 19/19 A3004 RMK FG1SF5AC2 SLP173 DENSITY ALT 1400FT<br><br>
TAF AMD CYHM 191408Z 1914/2012 06010KT P6SM BKN040 TEMPO 1914/1918 4SM BR BKN015 FM191800 04007KT P6SM BKN050 PROB30 1918/1923 VRB15G25KT 2SM TSRA BR BKN020 OVC030CB FM200000 05005KT P6SM BKN140 PROB30 2008/2012 1SM BR RMK NXT FCST BY 191800Z<br><br>
<br><br>
KIAG 191453Z 18005KT 10SM FEW050 SCT070 24/18 A3004 RMK AO2 SLP167 T02440178 51003<br><br>
KIAG 191353Z 18005KT 10SM CLR 23/18 A3003 RMK AO2 SLP166 T02330178<br><br>
KIAG 191120Z 1912/2012 VRB03KT 3SM BR SCT007 BKN080 FM191300 00000KT P6SM BKN080 FM191900 02004KT P6SM BKN080 FM200200 VRB03KT P6SM SCT200<br><br>
<br><br>
KBUF 191454Z 18005KT 10SM FEW060 FEW110 FEW170 BKN250 24/17 A3004 RMK AO2 SLP171 T02390172 56001<br><br>
KBUF 191354Z 17007KT 10SM FEW065 SCT110 SCT170 BKN250 22/18 A3005 RMK AO2 SLP172 T02220178<br><br>
KBUF 191120Z 1912/2012 VRB03KT P6SM BKN130 FM191500 VRB03KT P6SM SCT090 FM191600 VRB03KT P6SM BKN100 FM192000 02004KT P6SM BKN100 FM192200 03005KT P6SM SCT200 FM200200 VRB03KT P6SM SCT200<br><br>
<br><br>
CYYZ 191500Z 05003KT 360V070 10SM SCT018 BKN035 BKN150 24/19 A3004 RMK SC4SC2AC1 SLP171 DENSITY ALT 1700FT<br><br>
CYYZ 191450Z 05004KT 010V120 8SM FEW014 BKN035 BKN150 24/19 A3004 RMK SC2SC3AC2 SLP172 DENSITY ALT 1600FT<br><br>
CYYZ 191400Z 01003KT 320V060 8SM BKN011 BKN150 22/19 A3004 RMK SC5AC2 SLP172 DENSITY ALT 1400FT<br><br>
TAF CYYZ 191438Z 1915/2018 02005KT P6SM BKN150 TEMPO 1915/1918 BKN012 FM191800 08007KT P6SM BKN050 PROB30 1918/1923 VRB15G25KT 2SM TSRA BR BKN015 OVC030CB FM200000 02005KT P6SM BKN100 FM200600 07008KT 6SM BR FEW002 SCT100 PROB30 2006/2012 2SM BR FM201200 11008KT P6SM BKN012 FM201600 12007KT P6SM SCT100 RMK NXT FCST BY 191800Z<br><br>
<br><br>
CYOO 191500Z AUTO VRB02KT 9SM FEW043 23/19 A3004 RMK SLP173 DENSITY ALT 1300FT<br><br>
CYOO 191400Z AUTO 00000KT 9SM SCT046 22/18 A3004 RMK SLP175 DENSITY ALT 1200FT<br><br>
CYOO 191339Z AUTO VRB02KT 8SM BKN048 BKN055 BKN160 22/18 A3004 RMK SLP173 DENSITY ALT 1200FT<br><br>
CYOO 191329Z AUTO VRB02KT 5SM HZ SCT048 BKN160 22/18 A3004 RMK SLP173 DENSITY ALT 1200FT<br><br>
CYOO 191314Z AUTO 35003KT 9SM FEW046 SCT160 22/18 A3004 RMK SLP172 DENSITY ALT 1100FT<br><br>
CYOO has no TAF <br><br>
<br><br>
CYTR 191500Z 20004KT 15SM FEW017 FEW110 BKN240 24/20 A3005 RMK SC2AC1CI3 SLP176<br><br>
CYTR 191400Z 17004KT 15SM FEW014 FEW050 FEW110 BKN240 23/20 A3005 RMK CF1SC2AC1CI4 SLP176<br><br>
TAF CYTR 191130Z 1912/2012 VRB03KT 3SM BR SCT050 BECMG 1912/1914 P6SM NSW FM191600 07008KT P6SM SCT030 TEMPO 1916/1918 P6SM -SHRA BKN030 BECMG 1916/1918 21008KT FM191800 21008KT P6SM SCT030 TEMPO 1918/1924 P6SM -SHRA BKN030 PROB30 1918/1922 2SM TSRA BR BKN020CB FM200000 02008KT P6SM SCT020 BKN050 FM200300 02005KT 6SM BR FEW020 TEMPO 2003/2012 2SM BR RMK NXT FCST BY 191800Z<br><br>
<br><br>
