RETRIEVED AT : Feb 28 2020 20:05 Local <br>
  RETRIEVED AT: Feb 29 2020 01:05 UTC<br><br>
CYSN 290000Z 25019G25KT 15SM FEW038 OVC093 M04/M10 A2978 RMK SC2AC6 SLP091<br><br>
TAF CYSN 281938Z 2820/2902 25020G30KT 6SM -SHSN OVC025 TEMPO 2820/2902 21/2SM -SHSN OVC020 PROB30 2820/2902 11/2SM -SHSN VV012 RMK NXT FCST WILL BE ISSUED AT 291345Z<br><br>
<br><br>
CYHM 290000Z 24015G24KT 15SM BKN017 BKN110 M06/M09 A2975 RMK SC6AC1 SLP090<br><br>
TAF AMD CYHM 282343Z 2900/2924 25015G30KT P6SM BKN025 OVC050 TEMPO 2900/2902 5SM -SHSN BKN020 OVC040 FM290200 25015G25KT P6SM -SHSN OVC030 TEMPO 2902/2905 11/2SM -SHSN BLSN OVC010 PROB30 2902/2904 3/4SM -SHSN BLSN VV006 FM290500 31010G20KT P6SM BKN030 BKN060 TEMPO 2905/2907 2SM -SHSN OVC020 FM290800 33007KT P6SM SCT030 BKN080 FM291700 28010G20KT P6SM -SHSN BKN030 RMK NXT FCST BY 290600Z<br><br>
<br><br>
KIAG 290053Z 25023G29KT 10SM OVC080 M05/M11 A2977 RMK AO2 PK WND 25029/0052 SLP101 T10501106<br><br>
KIAG 282353Z 25020G29KT 10SM OVC080 M05/M11 A2977 RMK AO2 PK WND 24029/2344 SLP099 T10501106 11044 21050 53013<br><br>
KIAG 282341Z 2900/2924 25020G30KT P6SM BKN050 FM290130 26015G25KT 4SM -SN BKN025 FM290300 26015G25KT 1SM -SN OVC025 TEMPO 2904/2906 1/4SM +SN BKN007 FM290800 29012KT 5SM -SN BKN025 FM291500 29014G20KT P6SM VCSH BKN035<br><br>
<br><br>
KBUF 290054Z 26018G26KT 10SM FEW050 OVC060 M04/M12 A2977 RMK AO2 PK WND 25030/0035 SLP094 T10391117<br><br>
KBUF 282354Z 25015G22KT 10SM BKN055 BKN070 OVC085 M04/M10 A2977 RMK AO2 PK WND 27027/2319 SNE08 SLP093 4/003 P0000 60000 T10391100 11039 21050 51011<br><br>
KBUF 282341Z 2900/2924 25015G25KT 6SM -SN SCT025 BKN035 FM290330 26012G20KT 1SM -SN OVC025 TEMPO 2904/2906 1/4SM +SN BKN007 FM290800 29012KT 5SM -SN BKN025 FM291200 29010KT 6SM -SN OVC035 FM291500 28012G18KT P6SM SCT025 BKN035<br><br>
<br><br>
CYYZ 290102Z 01006KT 1/2SM R06L/2800V4500FT/U R05/6000FT/D SN VV003 M07/M09 A2975 RMK SN8 SLP085<br><br>
CYYZ 290047Z 03008G16KT 240V040 1/2SM R24R/2800VP6000FT/D R23/2800V5500FT/D SN VV003 M06/M08 A2974 RMK SN8 SLP082<br><br>
CYYZ 290044Z VRB08G16KT 3/4SM R24R/4500VP6000FT/D R23/2800VP6000FT/D -SN VV012 M06/M08 A2974 RMK SN8 SLP082<br><br>
CYYZ 290029Z 24007KT 3SM -SN OVC020 M05/M07 A2973 RMK SC8 SLP078<br><br>
CYYZ 290014Z 25012G18KT 2SM -SN DRSN VV016 M05/M07 A2972 RMK SN8 SLP077<br><br>
CYYZ 290000Z 25008G16KT 1 1/2SM -SN DRSN VV008 M05/M07 A2972 RMK SN8 SLP076<br><br>
CYYZ 282349Z 24009G17KT 1 1/2SM -SN VV008 M05/M08 A2972 RMK SN8 SLP075<br><br>
CYYZ 282334Z 25014G22KT 2 1/2SM -SN VV012 M05/M09 A2972 RMK SN8 SLP074<br><br>
CYYZ 282309Z 25015G23KT 6SM -SN BKN022 OVC032 M05/M09 A2971 RMK SC6SC2 SLP071<br><br>
TAF CYYZ 282338Z 2900/0106 25015G28KT P6SM -SHSN BKN030 OVC080 TEMPO 2900/2903 1SM -SHSN BLSN OVC012 PROB30 2900/2902 1/2SM SHSN BLSN VV005 FM290300 30010G20KT P6SM BKN040 TEMPO 2903/2905 4SM -SHSN OVC025 FM290500 31010KT P6SM SCT030 BKN060 FM290800 35006KT P6SM FEW030 BKN090 FM291700 29012G22KT P6SM -SHSN BKN030 BECMG 2921/2923 31010KT FM010300 30006KT P6SM BKN030 RMK NXT FCST BY 290300Z<br><br>
<br><br>
CYOO 290043Z AUTO 31009KT 6SM -SN OVC034 M08/M10 A2974 RMK SLP081<br><br>
CYOO 290025Z AUTO 30005KT 3SM -SN OVC026 M08/M09 A2974 RMK SLP080<br><br>
CYOO 290000Z AUTO 33005KT 1 3/4SM -SN BKN016 OVC027 M08/M09 A2973 RMK SLP077<br><br>
CYOO 282356Z AUTO 34005KT 2 1/4SM -SN BKN014 OVC027 M08/M09 A2973 RMK SLP076<br><br>
CYOO 282351Z AUTO 33007KT 3SM -SN BKN014 OVC027 M08/M09 A2973 RMK SLP076<br><br>
TAF AMD CYOO 282129Z 2821/2908 27010G22KT 1/2SM SHSN BLSN VV006 TEMPO 2821/2823 2SM -SHSN OVC025 FM282300 29010G22KT 11/2SM -SHSN BLSN OVC015 TEMPO 2823/2901 6SM -SN OVC030 FM290100 30010G20KT P6SM BKN030 BKN050 TEMPO 2901/2903 4SM -SHSN BKN020 BKN040 FM290400 32008KT P6SM SCT030 BKN060 RMK FCST BASED ON AUTO OBS. NXT FCST BY 290200Z<br><br>
<br><br>
CYTR 290019Z 27005KT 12SM SCT036 OVC048 M06/M10 A2973 RMK SC3SC5 SLP075<br><br>
CYTR 290000Z 29007KT 7SM -SHSN SCT032 OVC048 M06/M09 A2973 RMK SC4SC4 SLP073<br><br>
TAF CYTR 282330Z 2900/2924 30007KT 4SM -SHSN OVC030 TEMPO 2900/2901 6SM -SHSN BKN030 OVC080 FM290100 30008KT P6SM SCT030 BKN090 TEMPO 2901/2903 5SM -SHSN BKN030 OVC090 FM291400 29008KT P6SM BKN025 FM291800 29012KT P6SM SCT030 RMK NXT FCST BY 290600Z<br><br>
<br><br>
