RETRIEVED AT : Jul 04 2020 14:05 Local <br>
  RETRIEVED AT: Jul 04 2020 18:05 UTC<br><br>
CYSN 041700Z 36005KT 330V030 15SM SCT250 27/14 A3000 RMK CI3 SLP158 DENSITY ALT 1700FT<br><br>
TAF CYSN 041238Z 0413/0501 02008KT P6SM FEW250 BECMG 0422/0424 VRB03KT RMK NXT FCST BY 042000Z<br><br>
<br><br>
CYHM 041700Z 03007G20KT 010V080 15SM FEW050 SCT250 28/13 A3002 RMK CU1CI4 CU TR SLP164 DENSITY ALT 2400FT<br><br>
TAF CYHM 041738Z 0418/0518 02008KT P6SM FEW050 SCT250 BECMG 0422/0424 VRB03KT BECMG 0513/0515 25007KT RMK NXT FCST BY 050000Z<br><br>
<br><br>
KIAG 041753Z VRB06KT 10SM CLR 29/13 A2999 RMK AO2 SLP148 T02890133 10289 20222 58004<br><br>
KIAG 041653Z 01008KT 10SM CLR 28/14 A3000 RMK AO2 SLP154 T02830144<br><br>
KIAG 041734Z 0418/0518 02008KT P6SM FEW060 FEW250 FM042300 VRB03KT P6SM FEW060 FEW250 FM050600 VRB04KT P6SM SKC FM051500 25007KT P6SM FEW060 FEW150<br><br>
<br><br>
KBUF 041754Z 02005KT 10SM FEW065 FEW250 31/14 A2999 RMK AO2 SLP148 T03060139 10311 20239 58005<br><br>
KBUF 041654Z 03010KT 10SM FEW065 FEW250 31/14 A3001 RMK AO2 SLP155 T03060139<br><br>
KBUF 041734Z 0418/0518 02010KT P6SM FEW060 FEW250 FM050000 VRB04KT P6SM FEW250 FM051500 24008KT P6SM FEW045 FEW100<br><br>
<br><br>
CYYZ 041700Z 05004KT 330V140 15SM FEW250 29/11 A3001 RMK CI2 SLP159 DENSITY ALT 2300FT<br><br>
TAF CYYZ 041738Z 0418/0524 17008KT P6SM FEW250 BECMG 0423/0501 02008KT BECMG 0513/0515 28008KT RMK NXT FCST BY 042100Z<br><br>
<br><br>
CYOO 041700Z AUTO 18008KT 9SM CLR 29/11 A3000 RMK SLP158 DENSITY ALT 2000FT<br><br>
TAF CYOO 041338Z 0414/0502 02010KT P6SM FEW250 BECMG 0415/0417 18010KT BECMG 0423/0501 35005KT RMK FCST BASED ON AUTO OBS. NXT FCST BY 042000Z<br><br>
<br><br>
CYTR 041700Z 03005KT 15SM FEW250 30/11 A2998 RMK CI1 SLP151<br><br>
TAF CYTR 041732Z 0418/0518 03005KT P6SM FEW250 BECMG 0418/0420 21008KT FM050200 35005KT P6SM SCT080 BECMG 0515/0517 25008KT RMK NXT FCST BY 050000Z<br><br>
<br><br>
