RETRIEVED AT : May 17 2020 00:05 Local <br>
  RETRIEVED AT: May 17 2020 04:05 UTC<br><br>
CYSN has no TAF <br><br>
<br><br>
CYHM 170300Z 03008KT 15SM FEW240 08/06 A3020 RMK CI1 SLP234<br><br>
TAF CYHM 162338Z 1700/1724 09008KT P6SM FEW030 BKN250 FM170300 06008KT P6SM SKC FM171000 06012KT P6SM SCT040 BKN200 FM171600 05015G25KT P6SM SCT040 BKN140 FM171800 05015G25KT P6SM -RA SCT020 BKN040 OVC080 TEMPO 1718/1721 5SM -RA BR BKN020 OVC040 FM172100 05015G25KT 2SM -RA BR OVC006 RMK NXT FCST BY 170600Z<br><br>
<br><br>
KIAG 170353Z AUTO 10005KT 10SM CLR 10/06 A3020 RMK AO2 SLP233 T01000061 $<br><br>
KIAG 170253Z 08006KT 10SM CLR 11/07 A3021 RMK AO2 SLP233 T01110067 53005 $<br><br>
KIAG 170228Z 1702/1724 06006KT P6SM SCT250 FM171400 09014G22KT P6SM OVC100 FM172100 07016G24KT 6SM -SHRA OVC025<br><br>
<br><br>
KBUF 170354Z 09006KT 10SM BKN260 12/06 A3021 RMK AO2 SLP231 T01170056<br><br>
KBUF 170254Z 07007KT 10SM BKN260 12/06 A3021 RMK AO2 SLP233 T01220061 53006<br><br>
KBUF 170228Z 1702/1724 05006KT P6SM SCT250 FM171400 09012G20KT P6SM OVC100 FM172000 07012G20KT 6SM -SHRA OVC025<br><br>
<br><br>
CYYZ 170300Z 05005KT 15SM BKN260 11/06 A3022 RMK CI6 SLP238<br><br>
TAF CYYZ 170238Z 1703/1806 06007KT P6SM FEW050 BKN250 FM170900 08008KT P6SM SCT050 BKN220 FM171200 09012KT P6SM SCT050 OVC150 BECMG 1717/1719 09012G22KT FM172100 09012G22KT P6SM -RA BKN030 OVC070 TEMPO 1721/1803 3SM -RA BR BKN012 OVC030 FM180300 09012KT 2SM -RA BR OVC008 RMK NXT FCST BY 170600Z<br><br>
<br><br>
CYOO 170300Z AUTO 06002KT 9SM CLR 09/06 A3023 RMK SLP242<br><br>
TAF CYOO 170138Z 1702/1714 09005KT P6SM FEW050 BKN240 FM170800 06007KT P6SM BKN240 TEMPO 1708/1712 2SM BR RMK FCST BASED ON AUTO OBS. NXT FCST BY 170800Z<br><br>
<br><br>
CYTR 170300Z 36002KT 15SM FEW250 07/05 A3025 RMK CI2 SLP245<br><br>
TAF CYTR 162330Z 1700/1724 22008KT P6SM FEW040 BECMG 1700/1702 VRB03KT BECMG 1706/1708 04008KT FM171200 05010KT P6SM BKN200 BECMG 1716/1718 09010KT OVC150 FM172200 06008KT P6SM SCT060 OVC100 TEMPO 1722/1724 P6SM -RA BKN060 OVC100 RMK NXT FCST BY 170600Z<br><br>
<br><br>
