RETRIEVED AT : Dec 11 2017 04:10 Local <br>
  RETRIEVED AT: Dec 11 2017 09:10 UTC<br><br>
CYSN has no TAF <br><br>
<br><br>
TAF CYHM 110538Z 1106/1206 25010KT P6SM -SN OVC030 TEMPO 1106/1108 11/2SM -SN BKN008 OVC020 FM110800 33008KT P6SM BKN030 TEMPO 1108/1114 BKN020 BECMG 1112/1114 06007KT FM112100 06008KT 6SM -SN OVC100 TEMPO 1121/1202 2SM -SHSN OVC015 FM120200 06008KT 1SM -SN BR OVC006 RMK NXT FCST BY 111200Z<br><br>
<br><br>
KIAG 110907Z 1109/1206 29008KT P6SM SCT025 BKN045 TEMPO 1109/1111 BKN025 FM111400 32004KT P6SM SCT050 FM111700 23004KT P6SM BKN050 FM112000 18004KT P6SM VCSH OVC045 FM120000 12008KT 2SM -SN OVC015<br><br>
<br><br>
KBUF 110854Z 29006KT 10SM FEW021 BKN026 OVC065 M03/M04 A2992 RMK AO2 SNE0758 SLP143 P0000 60001 T10281044 51017 $<br><br>
KBUF 110827Z 28005KT 10SM FEW010 BKN016 OVC022 M03/M04 A2992 RMK AO2 SNE0758 P0000 T10281044 $<br><br>
KBUF 110754Z 26004KT 8SM -SN BKN010 OVC014 M03/M04 A2991 RMK AO2 CIG 008V012 SLP139 P0001 T10331039 $<br><br>
KBUF 110744Z 27006KT 6SM -SN BR FEW010 BKN014 OVC023 M03/M04 A2991 RMK AO2 P0001 T10331044 $<br><br>
KBUF 110733Z 26006KT 4SM -SN BR FEW014 BKN019 OVC050 M03/M04 A2990 RMK AO2 P0001 T10331044 $<br><br>
KBUF 110720Z 26007KT 2SM -SN BR OVC018 M03/M04 A2990 RMK AO2 P0001 T10331044 $<br><br>
KBUF 110907Z 1109/1206 28007KT P6SM -SN SCT025 OVC050 TEMPO 1109/1111 BKN025 FM111100 32005KT P6SM BKN050 FM111400 30004KT P6SM SCT050 FM111700 25005KT P6SM BKN050 FM112000 20005KT P6SM VCSH OVC035 FM120000 12007KT 2SM -SN OVC015<br><br>
<br><br>
CYYZ 110900Z 35006KT 15SM SCT031 OVC055 M06/M10 A2995 RMK SC3SC5 SLP154<br><br>
CYYZ 110800Z 36011KT 15SM BKN023 OVC058 M06/M09 A2993 RMK SC5SC3 SLP145<br><br>
TAF CYYZ 110841Z 1109/1212 36010KT P6SM BKN030 TEMPO 1109/1111 5SM -SHSN OVC020 FM111100 36010KT P6SM BKN030 TEMPO 1111/1115 BKN020 FM111600 09008KT P6SM BKN180 FM111900 09008KT 6SM -SN BKN025 OVC080 TEMPO 1119/1202 2SM -SHSN BKN008 OVC020 FM120200 10010KT 1SM -SN BKN008 OVC012 FM120600 10008KT 3/4SM -SN OVC008 FM121100 04012KT 11/2SM -SN OVC012 RMK NXT FCST BY 111200Z<br><br>
<br><br>
CYOO 110900Z AUTO 34011KT 9SM FEW027 OVC055 M07/M12 A2995 RMK SLP151<br><br>
CYOO 110800Z AUTO 35011G18KT 9SM OVC055 M07/M12 A2993 RMK SLP145<br><br>
CYOO has no TAF <br><br>
<br><br>
CYTR 110900Z 32009KT 15SM BKN041 M06/M12 A2995 RMK SC6 SLP147<br><br>
CYTR 110800Z 34006KT 15SM BKN036 OVC069 M05/M12 A2992 RMK SC6AC2 SLP138<br><br>
TAF CYTR 110530Z 1106/1206 33012KT P6SM OVC040 FM110800 33008KT P6SM SKC FM111600 02005KT P6SM BKN200 FM112100 07005KT P6SM OVC100 BECMG 1201/1203 6SM -SN OVC020 FM120400 07010KT 11/2SM -SN OVC012 RMK NXT FCST BY 111200Z<br><br>
<br><br>
