RETRIEVED AT : Sep 26 2017 02:10 Local <br>
  RETRIEVED AT: Sep 26 2017 06:10 UTC<br><br>
CYSN has no TAF <br><br>
<br><br>
CYHM 260600Z 36002KT 15SM SCT240 21/19 A3002 RMK CI4 SLP163 DENSITY ALT 1600FT<br><br>
CYHM 260500Z 01003KT 15SM BKN250 21/20 A3001 RMK CI5 SLP160 DENSITY ALT 1600FT<br><br>
TAF CYHM 260538Z 2606/2706 VRB03KT P6SM BKN240 TEMPO 2609/2614 4SM BR PROB30 2609/2613 3/4SM BR FM261700 20012KT P6SM SKC BECMG 2701/2703 21005KT RMK NXT FCST BY 261200Z<br><br>
<br><br>
KIAG 260553Z AUTO 08003KT 6SM HZ CLR 22/18 A3000 RMK AO2 SLP152 T02220183 10261 20211 55000<br><br>
KIAG 260453Z AUTO 00000KT 6SM HZ CLR 22/19 A3000 RMK AO2 SLP150 T02220189 403390178<br><br>
KIAG 260538Z 2606/2706 VRB03KT P6SM BKN250 FM260700 VRB03KT 4SM BR BKN250 FM260900 VRB03KT 2SM BR SCT250 FM261100 VRB03KT P6SM SCT250 FM261800 22007KT P6SM SCT040 SCT250 FM270000 19004KT P6SM SCT250<br><br>
<br><br>
KBUF 260554Z 00000KT 10SM BKN250 22/19 A3001 RMK AO2 SLP158 T02170189 10261 20217 53001<br><br>
KBUF 260454Z COR 14004KT 10SM BKN250 23/19 A3000 RMK AO2 SLP155 T02280189 403280183<br><br>
KBUF 260538Z 2606/2706 VRB03KT P6SM BKN250 FM261600 24008KT P6SM FEW040 SCT250 FM270000 VRB04KT P6SM SCT250<br><br>
<br><br>
CYYZ 260600Z 03004KT 15SM SKC 23/19 A3001 RMK SLP159 DENSITY ALT 1600FT<br><br>
CYYZ 260500Z 02005KT 15SM FEW230 24/19 A3000 RMK CI2 SLP157 DENSITY ALT 1600FT<br><br>
TAF CYYZ 260538Z 2606/2712 VRB03KT P6SM SCT230 BECMG 2614/2616 16008KT FM261700 20010KT P6SM SKC BECMG 2619/2621 16010KT BECMG 2623/2701 20007KT RMK NXT FCST BY 260900Z<br><br>
<br><br>
CYOO 260600Z AUTO 01002KT 9SM CLR 19/17 A3001 RMK SLP163 DENSITY ALT 900FT<br><br>
CYOO 260500Z AUTO 03004KT 9SM CLR 19/17 A3000 RMK SLP159 DENSITY ALT 900FT<br><br>
CYOO has no TAF <br><br>
<br><br>
CYTR 260600Z 04002KT 5SM BR FEW250 17/17 A3001 RMK CI2 SLP164<br><br>
CYTR 260500Z 03002KT 5SM BR FEW250 17/17 A3000 RMK CI2 SLP161<br><br>
TAF CYTR 260530Z 2606/2706 VRB03KT P6SM FEW250 TEMPO 2606/2612 3SM BR BECMG 2616/2618 20009KT RMK NXT FCST BY 261200Z<br><br>
<br><br>
