RETRIEVED AT : May 17 2020 08:05 Local <br>
  RETRIEVED AT: May 17 2020 12:05 UTC<br><br>
CYSN 171100Z 07009KT 60SM SCT220 09/08 A3021 RMK CI4 SLP232<br><br>
CYSN has no TAF <br><br>
<br><br>
CYHM 171100Z 05015KT 15SM FEW210 BKN250 07/06 A3019 RMK CC2CI4 SLP226<br><br>
TAF CYHM 171138Z 1712/1812 05015KT P6SM BKN200 FM171600 05015G25KT P6SM SCT040 BKN120 OVC200 FM172000 05015G25KT P6SM -RA SCT020 BKN040 OVC080 TEMPO 1720/1803 5SM -RA BR BKN020 OVC040 FM180300 04015G30KT 2SM -RA BR OVC006 RMK NXT FCST BY 171800Z<br><br>
<br><br>
KIAG 171153Z 08013G20KT 10SM CLR 11/06 A3021 RMK AO2 SLP233 T01060061 10106 20072 53005 /<br><br>
KIAG 171053Z 07009KT 10SM CLR 08/06 A3020 RMK AO2 SLP230 T00830056 $<br><br>
KIAG 171120Z 1712/1812 07008KT P6SM SCT120 OVC250 FM171600 08012G20KT P6SM BKN100 FM172000 07012G20KT 6SM -SHRA OVC040 FM172300 08012KT 4SM -RA BR OVC025 FM180300 08012KT 4SM RA BR OVC015 FM180600 07014KT 2SM RA BR OVC007<br><br>
<br><br>
KBUF 171154Z 07012KT 10SM FEW200 FEW290 12/07 A3021 RMK AO2 SLP230 T01220067 10122 20089 53005<br><br>
KBUF 171054Z 06010KT 10SM FEW130 FEW210 FEW290 11/07 A3019 RMK AO2 SLP226 T01060067<br><br>
KBUF 171120Z 1712/1812 07008KT P6SM SCT120 OVC250 FM171600 08012G18KT P6SM BKN100 FM171900 08012G18KT 6SM -SHRA OVC040 FM172300 08012KT 4SM -RA BR OVC025 FM180200 08010KT 4SM RA BR OVC015 FM180600 08010KT 2SM RA BR OVC007<br><br>
<br><br>
CYYZ 171100Z 04005KT 15SM FEW180 BKN200 09/06 A3023 RMK AC1CS6 AC TR SLP240<br><br>
TAF CYYZ 171138Z 1712/1818 05010KT P6SM BKN150 OVC200 BECMG 1714/1716 09015G25KT FM172100 09015G25KT P6SM -RA BKN030 OVC070 TEMPO 1721/1803 3SM -RA BR BKN012 OVC030 FM180300 08015KT 2SM -RA BR OVC008 TEMPO 1803/1815 1SM -RA BR OVC004 BECMG 1812/1814 09020G35KT RMK NXT FCST BY 171500Z<br><br>
<br><br>
CYOO 171100Z AUTO 06005KT 9SM SCT230 10/06 A3024 RMK SLP245<br><br>
TAF CYOO 170738Z 1708/1720 VRB03KT P6SM SCT240 FM170900 06007KT P6SM BKN240 TEMPO 1709/1712 2SM BR FM171200 06010KT P6SM BKN200 FM171600 09012KT P6SM BKN150 RMK FCST BASED ON AUTO OBS. NXT FCST BY 171400Z<br><br>
<br><br>
CYTR 171100Z 08003KT 15SM BKN220 08/05 A3027 RMK CI7 SLP252<br><br>
TAF CYTR 171130Z 1712/1812 VRB03KT P6SM BKN220 BECMG 1716/1718 09010KT OVC150 FM172200 06008KT P6SM SCT060 OVC100 TEMPO 1722/1802 P6SM -RA BKN060 OVC100 FM180200 05005KT P6SM -RA SCT030 OVC050 TEMPO 1802/1809 5SM -RA BR BKN030 OVC050 FM180900 05010G20KT P6SM -RA SCT020 OVC050 TEMPO 1809/1812 5SM -RA BR BKN020 OVC050 RMK NXT FCST BY 171800Z<br><br>
<br><br>
