RETRIEVED AT : Nov 05 2017 23:10 Local <br>
  RETRIEVED AT: Nov 06 2017 04:10 UTC<br><br>
CYSN has no TAF <br><br>
<br><br>
CYHM 060400Z 22010KT 4SM -RA BR OVC004 14/14 A2972 RMK SF8 SLP068 DENSITY ALT 1200FT<br><br>
CYHM 060300Z 21008KT 3SM -DZ BR BKN004 OVC012 14/14 A2973 RMK SF5ST3 SLP069 DENSITY ALT 1200FT<br><br>
CYHM 060253Z 21010KT 3SM -DZ BR BKN004 OVC012 15/14 A2973 RMK SF5ST3 SLP069 DENSITY ALT 1200FT<br><br>
CYHM 060235Z 22008KT 3SM -RA BR BKN008 OVC013 14/14 A2973 RMK SF5SC3 SLP069 DENSITY ALT 1200FT<br><br>
CYHM 060222Z 23008KT 3SM RA BR BKN007 OVC012 15/14 A2973 RMK SC5SC3 SLP070 DENSITY ALT 1200FT<br><br>
CYHM 060212Z 22009KT 3SM -RA BR SCT007 OVC020 15/14 A2972 RMK SF3SC5 SLP066 DENSITY ALT 1200FT<br><br>
TAF AMD CYHM 060313Z 0603/0624 21010KT 4SM -DZ BR BKN004 OVC012 TEMPO 0603/0610 6SM BR SCT004 OVC012 BECMG 0604/0605 30010G20KT FM061000 31008KT P6SM SCT008 OVC015 TEMPO 0610/0613 5SM BR BKN008 OVC015 FM061300 31010KT P6SM BKN020 TEMPO 0613/0617 SCT020 FM061700 33010KT P6SM FEW025 FM062100 34007KT P6SM FEW140 RMK NXT FCST BY 060600Z<br><br>
<br><br>
KIAG 060353Z 19009KT 10SM -RA BKN027 BKN039 OVC070 16/13 A2973 RMK AO2 RAB18E27B52 SLP070 P0000 T01610133<br><br>
KIAG 060253Z 20012KT 10SM SCT070 BKN100 16/13 A2974 RMK AO2 RAE25 SLP070 P0001 60007 T01610133 53005<br><br>
KIAG 060239Z 20014KT 10SM SCT013 BKN110 16/13 A2973 RMK AO2 RAE25 P0001 T01610133<br><br>
KIAG 060306Z 0603/0624 20015KT 6SM -SHRA OVC035 FM060600 29010KT P6SM OVC012 FM062000 33011KT P6SM FEW025 BKN250<br><br>
<br><br>
KBUF 060354Z 17011KT 10SM BKN034 OVC047 15/13 A2975 RMK AO2 RAB00E10 SLP076 P0000 T01500133 $<br><br>
KBUF 060254Z 19012KT 10SM BKN048 OVC060 15/13 A2976 RMK AO2 RAE50 SLP078 P0006 60058 T01500133 55002 $<br><br>
KBUF 060306Z 0603/0624 20011KT 6SM -SHRA BKN035 FM060600 30012KT P6SM OVC015 FM062100 33010KT P6SM FEW025 BKN250<br><br>
<br><br>
CYYZ 060400Z 21006KT 5SM -RA BR BKN006 OVC018 15/14 A2970 RMK SF5SC3 SLP062 DENSITY ALT 1000FT<br><br>
CYYZ 060332Z 22012KT 6SM -RA OVC018 15/14 A2970 RMK SC8 SLP062 DENSITY ALT 1000FT<br><br>
CYYZ 060300Z 19007KT 15SM SCT016 OVC038 15/14 A2970 RMK SC4SC4 SLP062 DENSITY ALT 1000FT<br><br>
CYYZ 060246Z 19006KT 15SM SCT029 BKN045 OVC095 15/14 A2970 RMK SC4SC2AC2 SLP061 DENSITY ALT 1000FT<br><br>
TAF CYYZ 060238Z 0603/0706 19007KT 5SM -DZ BR BKN020 OVC040 TEMPO 0603/0605 P6SM -RA SCT020 BKN040 FM060500 31010KT P6SM BKN020 TEMPO 0605/0618 SCT025 FM061800 33010G20KT P6SM FEW030 FEW260 BECMG 0619/0621 36010KT BECMG 0701/0703 34009KT RMK NXT FCST BY 060600Z<br><br>
<br><br>
CYOO 060409Z AUTO 20009KT 6SM BR OVC002 14/13 A2970 RMK SLP060 DENSITY ALT 600FT<br><br>
CYOO 060404Z AUTO 20008KT 3SM BR OVC002 13/12 A2971 RMK SLP063 DENSITY ALT 600FT<br><br>
CYOO 060400Z AUTO 21005KT 1 3/4SM BR OVC002 13/12 A2971 RMK SLP063 DENSITY ALT 500FT<br><br>
CYOO 060352Z AUTO 20004KT 2 1/2SM BR OVC002 13/12 A2971 RMK SLP063 DENSITY ALT 500FT<br><br>
CYOO 060317Z AUTO 19004KT 5SM BR BKN002 BKN008 OVC012 13/12 A2971 RMK SLP063 DENSITY ALT 500FT<br><br>
CYOO 060303Z AUTO 20003KT 6SM BR FEW004 BKN008 BKN012 OVC100 13/12 A2970 RMK SLP061 DENSITY ALT 500FT<br><br>
CYOO 060300Z AUTO 20003KT 160V220 6SM BR SCT004 BKN010 OVC100 13/12 A2970 RMK SLP060 DENSITY ALT 500FT<br><br>
CYOO 060249Z AUTO VRB02KT 7SM SCT004 BKN010 OVC100 13/12 A2970 RMK SLP059 DENSITY ALT 500FT<br><br>
CYOO 060247Z AUTO VRB02KT 7SM -RA SCT004 BKN010 OVC100 13/12 A2970 RMK SLP059 DENSITY ALT 500FT<br><br>
CYOO 060244Z AUTO VRB02KT 6SM -RA BR SCT004 SCT010 OVC100 13/12 A2970 RMK SLP061 DENSITY ALT 500FT<br><br>
CYOO 060241Z AUTO VRB02KT 6SM -RA BR BKN004 OVC100 13/12 A2970 RMK SLP061 DENSITY ALT 500FT<br><br>
CYOO 060233Z AUTO 14003KT 4SM -RA BR BKN004 OVC110 13/12 A2970 RMK SLP059 DENSITY ALT 500FT<br><br>
CYOO 060228Z AUTO 13002KT 4SM -RA BR SCT004 OVC100 13/12 A2970 RMK SLP059 DENSITY ALT 500FT<br><br>
CYOO 060227Z AUTO 13003KT 4SM BR SCT004 OVC100 13/12 A2970 RMK SLP059 DENSITY ALT 500FT<br><br>
CYOO 060216Z AUTO VRB02KT 5SM BR BKN004 OVC110 13/12 A2970 RMK SLP060 DENSITY ALT 500FT<br><br>
CYOO has no TAF <br><br>
<br><br>
CYTR 060400Z 23007KT 15SM -DZ BKN007 OVC024 13/13 A2972 RMK SF7SC1 PCPN VRY LGT SLP067<br><br>
CYTR 060300Z 18008KT 15SM BKN008 OVC020 14/13 A2972 RMK SF5SC3 SLP067<br><br>
CYTR 060227Z 19011G16KT 15SM SCT009 OVC020 14/13 A2973 RMK SF4SC4 SLP068<br><br>
TAF CYTR 052330Z 0600/0624 18010KT P6SM -SHRA SCT005 OVC025 TEMPO 0600/0604 2SM +SHRA BR OVC005 PROB30 0600/0603 VRB20G35KT 3/4SM +TSRA BR BKN003 OVC030CB FM060400 20010KT 1SM -RA -DZ BR BKN004 OVC010 BECMG 0604/0606 25010KT FM060800 29010G20KT P6SM SCT012 BKN030 TEMPO 0608/0613 BKN012 OVC030 FM061500 29010G20KT P6SM SCT030 BECMG 0620/0622 30008KT RMK NXT FCST BY 060600Z<br><br>
<br><br>
