RETRIEVED AT : May 22 2020 19:05 Local <br>
  RETRIEVED AT: May 22 2020 23:05 UTC<br><br>
CYSN 222200Z 35005KT 15SM SCT062 BKN085 21/12 A2999 RMK SC4AC3 SLP157 DENSITY ALT 1100FT<br><br>
TAF CYSN 221940Z 2220/2301 01008KT P6SM SCT080 BKN220 FM222200 VRB03KT P6SM SCT050 BKN080 TEMPO 2222/2301 P6SM -SHRA BKN050 RMK NXT FCST WILL BE ISSUED AT 231245Z<br><br>
<br><br>
CYHM 222200Z VRB06KT 15SM BKN040 OVC080 20/15 A3002 RMK SC7AC1 SLP167 DENSITY ALT 1500FT<br><br>
TAF CYHM 221751Z 2218/2318 08005KT P6SM BKN230 FM222000 20010KT P6SM SCT060 BKN120 TEMPO 2220/2224 P6SM -SHRA SCT020 OVC060 FM230000 20008KT P6SM -SHRA FEW008 SCT015 OVC030 TEMPO 2300/2309 4SM -SHRA BR BKN015 OVC030 FM230900 28005KT P6SM SCT015 BKN030 TEMPO 2309/2313 BKN015 FM231600 10007KT P6SM BKN050 RMK NXT FCST BY 230000Z<br><br>
<br><br>
KIAG 222253Z 01006KT 10SM OVC060 23/13 A2998 RMK AO2 SLP152 T02280128<br><br>
KIAG 222153Z 05007KT 10SM BKN060 OVC085 23/13 A2999 RMK AO2 SLP154 T02330128<br><br>
KIAG 222100Z 2221/2318 04008KT P6SM BKN080 FM230200 00000KT P6SM VCSH OVC025 FM230800 00000KT P6SM OVC012 FM231700 00000KT P6SM SCT025<br><br>
<br><br>
KBUF 222254Z 24011KT 10SM BKN048 BKN060 BKN250 21/14 A2998 RMK AO2 SLP152 T02110139<br><br>
KBUF 222154Z 21007KT 10SM BKN050 BKN085 BKN250 23/13 A2999 RMK AO2 SLP153 T02280128<br><br>
KBUF 222100Z 2221/2318 23008KT P6SM BKN050 FM230200 VRB03KT 6SM -SHRA OVC025 FM230400 00000KT 4SM -SHRA BR OVC015 FM230900 VRB03KT P6SM OVC007 FM231700 VRB03KT P6SM BKN025<br><br>
<br><br>
CYYZ 222200Z 15007KT 15SM BKN062 BKN220 23/10 A2999 RMK SC6CC1 SLP158 DENSITY ALT 1600FT<br><br>
TAF CYYZ 222038Z 2221/2324 17008KT P6SM SCT090 BKN230 BECMG 2303/2305 10005KT FM231100 02008KT P6SM SKC FM231600 15010KT P6SM FEW050 RMK NXT FCST BY 230000Z<br><br>
<br><br>
CYOO 222200Z AUTO 13003KT 080V170 9SM OVC240 23/08 A3000 RMK SLP160 DENSITY ALT 1400FT<br><br>
TAF CYOO 221940Z 2220/2308 18007KT P6SM FEW090 BKN200 BECMG 2223/2301 VRB03KT RMK FCST BASED ON AUTO OBS. NXT FCST BY 230200Z<br><br>
<br><br>
CYTR 222200Z 23005KT 15SM FEW180 24/10 A2999 RMK AC1 SLP157<br><br>
TAF CYTR 221730Z 2218/2318 22008KT P6SM SKC BECMG 2222/2224 VRB03KT FM230000 VRB03KT P6SM BKN220 FM231200 VRB03KT P6SM SKC BECMG 2315/2317 20010KT RMK NXT FCST BY 230000Z<br><br>
<br><br>
