RETRIEVED AT : Jun 16 2019 10:05 Local <br>
  RETRIEVED AT: Jun 16 2019 14:05 UTC<br><br>
CYSN 161300Z 04007KT 15SM OVC024 13/13 A2984 RMK SC8 SLP107<br><br>
TAF CYSN 161241Z 1613/1701 04008KT P6SM OVC020 TEMPO 1613/1618 BKN025 BKN060 FM161800 03008KT P6SM BKN025 BKN060 FM162000 03006KT P6SM BKN040 FM162300 01005KT P6SM FEW050 SCT180 RMK NXT FCST BY 162000Z<br><br>
<br><br>
CYHM 161300Z 05015G22KT 15SM FEW022 FEW060 BKN079 13/09 A2986 RMK SC1SC2AC5 SC TR SLP112 DENSITY ALT 800FT<br><br>
TAF CYHM 161138Z 1612/1712 05012KT P6SM SCT020 BKN060 TEMPO 1612/1616 BKN020 BKN060 FM161600 05012KT P6SM BKN030 TEMPO 1616/1618 BKN020 FM170300 04008KT P6SM FEW110 RMK NXT FCST BY 161800Z<br><br>
<br><br>
KIAG 161353Z 06010KT 10SM OVC019 13/11 A2984 RMK AO2 SLP108 T01330111<br><br>
KIAG 161253Z 05007KT 10SM BKN016 OVC028 13/11 A2984 RMK AO2 SLP107 T01280111<br><br>
KIAG 161120Z 1612/1712 05008KT P6SM OVC012 FM161600 05008KT P6SM BKN025 FM161800 05008KT P6SM BKN040 FM170200 VRB03KT P6SM BKN080<br><br>
<br><br>
KBUF 161354Z 04012KT 10SM -DZ FEW003 BKN005 OVC013 12/11 A2984 RMK AO2 RAE53DZB53 SLP105 P0001 T01220106<br><br>
KBUF 161343Z 04012KT 7SM -RA FEW003 OVC005 13/11 A2984 RMK AO2 P0001 T01280111<br><br>
KBUF 161331Z 04011KT 2SM -RA BR OVC005 13/12 A2984 RMK AO2 CIG 003V007 P0001 T01330117<br><br>
KBUF 161316Z 04011KT 2SM -RA BR OVC003 13/12 A2984 RMK AO2 P0001 T01330117<br><br>
KBUF 161254Z 04010KT 1 3/4SM R23/5000VP6000FT -RA BR OVC003 13/12 A2983 RMK AO2 SLP101 P0000 T01330122<br><br>
KBUF 161120Z 1612/1712 04007KT 1SM -RADZ BR OVC002 FM161400 05008KT P6SM OVC007 FM161700 05008KT P6SM BKN015 FM161900 05007KT P6SM SCT025 BKN120 FM170200 VRB03KT P6SM BKN060<br><br>
<br><br>
CYYZ 161300Z 07014KT 15SM SCT080 BKN220 17/09 A2988 RMK AC4CI1 SLP119 DENSITY ALT 1000FT<br><br>
TAF CYYZ 161138Z 1612/1718 06010KT P6SM FEW040 FEW090 SCT220 BECMG 1616/1618 11010KT FM162200 14005KT P6SM FEW050 SCT180 BECMG 1701/1703 32005KT BECMG 1712/1714 04005KT FM171700 15008KT P6SM FEW100 RMK NXT FCST BY 161500Z<br><br>
<br><br>
CYOO 161300Z AUTO 06007KT 9SM CLR 17/10 A2987 RMK SLP116 DENSITY ALT 800FT<br><br>
TAF CYOO 161338Z 1614/1702 06007KT P6SM FEW120 BECMG 1614/1616 09010KT BECMG 1618/1620 16008KT FM162300 20006KT P6SM FEW160 RMK FCST BASED ON AUTO OBS. NXT FCST BY 162000Z<br><br>
<br><br>
CYTR 161300Z 04007KT 15SM FEW100 FEW240 16/11 A2987 RMK AC1CI1 AC TR SLP117<br><br>
TAF CYTR 161130Z 1612/1712 VRB03KT P6SM FEW120 SCT250 BECMG 1612/1614 04005KT FM161800 21010KT P6SM SCT030 BKN240 BECMG 1623/1701 VRB03KT RMK NXT FCST BY 161800Z<br><br>
<br><br>
