RETRIEVED AT : Feb 29 2020 22:05 Local <br>
  RETRIEVED AT: Mar 01 2020 03:05 UTC<br><br>
CYSN 010200Z 25011KT 15SM BKN037 M05/M11 A3009 RMK SC5 LAST STFD OBS/NEXT 011200Z SLP197<br><br>
CYSN has no TAF <br><br>
<br><br>
CYHM 010200Z 24008KT 15SM FEW080 M08/M12 A3006 RMK AC1 AC TR SLP198<br><br>
TAF CYHM 292339Z 0100/0124 27012G22KT P6SM FEW030 TEMPO 0100/0101 P6SM -SHSN BKN030 FM010100 27010KT P6SM SCT040 FM011500 23008KT P6SM FEW090 FM011800 20012KT P6SM SCT090 SCT170 FM012100 17012G22KT P6SM BKN050 BKN150 RMK NXT FCST BY 010600Z<br><br>
<br><br>
KIAG 010253Z 26009KT 10SM CLR M07/M12 A3009 RMK AO2 SLP210 T10721117 51017<br><br>
KIAG 010153Z 26013KT 10SM BKN037 BKN090 M06/M11 A3008 RMK AO2 SLP206 T10611111<br><br>
KIAG 292339Z 0100/0124 26008KT P6SM BKN050 FM011000 24006KT P6SM SCT250 FM011800 21010KT P6SM SCT120 FM012300 17008KT P6SM BKN090<br><br>
<br><br>
KBUF 010254Z 25008KT 10SM SCT090 M06/M11 A3009 RMK AO2 SLP202 60000 T10561111 51018 $<br><br>
KBUF 010154Z 26010KT 10SM BKN039 M05/M11 A3007 RMK AO2 SLP197 T10501106 $<br><br>
KBUF 292339Z 0100/0124 25008KT P6SM VCSH SCT035 BKN050 FM011000 25006KT P6SM SCT120 FM011800 21008KT P6SM SCT100 FM012300 17007KT P6SM BKN090<br><br>
<br><br>
CYYZ 010200Z 29009KT 15SM SKC M06/M11 A3005 RMK SLP191<br><br>
TAF CYYZ 010238Z 0103/0206 29008KT P6SM SKC FM011500 24008KT P6SM FEW080 BECMG 0116/0118 18010KT FM012100 17010KT P6SM BKN090 FM020300 16008KT P6SM BKN040 RMK NXT FCST BY 010600Z<br><br>
<br><br>
CYOO 010200Z AUTO 35005KT 9SM BKN110 M13/M15 A3006 RMK SLP192<br><br>
TAF CYOO 010138Z 0102/0114 32005KT P6SM FEW030 RMK FCST BASED ON AUTO OBS. NXT FCST BY 010800Z<br><br>
<br><br>
CYTR 010200Z 28006KT 15SM FEW070 M10/M14 A3005 RMK AC1 SLP182<br><br>
TAF CYTR 292330Z 0100/0124 28010KT P6SM SCT080 BKN250 BECMG 0101/0103 FEW080 SCT250 BECMG 0103/0105 VRB03KT FM011800 25008KT P6SM FEW250 BECMG 0122/0124 VRB03KT BKN080 RMK NXT FCST BY 010600Z<br><br>
<br><br>
