RETRIEVED AT : Nov 13 2017 00:10 Local <br>
  RETRIEVED AT: Nov 13 2017 05:10 UTC<br><br>
CYSN has no TAF <br><br>
<br><br>
CYHM 130500Z 01003KT 15SM -RA OVC015 01/01 A3032 RMK SC8 SLP276<br><br>
CYHM 130400Z 02002KT 15SM -RA OVC032 01/01 A3032 RMK SC8 SLP279<br><br>
TAF AMD CYHM 130409Z 1304/1324 04005KT 6SM -RA BR SCT008 OVC030 TEMPO 1304/1306 4SM -RA BR BKN008 OVC030 FM130600 05005KT 3SM -SNRA BR OVC008 TEMPO 1306/1310 6SM -RA BR SCT008 OVC030 PROB30 1306/1310 2SM -SNRA BR OVC005 FM131000 VRB03KT 2SM -DZ BR BKN005 OVC015 TEMPO 1310/1314 6SM BR SCT005 OVC015 PROB30 1310/1313 2SM -FZDZ BR FM131400 31007KT P6SM SCT015 BKN030 TEMPO 1314/1318 BKN015 RMK NXT FCST BY 130600Z<br><br>
<br><br>
KIAG 130453Z AUTO 34003KT 5SM -SN OVC033 03/M01 A3033 RMK AO2 RAE50SNB50 SLP283 P0001 T00281006 400671006 $<br><br>
KIAG 130353Z 04004KT 9SM -RA OVC038 03/M01 A3032 RMK AO2 SLP279 P0000 T00281006 $<br><br>
KIAG 130430Z 1305/1324 04004KT P6SM -RA OVC040 FM130700 00000KT P6SM VCSH OVC020 FM131000 VRB03KT P6SM OVC007 FM132200 32005KT P6SM BKN020<br><br>
<br><br>
KBUF 130454Z 36003KT 10SM -RA OVC032 02/M01 A3032 RMK AO2 SLP275 P0000 T00221011 400561017<br><br>
KBUF 130354Z 04004KT 10SM -RA BKN035 OVC049 02/00 A3031 RMK AO2 SLP273 P0001 T00220000<br><br>
KBUF 130430Z 1305/1324 04004KT P6SM -RA BKN035 FM130700 00000KT 6SM -SHRA OVC020 FM130900 00000KT P6SM VCSH OVC015 FM131200 VRB03KT P6SM OVC012 FM131700 32004KT P6SM OVC015<br><br>
<br><br>
CYYZ 130500Z 32004KT 10SM -RA SCT024 OVC036 02/00 A3033 RMK SC4SC4 SLP279<br><br>
CYYZ 130400Z 28005KT 10SM -RA FEW021 OVC033 02/M01 A3034 RMK SC2SC6 SLP281<br><br>
CYYZ 130320Z 27007KT 10SM -RA BKN024 OVC036 02/M01 A3034 RMK SC5SC3 SLP281<br><br>
TAF CYYZ 130238Z 1303/1406 15005KT P6SM -RA SCT030 OVC050 TEMPO 1303/1305 5SM -RASN OVC020 FM130500 VRB03KT 3SM -SNRA BR BKN008 OVC025 TEMPO 1305/1307 6SM -RA BR SCT008 OVC025 FM130700 VRB03KT 3SM -SNRA BR OVC007 TEMPO 1307/1310 6SM -RASN OVC012 FM131000 29005KT P6SM BKN010 OVC050 TEMPO 1310/1314 SCT010 BKN050 FM131400 VRB03KT P6SM BKN030 FM132200 VRB03KT P6SM BKN020 RMK NXT FCST BY 130600Z<br><br>
<br><br>
CYOO 130500Z AUTO 08003KT 060V130 9SM -RA BKN043 OVC050 04/M02 A3034 RMK SLP279<br><br>
CYOO 130459Z AUTO 08003KT 060V130 9SM -RA BKN043 OVC050 04/M02 A3034 RMK SLP279<br><br>
CYOO 130400Z AUTO 08003KT 9SM SCT035 OVC048 04/M01 A3034 RMK SLP280<br><br>
CYOO has no TAF <br><br>
<br><br>
CYTR 130500Z 06004KT 15SM OVC049 02/M03 A3036 RMK SC8 SLP285<br><br>
CYTR 130400Z 05005KT 15SM BKN049 OVC063 03/M03 A3036 RMK SC6SC2 SLP286<br><br>
TAF CYTR 122330Z 1300/1324 05004KT P6SM BKN040 OVC060 FM130700 06005KT P6SM SCT012 OVC040 TEMPO 1307/1313 P6SM -RASN FEW008 OVC012 PROB30 1309/1313 2SM -RASN BR OVC008 FM131300 06007KT P6SM BKN010 OVC040 FM131700 05007KT P6SM BKN020 OVC040 FM132200 04004KT P6SM OVC040 RMK NXT FCST BY 130600Z<br><br>
<br><br>
