RETRIEVED AT : Sep 02 2017 21:10 Local <br>
  RETRIEVED AT: Sep 03 2017 01:10 UTC<br><br>
CYSN 030100Z 17005KT 15SM OVC035 16/12 A2998 RMK SC8 LAST STFD OBS/NEXT 031100 UTC SLP154 DENSITY ALT 500FT<br><br>
CYSN 030000Z 18006KT 15SM BKN043 BKN250 16/12 A2998 RMK SC7CI1 CI TR SLP156 DENSITY ALT 500FT<br><br>
TAF CYSN 021947Z 0220/0301 10012KT P6SM FEW020 SCT150 BKN240 FM022100 15008KT P6SM BKN050 OVC120 TEMPO 0221/0301 P6SM -SHRA RMK NXT FCST WILL BE ISSUED AT 031245Z<br><br>
<br><br>
CYHM 030100Z 13003KT 15SM FEW020 OVC027 15/12 A2999 RMK CU2SC6 SLP158 DENSITY ALT 900FT<br><br>
CYHM 030000Z 18004KT 15SM FEW020 OVC026 14/12 A3000 RMK CU1SC8 CU TR SLP161 DENSITY ALT 900FT<br><br>
CYHM 022320Z 15006KT 15SM FEW023 OVC031 15/12 A3000 RMK CU1SC8 CU TR SLP164 DENSITY ALT 900FT<br><br>
TAF CYHM 022338Z 0300/0324 14010KT P6SM OVC030 TEMPO 0300/0303 P6SM -SHRA OVC020 FM030300 15008KT P6SM OVC015 TEMPO 0303/0305 5SM -SHRA BR FM030500 16008KT 3SM -RA BR OVC008 TEMPO 0305/0311 6SM -RA BR OVC010 BECMG 0308/0310 25006KT FM031100 27010G20KT P6SM SCT012 BKN080 FM031700 26015G25KT P6SM BKN040 FM032100 27015G25KT P6SM SCT050 BECMG 0322/0324 28010KT RMK NXT FCST BY 030600Z<br><br>
<br><br>
KIAG 030053Z 18009G16KT 10SM OVC037 18/11 A2999 RMK AO2 SLP157 T01780106<br><br>
KIAG 022353Z 18008KT 10SM SCT034 BKN042 OVC080 18/10 A2999 RMK AO2 SLP159 60000 T01830100 10233 20172 58007<br><br>
KIAG 022334Z 0300/0324 13007KT P6SM OVC035 FM030400 16006KT P6SM -RA OVC025 FM031000 19008KT 5SM -RA OVC007 FM031200 22008KT 5SM -RA OVC012 FM031600 26012G19KT 6SM -RA OVC060 FM032000 27012G19KT P6SM OVC040<br><br>
<br><br>
KBUF 030054Z 17008KT 10SM BKN042 17/10 A3000 RMK AO2 SLP159 T01670100<br><br>
KBUF 022354Z 16012KT 10SM BKN032 BKN042 OVC070 17/10 A3001 RMK AO2 SLP163 60000 T01720100 10217 20172 56007<br><br>
KBUF 022334Z 0300/0324 13006KT P6SM BKN035 FM030400 16006KT 6SM -RA OVC020 FM030900 19008KT P6SM OVC015 FM031100 20008KT 5SM -RA OVC015 FM031700 26014G20KT 6SM -RA OVC045 FM032200 25012G20KT P6SM BKN060<br><br>
<br><br>
CYYZ 030100Z 18006KT 15SM FEW018 OVC045 17/12 A2998 RMK SC1SC8 SC TR SLP156 DENSITY ALT 900FT<br><br>
CYYZ 030000Z 12011G16KT 15SM FEW025 OVC047 17/12 A2998 RMK CU1SC8 CU TR SLP156 DENSITY ALT 1000FT<br><br>
TAF CYYZ 022338Z 0300/0406 12010KT P6SM SCT025 OVC060 TEMPO 0300/0305 P6SM -SHRA OVC020 FM030500 15010KT 3SM -RA BR OVC007 TEMPO 0305/0307 6SM -RA BR OVC012 PROB30 0307/0310 2SM -RA BR OVC003 FM031200 30010G20KT P6SM SCT010 BKN030 FM031500 29010G20KT P6SM BKN025 BKN080 FM031700 28012G22KT P6SM BKN040 PROB30 0317/0321 VRB15G25KT 3SM TSRA BR OVC020CB FM032300 29015KT P6SM FEW040 BECMG 0402/0404 28008KT RMK NXT FCST BY 030300Z<br><br>
<br><br>
CYOO 030100Z AUTO 11009G15KT 9SM OVC048 18/11 A2999 RMK SLP157 DENSITY ALT 800FT<br><br>
CYOO 030000Z AUTO 09008KT 9SM OVC048 17/10 A3000 RMK SLP162 DENSITY ALT 600FT<br><br>
CYOO has no TAF <br><br>
<br><br>
CYTR 030100Z 07003KT 15SM BKN110 16/10 A3004 RMK AC5 SLP173<br><br>
CYTR 030000Z 08004KT 15SM BKN110 BKN250 17/09 A3004 RMK AC6CI1 SLP174<br><br>
TAF CYTR 022330Z 0300/0324 12008KT P6SM SCT050 BKN120 FM030400 14010KT P6SM BKN050 TEMPO 0304/0307 P6SM -SHRA FM030700 14010KT 6SM -RA BR SCT015 OVC030 TEMPO 0307/0309 3SM -RA BR SCT008 OVC015 FM030900 14010KT 3SM -RA BR BKN008 OVC015 TEMPO 0309/0317 6SM -RA BR SCT008 OVC015 BECMG 0313/0315 22005KT FM031700 29012KT P6SM SCT015 BKN080 TEMPO 0317/0322 P6SM -SHRA RMK NXT FCST BY 030600Z<br><br>
<br><br>
