RETRIEVED AT : Sep 03 2017 08:10 Local <br>
  RETRIEVED AT: Sep 03 2017 12:10 UTC<br><br>
CYSN 031200Z 22004KT 150V230 8SM -RA FEW010 OVC038 15/15 A2982 RMK SC2SC6 SLP098 DENSITY ALT 600FT<br><br>
CYSN 031100Z VRB02KT 6SM -RA BR OVC010 15/14 A2983 RMK SC8 SLP102 DENSITY ALT 500FT<br><br>
CYSN has no TAF <br><br>
<br><br>
CYHM 031200Z 29009KT 15SM FEW005 FEW017 BKN110 BKN210 14/14 A2986 RMK SF1SC2AC4CI1 SF TR CB TOP DSNT S SLP113 DENSITY ALT 1000FT<br><br>
CYHM 031120Z 26008KT 15SM BKN005 BKN015 OVC110 14/14 A2985 RMK SF6SC1AC1 SLP111 DENSITY ALT 1000FT<br><br>
CYHM 031100Z 26007KT 15SM FEW008 SCT016 BKN078 BKN110 14/14 A2984 RMK CF2SC1AC2AC2 SLP109 DENSITY ALT 1000FT<br><br>
CYHM 031047Z 26006KT 15SM FEW008 SCT042 BKN078 OVC100 14/14 A2984 RMK CF2SC2AC3AC1 PRESRR SLP107 DENSITY ALT 1000FT<br><br>
TAF CYHM 031139Z 0312/0412 27008KT P6SM FEW006 SCT015 BKN080 TEMPO 0312/0313 BKN005 OVC015 FM031300 27012KT P6SM SCT020 BKN040 TEMPO 0313/0315 OVC020 FM031700 26012G22KT P6SM BKN040 PROB30 0317/0320 3SM TSRA BR BKN030CB FM032300 28010KT P6SM SCT050 FM040300 22005KT P6SM SKC BECMG 0411/0412 22010KT RMK NXT FCST BY 031800Z<br><br>
<br><br>
KIAG 031153Z 23007KT 5SM RA BR BKN008 OVC013 16/14 A2984 RMK AO2 SLP103 P0022 60036 70038 T01610144 10161 20150 55003<br><br>
KIAG 031053Z 19006KT 4SM RA BR OVC007 16/13 A2983 RMK AO2 SLP102 P0007 T01560133<br><br>
KIAG 031048Z 19007KT 2 1/2SM RA BR OVC007 16/13 A2983 RMK AO2 P0006<br><br>
KIAG 031020Z AUTO 18006KT 2SM RA BR OVC005 16/13 A2983 RMK AO2 P0002 T01560133<br><br>
KIAG 031120Z 0312/0412 21008KT 2SM RA BR OVC005 TEMPO 0312/0313 2SM RA OVC007 FM031300 26009G18KT P6SM VCSH BKN020 FM032000 27011G18KT P6SM BKN070 FM040800 22007KT P6SM FEW140<br><br>
<br><br>
KBUF 031154Z 21010KT 3SM -RA BR BKN008 OVC022 14/13 A2985 RMK AO2 SLP108 P0012 60018 70021 T01390133 10139 20133 55003<br><br>
KBUF 031143Z 21009KT 2 1/2SM -RA BR BKN008 OVC022 14/13 A2985 RMK AO2 P0008 T01390133<br><br>
KBUF 031128Z 20009KT 3SM -RA BR OVC008 14/13 A2985 RMK AO2 CIG 006V011 P0004 T01390133<br><br>
KBUF 031054Z 20008KT 3SM -RA BR FEW005 BKN012 OVC017 14/13 A2985 RMK AO2 SLP107 P0002 T01390133<br><br>
KBUF 031120Z 0312/0412 21009KT 6SM -RA BR OVC012 TEMPO 0312/0313 2SM RA OVC007 FM031600 25011G20KT P6SM VCSH OVC035 FM032200 26011G17KT P6SM BKN035 FM032300 26010KT P6SM BKN035 FM040800 22008KT P6SM FEW250<br><br>
<br><br>
CYYZ 031200Z 26007KT 15SM FEW006 BKN035 OVC085 15/14 A2983 RMK SF2CU3AC3 SLP104 DENSITY ALT 800FT<br><br>
CYYZ 031146Z 26004KT 15SM VCSH SCT009 BKN040 OVC095 15/14 A2983 RMK SF3CU2AC3 SH E SLP103 DENSITY ALT 800FT<br><br>
CYYZ 031128Z VRB05KT 12SM -SHRA BKN008 BKN044 OVC080 15/14 A2983 RMK SF5CU2AC1 SLP103 DENSITY ALT 800FT<br><br>
CYYZ 031110Z 00000KT 15SM FEW003 BKN008 BKN075 15/14 A2982 RMK SF2SF4AC1 SLP098 DENSITY ALT 800FT<br><br>
CYYZ 031100Z 00000KT 15SM -RA BKN004 OVC009 15/14 A2982 RMK SF5SF3 SLP101 DENSITY ALT 800FT<br><br>
CYYZ 031041Z 00000KT 10SM -RA BKN003 OVC011 15/14 A2983 RMK SF5NS3 SLP103 DENSITY ALT 800FT<br><br>
CYYZ 031024Z 19003KT 8SM -RA BKN005 OVC014 15/14 A2983 RMK SF5NS3 SLP103 DENSITY ALT 800FT<br><br>
TAF CYYZ 031139Z 0312/0418 30008KT P6SM SCT010 OVC060 TEMPO 0312/0314 P6SM -SHRA BKN008 OVC040 FM031400 29010KT P6SM BKN025 BKN080 FM031700 28010G20KT P6SM BKN040 PROB30 0317/0321 VRB15G25KT 3SM TSRA BR OVC020CB FM032300 29015KT P6SM BKN040 FM040200 28008KT P6SM FEW040 BECMG 0408/0410 23008KT BECMG 0414/0416 22012G22KT FM041700 22020G30KT P6SM SCT100 RMK NXT FCST BY 031500Z<br><br>
<br><br>
CYOO 031200Z AUTO 13003KT 9SM -RA FEW005 SCT038 OVC090 15/14 A2981 RMK PCPN 2.5MM PAST HR SLP098 DENSITY ALT 600FT<br><br>
CYOO 031152Z AUTO 13004KT 6SM -RA BR FEW005 SCT018 BKN038 OVC085 15/14 A2982 RMK PRESFR SLP098 DENSITY ALT 600FT<br><br>
CYOO 031148Z AUTO VRB04KT 4SM -RA BR FEW005 SCT018 BKN034 OVC080 15/14 A2982 RMK PRESFR SLP098 DENSITY ALT 600FT<br><br>
CYOO 031140Z AUTO 27003KT 3SM RA BR SCT004 BKN012 BKN020 OVC028 15/14 A2983 RMK SLP103 DENSITY ALT 600FT<br><br>
CYOO 031124Z AUTO 22004KT 180V250 3SM RA BR OVC004 15/14 A2983 RMK SLP104 DENSITY ALT 600FT<br><br>
CYOO 031120Z AUTO 22004KT 150V240 2 1/2SM RA BR OVC004 15/14 A2983 RMK SLP104 DENSITY ALT 600FT<br><br>
CYOO 031108Z AUTO 19003KT 150V210 3SM -RA BR OVC004 15/14 A2983 RMK SLP103 DENSITY ALT 600FT<br><br>
CYOO 031100Z AUTO 18004KT 2 1/4SM RA BR OVC004 15/14 A2983 RMK VIS VRB 1 1/2-3 SLP103 DENSITY ALT 600FT<br><br>
CYOO 031023Z AUTO 16004KT 2 1/4SM -RA BR BKN004 OVC009 15/14 A2982 RMK SLP102 DENSITY ALT 600FT<br><br>
CYOO has no TAF <br><br>
<br><br>
CYTR 031200Z 14004KT 2SM -DZ BR OVC002 15/14 A2984 RMK SF8 SLP106<br><br>
CYTR 031149Z 13004KT 2SM -DZ BR OVC002 14/14 A2984 RMK SF8 SLP107<br><br>
CYTR 031140Z 11003KT 1 1/2SM -RA BR OVC002 14/14 A2985 RMK SF8 SLP108<br><br>
CYTR 031100Z 12006KT 1 1/2SM -DZ BR OVC002 14/14 A2985 RMK SF8 SLP111<br><br>
CYTR 031039Z 13006KT 2SM -DZ BR OVC002 14/14 A2986 RMK SF8 SLP112<br><br>
CYTR 031022Z 12006KT 2SM -RA BR OVC002 14/14 A2986 RMK SF8 SLP112<br><br>
TAF AMD CYTR 031157Z 0312/0412 12005KT 11/2SM -DZ BR OVC002 TEMPO 0312/0316 4SM -RA BR SCT002 OVC005 BECMG 0312/0314 19008KT FM031600 22008KT 3SM -RA BR BKN008 OVC015 TEMPO 0316/0319 6SM -RA BR SCT008 OVC015 PROB30 0316/0319 VRB15G25KT 2SM TSRA BR BKN008 OVC015CB FM031900 29012KT P6SM SCT015 BKN040 TEMPO 0319/0322 P6SM -SHRA BECMG 0319/0321 29012G22KT FM032300 29008KT P6SM SCT040 FM040500 VRB03KT P6SM FEW020 PROB40 0405/0412 11/2SM BR RMK NXT FCST BY 031800Z<br><br>
<br><br>
