RETRIEVED AT : Oct 09 2017 17:10 Local <br>
  RETRIEVED AT: Oct 09 2017 21:10 UTC<br><br>
CYSN 092100Z 33006KT 15SM FEW015 OVC033 19/16 A2989 RMK SC1SC7 SLP123 DENSITY ALT 1000FT<br><br>
CYSN 092000Z 00000KT 15SM SCT016 SCT250 20/16 A2986 RMK SC3CI1 SLP112 DENSITY ALT 1100FT<br><br>
TAF CYSN 091938Z 0920/1001 04005KT P6SM BKN012 BECMG 0920/0922 21008KT BKN030 FM100000 21007KT P6SM SCT040 RMK NXT FCST WILL BE ISSUED AT 101245Z<br><br>
<br><br>
CYHM 092100Z 25005KT 15SM BKN022 21/17 A2990 RMK SC7 SLP127 DENSITY ALT 1700FT<br><br>
CYHM 092000Z VRB06KT 15SM BKN019 21/16 A2988 RMK SC7 SLP119 DENSITY ALT 1700FT<br><br>
TAF AMD CYHM 092004Z 0920/1018 VRB03KT P6SM BKN030 TEMPO 0920/0922 OVC020 BECMG 0920/0922 26008KT FM092200 26008KT P6SM BKN030 TEMPO 0922/0924 BKN020 FM100100 26005KT P6SM FEW030 FM101600 33007KT P6SM SCT040 SCT150 RMK NXT FCST BY 100000Z<br><br>
<br><br>
KIAG 092053Z 30004KT 10SM OVC010 20/16 A2989 RMK AO2 SLP121 T02000156 51014<br><br>
KIAG 092048Z 27004KT 10SM OVC010 19/16 A2989 RMK AO2<br><br>
KIAG 091953Z 32005KT 10SM OVC008 19/16 A2987 RMK AO2 SLP114 T01940161<br><br>
KIAG 091928Z 33004KT 10SM OVC007 19/16 A2986 RMK AO2 T01890161<br><br>
KIAG 091913Z 36005KT 10SM OVC006 19/16 A2985 RMK AO2 T01890161<br><br>
KIAG 092102Z 0921/1018 29007KT 6SM BR OVC012 FM092300 24006KT P6SM OVC025 FM100400 23004KT P6SM SCT025 FM100700 VRB03KT P6SM SCT040 FM101400 31005KT P6SM SCT040<br><br>
<br><br>
KBUF 092054Z 27007KT 10SM BKN004 OVC006 18/17 A2989 RMK AO2 SLP119 60000 T01780172 52021 $<br><br>
KBUF 092041Z 30006KT 10SM BKN004 OVC012 18/17 A2988 RMK AO2 T01780172 $<br><br>
KBUF 092012Z 30007KT 10SM BKN008 OVC014 18/17 A2987 RMK AO2 T01830172 $<br><br>
KBUF 091954Z 32006KT 10SM FEW009 BKN014 OVC025 20/17 A2987 RMK AO2 SLP113 T02000172 $<br><br>
KBUF 092102Z 0921/1018 29006KT P6SM BKN005 OVC009 FM092300 25005KT P6SM OVC012 FM100500 24005KT P6SM SCT025 FM100800 VRB03KT P6SM SCT040 FM101400 26005KT P6SM SCT040<br><br>
<br><br>
CYYZ 092100Z 15007KT 15SM FEW030 BKN035 BKN045 21/16 A2988 RMK CU2SC3SC1 SLP118 DENSITY ALT 1500FT<br><br>
CYYZ 092000Z 15007KT 15SM FEW025 BKN038 21/15 A2985 RMK CU2SC5 SLP110 DENSITY ALT 1500FT<br><br>
TAF CYYZ 092038Z 0921/1024 VRB03KT P6SM BKN030 TEMPO 0921/1001 BKN020 FM100100 30006KT P6SM FEW030 FM101600 35010KT P6SM FEW040 FM102300 36015KT P6SM SCT040 SCT150 RMK NXT FCST BY 100000Z<br><br>
<br><br>
CYOO 092100Z AUTO 23004KT 9SM OVC033 20/15 A2987 RMK SLP116 DENSITY ALT 1100FT<br><br>
CYOO 092000Z AUTO 20006KT 160V220 9SM OVC031 21/15 A2984 RMK SLP105 DENSITY ALT 1300FT<br><br>
CYOO has no TAF <br><br>
<br><br>
CYTR 092100Z 32006KT 15SM FEW024 FEW250 22/16 A2983 RMK SC2CI1 SLP103<br><br>
CYTR 092000Z 35007KT 15SM SCT020 SCT068 21/17 A2981 RMK SC4AC1 SLP094<br><br>
TAF CYTR 091730Z 0918/1018 03012KT P6SM BKN010 OVC050 TEMPO 0918/0920 SCT010 BKN050 BECMG 0918/0920 34010KT FM092000 34010KT P6SM SCT030 TEMPO 0920/0923 BKN020 BECMG 0923/1001 VRB03KT FM100800 VRB03KT P6SM FEW030 SCT240 FM101500 VRB03KT P6SM SCT030 BKN200 BECMG 1015/1017 22010KT RMK NXT FCST BY 100000Z<br><br>
<br><br>
