RETRIEVED AT : Oct 27 2018 09:05 Local <br>
  RETRIEVED AT: Oct 27 2018 13:05 UTC<br><br>
CYSN 271250Z 07014KT 8SM FEW010 BKN033 OVC055 05/04 A2983 RMK SF1SC6SC2 SF TR SLP104<br><br>
CYSN 271200Z 08012KT 5SM -RA BR FEW010 OVC033 05/04 A2983 RMK SF1SC8 SF TR SLP106<br><br>
TAF CYSN 271238Z 2713/2801 08012KT 5SM -RA BR BKN008 OVC030 TEMPO 2713/2715 P6SM -RA SCT008 OVC030 PROB30 2713/2715 BKN007 FM271500 08015G25KT 5SM -RA BR BKN010 OVC030 TEMPO 2715/2717 P6SM -RA SCT010 OVC030 PROB30 2715/2717 BKN008 FM271700 07015G25KT 5SM -RA BR BKN012 OVC030 TEMPO 2717/2801 P6SM -RA OVC030 RMK NXT FCST BY 272000Z<br><br>
<br><br>
CYHM 271222Z 04020G29KT 3SM -RA BR OVC007 03/02 A2983 RMK SF8 SLP108<br><br>
CYHM 271200Z 04024KT 1 1/2SM -RA BR OVC007 03/02 A2982 RMK FG3SF5 /R11/ CIG RAG SLP106<br><br>
CYHM 271141Z 04020G28KT 1 1/2SM RA BR OVC007 03/03 A2982 RMK FG3SF5 SLP106<br><br>
CYHM 271125Z 04021G28KT 3SM RA BR OVC007 03/03 A2982 RMK SF8 SLP105<br><br>
CYHM 271116Z 04021G27KT 4SM -RA BR BKN005 OVC018 03/03 A2982 RMK SF6SC2 SLP106<br><br>
TAF CYHM 271141Z 2712/2812 04018G30KT P6SM -RA BKN007 OVC015 TEMPO 2712/2717 2SM -RA BR BKN005 OVC015 FM271700 06015G25KT 4SM -RA BR OVC006 BECMG 2722/2724 04012G22KT FM280200 04012G22KT 2SM -RA BR OVC004 FM280700 01008KT 5SM -RA BR SCT008 OVC012 RMK NXT FCST BY 271800Z<br><br>
<br><br>
KIAG 271253Z 08016KT 5SM -RA BR FEW009 BKN041 OVC050 04/02 A2983 RMK AO2 SLP110 P0001 T00390022<br><br>
KIAG 271246Z 08015KT 5SM -RA BR FEW009 BKN041 OVC050 04/02 A2983 RMK AO2 P0001 T00390022<br><br>
KIAG 271153Z 08012KT 8SM -RA FEW011 OVC042 04/02 A2983 RMK AO2 SLP112 P0001 60012 70017 T00390022 10039 20028 56007<br><br>
KIAG 271130Z 2712/2812 07012G22KT P6SM -RA SCT007 OVC025 FM271600 06014G24KT 6SM -RA OVC015 FM280500 02009KT 6SM -RA SCT007 OVC012 FM280900 32005KT 6SM -RA OVC012<br><br>
<br><br>
KBUF 271254Z 06013KT 6SM -RA BR BKN009 BKN020 OVC042 04/03 A2982 RMK AO2 SLP103 P0005 T00390028<br><br>
KBUF 271244Z 06012KT 6SM -RA BR BKN009 BKN020 OVC042 04/03 A2982 RMK AO2 P0004 T00390028<br><br>
KBUF 271154Z 07010KT 5SM RA BR SCT009 BKN017 OVC039 04/03 A2983 RMK AO2 SLP105 P0003 60017 70018 T00390028 10039 20028 55005<br><br>
KBUF 271138Z 06011KT 8SM -RA SCT009 BKN019 OVC041 03/03 A2982 RMK AO2 P0001 T00330028<br><br>
KBUF 271130Z 2712/2812 08014G20KT P6SM -RA SCT007 OVC025 FM271800 07014G24KT 6SM -RA OVC015 FM280100 03013G19KT 6SM -RA OVC007 FM280500 01007KT 6SM -RA OVC007 FM280800 33006KT 6SM -RA OVC007<br><br>
<br><br>
CYYZ 271200Z CCA 04009KT 8SM -RASN FEW022 OVC031 01/M01 A2988 RMK SC2SC6 SLP127<br><br>
TAF CYYZ 271141Z 2712/2818 04010KT P6SM -RA OVC025 TEMPO 2712/2715 5SM -SNRA BR SCT009 OVC015 BECMG 2712/2714 04010G20KT FM271500 06012G22KT P6SM -RA SCT007 OVC020 TEMPO 2715/2717 5SM -RA BR OVC007 FM271700 06015G25KT P6SM -RA SCT009 OVC015 FM272200 04010G20KT 4SM -RASN BR OVC008 FM280600 02010KT 6SM -SNRA SCT008 OVC015 BECMG 2806/2808 35008KT FM281400 30005KT P6SM -RA BKN008 OVC030 RMK NXT FCST BY 271500Z<br><br>
<br><br>
CYOO 271200Z AUTO 06011G16KT 9SM SCT044 BKN055 OVC066 04/M03 A2990 RMK SLP132<br><br>
CYOO has no TAF <br><br>
<br><br>
CYTR 271200Z 06009KT 15SM BKN077 OVC100 03/M04 A2995 RMK AC6AC2 SLP147<br><br>
TAF CYTR 271130Z 2712/2812 05008KT P6SM BKN080 TEMPO 2712/2718 P6SM -SHRA OVC050 BECMG 2712/2714 05012G22KT FM271800 05015G25KT P6SM -RA SCT020 OVC040 FM272000 05015G25KT 4SM -RA BR OVC020 TEMPO 2720/2803 2SM -RASN BR OVC008 FM280300 03015G25KT 6SM -SN SCT008 OVC020 TEMPO 2803/2812 2SM -SN BKN008 OVC020 BECMG 2803/2805 03010KT RMK NXT FCST BY 271800Z<br><br>
<br><br>
