RETRIEVED AT : Jun 14 2020 20:05 Local <br>
  RETRIEVED AT: Jun 15 2020 00:05 UTC<br><br>
TAF CYSN 141938Z 1420/1501 05012G22KT P6SM FEW050 SCT250 BECMG 1423/1501 08010KT RMK NXT FCST WILL BE ISSUED AT 151245Z<br><br>
<br><br>
TAF CYHM 142338Z 1500/1524 06012G22KT P6SM SCT250 BECMG 1500/1502 04010KT BECMG 1513/1515 05015KT RMK NXT FCST BY 150600Z<br><br>
<br><br>
KIAG 142320Z 1500/1524 06010KT P6SM BKN250 FM150600 08005KT P6SM SCT250 FM151500 07010KT P6SM FEW250<br><br>
<br><br>
KBUF 142320Z 1500/1524 06010KT P6SM BKN250 FM150600 09005KT P6SM SCT250 FM151500 08010KT P6SM FEW250<br><br>
<br><br>
TAF CYYZ 142338Z 1500/1606 10010KT P6SM FEW060 BECMG 1500/1502 04006KT BECMG 1513/1515 13012KT FM160200 03006KT P6SM SKC RMK NXT FCST BY 150300Z<br><br>
<br><br>
TAF CYOO 141938Z 1420/1508 15010KT P6SM FEW050 BECMG 1422/1424 VRB03KT RMK FCST BASED ON AUTO OBS. NXT FCST BY 150200Z<br><br>
<br><br>
TAF CYTR 142330Z 1500/1524 22005KT P6SM FEW070 FEW220 BECMG 1500/1502 VRB03KT FM151300 07005KT P6SM FEW060 BECMG 1518/1520 22010KT BECMG 1522/1524 VRB03KT RMK NXT FCST BY 150600Z<br><br>
<br><br>
