RETRIEVED AT : Apr 27 2018 23:41 Local <br>
  RETRIEVED AT: Apr 28 2018 03:41 UTC<br><br>
CYSN has no TAF <br><br>
<br><br>
CYHM 280300Z 32004KT 6SM RA OVC041 08/07 A2972 RMK SC8 SLP068<br><br>
CYHM 280249Z 30006KT 6SM RA OVC041 08/06 A2972 RMK SC8 SLP068<br><br>
CYHM 280200Z 01003KT 320V090 15SM -RA SCT050 OVC067 09/04 A2970 RMK SC3AC5 SLP062<br><br>
TAF CYHM 272338Z 2800/2824 04010KT P6SM BKN040 OVC080 TEMPO 2800/2803 P6SM -SHRA FM280300 28006KT P6SM -SHRA OVC025 FM280600 28010KT 6SM BR SCT006 OVC020 PROB30 2806/2813 3SM BR BKN008 FM281300 30012KT P6SM OVC020 FM281600 31013G23KT P6SM OVC020 FM281900 31012G22KT P6SM BKN025 RMK NXT FCST BY 280600Z<br><br>
<br><br>
KIAG 280253Z 27005KT 10SM BKN110 08/02 A2969 RMK AO2 SLP058 T00780017 50015<br><br>
KIAG 280153Z 29011KT 10SM SCT110 10/02 A2970 RMK AO2 SLP060 T01000022<br><br>
KIAG 280248Z 2803/2824 VRB03KT P6SM VCSH BKN080 FM280500 24004KT P6SM BKN050 FM281200 25010KT P6SM OVC012 FM281400 25012KT 6SM -SHRA OVC015 FM281800 26013KT P6SM VCSH OVC020<br><br>
<br><br>
KBUF 280254Z 28010KT 10SM FEW050 BKN070 OVC130 12/03 A2969 RMK AO2 SLP057 T01170033 51014<br><br>
KBUF 280154Z 21007KT 10SM FEW055 BKN075 OVC130 12/04 A2969 RMK AO2 SLP056 T01170044<br><br>
KBUF 280248Z 2803/2824 VRB05KT P6SM VCSH BKN080 FM280500 22006KT P6SM BKN060 FM281100 23010KT P6SM OVC015 FM281400 24012KT 6SM -SHRA OVC012 FM281800 25015KT P6SM VCSH OVC015<br><br>
<br><br>
CYYZ 280300Z 01009KT 15SM -SHRA SCT056 BKN090 09/04 A2969 RMK CU3AC4 SLP059<br><br>
CYYZ 280231Z 35013KT 15SM -SHRA SCT055 BKN090 10/04 A2970 RMK CU3AC4 SLP060<br><br>
CYYZ 280200Z 01010KT 15SM FEW065 SCT080 BKN120 10/03 A2970 RMK CU2AC2AC3 SLP060<br><br>
TAF CYYZ 280238Z 2803/2906 01010KT P6SM SCT050 OVC110 TEMPO 2803/2806 P6SM -SHRA BKN050 BECMG 2804/2806 34010KT FM280600 34012KT P6SM OVC030 TEMPO 2811/2814 OVC012 BECMG 2812/2814 34013G23KT FM282100 34015G25KT P6SM OVC025 RMK NXT FCST BY 280600Z<br><br>
<br><br>
CYOO 280300Z AUTO 30004KT 9SM SCT070 BKN089 BKN230 09/03 A2970 RMK SLP060<br><br>
CYOO 280200Z AUTO 05005KT 9SM FEW130 08/01 A2970 RMK SLP060<br><br>
CYOO has no TAF <br><br>
<br><br>
CYTR 280300Z 00000KT 15SM BKN049 07/04 A2967 RMK SC7 SLP049<br><br>
CYTR 280200Z 00000KT 15SM FEW030 BKN120 09/05 A2967 RMK SC2AC5 SLP050<br><br>
TAF CYTR 272330Z 2800/2824 18005KT P6SM FEW030 BKN250 BECMG 2800/2802 09005KT FM280600 19005KT 6SM BR BKN030 OVC080 TEMPO 2806/2809 3SM -RA BR OVC015 FM281000 22007KT 6SM BR SCT008 BKN020 TEMPO 2810/2813 2SM BR OVC008 FM281300 22012KT P6SM BKN012 OVC020 FM281500 22012KT P6SM BKN030 OVC180 BECMG 2818/2820 30012KT FM282000 30012KT 5SM -SHRA BR OVC020 RMK NXT FCST BY 280600Z<br><br>
<br><br>
