RETRIEVED AT : May 06 2018 19:05 Local <br>
  RETRIEVED AT: May 06 2018 23:05 UTC<br><br>
CYSN 062221Z 33010KT 15SM -SHRA BKN058 OVC070 09/05 A2995 RMK SC5AC3 CVCTV CLD EMBD SLP144<br><br>
CYSN 062200Z 01005KT 15SM OVC074 12/06 A2993 RMK AC8 SLP139<br><br>
TAF CYSN 061939Z 0620/0701 02010KT P6SM SCT140 OVC240 FM070000 32010KT P6SM BKN050 TEMPO 0700/0701 P6SM -SHRA RMK NXT FCST WILL BE ISSUED AT 071245Z<br><br>
<br><br>
CYHM 062252Z 08008KT 5SM -SHRA BR FEW042CB SCT054 OVC074 10/08 A2997 RMK CB1SC2AC5 SLP154<br><br>
CYHM 062220Z 36005KT 12SM -TSRA FEW040CB OVC054 11/07 A2998 RMK CB2SC6 VIS S-SW 3 SLP158<br><br>
CYHM 062212Z 33010KT 15SM -SHRA FEW040 OVC054 12/06 A2998 RMK CU2SC6 PRESRR SLP158<br><br>
CYHM 062200Z 36010KT 15SM VCSH FEW040 BKN054 OVC110 12/05 A2996 RMK CU2SC5AC1 PRESRR SLP152<br><br>
TAF AMD CYHM 062236Z 0622/0718 VRB03KT P6SM OVC050 TEMPO 0622/0623 VRB15G25KT 2SM TSRA BR BKN020 BKN040CB FM062300 04012KT P6SM OVC060 TEMPO 0623/0707 5SM -SHRA BR BKN020 OVC060 PROB30 0623/0624 VRB15G25KT 2SM TSRA BR BKN008 OVC060CB FM070700 05010KT P6SM BKN040 FM071200 05012G22KT P6SM SCT040 RMK NXT FCST BY 070000Z<br><br>
<br><br>
KIAG 062253Z 03014G17KT 10SM BKN075 OVC110 19/03 A2993 RMK AO2 SLP136 T01890028<br><br>
KIAG 062153Z 01011KT 10SM BKN070 20/05 A2992<br><br>
KIAG 062240Z 0623/0718 03009KT P6SM -SHRA BKN050 BKN110 FM070200 02011KT P6SM VCSH BKN060 FM070600 03007KT P6SM BKN045 FM070900 04009KT P6SM SCT035<br><br>
<br><br>
KBUF 062254Z 03010KT 10SM FEW050 SCT070 BKN110 18/05 A2993 RMK AO2 SLP133 T01780050 $<br><br>
KBUF 062154Z 02009KT 10SM BKN070 OVC110 19/09 A2991 RMK AO2 SLP130 T01940089<br><br>
KBUF 062240Z 0623/0718 04008KT P6SM -SHRA BKN050 FM070200 02011KT P6SM VCSH BKN050 FM070600 03007KT P6SM BKN040 FM070900 04009KT P6SM SCT035<br><br>
<br><br>
CYYZ 062200Z 01009KT 15SM -RA BKN060 OVC072 16/09 A2996 RMK SC6AC2 SLP149 DENSITY ALT 800FT<br><br>
CYYZ 062111Z 25003KT 160V280 15SM -RA OVC065 15/07 A2995 RMK SC8 SLP146 DENSITY ALT 700FT<br><br>
TAF CYYZ 062038Z 0621/0724 15005KT P6SM -SHRA OVC070 BECMG 0621/0623 03008KT FM070100 01010G20KT P6SM BKN040 BKN100 TEMPO 0701/0703 P6SM -SHRA BECMG 0701/0703 01012KT FM070600 03010KT P6SM BKN040 FM071000 03008KT P6SM FEW040 BECMG 0713/0715 10012KT FM071800 12010KT P6SM SKC RMK NXT FCST BY 070000Z<br><br>
<br><br>
CYOO 062256Z AUTO 23004KT 9SM -RA OVC080 16/07 A2995 RMK SLP145 DENSITY ALT 600FT<br><br>
CYOO 062200Z AUTO 01004KT 250V040 9SM OVC075 17/06 A2995 RMK SLP144 DENSITY ALT 800FT<br><br>
CYOO has no TAF <br><br>
<br><br>
CYTR 062217Z 04002KT 15SM -SHRA OVC072 18/06 A2993 RMK AC8 SLP137<br><br>
CYTR 062200Z 03004KT 15SM OVC069 20/03 A2993 RMK AC8 VIRGA SLP138<br><br>
TAF AMD CYTR 062035Z 0620/0718 05008KT P6SM OVC070 TEMPO 0620/0704 P6SM -SHRA SCT040 OVC070 FM070400 03012KT P6SM SCT060 FM070700 03008KT P6SM SKC BECMG 0717/0718 20008KT RMK NXT FCST BY 070000Z<br><br>
<br><br>
