RETRIEVED AT : Sep 01 2018 17:05 Local <br>
  RETRIEVED AT: Sep 01 2018 21:05 UTC<br><br>
CYSN 012000Z 21009KT 15SM FEW040 BKN250 30/21 A3008 RMK CU2CI4 SLP187 DENSITY ALT 2000FT<br><br>
TAF CYSN 011938Z 0120/0201 19012KT P6SM FEW030 FM012300 VRB03KT P6SM SKC RMK NXT FCST WILL BE ISSUED AT 021245Z<br><br>
<br><br>
CYHM 012000Z 18008G16KT 160V220 15SM FEW030 BKN250 28/21 A3010 RMK CU1CI5 SLP193 DENSITY ALT 2300FT<br><br>
TAF CYHM 011743Z 0118/0218 20010G20KT P6SM SCT030 BECMG 0122/0124 20007KT FM020600 20010KT P6SM -SHRA BKN050 PROB30 0207/0209 2SM +TSRA BR BKN020 BKN050CB FM020900 23010KT P6SM SCT010 BKN030 FM021500 22010G20KT P6SM -SHRA BKN025 RMK NXT FCST BY 020000Z<br><br>
<br><br>
KIAG 012053Z 18009KT 10SM CLR 29/18 A3009 RMK AO2 SLP184 T02890183 58023<br><br>
KIAG 011733Z 0118/0218 22010KT P6SM SCT040 BKN250 FM012200 18005KT P6SM BKN250 FM020300 19008KT P6SM BKN060 FM021400 22015G21KT P6SM BKN060 FM021700 22017G23KT P6SM SCT060 BKN150<br><br>
<br><br>
KBUF 012054Z 22008KT 10SM FEW043 BKN230 29/19 A3010 RMK AO2 SLP190 T02940189 58020<br><br>
KBUF 011954Z 20010G17KT 10SM SCT043 BKN230 28/19 A3012 RMK AO2 SLP196 T02830194<br><br>
KBUF 011733Z 0118/0218 20010KT P6SM SCT040 BKN250 FM012200 18006KT P6SM BKN250 FM020300 19010KT P6SM BKN060 FM021400 23015G21KT P6SM BKN060 FM021700 23017G23KT P6SM SCT060 BKN150<br><br>
<br><br>
CYYZ 012000Z 15010KT 15SM FEW040 FEW160 OVC220 27/21 A3009 RMK CU1CI1CI7 CU TR SLP189 DENSITY ALT 1900FT<br><br>
TAF CYYZ 012038Z 0121/0224 16010KT P6SM FEW040 BECMG 0201/0203 20008KT FM020600 22008KT P6SM -SHRA BKN040 PROB30 0207/0209 VRB15G25KT 2SM +TSRA BR BKN020CB FM020900 23008KT P6SM SCT010 BKN025 FM021200 23010KT P6SM -SHRA BKN015 FM021400 23012KT P6SM SCT015 BKN025 FM021700 23012G22KT P6SM -SHRA BKN030 PROB30 0217/0219 VRB15G25KT 1SM +TSRA BR BKN015 OVC030CB FM021900 26010G20KT P6SM BKN040 BECMG 0222/0224 26008KT RMK NXT FCST BY 020000Z<br><br>
<br><br>
CYOO 012040Z AUTO 13006KT 100V190 9SM CLR 27/21 A3009 RMK SLP190 DENSITY ALT 1700FT<br><br>
CYOO 012030Z AUTO 16006KT 120V200 4SM HZ CLR 27/21 A3009 RMK SLP191 DENSITY ALT 1700FT<br><br>
CYOO 012000Z AUTO 15007KT 100V160 9SM CLR 27/21 A3010 RMK SLP195 DENSITY ALT 1600FT<br><br>
CYOO 011925Z AUTO 17007KT 130V210 7SM CLR 27/21 A3012 RMK SLP201 DENSITY ALT 1600FT<br><br>
CYOO 011919Z AUTO 18007KT 130V200 4SM HZ CLR 26/21 A3012 RMK SLP202 DENSITY ALT 1600FT<br><br>
CYOO 011918Z AUTO 17008KT 2 1/4SM HZ CLR 26/21 A3012 RMK SLP202 DENSITY ALT 1600FT<br><br>
CYOO 011912Z AUTO 18007KT 3SM HZ CLR 26/21 A3012 RMK SLP202 DENSITY ALT 1600FT<br><br>
CYOO 011909Z AUTO 17006KT 140V210 2 1/4SM HZ CLR 26/21 A3013 RMK VIS VRB 1/2-3 SLP203 DENSITY ALT 1600FT<br><br>
CYOO has no TAF <br><br>
<br><br>
CYTR 012000Z 20008KT 15SM FEW030 FEW100 SCT240 28/21 A3012 RMK SC1AC1CI2 SLP200<br><br>
TAF CYTR 011730Z 0118/0218 20008KT P6SM FEW030 SCT080 BKN240 BECMG 0122/0124 18005KT FM020900 18005KT P6SM BKN030 OVC080 TEMPO 0209/0218 P6SM -SHRA BKN020 OVC030 BECMG 0214/0216 22010G20KT RMK NXT FCST BY 020000Z<br><br>
<br><br>
