RETRIEVED AT : Jun 16 2019 14:05 Local <br>
  RETRIEVED AT: Jun 16 2019 18:05 UTC<br><br>
CYSN 161700Z 06007KT 020V080 15SM SCT031 OVC150 16/13 A2987 RMK SC3AC5 SLP117 DENSITY ALT 600FT<br><br>
TAF CYSN 161241Z 1613/1701 04008KT P6SM OVC020 TEMPO 1613/1618 BKN025 BKN060 FM161800 03008KT P6SM BKN025 BKN060 FM162000 03006KT P6SM BKN040 FM162300 01005KT P6SM FEW050 SCT180 RMK NXT FCST BY 162000Z<br><br>
<br><br>
CYHM 161700Z 06009KT 010V080 15SM FEW072 OVC160 15/11 A2988 RMK AC2AC6 SLP121 DENSITY ALT 1000FT<br><br>
TAF CYHM 161738Z 1618/1718 05010KT P6SM FEW030 SCT070 BKN160 FM170300 03006KT P6SM SCT080 BECMG 1712/1714 04012KT RMK NXT FCST BY 170000Z<br><br>
<br><br>
KIAG 161753Z 07008KT 10SM OVC028 17/12 A2987 RMK AO2 SLP117 T01670117 10172 20128 52005<br><br>
KIAG 161653Z 04009KT 10SM OVC025 16/12 A2987 RMK AO2 SLP116 T01610117<br><br>
KIAG 161734Z 1618/1718 04008KT P6SM OVC025 FM162000 05008KT P6SM SCT025 BKN040 FM170200 VRB03KT P6SM BKN060 FM170800 VRB03KT 3SM BR SCT060 FM171300 06008KT P6SM BKN100<br><br>
<br><br>
KBUF 161754Z 05007KT 10SM SCT010 BKN022 OVC050 14/12 A2988 RMK AO2 RAE38 SLP116 P0000 60005 T01440122 10150 20122 51008<br><br>
KBUF 161654Z 05009KT 10SM -RA FEW008 BKN021 OVC036 14/11 A2987 RMK AO2 SLP116 PCPN VRY LGT P0000 T01390111<br><br>
KBUF 161636Z 07011KT 10SM -RA SCT007 BKN019 OVC035 14/12 A2986 RMK AO2 PCPN VRY LGT P0000 T01390117<br><br>
KBUF 161734Z 1618/1718 05008KT P6SM OVC025 FM162000 05008KT P6SM SCT025 BKN040 FM170200 08004KT P6SM BKN060 FM170800 VRB03KT 3SM BR SCT060 FM171300 08008KT P6SM BKN100<br><br>
<br><br>
CYYZ 161700Z 16011G18KT 15SM FEW040 OVC180 18/09 A2987 RMK CU1AC8 CU TR SLP117 DENSITY ALT 1200FT<br><br>
TAF CYYZ 161738Z 1618/1724 16012KT P6SM FEW040 SCT120 BKN180 FM162200 17006KT P6SM FEW050 SCT120 BECMG 1701/1703 32005KT FM171200 01005KT P6SM SCT080 BECMG 1712/1714 09006KT BECMG 1715/1717 15010KT RMK NXT FCST BY 162100Z<br><br>
<br><br>
CYOO 161700Z AUTO 30005KT 260V030 9SM BKN190 BKN220 20/10 A2987 RMK SLP117 DENSITY ALT 1200FT<br><br>
TAF AMD CYOO 161708Z 1617/1702 30005KT P6SM FEW120 BKN200 BECMG 1618/1620 18008KT FM162300 20006KT P6SM FEW160 RMK FCST BASED ON AUTO OBS. NXT FCST BY 162000Z<br><br>
<br><br>
CYTR 161700Z 03007KT 15SM FEW050 BKN090 OVC220 21/10 A2986 RMK CF1AC5CI3 CUFRA TR SLP113<br><br>
TAF CYTR 161730Z 1618/1718 02005KT P6SM FEW050 SCT090 OVC220 BECMG 1618/1619 21010KT FM170000 VRB03KT P6SM SCT050 BKN150 FM171300 VRB03KT P6SM FEW050 SCT120 BECMG 1716/1718 20010KT RMK NXT FCST BY 170000Z<br><br>
<br><br>
