RETRIEVED AT : Oct 26 2018 11:05 Local <br>
  RETRIEVED AT: Oct 26 2018 15:05 UTC<br><br>
CYSN 261400Z 14007KT 15SM FEW040 OVC070 06/01 A3006 RMK SC2AC6 SLP183<br><br>
TAF CYSN 261238Z 2613/2701 14006KT P6SM SCT040 OVC130 TEMPO 2613/2622 BKN040 OVC100 BECMG 2615/2617 09012KT FM262200 09010G20KT P6SM BKN060 OVC080 RMK NXT FCST BY 262000Z<br><br>
<br><br>
CYHM 261400Z 08009KT 12SM SCT032 BKN060 BKN100 05/04 A3004 RMK SC4SC1AC2 SUN VSBL SLP180<br><br>
TAF CYHM 261138Z 2612/2712 04006KT P6SM SCT130 BKN230 FM261500 06007KT P6SM SCT025 OVC100 TEMPO 2615/2619 BKN025 OVC100 BECMG 2616/2617 08010G20KT FM270500 07012G22KT 6SM -SHRA BR BKN012 OVC025 FM270900 06015G25KT 11/2SM RA BR OVC004 RMK NXT FCST BY 261800Z<br><br>
<br><br>
KIAG 261453Z 13008KT 10SM OVC065 07/00 A3005 RMK AO2 SLP184 T00670000 58005<br><br>
KIAG 261353Z 14008KT 10SM OVC065 05/M01 A3006 RMK AO2 SLP190 T00501006<br><br>
KIAG 261130Z 2612/2712 14004KT P6SM BKN060 FM261600 10009KT P6SM BKN070 FM262300 08014KT P6SM OVC080 FM271100 08013KT 6SM -RA OVC070<br><br>
<br><br>
KBUF 261454Z 11010KT 10SM BKN065 OVC130 07/00 A3005 RMK AO2 SLP180 T00670000 58006<br><br>
KBUF 261354Z COR 14008KT 10SM BKN065 OVC130 05/M01 A3006 RMK AO2 SLP186 CIG HYR SE-SW-W T00501006<br><br>
KBUF 261130Z 2612/2712 13005KT P6SM BKN120 FM261600 11009KT P6SM BKN090 FM262000 09012KT P6SM OVC070 FM270800 08011KT P6SM -RA OVC070<br><br>
<br><br>
CYYZ 261400Z 09006KT 15SM BKN018 OVC069 07/03 A3005 RMK SC5AC3 SLP183<br><br>
TAF CYYZ 261438Z 2615/2718 09006KT P6SM BKN060 OVC100 TEMPO 2615/2618 BKN020 OVC060 BECMG 2616/2618 12010KT FM261900 09012G22KT P6SM SCT025 OVC090 TEMPO 2702/2708 P6SM -SHRA BKN025 OVC090 FM270800 07010G20KT 6SM -RA BR BKN012 OVC025 FM271100 06012G22KT 3SM RA BR BKN006 OVC012 FM271700 06015G25KT 6SM -RA BR SCT006 OVC012 RMK NXT FCST BY 261800Z<br><br>
<br><br>
CYOO 261400Z AUTO 09005KT 9SM OVC029 04/00 A3008 RMK SLP192<br><br>
CYOO has no TAF <br><br>
<br><br>
CYTR 261400Z 07005KT 15SM BKN032 OVC047 03/M02 A3013 RMK SC6SC2 SLP208<br><br>
TAF CYTR 261130Z 2612/2712 06005KT P6SM OVC030 TEMPO 2614/2618 P6SM -SHRA BECMG 2614/2616 08010KT FM261800 12012KT P6SM BKN030 OVC080 TEMPO 2618/2702 P6SM -SHRA BECMG 2702/2704 07012KT RMK NXT FCST BY 261800Z<br><br>
<br><br>
