RETRIEVED AT : Mar 15 2020 10:05 Local <br>
  RETRIEVED AT: Mar 15 2020 14:05 UTC<br><br>
CYSN 151300Z 04011G16KT 15SM SKC 00/M07 A3061 RMK SLP370<br><br>
TAF CYSN 151238Z 1513/1601 04012KT P6SM FEW030 FM151800 06015KT P6SM SKC BECMG 1523/1601 08010KT RMK NXT FCST BY 152000Z<br><br>
<br><br>
CYHM 151300Z 03014G20KT 15SM SKC M02/M10 A3058 RMK SLP370<br><br>
TAF CYHM 151138Z 1512/1612 03012KT P6SM FEW030 FM151800 06015KT P6SM SKC BECMG 1523/1601 05010KT RMK NXT FCST BY 151800Z<br><br>
<br><br>
KIAG 151353Z 07013KT 10SM CLR 00/M09 A3061 RMK AO2 SLP379 T00001089<br><br>
KIAG 151253Z 05008KT 10SM CLR M01/M08 A3059 RMK AO2 SLP373 T10061078<br><br>
KIAG 151120Z 1512/1612 04008KT P6SM FEW250 FM160100 VRB03KT P6SM FEW250 FM160600 10005KT P6SM FEW250<br><br>
<br><br>
KBUF 151354Z 04011KT 10SM FEW200 01/M08 A3059 RMK AO2 SLP369 T00061083<br><br>
KBUF 151254Z 04010KT 10SM FEW180 00/M08 A3057 RMK AO2 SLP362 T00001078<br><br>
KBUF 151120Z 1512/1612 03008KT P6SM FEW250 FM160100 08005KT P6SM FEW250<br><br>
<br><br>
CYYZ 151300Z 06015KT 15SM SKC M02/M13 A3063 RMK SLP382<br><br>
TAF CYYZ 151138Z 1512/1618 05012KT P6SM FEW140 FM152100 08011KT P6SM SKC BECMG 1523/1601 11008KT BECMG 1602/1604 06008KT FM160600 05009KT P6SM FEW030 BECMG 1610/1612 11009KT RMK NXT FCST BY 151500Z<br><br>
<br><br>
CYOO 151300Z AUTO 01010KT 9SM CLR M03/M12 A3063 RMK SLP382<br><br>
TAF CYOO 151338Z 1514/1602 36010KT P6SM SKC BECMG 1514/1515 04008KT BECMG 1518/1520 09005KT RMK FCST BASED ON AUTO OBS. NXT FCST BY 152000Z<br><br>
<br><br>
CYTR 151300Z 03009KT 15SM SKC M03/M13 A3064 RMK SLP380<br><br>
TAF CYTR 151130Z 1512/1612 02008KT P6SM FEW160 RMK NXT FCST BY 151800Z<br><br>
<br><br>
