RETRIEVED AT : Jun 08 2019 13:05 Local <br>
  RETRIEVED AT: Jun 08 2019 17:05 UTC<br><br>
CYSN 081600Z 02009KT 15SM FEW250 24/15 A3016 RMK CI2 SLP213 DENSITY ALT 1200FT<br><br>
TAF CYSN 081238Z 0813/0901 05006KT P6SM FEW250 BECMG 0815/0817 06015KT BECMG 0823/0901 09008KT RMK NXT FCST BY 082000Z<br><br>
<br><br>
CYHM 081600Z 03010G16KT 15SM FEW250 19/12 A3019 RMK CI2 SLP224 DENSITY ALT 1200FT<br><br>
TAF CYHM 081138Z 0812/0912 04012KT P6SM FEW250 BECMG 0815/0817 05012G22KT FM090400 05012KT P6SM FEW200 BECMG 0906/0908 04007KT RMK NXT FCST BY 081800Z<br><br>
<br><br>
KIAG 081653Z 08012KT 10SM CLR 25/10 A3017 RMK AO2 SLP213 T02500100<br><br>
KIAG 081553Z 08008KT 10SM CLR 24/11 A3017 RMK AO2 SLP215 T02390106<br><br>
KIAG 081605Z 0816/0912 07010KT P6SM SKC FM090000 10008KT P6SM FEW250 FM090800 13005KT P6SM SCT250<br><br>
<br><br>
KBUF 081654Z 09012KT 10SM FEW250 26/09 A3017 RMK AO2 SLP214 T02560094<br><br>
KBUF 081554Z 07010KT 10SM FEW250 24/09 A3017 RMK AO2 SLP215 T02440089<br><br>
KBUF 081604Z 0816/0912 06010KT P6SM SCT250 FM090000 11006KT P6SM FEW250 FM090800 13005KT P6SM SCT250<br><br>
<br><br>
CYYZ 081600Z 09017G27KT 15SM FEW100 22/04 A3020 RMK AC1 AC TR SLP229 DENSITY ALT 1200FT<br><br>
TAF CYYZ 081439Z 0815/0918 09012G22KT P6SM SKC BECMG 0900/0902 08010KT FM091000 07005KT P6SM SCT240 BECMG 0914/0916 13010G20KT RMK NXT FCST BY 081800Z<br><br>
<br><br>
CYOO 081600Z AUTO 12012G18KT 9SM CLR 22/01 A3023 RMK SLP237 DENSITY ALT 900FT<br><br>
TAF CYOO 081338Z 0814/0902 09012G22KT P6SM SKC FM081700 10010G20KT P6SM SKC BECMG 0822/0824 07008KT RMK FCST BASED ON AUTO OBS. NXT FCST BY 082000Z<br><br>
<br><br>
CYTR 081600Z 07007KT 15SM FEW220 23/03 A3023 RMK CI1 SLP237<br><br>
TAF CYTR 081130Z 0812/0912 05005KT P6SM SKC FM081400 09008KT P6SM SKC BECMG 0816/0818 21010KT BECMG 0900/0901 08005KT RMK NXT FCST BY 081800Z<br><br>
<br><br>
