RETRIEVED AT : Oct 16 2017 02:10 Local <br>
  RETRIEVED AT: Oct 16 2017 06:10 UTC<br><br>
CYSN has no TAF <br><br>
<br><br>
CYHM 160600Z 33008G16KT 15SM BKN030 07/03 A3006 RMK SC7 SLP183<br><br>
CYHM 160500Z 32010G17KT 15SM BKN025 08/04 A3004 RMK SC7 SLP175<br><br>
TAF CYHM 160538Z 1606/1706 31010G20KT P6SM SCT025 TEMPO 1606/1612 BKN020 BECMG 1606/1608 32010KT FM161600 31010G20KT P6SM FEW030 BECMG 1622/1624 30008KT BECMG 1701/1703 VRB03KT RMK NXT FCST BY 161200Z<br><br>
<br><br>
KIAG 160553Z AUTO 35014G19KT 10SM BKN027 OVC032 10/03 A3005 RMK AO2 SLP174 T01000033 10156 20100 51021<br><br>
KIAG 160543Z AUTO 35011KT 10SM OVC030 10/03 A3004 RMK AO2 T01000033<br><br>
KIAG 160511Z AUTO 34014G23KT 10SM BKN026 OVC035 10/03 A3002 RMK AO2 T01000028<br><br>
KIAG 160502Z AUTO 35015KT 10SM SCT026 OVC035 10/03 A3002 RMK AO2 T01000033<br><br>
KIAG 160453Z AUTO 34017G23KT 10SM BKN025 OVC035 10/03 A3002 RMK AO2 PK WND 33028/0404 SLP164 T01000033 402610100<br><br>
KIAG 160440Z AUTO 33018G25KT 10SM BKN025 OVC035 11/04 A3001 RMK AO2 PK WND 33028/0404 T01060039<br><br>
KIAG 160433Z AUTO 34018G25KT 10SM SCT027 OVC035 11/04 A3001 RMK AO2 PK WND 33028/0404 T01060039<br><br>
KIAG 160421Z AUTO 33017G25KT 10SM BKN025 OVC033 11/04 A3000 RMK AO2 PK WND 33028/0404 T01060039<br><br>
KIAG 160525Z 1606/1706 33014G22KT P6SM OVC025 FM160800 32012KT P6SM BKN025 FM161400 31010KT P6SM BKN035 FM162000 30008KT P6SM SCT040 FM170200 VRB03KT P6SM SKC<br><br>
<br><br>
KBUF 160554Z 34012G19KT 10SM FEW022 OVC030 08/04 A3004 RMK AO2 SLP174 T00830039 10156 20083 51024 $<br><br>
KBUF 160531Z 32013G21KT 10SM SCT023 OVC032 09/04 A3003 RMK AO2 T00890039 $<br><br>
KBUF 160522Z 31016G20KT 10SM BKN024 OVC032 09/04 A3002 RMK AO2 T00940044 $<br><br>
KBUF 160454Z 31013G20KT 10SM OVC033 09/04 A3001 RMK AO2 SLP162 T00940044 402500094 $<br><br>
KBUF 160450Z 33014G20KT 10SM FEW026 OVC033 09/04 A3001 RMK AO2 $<br><br>
KBUF 160428Z 33018G23KT 10SM BKN028 OVC035 10/05 A3000 RMK AO2 T01000050 $<br><br>
KBUF 160525Z 1606/1706 32012G20KT P6SM OVC035 FM160800 32008KT P6SM BKN025 FM161400 32010KT P6SM BKN035 FM162000 30008KT P6SM SCT040 FM170000 VRB03KT P6SM SKC<br><br>
<br><br>
CYYZ 160600Z 01009G16KT 15SM BKN034 08/03 A3005 RMK SC7 SLP178<br><br>
CYYZ 160500Z 36015KT 15SM BKN024 08/04 A3002 RMK SC7 SLP168<br><br>
TAF CYYZ 160538Z 1606/1712 34012G22KT P6SM BKN025 TEMPO 1606/1609 BKN020 FM160900 34012KT P6SM BKN025 TEMPO 1609/1616 P6SM -SHRA BKN020 FM161600 33012G22KT P6SM BKN030 FM162200 32010G20KT P6SM FEW040 BECMG 1623/1624 32010KT BECMG 1701/1703 VRB03KT FM170500 25008KT P6SM BKN030 RMK NXT FCST BY 160900Z<br><br>
<br><br>
CYOO 160600Z AUTO 33009G18KT 9SM OVC024 07/02 A3004 RMK SLP175<br><br>
CYOO 160542Z AUTO 34011G17KT 9SM OVC024 07/02 A3003 RMK SLP171<br><br>
CYOO 160523Z AUTO 33010G22KT 9SM OVC026 07/02 A3002 RMK SLP168<br><br>
CYOO 160500Z AUTO 33013G20KT 9SM OVC024 07/03 A3001 RMK SLP164<br><br>
CYOO has no TAF <br><br>
<br><br>
CYTR 160600Z 33010KT 15SM OVC028 08/02 A3000 RMK SC8 SLP159<br><br>
CYTR 160500Z 33011G17KT 15SM OVC026 08/03 A2996 RMK SC8 SLP146<br><br>
TAF CYTR 160530Z 1606/1706 32010G20KT P6SM SCT020 BKN030 TEMPO 1606/1615 BKN020 OVC030 BECMG 1613/1615 32012KT FM162000 32012KT P6SM SCT050 FM170000 30005KT P6SM FEW080 RMK NXT FCST BY 161200Z<br><br>
<br><br>
