RETRIEVED AT : Oct 27 2018 06:06 Local <br>
  RETRIEVED AT: Oct 27 2018 10:06 UTC<br><br>
CYSN has no TAF <br><br>
<br><br>
CYHM 270947Z 06021KT 5SM +RA BKN005 OVC015 04/04 A2982 RMK SF6SC2 SLP106<br><br>
CYHM 270900Z 07018G25KT 6SM RA BKN006 OVC013 04/03 A2983 RMK SF6SC2 SLP108<br><br>
CYHM 270844Z 07016G25KT 6SM RA BKN008 OVC015 04/03 A2983 RMK SF5SC3 SLP107<br><br>
TAF AMD CYHM 270912Z 2709/2806 07015G25KT P6SM -RA BKN006 OVC015 TEMPO 2709/2717 2SM -RA BR OVC004 FM271700 06015G25KT 4SM -RA BR OVC006 BECMG 2722/2724 04012G22KT FM280200 04012G22KT 2SM -RA BR OVC004 RMK NXT FCST BY 271200Z<br><br>
<br><br>
KIAG 270953Z AUTO 08012KT 10SM -RA OVC041 03/02 A2984 RMK AO2 SLP114 P0004 T00330022<br><br>
KIAG 270853Z AUTO 08011KT 6SM -RA BR SCT008 OVC044 03/02 A2985 RMK AO2 SLP119 P0003 60005 T00330017 58012<br><br>
KIAG 270830Z AUTO 08011KT 4SM -RA BR FEW009 BKN042 OVC050 03/02 A2986 RMK AO2 P0002 T00280017<br><br>
KIAG 270912Z 2709/2806 08011G17KT P6SM -RA SCT015 OVC040 FM271200 07012G22KT P6SM -RA SCT007 OVC025 FM271600 06014G24KT 6SM -RA OVC015 FM280500 02009KT 6SM -RA OVC012<br><br>
<br><br>
KBUF 270954Z 05014KT 10SM -RA FEW020 OVC050 03/02 A2983 RMK AO2 SLP106 P0002 T00280022<br><br>
KBUF 270854Z 06014KT 7SM RA OVC038 03/02 A2984 RMK AO2 SLP110 P0005 60010 T00280022 58013<br><br>
KBUF 270912Z 2709/2806 08014KT P6SM -RA SCT015 OVC035 FM271300 07012G21KT 6SM -RA SCT007 OVC015 FM271800 07014G24KT 6SM -RA OVC007 FM280100 03013G19KT 6SM -RA OVC007 FM280500 01007KT 6SM -RA OVC007<br><br>
<br><br>
CYYZ 270908Z 07013G20KT 15SM -RA FEW060 OVC078 04/M01 A2988 RMK SC1AS7 SLP123<br><br>
CYYZ 270900Z 07015G22KT 15SM FEW060 OVC080 04/M01 A2988 RMK SC1AS7 SLP123<br><br>
TAF CYYZ 270838Z 2709/2812 08012G22KT P6SM FEW030 OVC070 TEMPO 2709/2710 P6SM -SHRA BKN020 OVC070 FM271000 07012G22KT P6SM -RA SCT007 OVC015 TEMPO 2710/2715 5SM -RA BR OVC007 FM271700 06015G25KT P6SM -RA SCT009 OVC015 FM272200 04010G20KT 4SM -RASN BR OVC008 FM280600 02010KT P6SM -SNRA SCT008 OVC015 BECMG 2806/2808 35008KT RMK NXT FCST BY 271200Z<br><br>
<br><br>
CYOO 270900Z AUTO 06010G16KT 9SM SCT055 BKN071 OVC093 04/M04 A2991 RMK SLP136<br><br>
CYOO has no TAF <br><br>
<br><br>
CYTR 270900Z 05008KT 15SM BKN110 OVC250 03/M05 A2997 RMK AC6CI2 SLP153<br><br>
TAF CYTR 270530Z 2706/2806 05008KT P6SM BKN080 TEMPO 2708/2720 5SM -SHRA BR BKN010 OVC040 BECMG 2712/2714 05012G22KT FM272000 05015G25KT 4SM -RA BR OVC020 TEMPO 2720/2806 2SM -RASN BR OVC008 BECMG 2802/2804 03010KT RMK NXT FCST BY 271200Z<br><br>
<br><br>
