RETRIEVED AT : Jun 21 2020 16:05 Local <br>
  RETRIEVED AT: Jun 21 2020 20:05 UTC<br><br>
TAF CYSN 211939Z 2120/2201 23012KT P6SM SCT070 BECMG 2122/2124 29010KT RMK NXT FCST WILL BE ISSUED AT 221245Z<br><br>
<br><br>
TAF CYHM 211739Z 2118/2218 20012KT P6SM SCT060 BECMG 2202/2204 20005KT FM221200 21008KT P6SM BKN050 RMK NXT FCST BY 220000Z<br><br>
<br><br>
KIAG 211721Z 2118/2218 21008KT P6SM SKC FM220100 20005KT P6SM FEW250 FM220500 20007KT P6SM FEW080 FM220800 20006KT P6SM FEW200<br><br>
<br><br>
KBUF 211721Z 2118/2218 22008KT P6SM SKC FM212300 20006KT P6SM FEW250 FM221400 22006KT P6SM SCT200 FM221700 21004KT P6SM BKN060<br><br>
<br><br>
TAF AMD CYYZ 211910Z 2119/2224 15012KT P6SM SCT080 TEMPO 2119/2120 P6SM -SHRA VCTS BKN080CB FM211930 15012KT P6SM SCT080 TEMPO 2119/2121 P6SM -SHRA PROB30 2119/2121 2SM TSRA BR BKN040 OVC080CB FM212100 15012KT P6SM SCT080 TEMPO 2121/2201 P6SM -SHRA VCTS BKN080CB FM220100 VRB03KT P6SM FEW080 SCT160 FM220700 12005KT P6SM FEW080 SCT160 PROB30 2207/2212 2SM BR FM221200 24008KT P6SM FEW060 BECMG 2214/2216 16010G20KT BKN060 FM222200 16010G20KT P6SM -SHRA BKN040 PROB30 2222/2224 VRB15G25KT 2SM TSRA BR OVC040CB RMK NXT FCST BY 212100Z<br><br>
<br><br>
TAF CYOO 211939Z 2120/2208 13010KT P6SM SKC FM220000 08005KT P6SM FEW060 SCT200 BECMG 2200/2202 VRB03KT RMK FCST BASED ON AUTO OBS. NXT FCST BY 220200Z<br><br>
<br><br>
TAF CYTR 211730Z 2118/2218 22008KT P6SM FEW040 BECMG 2202/2204 VRB03KT FM220900 VRB03KT P6SM BKN060 BECMG 2214/2216 21008KT FEW060 RMK NXT FCST BY 220000Z<br><br>
<br><br>
