RETRIEVED AT : Sep 25 2017 08:10 Local <br>
  RETRIEVED AT: Sep 25 2017 12:10 UTC<br><br>
CYSN 251200Z 21002KT 12SM BKN250 20/19 A3008 RMK CI7 SLP187 DENSITY ALT 800FT<br><br>
CYSN 251100Z 18005KT 12SM BKN250 19/18 A3007 RMK CI6 SLP184 DENSITY ALT 700FT<br><br>
CYSN has no TAF <br><br>
<br><br>
CYHM 251200Z 09003KT 15SM BKN240 20/17 A3010 RMK CI5 SLP193 DENSITY ALT 1300FT<br><br>
CYHM 251100Z 09004KT 12SM SCT230 20/16 A3010 RMK CI3 SLP190 DENSITY ALT 1300FT<br><br>
TAF CYHM 251138Z 2512/2612 VRB03KT P6SM SKC PROB30 2609/2612 2SM BR RMK NXT FCST BY 251800Z<br><br>
<br><br>
KIAG 251153Z COR 00000KT 6SM HZ CLR 19/17 A3011 RMK AO2 SLPNO T01940167 10211 20178 $<br><br>
KIAG 251109Z COR 00000KT 5SM R28R/5500VP6000FT BR CLR 18/16 A3001 RMK AO2 T01830161 $<br><br>
KIAG 251103Z 00000KT 1 1/2SM R28R/4500VP6000FT BR SCT004 18/16 A3001 RMK AO2 T01830161 $<br><br>
KIAG 251100Z 00000KT 5SM R28R/4500VP6000FT MIFG CLR 18/16 RMK AO2 T01830161 $<br><br>
KIAG 251053Z COR 00000KT 5SM MIFG CLR 18/16 A3009 RMK AO2 SLP185 T01830161<br><br>
KIAG 251040Z AUTO 00000KT 2SM R28R/3000VP6000FT BR OVC004 18/16 A3009 RMK AO2 T01780156<br><br>
KIAG 251026Z AUTO 00000KT 3SM BR BKN004 19/17 A3009 RMK AO2 T01890167<br><br>
KIAG 251018Z AUTO 00000KT 1 3/4SM R28R/2600VP6000FT BR BKN004 19/17 A3009 RMK AO2 T01890167<br><br>
KIAG 251015Z AUTO 00000KT 1 1/4SM R28R/1400VP6000FT BR SCT004 19/17 A3009 RMK AO2 T01890167<br><br>
KIAG 251202Z 2512/2612 00000KT 6SM BR SCT250 FM251300 15004KT P6SM SCT250 FM251900 05007KT P6SM SCT250 FM260100 VRB03KT P6SM SCT250 FM260700 VRB03KT 4SM BR SCT250 FM260900 VRB03KT 2SM BR SCT250<br><br>
<br><br>
KBUF 251154Z 15004KT 7SM BKN250 19/18 A3011 RMK AO2 SLP194 T01940178 10206 20183 53009<br><br>
KBUF 251054Z 17004KT 8SM FEW250 18/18 A3010 RMK AO2 SLP190 T01830178<br><br>
KBUF 251120Z 2512/2612 14004KT P6SM SCT250 FM251900 08006KT P6SM SCT250 FM260200 VRB03KT P6SM SCT250 FM260400 13004KT P6SM SCT250 FM260700 16004KT 6SM BR SCT250<br><br>
<br><br>
CYYZ 251200Z 31002KT 15SM SCT220 BKN270 22/18 A3009 RMK CI3CC2 SLP189 DENSITY ALT 1400FT<br><br>
CYYZ 251100Z 00000KT 15SM SCT220 22/18 A3008 RMK CI4 SLP186 DENSITY ALT 1300FT<br><br>
TAF CYYZ 251138Z 2512/2618 VRB03KT P6SM SKC FM251700 15008KT P6SM SCT240 BECMG 2600/2602 VRB03KT BECMG 2614/2616 17007KT RMK NXT FCST BY 251500Z<br><br>
<br><br>
CYOO 251200Z AUTO 01004KT 9SM CLR 19/17 A3010 RMK SLP192 DENSITY ALT 800FT<br><br>
CYOO 251129Z AUTO 01004KT 6SM BR CLR 17/16 A3009 RMK SLP190 DENSITY ALT 600FT<br><br>
CYOO 251119Z AUTO 02004KT 3SM BR CLR 17/16 A3009 RMK SLP189 DENSITY ALT 600FT<br><br>
CYOO 251101Z AUTO 01003KT 2 1/2SM BR CLR 17/15 A3009 RMK VIS VRB 3/4-3 SLP188 DENSITY ALT 600FT<br><br>
CYOO 251100Z AUTO 01003KT 3SM BR CLR 17/15 A3009 RMK SLP188 DENSITY ALT 600FT<br><br>
CYOO 251057Z AUTO 01002KT 4SM BR CLR 17/16 A3009 RMK SLP188 DENSITY ALT 600FT<br><br>
CYOO has no TAF <br><br>
<br><br>
CYTR 251200Z CCA 04002KT 10SM FEW250 20/19 A3010 RMK CI2 VIS LWR E SLP191<br><br>
CYTR 251100Z 36002KT 6SM BR MIFG FEW120 18/18 A3009 RMK AC1 SLP189<br><br>
TAF CYTR 251130Z 2512/2612 VRB03KT P6SM SKC TEMPO 2512/2513 4SM BR FM251600 20009KT P6SM SCT250 BECMG 2522/2524 VRB03KT FM260300 VRB03KT 6SM BR BKN250 TEMPO 2603/2612 3SM BR RMK NXT FCST BY 251800Z<br><br>
<br><br>
