RETRIEVED AT : Oct 26 2018 13:05 Local <br>
  RETRIEVED AT: Oct 26 2018 17:05 UTC<br><br>
CYSN 261600Z 09010KT 15SM SCT070 OVC120 08/02 A3003 RMK AC4AC4 SLP172<br><br>
TAF CYSN 261238Z 2613/2701 14006KT P6SM SCT040 OVC130 TEMPO 2613/2622 BKN040 OVC100 BECMG 2615/2617 09012KT FM262200 09010G20KT P6SM BKN060 OVC080 RMK NXT FCST BY 262000Z<br><br>
<br><br>
CYHM 261600Z 11013KT 15SM FEW035 SCT095 OVC130 08/02 A3001 RMK SC1AC2AC5 SLP171<br><br>
TAF CYHM 261138Z 2612/2712 04006KT P6SM SCT130 BKN230 FM261500 06007KT P6SM SCT025 OVC100 TEMPO 2615/2619 BKN025 OVC100 BECMG 2616/2617 08010G20KT FM270500 07012G22KT 6SM -SHRA BR BKN012 OVC025 FM270900 06015G25KT 11/2SM RA BR OVC004 RMK NXT FCST BY 261800Z<br><br>
<br><br>
KIAG 261653Z 12009KT 10SM SCT110 08/01 A3002 RMK AO2 SLP175 T00780011<br><br>
KIAG 261553Z 10008KT 10SM SCT100 07/01 A3003 RMK AO2 SLP180 T00670011<br><br>
KIAG 261514Z 2615/2712 13008KT P6SM OVC070 FM262300 08014KT P6SM OVC080 FM271100 08013KT 6SM -RA OVC070<br><br>
<br><br>
KBUF 261654Z COR 10014KT 10SM FEW065 FEW120 BKN170 BKN250 08/01 A3001 RMK AO2 SLP169 T00830006<br><br>
KBUF 261554Z 10011KT 10SM FEW065 BKN120 BKN170 08/01 A3004 RMK AO2 SLP177 VIRGA DSNT N-E T00780006<br><br>
KBUF 261514Z 2615/2712 11010KT P6SM BKN070 FM262000 09012KT P6SM OVC070 FM270800 08011KT P6SM -RA OVC070<br><br>
<br><br>
CYYZ 261600Z 10008KT 15SM BKN030 OVC090 07/01 A3004 RMK SC5AC3 SLP178<br><br>
TAF CYYZ 261438Z 2615/2718 09006KT P6SM BKN060 OVC100 TEMPO 2615/2618 BKN020 OVC060 BECMG 2616/2618 12010KT FM261900 09012G22KT P6SM SCT025 OVC090 TEMPO 2702/2708 P6SM -SHRA BKN025 OVC090 FM270800 07010G20KT 6SM -RA BR BKN012 OVC025 FM271100 06012G22KT 3SM RA BR BKN006 OVC012 FM271700 06015G25KT 6SM -RA BR SCT006 OVC012 RMK NXT FCST BY 261800Z<br><br>
<br><br>
CYOO 261600Z AUTO 11011G16KT 9SM OVC029 06/02 A3007 RMK SLP188<br><br>
CYOO has no TAF <br><br>
<br><br>
CYTR 261600Z 09006KT 15SM BKN021 OVC047 04/M01 A3013 RMK SC6SC2 SLP206<br><br>
TAF AMD CYTR 261612Z 2616/2712 09008KT P6SM SCT020 OVC050 TEMPO 2616/2620 BKN020 OVC050 FM270000 07010KT P6SM SCT010 BKN080 RMK NXT FCST BY 261800Z<br><br>
<br><br>
