RETRIEVED AT : May 31 2020 02:05 Local <br>
  RETRIEVED AT: May 31 2020 06:05 UTC<br><br>
CYSN has no TAF <br><br>
<br><br>
CYHM 310500Z 30006KT 15SM FEW070 08/04 A3014 RMK AC1 AC TR SLP211<br><br>
TAF CYHM 310538Z 3106/0106 30008KT P6SM FEW050 BECMG 3116/3118 31012KT RMK NXT FCST BY 311200Z<br><br>
<br><br>
KIAG 310553Z AUTO 28004KT 10SM CLR 07/05 A3012 RMK AO2 SLP205 T00670050 10139 20067 51005<br><br>
KIAG 310453Z AUTO 32004KT 10SM CLR 09/06 A3012 RMK AO2 SLP202 T00940056 401890094<br><br>
KIAG 310529Z 3106/0106 33005KT P6SM SCT050 FM311000 33010KT P6SM BKN050 FM311700 31010KT P6SM SCT050 FM312300 26007KT P6SM SCT060<br><br>
<br><br>
KBUF 310554Z 33004KT 10SM FEW085 08/06 A3012 RMK AO2 SLP203 T00780056 10133 20078 51005 $<br><br>
KBUF 310454Z 33004KT 10SM FEW050 FEW085 09/06 A3012 RMK AO2 SLP202 T00890056 401670083 $<br><br>
KBUF 310529Z 3106/0106 33004KT P6SM SCT050 FM311100 33009KT P6SM BKN050 FM311700 31012KT P6SM SCT050 FM312300 26008KT P6SM SCT060<br><br>
<br><br>
CYYZ 310500Z 29011KT 15SM SKC 09/04 A3012 RMK SLP202<br><br>
TAF CYYZ 310538Z 3106/0112 30010KT P6SM SKC FM311100 35015KT P6SM FEW030 FM311900 31015KT P6SM BKN060 BECMG 3122/3124 33010KT BECMG 0101/0103 VRB03KT FM010300 VRB03KT P6SM FEW060 BECMG 0107/0109 26012KT RMK NXT FCST BY 310900Z<br><br>
<br><br>
CYOO 310500Z AUTO 36004KT 9SM CLR 06/05 A3011 RMK SLP199<br><br>
TAF CYOO 310138Z 3102/3114 31008KT P6SM FEW020 TEMPO 3109/3112 BKN020 FM311200 34010G20KT P6SM FEW050 RMK FCST BASED ON AUTO OBS. NXT FCST BY 310800Z<br><br>
<br><br>
CYTR 310500Z 00000KT 15SM SKC 07/04 A3011 RMK SLP198<br><br>
TAF CYTR 310530Z 3106/0106 VRB03KT P6SM SKC BECMG 3110/3112 34008KT FM311600 30010KT P6SM FEW070 BECMG 3116/3118 30010G20KT BECMG 0100/0102 29005KT RMK NXT FCST BY 311200Z<br><br>
<br><br>
