RETRIEVED AT : Nov 04 2018 06:05 Local <br>
  RETRIEVED AT: Nov 04 2018 11:05 UTC<br><br>
CYSN has no TAF <br><br>
<br><br>
CYHM 041000Z 28002KT 15SM FEW190 FEW230 M02/M02 A3044 RMK AC1CI2 AC TR FROIN SLP318<br><br>
TAF CYHM 040540Z 0406/0506 VRB03KT P6SM FEW030 TEMPO 0406/0408 BKN030 FM041400 07007KT P6SM FEW030 BKN140 BECMG 0415/0417 09010G20KT FM050200 12012KT P6SM BKN180 RMK NXT FCST BY 041200Z<br><br>
<br><br>
KIAG 041053Z 00000KT 10SM CLR M02/M03 A3047 RMK AO2 SLP334 I1000 T10171028<br><br>
KIAG 040953Z 00000KT 10SM CLR M01/M02 A3044 RMK AO2 SLP321 T10111022<br><br>
KIAG 040909Z 0409/0506 VRB03KT P6SM FEW040 SCT250 FM041400 10005KT P6SM BKN100 FM041800 10010KT P6SM BKN100 FM050400 13007KT P6SM SCT050 BKN100<br><br>
<br><br>
KBUF 041054Z 16003KT 10SM FEW040 FEW090 BKN270 M01/M02 A3048 RMK AO2 SLP329 T10061017 $<br><br>
KBUF 040954Z 11003KT 10SM FEW045 FEW090 FEW250 00/M01 A3044 RMK AO2 SLP315 T00001011 $<br><br>
KBUF 040908Z 0409/0506 VRB03KT P6SM SCT040 SCT250 FM041500 10006KT P6SM BKN100 FM050300 13008KT P6SM SCT050 BKN100<br><br>
<br><br>
CYYZ 041000Z 34002KT 15SM FEW035 01/M00 A3044 RMK SC2 SLP316<br><br>
TAF CYYZ 040845Z 0409/0512 24005KT P6SM BKN040 TEMPO 0409/0412 SCT040 FM041200 VRB03KT P6SM SCT200 FM041500 07005KT P6SM FEW030 BKN180 FM041800 11012KT P6SM SCT030 BKN150 FM042300 09010G20KT P6SM BKN100 FM050300 11015KT P6SM BKN180 FM050800 14015KT 5SM -RA BR OVC020 FM051100 15015KT 2SM -RA BR OVC007 RMK NXT FCST BY 041200Z<br><br>
<br><br>
CYOO 041000Z AUTO 00000KT 9SM CLR M01/M01 A3045 RMK SLP319<br><br>
CYOO has no TAF <br><br>
<br><br>
CYTR 041000Z 31002KT 15SM BKN030 03/01 A3045 RMK SC7 SLP317<br><br>
TAF AMD CYTR 040952Z 0409/0506 VRB03KT P6SM BKN030 BECMG 0414/0415 SCT030 FM041700 10008KT P6SM FEW020 SCT100 SCT250 FM050000 07008KT P6SM FEW020 SCT080 BKN200 BECMG 0504/0506 12010KT RMK NXT FCST BY 041200Z<br><br>
<br><br>
