RETRIEVED AT : Oct 28 2018 22:05 Local <br>
  RETRIEVED AT: Oct 29 2018 02:05 UTC<br><br>
CYSN 290100Z 00000KT 15SM -RA OVC021 06/06 A2964 RMK SC8 LAST STFD OBS/NEXT 29 1100UTC SLP041<br><br>
CYSN has no TAF <br><br>
<br><br>
CYHM 290100Z 34002KT 15SM -RA FEW020 OVC029 05/05 A2963 RMK SC2SC6 SLP043<br><br>
TAF CYHM 282338Z 2900/2924 VRB03KT P6SM OVC030 TEMPO 2900/2903 5SM -RA BR OVC020 FM290300 35008KT P6SM OVC025 FM290500 31008KT P6SM SCT010 BKN050 FM291100 27010KT P6SM -SHRA SCT020 BKN030 BECMG 2915/2917 27015G25KT FM291700 27015G25KT P6SM BKN025 FM292100 29015G25KT P6SM FEW030 SCT090 RMK NXT FCST BY 290600Z<br><br>
<br><br>
KIAG 290153Z 09003KT 3SM -RA BR OVC012 06/04 A2963 RMK AO2 SLP046 P0004 T00560044<br><br>
KIAG 290144Z 10003KT 3SM -RA BR SCT007 OVC012 06/04 A2963 RMK AO2 P0004 T00560044<br><br>
KIAG 290139Z 00000KT 2 1/2SM -RA BR BKN007 OVC011 06/04 A2964 RMK AO2 CIG 004V010 P0004 T00560044<br><br>
KIAG 290053Z 12003KT 8SM -RA BKN009 OVC016 06/04 A2964 RMK AO2 RAB50 SLP049 P0000 T00560044<br><br>
KIAG 282330Z 2900/2924 VRB04KT 6SM -RA OVC025 FM290300 00000KT P6SM VCSH OVC012 FM290800 32005KT 5SM -RA BR OVC007 FM291100 27009KT P6SM OVC015 FM291500 27014G24KT P6SM VCSH OVC025 FM292000 28017G24KT P6SM BKN035<br><br>
<br><br>
KBUF 290154Z 18006KT 10SM -RA BKN050 OVC075 06/04 A2964 RMK AO2 SLP042 P0000 T00560044<br><br>
KBUF 290054Z 16006KT 10SM -RA SCT020 BKN030 OVC055 06/05 A2965 RMK AO2 SLP044 P0000 T00560050<br><br>
KBUF 290100Z 2901/2924 16004KT P6SM -RA OVC030 FM290300 VRB03KT 4SM -RA BR OVC015 FM290500 00000KT P6SM VCSH OVC015 FM290800 VRB03KT 5SM -RA BR OVC007 FM291100 27008KT P6SM VCSH OVC015 FM291600 27014G23KT P6SM VCSH OVC025 FM292200 28015G25KT P6SM OVC035<br><br>
<br><br>
CYYZ 290100Z 15004KT 15SM -RA BKN020 OVC055 05/03 A2964 RMK SC7SC1 SLP043<br><br>
CYYZ 290039Z 17004KT 15SM -RA FEW024 OVC053 05/03 A2964 RMK SC1SC7 SLP044<br><br>
TAF CYYZ 282338Z 2900/3006 VRB03KT P6SM OVC025 TEMPO 2900/2904 P6SM -SHRA OVC015 FM290400 VRB03KT P6SM SCT020 OVC050 TEMPO 2904/2911 SCT020 OVC050 BECMG 2905/2907 30007KT FM291100 24008KT P6SM -SHRASN BKN015 OVC050 FM291400 29010G20KT P6SM -SHRA BKN015 OVC030 FM291700 29015G25KT P6SM BKN030 FM291900 29015G25KT P6SM SCT030 BKN100 FM300000 29012G25KT P6SM FEW030 SCT100 BECMG 3003/3005 28012KT FEW030 RMK NXT FCST BY 290300Z<br><br>
<br><br>
CYOO 290147Z AUTO 00000KT 9SM SCT014 OVC024 04/04 A2964 RMK SLP045<br><br>
CYOO 290146Z AUTO 00000KT 9SM SCT014 OVC026 04/04 A2964 RMK SLP045<br><br>
CYOO 290144Z AUTO 00000KT 9SM SCT014 OVC024 04/04 A2964 RMK SLP045<br><br>
CYOO 290100Z AUTO 00000KT 9SM BKN026 OVC060 04/04 A2964 RMK SLP045<br><br>
CYOO has no TAF <br><br>
<br><br>
CYTR 290139Z 00000KT 5SM BR SCT020 OVC054 04/04 A2966 RMK SC3SC5 SLP049<br><br>
CYTR 290112Z 07002KT 6SM BR BKN020 OVC054 04/04 A2966 RMK SC5SC3 SLP049<br><br>
CYTR 290100Z 05002KT 10SM BKN018 OVC061 04/04 A2967 RMK SC6SC2 SLP050<br><br>
TAF CYTR 282330Z 2900/2924 VRB03KT P6SM SCT008 OVC025 TEMPO 2900/2903 2SM -RA BR OVC008 FM290300 VRB03KT P6SM SCT020 BKN050 TEMPO 2903/2914 5SM -RA BR OVC020 FM291400 27005KT 5SM -RASN BR BKN006 OVC020 TEMPO 2914/2917 P6SM NSW SCT006 OVC020 FM291700 29010KT P6SM SCT015 OVC030 TEMPO 2917/2924 P6SM -RASN RMK NXT FCST BY 290600Z<br><br>
<br><br>
