RETRIEVED AT : Nov 12 2017 19:10 Local <br>
  RETRIEVED AT: Nov 13 2017 00:10 UTC<br><br>
CYSN 130000Z 15002KT 15SM OVC054 05/M02 A3035 RMK SC8 SLP282<br><br>
CYSN 122300Z 10005KT 15SM OVC064 05/M02 A3033 RMK SC8 SLP277<br><br>
TAF CYSN 121939Z 1220/1302 17007KT P6SM OVC050 FM122100 22005KT P6SM OVC030 TEMPO 1221/1223 P6SM -RA FM122300 VRB03KT 6SM -RA BR OVC015 TEMPO 1223/1302 OVC025 PROB30 1301/1302 OVC009 RMK NXT FCST WILL BE ISSUED AT 131345Z<br><br>
<br><br>
CYHM 130000Z 04003KT 10SM -RA SCT018 OVC037 02/M00 A3033 RMK SC3SC5 SLP283<br><br>
CYHM 122300Z 07004KT 10SM -RA SCT022 OVC027 03/M01 A3033 RMK SC3SC5 SLP281<br><br>
CYHM 122243Z VRB02KT 15SM -RA SCT022 OVC049 03/M01 A3032 RMK SC3SC5 SLP279<br><br>
TAF CYHM 122339Z 1300/1324 07005KT P6SM -RA SCT015 OVC025 TEMPO 1300/1302 4SM -RA BR BKN015 OVC025 FM130200 04005KT 3SM -SNRA OVC008 TEMPO 1302/1304 6SM -RASN BR OVC012 PROB30 1302/1304 2SM -SNRA BR OVC005 FM130400 05005KT 2SM -SNRA BR OVC005 TEMPO 1304/1310 6SM -RASN BR OVC008 FM131000 VRB03KT 2SM -DZ BR OVC003 PROB30 1310/1312 2SM -FZDZ BR FM131200 VRB03KT 3SM -DZ BR OVC008 PROB30 1312/1313 2SM -FZDZ BR FM131400 31007KT P6SM SCT015 BKN030 RMK NXT FCST BY 130600Z<br><br>
<br><br>
KIAG 122353Z 10004KT 10SM FEW039 OVC048 04/M03 A3035 RMK AO2 SLP288 T00441033 10067 20044 53009 $<br><br>
KIAG 122253Z 09004KT 10SM SCT055 OVC070 05/M03 A3033 RMK AO2 SLP284 T00501033 $<br><br>
KIAG 122327Z 1300/1324 VRB03KT P6SM OVC050 FM130300 VRB03KT 6SM -SHRA OVC040 FM130700 00000KT P6SM VCSH OVC020 FM131000 VRB03KT P6SM OVC007 FM132200 32005KT P6SM BKN020<br><br>
<br><br>
KBUF 122354Z 09003KT 10SM -RA BKN036 OVC046 04/M03 A3034 RMK AO2 RAB32 SLP283 P0000 60000 T00391028 10056 20039 53006<br><br>
KBUF 122254Z 08005KT 10SM OVC065 04/M04 A3033 RMK AO2 SLP278 T00441039<br><br>
KBUF 122327Z 1300/1324 00000KT P6SM VCSH OVC045 FM130400 00000KT 6SM -SHRA OVC035 FM130700 00000KT 6SM -SHRA OVC020 FM130900 00000KT P6SM VCSH OVC015 FM131200 VRB03KT P6SM OVC012 FM131700 32004KT P6SM OVC015<br><br>
<br><br>
CYYZ 130000Z 13002KT 15SM SCT029 OVC046 05/M01 A3034 RMK SC3SC5 SLP282<br><br>
CYYZ 122300Z 10002KT 15SM OVC045 04/M01 A3034 RMK SC8 SLP281<br><br>
TAF CYYZ 122339Z 1300/1406 VRB03KT P6SM OVC050 TEMPO 1300/1301 P6SM -RA FM130100 20005KT P6SM -RASN OVC025 TEMPO 1301/1304 4SM -SNRA PROB30 1301/1304 2SM -SN OVC015 FM130400 VRB03KT 3SM -SNRA BR FEW008 OVC015 PROB30 1304/1310 2SM -SN BR OVC008 FM131000 29005KT P6SM BKN010 OVC050 TEMPO 1310/1314 SCT010 BKN050 FM131400 VRB03KT P6SM BKN030 FM132200 VRB03KT P6SM BKN020 RMK NXT FCST BY 130300Z<br><br>
<br><br>
CYOO 130000Z AUTO 11004KT 9SM OVC029 04/M02 A3036 RMK SLP287<br><br>
CYOO 122300Z AUTO 10005KT 9SM OVC046 04/M01 A3035 RMK SLP283<br><br>
CYOO has no TAF <br><br>
<br><br>
CYTR 130000Z 09002KT 15SM OVC065 04/M02 A3039 RMK SC8 SLP295<br><br>
CYTR 122300Z 07002KT 15SM OVC047 03/M02 A3038 RMK SC8 SLP293<br><br>
TAF CYTR 122330Z 1300/1324 05004KT P6SM BKN040 OVC060 FM130700 06005KT P6SM SCT012 OVC040 TEMPO 1307/1313 P6SM -RASN FEW008 OVC012 PROB30 1309/1313 2SM -RASN BR OVC008 FM131300 06007KT P6SM BKN010 OVC040 FM131700 05007KT P6SM BKN020 OVC040 FM132200 04004KT P6SM OVC040 RMK NXT FCST BY 130600Z<br><br>
<br><br>
