RETRIEVED AT : Mar 28 2020 16:05 Local <br>
  RETRIEVED AT: Mar 28 2020 20:05 UTC<br><br>
CYSN 281929Z 02010KT 4SM BR SCT004 OVC018 07/07 A2984 RMK SF4SC4 SLP108<br><br>
CYSN 281900Z 03009KT 5SM -RA BR OVC003 07/07 A2983 RMK SF8 SLP106<br><br>
TAF AMD CYSN 282001Z 2820/2901 07010KT 2SM -DZ BR OVC002 TEMPO 2820/2901 6SM BR SCT005 OVC015 RMK NXT FCST WILL BE ISSUED AT 291245Z<br><br>
<br><br>
CYHM 281934Z 05016G24KT 3SM BR OVC002 04/04 A2980 RMK SF8 PRESFR SLP100<br><br>
CYHM 281918Z 05014G21KT 2SM BR OVC002 04/04 A2983 RMK FG1SF7 SLP111<br><br>
CYHM 281900Z 03016G22KT 1 1/4SM BR OVC002 03/03 A2985 RMK FG2SF6 SLP117<br><br>
CYHM 281849Z 03016KT 3/4SM R12/P6000FT/U BR OVC002 03/03 A2986 RMK FG4SF4 PRESRR SLP120<br><br>
CYHM 281825Z 04014G19KT 1/2SM R12/P6000FT/D FG OVC002 03/03 A2984 RMK FG6SF2 SLP115<br><br>
TAF AMD CYHM 281850Z 2818/2918 04015G25KT 1/2SM -DZ FG VV002 TEMPO 2818/2906 2SM BR OVC004 FM290600 04015G25KT 3/4SM -RA BR OVC002 TEMPO 2906/2912 3SM SHRA BR OVC005 FM291200 06008KT 1/4SM -RA FG VV001 PROB30 2913/2916 1SM +TSRA BR OVC002CB FM291600 22012KT 5SM -SHRA BR OVC008 BECMG 2916/2918 23018G28KT RMK NXT FCST BY 290000Z<br><br>
<br><br>
KIAG 281953Z 09008KT 10SM FEW013 BKN028 OVC070 10/07 A2982 RMK AO2 SLP108 T01000072<br><br>
KIAG 281900Z 11012KT 10SM FEW013 BKN028 OVC070 10/08 A2983 RMK AO2 T01000078<br><br>
KIAG 281853Z 11011KT 10SM FEW008 BKN075 OVC085 09/07 A2983 RMK AO2 RAE07 SLP109 P0000 T00940072<br><br>
KIAG 281821Z 12012KT 10SM FEW008 BKN075 OVC085 09/08 A2983 RMK AO2 RAE07 P0000 T00940078<br><br>
KIAG 281720Z 2818/2918 10009KT 5SM -RA BR OVC025 FM282000 10008KT P6SM OVC015 FM290400 09005KT P6SM -SHRA OVC007 FM290900 12007KT 4SM RA BR OVC005 FM291400 15012G19KT 6SM -SHRA BR OVC012 WS015/20045KT FM291700 18016G23KT P6SM OVC035 WS015/20045KT<br><br>
<br><br>
KBUF 281954Z 08007KT 10SM OVC021 10/08 A2982 RMK AO2 RAE11 SLP102 P0000 T01000078<br><br>
KBUF 281854Z 09008KT 10SM -RA BKN027 BKN035 OVC060 09/07 A2984 RMK AO2 SLP107 P0000 T00940072<br><br>
KBUF 281841Z 10009KT 10SM -RA BKN027 BKN035 OVC060 09/07 A2984 RMK AO2 P0000 T00940067<br><br>
KBUF 281720Z 2818/2918 08010KT 6SM -RA BR OVC025 FM282100 09008KT P6SM OVC015 FM290400 11005KT P6SM -SHRA OVC007 FM290900 16013KT 4SM RA BR OVC007 FM291400 17016G24KT 6SM -SHRA BR OVC015 WS015/20045KT FM291700 18015G25KT P6SM OVC035 WS015/20045KT<br><br>
<br><br>
CYYZ 281900Z 08015G23KT 15SM BKN011 OVC060 08/05 A2988 RMK SC7SC1 SLP123<br><br>
TAF AMD CYYZ 281850Z 2818/2924 08015G25KT P6SM BKN015 OVC040 FM282100 08015G25KT P6SM OVC015 TEMPO 2821/2903 5SM -DZ BR BKN007 OVC015 FM290300 08015G25KT 5SM -DZ BR OVC006 TEMPO 2903/2907 P6SM NSW OVC010 FM290700 08015G25KT 11/2SM -RA BR OVC003 TEMPO 2907/2914 5SM SHRA BR OVC006 FM291400 09012KT 1SM -RA BR OVC002 PROB30 2914/2916 1SM +TSRA BR OVC002CB FM291700 23015KT 5SM -SHRA BR BKN008 OVC015 BECMG 2917/2919 24020G35KT FM291900 24020G35KT P6SM -SHRA BKN020 BKN040 RMK NXT FCST BY 282100Z<br><br>
<br><br>
CYOO 281900Z AUTO 09010G15KT 9SM BKN016 BKN055 OVC069 08/03 A2990 RMK SLP130<br><br>
CYOO 281845Z AUTO 09011KT 9SM BKN016 OVC065 08/03 A2990 RMK SLP131<br><br>
CYOO 281839Z AUTO 08010G16KT 9SM SCT016 OVC065 08/03 A2991 RMK SLP133<br><br>
TAF CYOO 281938Z 2820/2908 08012KT P6SM BKN015 OVC050 FM282300 08012G22KT P6SM OVC015 TEMPO 2823/2905 4SM -DZ BR BKN007 OVC012 FM290500 08015G25KT 5SM -DZ BR OVC006 TEMPO 2905/2908 P6SM NSW OVC010 RMK FCST BASED ON AUTO OBS. NXT FCST BY 290200Z<br><br>
<br><br>
CYTR 281900Z 09008KT 15SM OVC020 07/02 A2996 RMK SC8 WND ESTD SLP150<br><br>
CYTR 281852Z 09007KT 15SM OVC020 07/02 A2997 RMK SC8 WND ESTD SLP154<br><br>
CYTR 281825Z 09005KT 10SM -RA BKN020 OVC050 06/02 A2998 RMK SC6SC2 WND ESTD SLP156<br><br>
TAF AMD CYTR 281834Z 2818/2918 09008KT P6SM BKN025 OVC050 TEMPO 2818/2823 6SM -RA BR BKN015 OVC040 FM282300 09010KT 6SM -RA BR BKN015 OVC030 TEMPO 2823/2903 5SM -RA -DZ BR OVC008 FM290300 10012KT 5SM -RA BR BKN006 OVC030 FM290900 10015KT 3SM RA BR BKN005 OVC030 PROB30 2909/2914 1SM -TSRA BR BKN005 OVC030CB RMK NXT FCST BY 290000Z<br><br>
<br><br>
