RETRIEVED AT : Sep 08 2017 23:10 Local <br>
  RETRIEVED AT: Sep 09 2017 03:10 UTC<br><br>
CYSN has no TAF <br><br>
<br><br>
CYHM 090300Z 01009KT 15SM FEW043 10/07 A3029 RMK SC2 SLP262<br><br>
CYHM 090200Z 01009KT 15SM BKN043 11/08 A3028 RMK SC7 TCU ASOCTD SLP258<br><br>
TAF CYHM 082338Z 0900/0924 33006KT P6SM BKN050 FM090200 01008KT P6SM SCT040 FM091500 02012KT P6SM SCT040 RMK NXT FCST BY 090600Z<br><br>
<br><br>
KIAG 090253Z 36005KT 10SM FEW060 13/08 A3027 RMK AO2 SLP254 60001 T01280083 51019<br><br>
KIAG 090153Z 36007KT 10SM FEW032 BKN049 OVC055 15/09 A3026 RMK AO2 RAB09E33 SLP247 P0001 T01500094<br><br>
KIAG 090142Z 36006KT 10SM SCT030 SCT035 OVC045 15/09 A3025 RMK AO2 RAB09E33 P0001 T01500094<br><br>
KIAG 090115Z 33007KT 10SM -RA BKN029 OVC036 16/09 A3025 RMK AO2 RAB09 P0000 T01560094<br><br>
KIAG 090250Z 0903/0924 01005KT P6SM BKN050 FM090600 36005KT P6SM SCT050 FM091300 36005KT P6SM SCT250<br><br>
<br><br>
KBUF 090254Z 36004KT 10SM SCT047 BKN060 13/10 A3027 RMK AO2 SLP251 T01330100 51016<br><br>
KBUF 090154Z 36006KT 10SM SCT037 SCT045 BKN060 14/11 A3025 RMK AO2 SLP246 T01390106<br><br>
KBUF 090250Z 0903/0924 35006KT P6SM SCT035 BKN060 FM090600 VRB03KT P6SM BKN060 FM091400 36005KT P6SM SCT060 FM091700 34007KT P6SM SCT200<br><br>
<br><br>
CYYZ 090300Z 35009KT 15SM SKC 11/08 A3029 RMK SLP262<br><br>
CYYZ 090200Z 34009KT 15SM SKC 12/08 A3027 RMK SLP256<br><br>
TAF CYYZ 090238Z 0903/1006 34010KT P6SM SKC FM091500 01015KT P6SM FEW040 FM092300 35010KT P6SM SKC RMK NXT FCST BY 090600Z<br><br>
<br><br>
CYOO 090300Z AUTO 35006KT 9SM BKN060 10/08 A3029 RMK SLP259<br><br>
CYOO 090200Z AUTO 34007KT 9SM CLR 11/08 A3026 RMK SLP252<br><br>
CYOO has no TAF <br><br>
<br><br>
CYTR 090300Z 36005KT 15SM SCT061 10/08 A3027 RMK SC4 SLP253<br><br>
CYTR 090200Z 01007KT 15SM FEW050 11/08 A3025 RMK SC1 SLP246<br><br>
TAF CYTR 082330Z 0900/0924 35005KT P6SM SCT040 FM091500 36010KT P6SM FEW040 RMK NXT FCST BY 090600Z<br><br>
<br><br>
