RETRIEVED AT : Jul 04 2020 12:05 Local <br>
  RETRIEVED AT: Jul 04 2020 16:05 UTC<br><br>
CYSN 041500Z 01007KT 340V070 15SM SCT250 26/15 A3000 RMK CI3 SLP157 DENSITY ALT 1600FT<br><br>
TAF CYSN 041238Z 0413/0501 02008KT P6SM FEW250 BECMG 0422/0424 VRB03KT RMK NXT FCST BY 042000Z<br><br>
<br><br>
CYHM 041500Z 03008KT 360V060 15SM BKN250 27/12 A3003 RMK CI5 SLP166 DENSITY ALT 2200FT<br><br>
TAF CYHM 041138Z 0412/0512 02008KT P6SM FEW020 FEW250 BECMG 0414/0416 04012KT BECMG 0422/0424 VRB03KT RMK NXT FCST BY 041800Z<br><br>
<br><br>
KIAG 041553Z 00000KT 10SM CLR 28/14 A3001 RMK AO2 SLP156 T02780144<br><br>
KIAG 041453Z 35006KT 10SM CLR 27/14 A3000 RMK AO2 SLP152 T02670144 53007<br><br>
KIAG 041515Z 0415/0512 34006KT P6SM FEW050 FM042100 36006KT P6SM SCT250 FM042300 00000KT P6SM FEW250 FM050800 22004KT P6SM FEW250<br><br>
<br><br>
KBUF 041554Z 03008KT 10SM FEW250 29/15 A3001 RMK AO2 SLP157 T02890150<br><br>
KBUF 041454Z COR 00000KT 10SM FEW250 28/16 A3000 RMK AO2 SLP154 T02780161 51007<br><br>
KBUF 041515Z 0415/0512 35009KT P6SM FEW070 FM042100 35007KT P6SM SCT250 FM042300 02004KT P6SM FEW250 FM050800 20004KT P6SM FEW250<br><br>
<br><br>
CYYZ 041500Z 35007KT 320V030 15SM FEW250 28/13 A3001 RMK CI1 SLP162 DENSITY ALT 2200FT<br><br>
TAF CYYZ 041439Z 0415/0518 36008KT P6SM FEW250 BECMG 0417/0419 17010KT BECMG 0423/0501 36008KT FM051500 30010KT P6SM SCT100 RMK NXT FCST BY 041800Z<br><br>
<br><br>
CYOO 041500Z AUTO 36007G15KT 9SM CLR 28/12 A3000 RMK SLP160 DENSITY ALT 1900FT<br><br>
TAF CYOO 041338Z 0414/0502 02010KT P6SM FEW250 BECMG 0415/0417 18010KT BECMG 0423/0501 35005KT RMK FCST BASED ON AUTO OBS. NXT FCST BY 042000Z<br><br>
<br><br>
CYTR 041500Z 02008KT 15SM FEW250 28/14 A2999 RMK CI1 SLP154<br><br>
TAF CYTR 041136Z 0412/0512 01005KT P6SM FEW080 BECMG 0417/0419 20008KT BECMG 0501/0503 VRB03KT RMK NXT FCST BY 041800Z<br><br>
<br><br>
