RETRIEVED AT : Sep 01 2018 12:05 Local <br>
  RETRIEVED AT: Sep 01 2018 16:05 UTC<br><br>
CYSN 011500Z 19013G19KT 15SM FEW025 BKN250 28/21 A3016 RMK SC2CI3 SLP215 DENSITY ALT 1600FT<br><br>
TAF CYSN 011238Z 0113/0201 VRB03KT P6SM SKC BECMG 0114/0116 20010G20KT FEW030 FM012300 VRB03KT P6SM SKC RMK NXT FCST BY 012000Z<br><br>
<br><br>
CYHM 011500Z 21007KT 15SM SCT015 BKN250 26/22 A3019 RMK CU4CI3 SLP222 DENSITY ALT 2000FT<br><br>
CYHM 011444Z 21009KT 15SM BKN015 BKN250 25/22 A3019 RMK CU5CI1 SLP222 DENSITY ALT 1900FT<br><br>
CYHM 011422Z 19009KT 8SM BKN012 24/22 A3019 RMK CU5 SLP222 DENSITY ALT 1700FT<br><br>
TAF AMD CYHM 011452Z 0114/0212 18006KT P6SM BKN015 TEMPO 0114/0116 SCT015 FM011600 19010KT P6SM SCT030 BECMG 0116/0117 20010G20KT BECMG 0122/0124 20010KT FM020400 20010KT P6SM -SHRA BKN050 PROB30 0206/0212 2SM +TSRA BR BKN020 BKN050CB RMK NXT FCST BY 011800Z<br><br>
<br><br>
KIAG 011553Z 20012KT 10SM CLR 27/20 A3018 RMK AO2 SLP217 T02720200<br><br>
KIAG 011453Z 21012KT 10SM CLR 26/20 A3019 RMK AO2 SLP220 T02610200 53006<br><br>
KIAG 011503Z 0115/0212 21012KT P6SM SCT045 BKN250 FM012200 19008KT P6SM SCT250 FM020400 21008KT P6SM BKN040<br><br>
<br><br>
KBUF 011554Z 19011KT 10SM SCT040 BKN230 28/21 A3019 RMK AO2 SLP218 T02830206<br><br>
KBUF 011454Z 18009KT 10SM FEW045 SCT200 27/20 A3020 RMK AO2 SLP224 T02670200 53007<br><br>
KBUF 011503Z 0115/0212 20010KT P6SM SCT045 BKN250 FM012200 19008KT P6SM SCT250 FM020400 20008KT P6SM BKN040<br><br>
<br><br>
CYYZ 011521Z 23008KT 10SM FEW008 SCT013 BKN240 24/21 A3017 RMK ST1CU2CI4 SLP217 DENSITY ALT 1500FT<br><br>
CYYZ 011500Z 23009KT 190V270 6SM BR SCT008 OVC014 24/21 A3018 RMK SF3SC5 SLP219 DENSITY ALT 1500FT<br><br>
CYYZ 011451Z 21006KT 6SM BR SCT008 BKN014 24/21 A3018 RMK SF3SC4 SLP220 DENSITY ALT 1400FT<br><br>
TAF CYYZ 011439Z 0115/0218 18005KT 6SM BR BKN008 TEMPO 0115/0116 P6SM NSW BKN015 FM011530 18007KT P6SM SCT015 TEMPO 0115/0116 BKN015 FM011600 20012KT P6SM SCT030 BECMG 0116/0117 18012G22KT FM011700 18012G22KT P6SM SCT030 TEMPO 0117/0122 BKN030 BECMG 0201/0203 21008KT FM020500 22008KT P6SM -SHRA BKN040 PROB30 0205/0211 2SM +TSRA BR BKN040CB FM021700 23015G25KT P6SM -SHRA BKN030 PROB30 0217/0218 VRB15G25KT 1SM +TSRA BR BKN015 OVC030CB RMK NXT FCST BY 011800Z<br><br>
<br><br>
CYOO 011500Z AUTO 21004KT 170V250 9SM OVC013 23/21 A3019 RMK SLP223 DENSITY ALT 1200FT<br><br>
CYOO has no TAF <br><br>
<br><br>
CYTR 011500Z 22007KT 15SM FEW023 SCT075 BKN240 24/20 A3020 RMK SC2AC2CI1 SLP228<br><br>
TAF AMD CYTR 011330Z 0113/0212 19008KT P6SM FEW010 SCT020 BKN030 TEMPO 0113/0115 FEW010 BKN020 FM011500 20010KT P6SM FEW025 BECMG 0122/0124 20005KT FM020900 20005KT P6SM -SHRA BKN025 OVC080 RMK NXT FCST BY 011800Z<br><br>
<br><br>
