RETRIEVED AT : May 24 2020 15:05 Local <br>
  RETRIEVED AT: May 24 2020 19:05 UTC<br><br>
CYSN 241800Z 19012KT 160V240 15SM FEW050 FEW160 BKN240 28/17 A3001 RMK SC1AC1CI3 SLP162 DENSITY ALT 1900FT<br><br>
TAF CYSN 241238Z 2413/2501 VRB03KT P6SM SCT090 BKN250 BECMG 2413/2415 19008KT FM241800 20010KT P6SM -SHRA BKN040 PROB30 2418/2424 3SM TSRA BKN030CB RMK NXT FCST BY 242000Z<br><br>
<br><br>
CYHM 241800Z 20011G19KT 15SM SCT047 BKN058 BKN250 27/17 A3003 RMK CU4SC1CI1 SLP167 DENSITY ALT 2200FT<br><br>
TAF CYHM 241742Z 2418/2518 18012G22KT P6SM FEW030 SCT250 FM242100 20012G22KT P6SM BKN040 TEMPO 2421/2503 P6SM -SHRA PROB30 2421/2503 VRB20G30KT 4SM TSRA BKN030CB FM250300 22010KT P6SM BKN040 FM251200 22012KT P6SM SCT020 BKN030 TEMPO 2512/2518 BKN020 RMK NXT FCST BY 250000Z<br><br>
<br><br>
KIAG 241853Z 22007KT 10SM CLR 28/15 A3002 RMK AO2 SLP161 T02780150<br><br>
KIAG 241753Z 20011KT 10SM FEW050 27/16 A3003 RMK AO2 SLP167 T02720156 10272 20189 56014<br><br>
KIAG 241720Z 2418/2518 18008KT P6SM BKN050 FM250000 18008KT P6SM VCSH BKN050 FM250400 19012KT 6SM -SHRA BKN040 FM250900 20012KT P6SM SCT050<br><br>
<br><br>
KBUF 241854Z 22007KT 10SM SCT050 SCT180 SCT230 SCT270 28/16 A3003 RMK AO2 SLP165 T02780161<br><br>
KBUF 241754Z COR 20007KT 10SM BKN050 BKN180 BKN220 BKN270 27/16 A3004 RMK AO2 SLP170 T02720156 10278 20194 58014<br><br>
KBUF 241720Z 2418/2518 20010KT P6SM SCT050 BKN250 FM250100 19008KT P6SM VCSH BKN050 FM250500 19010KT 6SM -SHRA BKN040 FM251000 20010KT P6SM BKN050 FM251400 22012KT P6SM FEW250<br><br>
<br><br>
CYYZ 241800Z 16010KT 15SM FEW050 BKN110 BKN260 25/17 A3002 RMK SC1AC4CI1 SLP167 DENSITY ALT 1700FT<br><br>
TAF CYYZ 241742Z 2418/2524 16012KT P6SM FEW050 SCT260 FM242000 16012KT P6SM BKN050 TEMPO 2420/2424 P6SM VCTS SCT030CB BKN050 FM250000 17010KT P6SM BKN040 TEMPO 2500/2506 P6SM -SHRA PROB30 2500/2506 VRB15G25KT 4SM TSRA BKN030CB FM250600 18010KT P6SM SCT040 BECMG 2510/2512 24012KT FM252000 17010KT P6SM VCTS SCT030CB BKN050 RMK NXT FCST BY 242100Z<br><br>
<br><br>
CYOO 241800Z AUTO 14009KT 100V160 9SM CLR 23/17 A3004 RMK SLP173 DENSITY ALT 1400FT<br><br>
TAF CYOO 241343Z 2414/2502 13008KT P6SM FEW030 BKN240 FM241800 14012KT P6SM SCT050 BKN180 FM242000 12010KT P6SM -SHRA BKN050 PROB30 2423/2502 VRB15G25KT 5SM TSRA BKN050CB RMK FCST BASED ON AUTO OBS. NXT FCST BY 242000Z<br><br>
<br><br>
CYTR 241800Z 16007KT 15SM FEW040 SCT110 BKN250 23/13 A3009 RMK CU1AC3CI2 SLP189<br><br>
TAF CYTR 241740Z 2418/2518 14008KT P6SM FEW040 SCT100 FM250200 19008KT P6SM -SHRA FEW020 BKN040 OVC060 PROB30 2502/2506 VRB15G25KT 2SM TSRA BR SCT020 OVC030CB FM250600 20005KT 3SM -SHRA BR SCT006 BKN012 OVC030 FM250900 20005KT 2SM BR BKN006 OVC010 PROB30 2509/2514 1SM -DZ BR OVC004 FM251500 20005KT 6SM BR OVC008 FM251700 20005KT P6SM BKN015 RMK NXT FCST BY 250000Z<br><br>
<br><br>
