RETRIEVED AT : Oct 21 2017 19:10 Local <br>
  RETRIEVED AT: Oct 21 2017 23:10 UTC<br><br>
CYSN 212300Z 00000KT 15SM BKN250 15/10 A3023 RMK CI6 SLP239<br><br>
CYSN 212200Z 17005KT 15SM FEW160 BKN250 20/09 A3022 RMK AC2CI5 SLP234 DENSITY ALT 600FT<br><br>
CYSN 212156Z CCA 18005KT 15SM FEW160 BKN250 19/09 A3022 RMK AC2CI5 SLP235 DENSITY ALT 600FT<br><br>
TAF CYSN 211938Z 2120/2201 20010KT P6SM BKN240 BECMG 2123/2124 18007KT RMK NXT FCST WILL BE ISSUED AT 221245Z<br><br>
<br><br>
CYHM 212300Z 19005KT 15SM FEW170 BKN250 16/08 A3023 RMK AC2CI5 SLP240<br><br>
CYHM 212200Z 20005KT 15SM FEW140 BKN240 17/09 A3023 RMK AC1CI6 SLP242 DENSITY ALT 900FT<br><br>
TAF CYHM 211738Z 2118/2218 20010KT P6SM BKN240 FM220000 16006KT P6SM BKN220 FM220800 20007KT P6SM SCT220 PROB30 2208/2214 3/4SM BR FM221400 20012G22KT P6SM SCT240 RMK NXT FCST BY 220000Z<br><br>
<br><br>
KIAG 212253Z 15004KT 10SM CLR 19/07 A3024 RMK AO2 SLP243 T01890072<br><br>
KIAG 212153Z 19003KT 10SM CLR 21/07 A3023 RMK AO2 SLP240 T02110067<br><br>
KIAG 212102Z 2121/2218 20007KT P6SM BKN200 FM220000 19004KT P6SM BKN220 FM220800 18008KT P6SM BKN220<br><br>
<br><br>
KBUF 212254Z 00000KT 10SM SCT150 BKN200 BKN250 18/07 A3025 RMK AO2 SLP246 T01830067<br><br>
KBUF 212154Z 24003KT 10SM SCT150 BKN200 BKN250 21/06 A3024 RMK AO2 SLP240 T02060061<br><br>
KBUF 212102Z 2121/2218 23004KT P6SM BKN200 FM220000 17004KT P6SM BKN220 FM221500 19008KT P6SM BKN220<br><br>
<br><br>
CYYZ 212300Z 14006KT 15SM BKN250 16/12 A3022 RMK CI7 SLP237 DENSITY ALT 600FT<br><br>
CYYZ 212200Z 13005KT 15SM FEW170 BKN240 18/12 A3021 RMK AC2CS5 SLP235 DENSITY ALT 700FT<br><br>
TAF CYYZ 212038Z 2121/2224 15010KT P6SM FEW150 BKN240 BECMG 2123/2201 16005KT BECMG 2205/2207 SCT250 FM221500 18012G22KT P6SM SCT240 RMK NXT FCST BY 220000Z<br><br>
<br><br>
CYOO 212300Z AUTO 00000KT 9SM SCT220 BKN240 13/10 A3024 RMK SLP244<br><br>
CYOO 212200Z AUTO 00000KT 9SM CLR 18/10 A3023 RMK SLP241 DENSITY ALT 500FT<br><br>
CYOO has no TAF <br><br>
<br><br>
CYTR 212300Z 00000KT 15SM SCT140 BKN250 13/11 A3025 RMK AC3CI3 SLP248<br><br>
CYTR 212200Z 22002KT 15SM SCT140 OVC250 16/11 A3025 RMK AC3CI5 SLP245<br><br>
TAF CYTR 211730Z 2118/2218 21010KT P6SM BKN250 BECMG 2122/2124 VRB03KT BECMG 2215/2217 20008KT RMK NXT FCST BY 220000Z<br><br>
<br><br>
