RETRIEVED AT : Apr 05 2020 14:05 Local <br>
  RETRIEVED AT: Apr 05 2020 18:05 UTC<br><br>
CYSN 051700Z 33011KT 290V350 15SM SCT035 BKN100 BKN220 11/05 A3010 RMK SC4AC1CI1 SLP197<br><br>
TAF CYSN 051241Z 0513/0601 35008KT P6SM OVC020 TEMPO 0513/0517 BKN025 OVC150 FM051700 32008KT P6SM FEW020 SCT120 BECMG 0522/0524 01006KT RMK NXT FCST BY 052000Z<br><br>
<br><br>
CYHM 051700Z VRB02KT 15SM BKN030 BKN170 BKN250 10/02 A3010 RMK SC5AC1CI1 AC TR SLP200<br><br>
TAF CYHM 051739Z 0518/0618 32007KT P6SM FEW025 SCT120 BECMG 0519/0521 05008KT FM060400 VRB03KT P6SM SKC BECMG 0614/0616 23007KT RMK NXT FCST BY 060000Z<br><br>
<br><br>
KIAG 051753Z 31011KT 10SM FEW026 SCT034 09/02 A3009 RMK AO2 SLP197 60000 T00890022 10100 20067 50003<br><br>
KIAG 051718Z 31010KT 10SM SCT028 BKN037 09/03 A3009 RMK AO2 T00890028<br><br>
KIAG 051653Z 31012KT 10SM OVC028 09/03 A3009 RMK AO2 SLP200 T00890028<br><br>
KIAG 051736Z 0518/0618 31010KT P6SM SCT028 BKN035 FM052000 31009KT P6SM SCT035 BKN200 FM052300 32006KT P6SM FEW250 FM061400 23004KT P6SM SCT250 FM061700 25005KT P6SM SCT250<br><br>
<br><br>
KBUF 051754Z 31009KT 10SM BKN024 OVC040 09/03 A3009 RMK AO2 SLP194 T00940028 10094 20078 51004<br><br>
KBUF 051654Z 30010KT 10SM SCT017 OVC024 09/03 A3009 RMK AO2 SLP194 T00890033<br><br>
KBUF 051736Z 0518/0618 30010KT P6SM SCT017 OVC024 FM051900 30009KT P6SM SCT025 OVC070 FM052100 31009KT P6SM BKN090 FM052300 31006KT P6SM SCT250 FM060500 VRB03KT P6SM FEW250 FM061700 26005KT P6SM SCT250<br><br>
<br><br>
CYYZ 051700Z 32011G16KT 15SM BKN025 09/02 A3011 RMK SC6 SLP201<br><br>
TAF CYYZ 051739Z 0518/0624 34012KT P6SM SCT025 BECMG 0518/0520 36015KT FM060500 36008KT P6SM SKC BECMG 0609/0611 32008KT FM061600 15010KT P6SM SCT150 FM062100 15010KT P6SM BKN100 OVC200 RMK NXT FCST BY 052100Z<br><br>
<br><br>
CYOO 051700Z AUTO 34013KT 9SM OVC020 08/03 A3008 RMK SLP193<br><br>
TAF CYOO 051338Z 0514/0602 32012KT P6SM SCT012 OVC040 TEMPO 0514/0516 BKN012 OVC040 PROB30 0514/0515 OVC008 FM051600 32012KT P6SM FEW015 SCT180 TEMPO 0516/0518 BKN015 BECMG 0600/0602 34008KT RMK FCST BASED ON AUTO OBS. NXT FCST BY 052000Z<br><br>
<br><br>
CYTR 051700Z 27008KT 15SM BKN024 OVC075 11/06 A3003 RMK SC5AC3 SLP172<br><br>
TAF CYTR 051730Z 0518/0618 29008KT P6SM BKN020 OVC070 TEMPO 0518/0520 BKN025 OVC070 FM052000 32010KT P6SM SCT025 FM060000 33008KT P6SM SKC BECMG 0608/0610 VRB03KT RMK NXT FCST BY 060000Z<br><br>
<br><br>
