RETRIEVED AT : May 31 2020 07:05 Local <br>
  RETRIEVED AT: May 31 2020 11:05 UTC<br><br>
CYSN has no TAF <br><br>
<br><br>
CYHM 311000Z 31007KT 15SM FEW025 04/02 A3018 RMK SC2 SLP225<br><br>
TAF CYHM 310538Z 3106/0106 30008KT P6SM FEW050 BECMG 3116/3118 31012KT RMK NXT FCST BY 311200Z<br><br>
<br><br>
KIAG 311053Z 32010KT 10SM BKN017 OVC028 08/05 A3018 RMK AO2 SLP224 T00780050<br><br>
KIAG 311005Z AUTO 31010KT 10SM BKN019 08/05 A3016 RMK AO2 T00780050<br><br>
KIAG 310953Z AUTO 31009KT 10SM SCT018 07/05 A3015 RMK AO2 SLP216 T00720050<br><br>
KIAG 311011Z 3110/0106 31010KT P6SM BKN015 FM311200 33010KT P6SM BKN050 FM311700 31010KT P6SM SCT050 FM312300 26007KT P6SM SCT060<br><br>
<br><br>
KBUF 311054Z 30008KT 10SM BKN017 BKN050 07/05 A3017 RMK AO2 SLP221 T00670050 $<br><br>
KBUF 310954Z 30007KT 10SM FEW050 06/04 A3015 RMK AO2 SLP213 T00610044 $<br><br>
KBUF 311048Z 3111/0106 31007KT P6SM BKN015 FM311200 33009KT P6SM BKN050 FM311700 31012KT P6SM SCT050 FM312300 26008KT P6SM SCT060<br><br>
<br><br>
CYYZ 311000Z 34011G17KT 15SM BKN015 07/05 A3018 RMK SC7 SLP223<br><br>
TAF CYYZ 310838Z 3109/0112 32010KT P6SM FEW020 SCT040 TEMPO 3109/3112 BKN020 OVC040 FM311200 35015KT P6SM FEW030 FM311900 32015KT P6SM BKN060 BECMG 3123/0101 33010KT BECMG 0101/0103 VRB03KT FM010300 VRB03KT P6SM FEW060 BECMG 0107/0109 26012KT RMK NXT FCST BY 311200Z<br><br>
<br><br>
CYOO 311000Z AUTO 35008KT 9SM BKN070 07/05 A3015 RMK SLP215<br><br>
TAF CYOO 310738Z 3108/3120 34005KT P6SM SCT050 TEMPO 3109/3112 BKN050 FM311200 34010G20KT P6SM FEW050 BECMG 3115/3117 30015KT RMK FCST BASED ON AUTO OBS. NXT FCST BY 311400Z<br><br>
<br><br>
CYTR 311019Z 29004KT 12SM -SHRA BKN035 OVC055 07/06 A3016 RMK SC6SC2 SLP213<br><br>
CYTR 311000Z 33003KT 15SM OVC040 07/06 A3015 RMK SC8 SLP210<br><br>
TAF CYTR 310530Z 3106/0106 VRB03KT P6SM SKC BECMG 3110/3112 34008KT FM311600 30010KT P6SM FEW070 BECMG 3116/3118 30010G20KT BECMG 0100/0102 29005KT RMK NXT FCST BY 311200Z<br><br>
<br><br>
