RETRIEVED AT : Nov 24 2018 23:41 Local <br>
  RETRIEVED AT: Nov 25 2018 04:41 UTC<br><br>
CYSN has no TAF <br><br>
<br><br>
CYHM 250422Z 20008KT 12SM FEW004 SCT015 OVC040 06/06 A2961 RMK SF2SC2SC4 SLP036<br><br>
CYHM 250400Z 20008KT 12SM BKN004 OVC042 06/06 A2961 RMK SF5SC3 SLP035<br><br>
CYHM 250345Z 20008KT 12SM BKN005 OVC046 06/06 A2961 RMK SF6SC2 SLP036<br><br>
CYHM 250300Z 20010KT 7SM -DZ OVC004 06/06 A2961 RMK CF8 SLP034<br><br>
TAF AMD CYHM 250433Z 2504/2524 20010KT P6SM FEW004 SCT015 OVC040 TEMPO 2504/2508 5SM -DZ BR BKN004 OVC015 FM250800 24010KT P6SM OVC015 TEMPO 2508/2516 SCT015 OVC040 FM251600 25014KT P6SM BKN020 BECMG 2520/2522 23006KT RMK NXT FCST BY 250600Z<br><br>
<br><br>
KIAG 250436Z AUTO 20010KT 10SM -RA FEW016 BKN038 OVC060 06/04 A2965 RMK AO2 RAB28 P0000 T00560039<br><br>
KIAG 250411Z AUTO 20009KT 10SM BKN023 BKN039 OVC110 06/04 A2965 RMK AO2 T00560039<br><br>
KIAG 250353Z 20008KT 10SM SCT023 SCT040 OVC110 06/04 A2964 RMK AO2 RAB13E25 SLP048 P0000 T00560039<br><br>
KIAG 250312Z 20008KT 10SM SCT013 BKN018 OVC049 05/04 A2965 RMK AO2 T00500039<br><br>
KIAG 250253Z 19009KT 5SM BR OVC014 06/04 A2965 RMK AO2 RAE46 SLP051 P0001 60001 T00560039 55003<br><br>
KIAG 250302Z 2503/2524 19010KT 5SM BR OVC014 FM250700 22009KT 6SM -DZ OVC010 FM251500 25011KT P6SM OVC012<br><br>
<br><br>
KBUF 250429Z 20008KT 10SM BKN021 BKN028 OVC095 06/04 A2966 RMK AO2 T00560039<br><br>
KBUF 250405Z 18008KT 10SM SCT028 OVC100 06/04 A2966 RMK AO2 T00560039<br><br>
KBUF 250354Z 18008KT 10SM BKN026 BKN060 OVC100 06/04 A2966 RMK AO2 SLP048 T00560039<br><br>
KBUF 250254Z 19007KT 10SM OVC017 06/04 A2966 RMK AO2 RAB05E35 SLP048 P0000 60000 T00610039 57005<br><br>
KBUF 250302Z 2503/2524 19009KT P6SM OVC015 FM250700 22010KT 6SM -DZ OVC007 FM251600 25011KT P6SM OVC012 FM252300 21007KT P6SM OVC007<br><br>
<br><br>
CYYZ 250420Z 17006KT 5SM BR FEW002 OVC050 06/05 A2961 RMK SF2SC6 SLP032<br><br>
CYYZ 250408Z 17006KT 4SM BR SCT002 OVC007 06/05 A2961 RMK SF4SF4 SLP033<br><br>
CYYZ 250400Z 17005KT 2 1/2SM -RADZ BR BKN003 OVC007 05/05 A2961 RMK SF6SF2 SLP033<br><br>
CYYZ 250346Z 17004KT 1 1/2SM R05/5000VP6000FT/U R15R/3000V6000FT/U -RADZ BR OVC003 05/04 A2961 RMK SF8 CIG VRB 2-4 SLP034<br><br>
CYYZ 250326Z 14006KT 1SM R24L/P6000FT/U R06L/5000FT/U R05/5000VP6000FT/D R15R/3000FT/N -RADZ BR OVC002 05/04 A2961 RMK SF8 SLP034<br><br>
CYYZ 250307Z 15006KT 3/4SM R06L/4000VP6000FT/D R05/6000FT/D R15R/4000VP6000FT/D -RADZ BR OVC002 05/04 A2961 RMK SF8 SLP034<br><br>
CYYZ 250300Z 14005KT 3/4SM R06L/P6000FT/D R05/P6000FT/D R15R/P6000FT/D BR OVC002 05/04 A2961 RMK ST8 SLP034<br><br>
CYYZ 250253Z 14006KT 1SM R06L/P6000FT/D R05/P6000FT/N R15R/P6000FT/D BR OVC002 05/04 A2961 RMK ST8 SLP035<br><br>
CYYZ 250249Z 15006KT 1 3/4SM -DZ BR OVC002 05/04 A2961 RMK ST8 SLP034<br><br>
CYYZ 250244Z 15006KT 3SM -DZ BR OVC002 05/04 A2961 RMK ST8 SLP034<br><br>
TAF AMD CYYZ 250435Z 2504/2606 17006KT 6SM BR FEW002 SCT006 OVC050 TEMPO 2504/2507 4SM -DZ -RA BR FEW002 OVC006 FM250700 21008KT P6SM OVC012 TEMPO 2507/2509 5SM -DZ BR OVC008 FM250900 24010KT P6SM OVC015 TEMPO 2509/2512 OVC007 FM251400 25012KT P6SM BKN020 TEMPO 2514/2522 BKN025 BECMG 2516/2518 27016KT FM252200 26008KT P6SM SCT025 FM260400 VRB03KT P6SM BKN020 OVC110 RMK NXT FCST BY 250600Z<br><br>
<br><br>
CYOO 250400Z AUTO 10006KT 2 1/2SM -RA OVC006 04/ A2963 RMK TD MISG SLP041<br><br>
CYOO 250300Z AUTO 11004KT 2 1/4SM -RA BKN008 OVC012 04/ A2964 RMK TD MISG SLP044<br><br>
CYOO 250245Z AUTO 10006KT 3SM -RA OVC008 04/ A2964 RMK TD MISG SLP044<br><br>
CYOO has no TAF <br><br>
<br><br>
CYTR 250400Z 15003KT 6SM -DZ BR BKN008 OVC020 05/05 A2968 RMK SF6SC2 SLP053<br><br>
CYTR 250319Z 15004KT 3SM -RA BR BKN006 OVC022 05/05 A2969 RMK SF6SC2 SLP057<br><br>
CYTR 250300Z 16003KT 7SM -DZ BKN006 OVC022 05/05 A2969 RMK SF6SC2 SLP059<br><br>
TAF AMD CYTR 250203Z 2502/2524 16005KT 2SM -RA BR OVC006 TEMPO 2502/2506 6SM -RA BR SCT006 OVC012 FM250600 18008KT 6SM BR SCT006 OVC012 TEMPO 2506/2511 2SM -RA -DZ BR OVC006 FM251100 24010KT 5SM -DZ BR OVC015 TEMPO 2511/2515 P6SM NSW SCT015 OVC025 FM251500 25010G20KT P6SM SCT015 BKN025 TEMPO 2515/2518 BKN015 OVC025 FM251800 24008G18KT P6SM BKN025 BECMG 2522/2524 24005KT RMK NXT FCST BY 250600Z<br><br>
<br><br>
