RETRIEVED AT : Mar 01 2020 06:05 Local <br>
  RETRIEVED AT: Mar 01 2020 11:05 UTC<br><br>
CYSN has no TAF <br><br>
<br><br>
CYHM 011000Z 26005KT 15SM FEW025 M10/M12 A3010 RMK SC1 SC TR SLP210<br><br>
TAF CYHM 010538Z 0106/0206 25006KT P6SM SKC FM011500 23008KT P6SM SCT090 FM011800 20012KT P6SM BKN100 BKN170 BECMG 0118/0120 19012G22KT FM020000 19010KT P6SM BKN120 BKN200 RMK NXT FCST BY 011200Z<br><br>
<br><br>
KIAG 011053Z AUTO 26003KT 10SM CLR M15/M18 A3012 RMK AO2 SLP226 I1000 T11501178<br><br>
KIAG 010953Z AUTO 00000KT 10SM CLR M16/M17 A3010 RMK AO2 SLP219 I1000 T11561172<br><br>
KIAG 010924Z 0109/0206 25003KT P6SM SKC FM011400 22006KT P6SM FEW250 FM012000 19009KT P6SM SCT150 FM020000 16009KT P6SM OVC080 FM020400 19011KT P6SM OVC090 WS020/23040KT<br><br>
<br><br>
KBUF 011054Z 27008KT 10SM FEW026 M06/M10 A3012 RMK AO2 SLP212 T10561100 $<br><br>
KBUF 010954Z 00000KT 10SM FEW023 M10/M13 A3010 RMK AO2 SLP207 T11001128 $<br><br>
KBUF 010924Z 0109/0206 25006KT P6SM FEW040 FM011600 23009KT P6SM FEW250 FM012000 19007KT P6SM SCT150 FM020000 16009KT P6SM OVC080 FM020400 20013KT P6SM OVC060 WS020/23040KT<br><br>
<br><br>
CYYZ 011000Z VRB03KT 15SM FEW030 M09/M12 A3010 RMK SC1 SC TR SLP205<br><br>
TAF CYYZ 010838Z 0109/0212 23005KT P6SM SKC FM011500 22008KT P6SM FEW090 BECMG 0116/0118 18010KT FM012000 17010G20KT P6SM BKN090 BECMG 0123/0201 16008KT FM020500 17008KT P6SM FEW040 BKN200 FM021000 20010KT P6SM OVC015 RMK NXT FCST BY 011200Z<br><br>
<br><br>
CYOO 011000Z AUTO VRB02KT 9SM OVC044 M14/M16 A3009 RMK SLP202<br><br>
TAF CYOO 010738Z 0108/0120 VRB03KT P6SM SCT040 FM011600 21008KT P6SM SCT090 RMK FCST BASED ON AUTO OBS. NXT FCST BY 011400Z<br><br>
<br><br>
CYTR 011000Z 35002KT 15SM FEW040 M17/M20 A3010 RMK SC1 FROIN SLP202<br><br>
TAF CYTR 010530Z 0106/0206 VRB03KT P6SM FEW120 FM011600 25008KT P6SM FEW040 FM012100 23008KT P6SM SCT060 BKN080 BECMG 0123/0201 16007KT RMK NXT FCST BY 011200Z<br><br>
<br><br>
