RETRIEVED AT : May 25 2020 01:05 Local <br>
  RETRIEVED AT: May 25 2020 05:05 UTC<br><br>
CYSN has no TAF <br><br>
<br><br>
CYHM 250400Z 19005KT 15SM FEW046 BKN078 19/16 A2996 RMK SC3AC4 SLP145 DENSITY ALT 1500FT<br><br>
TAF CYHM 242338Z 2500/2524 20012G22KT P6SM SCT040 TEMPO 2500/2503 P6SM -SHRA VCTS SCT030CB BKN040 FM250300 22010KT P6SM BKN040 FM251600 22012KT P6SM SCT040 RMK NXT FCST BY 250600Z<br><br>
<br><br>
KIAG 250453Z AUTO 20013KT 10SM CLR 21/16 A2997 RMK AO2 SLP144 T02110156 402830156 $<br><br>
KIAG 250353Z AUTO 19012KT 10SM CLR 22/16 A2997 RMK AO2 SLP143 T02220156 $<br><br>
KIAG 250255Z 2503/2524 19010KT P6SM SCT120 FM250600 20012KT P6SM VCSH BKN080 FM250900 20012KT P6SM SCT100 FM251100 20011KT P6SM BKN120<br><br>
<br><br>
KBUF 250454Z 18011KT 10SM FEW080 SCT180 22/16 A2999 RMK AO2 SLP152 T02170156 402940172<br><br>
KBUF 250354Z 18013G20KT 10SM FEW080 FEW180 SCT250 22/16 A2999 RMK AO2 SLP151 T02220156<br><br>
KBUF 250255Z 2503/2524 18007KT P6SM SCT150 FM250600 20011KT P6SM VCSH BKN080 FM251100 20011KT P6SM BKN080 FM251400 22010G16KT P6SM SCT250 FM251600 23011KT P6SM SCT250<br><br>
<br><br>
CYYZ 250400Z 17004KT 15SM SCT060 BKN100 19/14 A2993 RMK SC4AC3 SLP137 DENSITY ALT 1200FT<br><br>
TAF CYYZ 250247Z 2503/2606 14005KT P6SM FEW050 BKN100 TEMPO 2503/2505 P6SM -SHRA VCTS SCT030CB BKN050 FM250500 18010KT P6SM BKN030 FM250900 16010KT P6SM FEW030 BECMG 2510/2512 24012KT FM252000 17010KT P6SM VCTS SCT030CB BKN050 FM260200 22008KT P6SM FEW060 RMK NXT FCST BY 250600Z<br><br>
<br><br>
CYOO 250451Z AUTO 32007KT 310V080 9SM -TSRA SCT055 BKN069 OVC085 19/17 A2996 RMK LTNG DIST N NE PRESRR SLP145 DENSITY ALT 1000FT<br><br>
CYOO 250443Z AUTO 07003KT 9SM TS SCT055 OVC068 19/16 A2993 RMK LTNG DIST N NE SLP136 DENSITY ALT 900FT<br><br>
CYOO 250438Z AUTO 08003KT 9SM VCTS FEW055 BKN069 OVC090 19/16 A2993 RMK LTNG DIST N SLP136 DENSITY ALT 900FT<br><br>
CYOO 250431Z AUTO 09005KT 060V160 9SM BKN070 OVC088 19/16 A2993 RMK LTNG DIST NE SLP136 DENSITY ALT 900FT<br><br>
CYOO 250412Z AUTO 03004KT 320V050 8SM -RA BKN075 OVC093 20/15 A2994 RMK SLP140 DENSITY ALT 1000FT<br><br>
CYOO 250400Z AUTO 35003KT 350V090 9SM BKN075 OVC092 20/15 A2995 RMK SLP142 DENSITY ALT 1000FT<br><br>
TAF AMD CYOO 250455Z 2504/2514 VRB03KT P6SM SCT080 BKN120 TEMPO 2504/2507 VRB15G25KT 4SM TSRA BKN030 OVC060CB FM250700 VRB03KT P6SM FEW020 SCT080 RMK FCST BASED ON AUTO OBS. NXT FCST BY 250800Z<br><br>
<br><br>
CYTR 250452Z 20003KT 15SM FEW031 OVC085 20/13 A2998 RMK SC2AC6 CB EMBD DIST W AND NE MOVG E OCNL LTGCG SLP150<br><br>
CYTR 250422Z 14005KT 12SM -TSRA FEW027 BKN045 OVC085 20/13 A2997 RMK SC2SC5AC2 CB EMBD NE MOVG E OCNL LTGICCCCG SLP151<br><br>
CYTR 250400Z 19005KT 15SM -SHRA FEW030 SCT048 OVC087 21/13 A2998 RMK SC1SC4AC4 PCPN VRY LGT SLP154<br><br>
TAF AMD CYTR 250436Z 2504/2524 16005KT P6SM -SHRA FEW020 BKN040 OVC080 TEMPO 2504/2507 VRB15G25KT 2SM TSRA BR SCT020 OVC040CB FM250700 20005KT 3SM -SHRA BR SCT006 BKN012 OVC025 TEMPO 2507/2509 P6SM NSW FEW006 SCT012 OVC025 PROB30 2507/2508 VRB15G25KT 2SM TSRA BR SCT006 OVC012CB FM250900 20005KT 2SM -DZ BR BKN006 OVC010 TEMPO 2509/2515 6SM BR SCT006 BKN010 OVC020 PROB30 2509/2513 1SM -DZ BR OVC004 FM251500 20005KT 6SM BR SCT008 OVC012 FM251700 20005KT P6SM BKN015 BECMG 2517/2519 22010KT FEW015 FM252000 22010KT P6SM FEW040 RMK NXT FCST BY 250600Z<br><br>
<br><br>
