RETRIEVED AT : Dec 04 2017 17:10 Local <br>
  RETRIEVED AT: Dec 04 2017 22:10 UTC<br><br>
CYSN 042200Z 14004KT 15SM OVC110 10/01 A3004 RMK AC8 SLP177<br><br>
CYSN 042100Z 14005KT 15SM OVC110 10/01 A3005 RMK AC8 SLP181<br><br>
TAF CYSN 041938Z 0420/0502 16012KT P6SM BKN160 OVC220 RMK NXT FCST WILL BE ISSUED AT 051345Z<br><br>
<br><br>
TAF CYHM 041740Z 0418/0518 13010KT P6SM SCT150 OVC230 FM042100 14012KT P6SM BKN100 OVC150 BECMG 0501/0503 18015KT FM050700 18018G28KT P6SM -SHRA BKN030 OVC080 FM050900 19018G28KT P6SM -RA OVC020 FM051200 19022G32KT 4SM -RA BR OVC007 FM051600 23022G40KT P6SM OVC012 BECMG 0516/0518 BKN020 RMK NXT FCST BY 050000Z<br><br>
<br><br>
KIAG 042153Z 12006KT 10SM OVC100 09/M01 A3004 RMK AO2 SLP186 T00941006<br><br>
KIAG 042053Z 13005KT 10SM OVC110 11/M01 A3006 RMK AO2 SLP191 T01061011 56029<br><br>
KIAG 041739Z 0418/0518 15005KT P6SM SKC FM050200 17016G22KT P6SM OVC100 FM050900 18020G26KT 6SM -RA OVC080 WS020/19050KT FM051100 19021G28KT 6SM -RA OVC045 WS020/19050KT FM051300 19020G28KT 6SM -RA OVC025<br><br>
<br><br>
KBUF 041739Z 0418/0518 14010KT P6SM BKN170 BKN250 FM050200 17017G25KT P6SM OVC100 WS020/19045KT FM050900 18020G29KT 6SM -RA OVC060 WS020/19050KT FM051300 19020G29KT 6SM -RA OVC035<br><br>
<br><br>
TAF CYYZ 042038Z 0421/0524 12010KT P6SM OVC110 FM050500 17012KT P6SM -SHRA OVC040 FM050900 18012G22KT P6SM -RA OVC020 FM051200 18015G25KT 5SM -RA BR OVC012 FM051600 21020G30KT P6SM BKN007 OVC015 FM051800 23022G40KT P6SM BKN020 BECMG 0519/0521 23020G30KT RMK NXT FCST BY 050000Z<br><br>
<br><br>
CYOO 042200Z AUTO 10009G17KT 9SM OVC100 07/03 A3008 RMK SLP191<br><br>
CYOO 042100Z AUTO 10011G16KT 9SM OVC120 06/03 A3010 RMK SLP199<br><br>
CYOO has no TAF <br><br>
<br><br>
CYTR 042200Z 11003KT 10SM BKN120 OVC220 07/03 A3014 RMK AC7CI1 HAZY SLP209<br><br>
CYTR 042100Z 10005KT 7SM SCT150 OVC220 07/03 A3016 RMK AS4CI4 HAZY SLP218<br><br>
TAF CYTR 041730Z 0418/0518 14008KT P6SM SCT010 BKN200 TEMPO 0418/0420 4SM BR BKN010 OVC200 FM042200 16012KT P6SM OVC100 TEMPO 0508/0510 P6SM -SHRA BKN030 OVC100 FM051000 16015KT P6SM -RA SCT015 OVC025 TEMPO 0510/0518 3SM -RA BR SCT008 OVC015 RMK NXT FCST BY 050000Z<br><br>
<br><br>
