RETRIEVED AT : May 30 2020 18:05 Local <br>
  RETRIEVED AT: May 30 2020 22:05 UTC<br><br>
CYSN 302100Z 29014G20KT 15SM BKN059 15/11 A3001 RMK SC7 SLP165 DENSITY ALT 400FT<br><br>
TAF CYSN 301938Z 3020/3101 29015G25KT P6SM SCT040 TEMPO 3020/3101 BKN040 RMK NXT FCST WILL BE ISSUED AT 311245Z<br><br>
<br><br>
CYHM 302100Z 29012G20KT 15SM BKN029 14/08 A3004 RMK CU6 SLP177 DENSITY ALT 800FT<br><br>
TAF AMD CYHM 302012Z 3020/3118 28012G22KT P6SM SCT020 BKN040 TEMPO 3020/3101 BKN020 FM310100 32010KT P6SM FEW040 FM311200 35008KT P6SM SCT020 RMK NXT FCST BY 310000Z<br><br>
<br><br>
KIAG 302153Z 30017G23KT 10SM SCT039 BKN050 OVC065 14/08 A3003 RMK AO2 PK WND 28027/2056 SLP172 T01440083<br><br>
KIAG 302053Z 30020G25KT 10SM BKN065 OVC075 15/09 A3000 RMK AO2 PK WND 29028/2006 SLP163 T01500094 53025<br><br>
KIAG 302104Z 3021/3118 30020G25KT P6SM BKN070 OVC080 FM302300 31010KT P6SM SCT050 FM310400 33005KT P6SM SCT040 FM311400 34010G16KT P6SM SKC<br><br>
<br><br>
KBUF 302154Z 29016G25KT 10SM BKN027 BKN040 OVC060 13/09 A3002 RMK AO2 SLP168 T01330089 $<br><br>
KBUF 302054Z 28014G24KT 10SM FEW034 BKN044 OVC055 15/09 A3000 RMK AO2 SLP158 T01500089 53016 $<br><br>
KBUF 302104Z 3021/3118 28014G24KT P6SM BKN045 OVC060 FM302300 30010KT P6SM SCT050 FM310400 32005KT P6SM SCT040 FM311500 34010G16KT P6SM SKC<br><br>
<br><br>
CYYZ 302100Z 31020G26KT 15SM FEW038 BKN048 16/07 A3000 RMK CU2SC4 SLP163 DENSITY ALT 800FT<br><br>
TAF CYYZ 302038Z 3021/3124 30020G30KT P6SM SCT030 BKN050 TEMPO 3021/3102 BKN030 BECMG 3022/3024 32015G25KT FM310200 34012KT P6SM SCT040 BECMG 3102/3104 34006KT FM310700 34010KT P6SM BKN030 FM311100 34012KT P6SM FEW030 FM311900 31015KT P6SM BKN060 RMK NXT FCST BY 310000Z<br><br>
<br><br>
CYOO 302100Z AUTO 32014G21KT 9SM BKN028 14/09 A2998 RMK SLP155<br><br>
TAF CYOO 301938Z 3020/3108 29018G28KT P6SM BKN050 BECMG 3101/3103 33007KT RMK FCST BASED ON AUTO OBS. NXT FCST BY 310200Z<br><br>
<br><br>
CYTR 302100Z 28013KT 15SM SCT030 BKN080 BKN200 17/12 A2989 RMK SC3AC2CI1 CVCTV CLD EMBD N-NE SLP124<br><br>
CYTR 302024Z 27009KT 15SM SCT032 BKN080 16/10 A2989 RMK SC4AC3 CVCTV CLD EMBD N SLP123<br><br>
TAF CYTR 301730Z 3018/3118 21010KT P6SM FEW020 SCT040 OVC070 TEMPO 3018/3021 5SM -SHRA BR BKN020 OVC040 BECMG 3019/3021 26012G22KT FM302100 26012G22KT P6SM SCT025 BKN050 BECMG 3100/3102 33008KT FEW050 FM310600 VRB03KT P6SM FEW020 SCT070 FM311200 34008KT P6SM SKC FM311600 30010KT P6SM FEW070 RMK NXT FCST BY 310000Z<br><br>
<br><br>
