RETRIEVED AT : Mar 08 2020 00:05 Local <br>
  RETRIEVED AT: Mar 08 2020 05:05 UTC<br><br>
CYSN has no TAF <br><br>
<br><br>
CYHM 080400Z 22012KT 15SM FEW140 BKN230 M02/M05 A3036 RMK AC2CI4 SLP294<br><br>
TAF CYHM 072347Z 0800/0824 23007KT P6SM FEW120 FM081200 22010KT P6SM SKC BECMG 0814/0816 23015G25KT RMK NXT FCST BY 080600Z<br><br>
<br><br>
KIAG 080453Z AUTO 21008KT 10SM CLR M01/M04 A3038 RMK AO2 SLP305 T10111044 400171056<br><br>
KIAG 080353Z 21009KT 10SM CLR M02/M04 A3039 RMK AO2 SLP308 T10171044<br><br>
KIAG 080237Z 0803/0824 22014KT P6SM SCT250 FM080900 22010G18KT P6SM FEW200 FM081500 23016G35KT P6SM FEW250 FM082300 22015G29KT P6SM FEW250<br><br>
<br><br>
KBUF 080454Z 21007KT 10SM SCT150 M01/M07 A3039 RMK AO2 SLP302 T10111067 400111044<br><br>
KBUF 080354Z 21009KT 10SM FEW150 M01/M06 A3040 RMK AO2 SLP305 T10061056<br><br>
KBUF 080237Z 0803/0824 23014KT P6SM FEW250 FM080800 22010G20KT P6SM FEW250 FM081500 23016G35KT P6SM FEW250 FM082300 22013G24KT P6SM FEW250<br><br>
<br><br>
CYYZ 080400Z 16011KT 15SM SCT160 M00/M05 A3036 RMK AS3 SLP291<br><br>
TAF CYYZ 080238Z 0803/0906 19010KT P6SM FEW130 SCT250 FM081200 25010G20KT P6SM SKC FM081800 22012G25KT P6SM SKC FM090000 24012G22KT P6SM BKN150 RMK NXT FCST BY 080600Z<br><br>
<br><br>
CYOO 080400Z AUTO 21005KT 9SM BKN150 BKN170 00/M02 A3037 RMK SLP291<br><br>
TAF CYOO 080138Z 0802/0814 23005KT P6SM FEW150 BKN180 FM080600 24008KT P6SM SCT090 BKN140 RMK FCST BASED ON AUTO OBS. NXT FCST BY 080800Z<br><br>
<br><br>
CYTR 080400Z 23008KT 15SM BKN086 01/M02 A3037 RMK AC7 SLP291<br><br>
TAF CYTR 072330Z 0800/0824 23010KT P6SM FEW130 SCT210 FM080300 26008KT P6SM SCT100 FM080800 26008KT P6SM SCT240 BECMG 0817/0819 24012G22KT SKC RMK NXT FCST BY 080600Z<br><br>
<br><br>
