RETRIEVED AT : Oct 09 2017 22:10 Local <br>
  RETRIEVED AT: Oct 10 2017 02:10 UTC<br><br>
CYSN 100100Z 21009KT 15SM FEW060 18/17 A2995 RMK SC1 SC TR LAST STFD OBS/NEXT 101115 UTC SLP145 DENSITY ALT 800FT<br><br>
CYSN has no TAF <br><br>
<br><br>
CYHM 100200Z 22005KT 15SM FEW042 16/16 A3000 RMK SC2 SLP160 DENSITY ALT 1000FT<br><br>
CYHM 100100Z 22005KT 15SM FEW036 SCT050 16/16 A2998 RMK SC2SC1 SLP153 DENSITY ALT 1000FT<br><br>
TAF CYHM 092338Z 1000/1024 20005KT P6SM BKN050 FM100100 VRB03KT P6SM FEW030 FM101600 33007KT P6SM SCT040 SCT150 RMK NXT FCST BY 100600Z<br><br>
<br><br>
KIAG 100153Z 21007KT 6SM HZ SCT007 19/16 A2999 RMK AO2 SLP155 T01890161<br><br>
KIAG 100136Z 22008KT 6SM HZ SCT007 19/16 A2998 RMK AO2 T01890161<br><br>
KIAG 100113Z 22008KT 7SM BKN007 BKN055 19/17 A2998 RMK AO2 T01890167<br><br>
KIAG 100053Z 21006KT 8SM SCT006 OVC055 19/16 A2997 RMK AO2 SLP150 T01890161<br><br>
KIAG 100035Z 20008KT 8SM SCT007 BKN055 19/16 A2997 RMK AO2 T01890161<br><br>
KIAG 092320Z 1000/1024 VRB03KT P6SM OVC015 FM100200 22005KT P6SM BKN060 FM100400 23004KT P6SM SCT110 FM100700 VRB03KT P6SM FEW250 FM101500 30004KT P6SM FEW250 FM102300 35005KT P6SM SCT200<br><br>
<br><br>
KBUF 100154Z 21008KT 8SM BKN006 OVC009 18/17 A3000 RMK AO2 DZE14 SLP159 P0000 T01830172 $<br><br>
KBUF 100054Z 23007KT 8SM -DZ BKN005 OVC008 18/17 A2998 RMK AO2 SLP152 P0000 T01780172 $<br><br>
KBUF 100014Z 21006KT 5SM -DZ BR SCT003 OVC009 18/17 A2997 RMK AO2 P0000 T01780172 $<br><br>
KBUF 092320Z 1000/1024 25005KT P6SM OVC012 FM100400 23005KT P6SM SCT012 FM100800 VRB03KT P6SM FEW250 FM101500 28004KT P6SM FEW250 FM102300 36004KT P6SM SCT200<br><br>
<br><br>
CYYZ 100200Z 32002KT 15SM FEW035 16/15 A2998 RMK SC1 SC TR SLP153 DENSITY ALT 900FT<br><br>
CYYZ 100100Z 06002KT 15SM FEW040 17/15 A2995 RMK SC1 SC TR SLP144 DENSITY ALT 900FT<br><br>
TAF CYYZ 092338Z 1000/1106 VRB03KT P6SM FEW040 BECMG 1003/1005 30005KT FM101600 35010KT P6SM FEW040 FM102300 36015KT P6SM SCT040 SCT150 RMK NXT FCST BY 100300Z<br><br>
<br><br>
CYOO 100200Z AUTO 00000KT 9SM CLR 14/13 A2997 RMK SLP153<br><br>
CYOO 100100Z AUTO 00000KT 9SM CLR 15/14 A2996 RMK SLP148<br><br>
CYOO has no TAF <br><br>
<br><br>
CYTR 100200Z 22006KT 15SM FEW027 17/16 A2996 RMK SC1 SLP148<br><br>
CYTR 100100Z 00000KT 15SM SKC 17/16 A2994 RMK SLP139<br><br>
TAF CYTR 092330Z 1000/1024 VRB03KT P6SM SCT030 PROB30 1006/1013 2SM BR BKN008 FM101500 VRB03KT P6SM SCT030 BKN250 BECMG 1016/1018 22010KT RMK NXT FCST BY 100600Z<br><br>
<br><br>
