RETRIEVED AT : Sep 09 2018 21:05 Local <br>
  RETRIEVED AT: Sep 10 2018 01:05 UTC<br><br>
CYSN 100000Z 08012KT 15SM SCT060 BKN180 14/08 A3016 RMK SC3AC4 SLP215<br><br>
TAF CYSN 091943Z 0920/1001 08012G22KT P6SM FEW025 OVC250 FM092200 09015G25KT P6SM SCT030 OVC100 TEMPO 0922/1001 P6SM -RA RMK NXT FCST WILL BE ISSUED AT 101245Z<br><br>
<br><br>
CYHM 100000Z 07021G29KT 15SM FEW025 BKN045 BKN180 14/08 A3015 RMK SC1SC7AC1 SC TR AC TR SLP214<br><br>
TAF CYHM 092338Z 1000/1024 06020G30KT P6SM BKN040 OVC100 FM100400 07015G25KT P6SM -RA BKN025 OVC040 TEMPO 1004/1006 5SM -RA BR BKN008 OVC015 FM100600 07015G25KT 2SM -RA BR OVC004 PROB30 1008/1012 1/4SM SHRA FG VV001 FM101200 08015G25KT 3SM -DZ BR OVC005 BECMG 1016/1018 10010G20KT FM102000 11010G20KT P6SM OVC010 BECMG 1022/1024 12008KT RMK NXT FCST BY 100600Z<br><br>
<br><br>
KIAG 100053Z 08013KT 10SM BKN060 13/07 A3018 RMK AO2 SLP225 T01280072<br><br>
KIAG 092353Z 08013KT 10SM SCT075 13/07 A3017 RMK AO2 SLP221 T01280072 10150 20128 58000<br><br>
KIAG 092339Z 1000/1024 09011KT P6SM BKN060 FM100600 10014G21KT 4SM RA OVC040 FM100800 09016G24KT 2SM +RA OVC015 FM101100 10017G25KT 4SM RA OVC015 FM101300 10016G24KT 6SM -RA OVC015 FM101500 10015G22KT P6SM OVC015 FM102300 16007KT P6SM BKN020<br><br>
<br><br>
KBUF 100054Z 07009KT 10SM SCT055 SCT075 OVC160 13/08 A3018 RMK AO2 SLP222 T01280083<br><br>
KBUF 092354Z 07013KT 10SM BKN055 BKN065 OVC160 13/08 A3017 RMK AO2 SLP218 T01330078 10156 20133 58002<br><br>
KBUF 092339Z 1000/1024 08010KT P6SM BKN050 FM100600 09013G19KT 2SM +RA OVC020 FM101100 10015G23KT 4SM RA OVC012 FM101300 10014G21KT 6SM -RA OVC012 FM101500 10013G19KT P6SM OVC015 FM102200 15007KT P6SM BKN020<br><br>
<br><br>
CYYZ 100000Z 07009KT 15SM FEW035 BKN240 14/04 A3019 RMK CF1CI7 CF TR SLP228<br><br>
TAF CYYZ 092338Z 1000/1106 07010G20KT P6SM BKN030 OVC200 FM100300 09012G22KT P6SM BKN030 OVC100 FM100700 10012G22KT P6SM -RA BKN030 OVC070 TEMPO 1007/1009 5SM -RA BR BKN020 OVC080 FM100900 10018G28KT 5SM -RA BR OVC008 PROB40 1009/1014 2SM -RA BR BKN003 OVC008 FM101400 10018G28KT 5SM -DZ -RA BR OVC006 PROB30 1014/1020 BKN003 FM102000 10012G22KT 5SM -DZ BR OVC006 PROB30 1020/1023 BKN003 FM102300 09010KT 6SM BR OVC008 FM110200 10008KT P6SM OVC010 RMK NXT FCST BY 100300Z<br><br>
<br><br>
CYOO 100000Z AUTO 05007KT 9SM SCT240 13/05 A3022 RMK SLP238<br><br>
CYOO has no TAF <br><br>
<br><br>
CYTR 100000Z 06006KT 15SM FEW040 BKN120 OVC200 13/04 A3025 RMK SC1AS6CI2 SLP247<br><br>
TAF CYTR 092330Z 1000/1024 06005KT P6SM FEW040 BKN120 FM101000 12010KT P6SM -RA SCT012 BKN025 OVC060 TEMPO 1010/1013 3SM -SHRA BR BKN012 OVC025 FM101300 12015KT 5SM -RA BR SCT006 BKN012 OVC025 TEMPO 1013/1024 2SM RA BR BKN006 OVC012 RMK NXT FCST BY 100600Z<br><br>
<br><br>
