RETRIEVED AT : May 30 2020 22:05 Local <br>
  RETRIEVED AT: May 31 2020 02:05 UTC<br><br>
CYSN 310100Z 26003KT 15SM BKN050 13/10 A3007 RMK SC5 SLP185<br><br>
CYSN has no TAF <br><br>
<br><br>
CYHM 310100Z 32006KT 15SM FEW040 SCT068 BKN088 12/03 A3009 RMK CU1AC4AC2 CU TR SLP193<br><br>
TAF CYHM 302338Z 3100/3124 33012G22KT P6SM FEW050 TEMPO 3101/3106 P6SM -SHRA BKN040 BECMG 3102/3104 31008KT FM311200 34010KT P6SM FEW020 BECMG 3116/3118 29012KT RMK NXT FCST BY 310600Z<br><br>
<br><br>
KIAG 310153Z 36005KT 10SM SCT049 SCT060 OVC090 12/06 A3009 RMK AO2 SLP194 T01220061<br><br>
KIAG 310053Z 32003KT 10SM BKN075 13/08 A3008 RMK AO2 SLP187 T01280078<br><br>
KIAG 302329Z 3100/3124 30013KT P6SM SCT050 FM311500 34010G16KT P6SM FEW250 FM311700 31009KT P6SM FEW250 FM312000 28010KT P6SM SCT100<br><br>
<br><br>
KBUF 310154Z 33005KT 10SM FEW047 SCT060 BKN075 12/08 A3010 RMK AO2 SLP192 T01170078 $<br><br>
KBUF 310054Z 30005KT 10SM FEW032 SCT040 12/07 A3008 RMK AO2 SLP187 T01170067 $<br><br>
KBUF 310030Z 3101/3124 31010KT P6SM SCT040 FM310300 31004KT P6SM SCT070 FM311500 34010G16KT P6SM FEW250 FM311900 30011KT P6SM FEW250<br><br>
<br><br>
CYYZ 310100Z 35010KT 15SM FEW055 12/06 A3008 RMK SC2 SLP188<br><br>
TAF CYYZ 302338Z 3100/0106 34015G25KT P6SM SCT050 TEMPO 3100/3104 BKN050 BECMG 3100/3102 34012KT FM310400 34010KT P6SM SCT040 FM310700 34010KT P6SM BKN030 FM311100 34012KT P6SM FEW030 FM311900 31015G25KT P6SM BKN060 RMK NXT FCST BY 310300Z<br><br>
<br><br>
CYOO 310100Z AUTO 32007KT 9SM CLR 12/05 A3006 RMK SLP184<br><br>
TAF CYOO 310138Z 3102/3114 31008KT P6SM FEW020 TEMPO 3109/3112 BKN020 FM311200 34010G20KT P6SM FEW050 RMK FCST BASED ON AUTO OBS. NXT FCST BY 310800Z<br><br>
<br><br>
CYTR 310100Z 32008KT 15SM FEW028 13/05 A3002 RMK SC1 SLP167<br><br>
TAF CYTR 302330Z 3100/3124 30012G22KT P6SM FEW025 SCT080 BECMG 3100/3102 33008KT FEW080 FM310600 VRB03KT P6SM FEW020 SCT070 FM311200 34008KT P6SM SKC FM311600 30010KT P6SM FEW070 BECMG 3116/3118 30010G20KT RMK NXT FCST BY 310600Z<br><br>
<br><br>
