RETRIEVED AT : Mar 16 2020 01:05 Local <br>
  RETRIEVED AT: Mar 16 2020 05:05 UTC<br><br>
CYSN has no TAF <br><br>
<br><br>
CYHM 160400Z 06005KT 15SM FEW250 M04/M10 A3058 RMK CI1 CI TR SLP369<br><br>
TAF CYHM 152338Z 1600/1624 05010G20KT P6SM FEW240 BECMG 1600/1601 05010KT FM162100 06006KT P6SM SCT030 BKN150 RMK NXT FCST BY 160600Z<br><br>
<br><br>
KIAG 160453Z AUTO 08004KT 10SM CLR M04/M11 A3058 RMK AO2 SLP373 T10391106 400281044<br><br>
KIAG 160353Z AUTO 07004KT 10SM CLR M04/M10 A3060 RMK AO2 SLP379 T10391100<br><br>
KIAG 160258Z 1603/1624 08005KT P6SM SKC FM161500 13005KT P6SM SCT250 FM162000 20005KT P6SM SCT080 BKN250<br><br>
<br><br>
KBUF 160454Z 08006KT 10SM CLR M02/M12 A3058 RMK AO2 SLP364 T10221117 400391033<br><br>
KBUF 160354Z 07005KT 10SM CLR M02/M11 A3059 RMK AO2 SLP370 T10221111<br><br>
KBUF 160250Z 1603/1624 08004KT P6SM SKC FM161400 13006KT P6SM SCT250 FM161800 21006KT P6SM BKN250<br><br>
<br><br>
CYYZ 160400Z 04007KT 15SM SKC M03/M10 A3061 RMK SLP376<br><br>
TAF CYYZ 160240Z 1603/1706 03009KT P6SM SKC FM161100 10006KT P6SM SKC BECMG 1612/1614 11010G20KT BECMG 1623/1624 09008KT FM170200 05006KT P6SM -SHRA OVC020 FM170500 24008KT 3SM -SHRA BR BKN008 OVC015 RMK NXT FCST BY 160600Z<br><br>
<br><br>
CYOO 160400Z AUTO 36003KT 9SM CLR M04/M10 A3061 RMK SLP374<br><br>
TAF CYOO 160144Z 1602/1614 VRB03KT P6SM SKC BECMG 1604/1606 04008KT FM161200 07009KT P6SM FEW020 BECMG 1612/1614 11012KT RMK FCST BASED ON AUTO OBS. NXT FCST BY 160800Z<br><br>
<br><br>
CYTR 160400Z 08004KT 15SM SKC M03/M16 A3066 RMK SLP389<br><br>
TAF CYTR 152330Z 1600/1624 06007KT P6SM SKC BECMG 1614/1616 10008KT FM161800 10008KT P6SM BKN240 RMK NXT FCST BY 160600Z<br><br>
<br><br>
