RETRIEVED AT : Oct 29 2018 05:05 Local <br>
  RETRIEVED AT: Oct 29 2018 09:05 UTC<br><br>
CYSN has no TAF <br><br>
<br><br>
CYHM 290800Z 29003KT 15SM FEW032 OVC080 04/03 A2970 RMK SC2AC6 SLP066<br><br>
TAF CYHM 290538Z 2906/3006 31006KT P6SM SCT015 OVC030 TEMPO 2906/2911 5SM -DZ -RA BR OVC015 FM291100 27010KT P6SM SCT020 BKN030 TEMPO 2911/2917 P6SM -SHRA OVC020 BECMG 2913/2915 27010G20KT FM291700 27015G30KT P6SM BKN025 OVC090 FM292100 29015G30KT P6SM FEW030 SCT100 BECMG 2923/3001 28012KT BECMG 3004/3006 28008KT RMK NXT FCST BY 291200Z<br><br>
<br><br>
KIAG 290853Z AUTO 31010KT 10SM -RA FEW009 SCT044 OVC050 04/03 A2970 RMK AO2 SLP068 P0001 60006 T00440028 53018<br><br>
KIAG 290843Z AUTO 31009KT 10SM -RA SCT009 BKN047 OVC060 04/03 A2970 RMK AO2 P0001 T00440028<br><br>
KIAG 290826Z AUTO 31015KT 10SM -RA BKN008 BKN011 OVC018 04/03 A2969 RMK AO2 CIG 005V009 P0001 T00440028<br><br>
KIAG 290815Z AUTO 31016G21KT 7SM -RA SCT006 BKN010 OVC017 05/03 A2969 RMK AO2 P0000 T00500033<br><br>
KIAG 290807Z AUTO 31011KT 5SM -RA BR BKN008 BKN013 OVC018 06/04 A2968 RMK AO2 CIG 005V010 P0000 T00560039<br><br>
KIAG 290753Z AUTO 30008KT 5SM -RA BR SCT008 BKN016 OVC021 06/04 A2968 RMK AO2 SLP059 P0004 T00560044<br><br>
KIAG 290734Z AUTO 30009KT 5SM -RA BR FEW008 BKN017 OVC038 06/04 A2967 RMK AO2 P0003 T00560044<br><br>
KIAG 290718Z AUTO 30007KT 5SM -RA BR FEW011 BKN017 OVC038 06/04 A2967 RMK AO2 P0002 T00560044<br><br>
KIAG 290712Z AUTO 30006KT 5SM -RA BR FEW017 OVC038 06/04 A2967 RMK AO2 P0001 T00560044<br><br>
KIAG 290848Z 2909/3006 32005KT 6SM -RA OVC007 FM291000 30007KT 6SM -SHRA OVC015 FM291500 27014G21KT 6SM -SHRA OVC020 FM292200 28017G24KT P6SM BKN035 FM300300 29010KT P6SM SCT080<br><br>
<br><br>
KBUF 290854Z 28011KT 6SM -RA BR BKN008 OVC021 05/04 A2969 RMK AO2 SLP060 P0003 60004 T00500044 51012<br><br>
KBUF 290830Z 29007KT 5SM -RA BR BKN008 BKN021 OVC039 05/04 A2969 RMK AO2 P0002 T00500044<br><br>
KBUF 290812Z 30007KT 7SM -RA FEW009 SCT036 OVC043 06/05 A2968 RMK AO2 P0001 T00560050<br><br>
KBUF 290754Z 31008KT 9SM -RA FEW027 FEW035 OVC048 06/04 A2967 RMK AO2 RAB13 SLP052 P0001 T00560044<br><br>
KBUF 290725Z 31007KT 10SM -RA SCT014 BKN050 OVC070 06/05 A2967 RMK AO2 RAB13 P0000 T00560050<br><br>
KBUF 290848Z 2909/3006 VRB03KT 4SM -RA BR OVC007 FM291100 29006KT 6SM -SHRA OVC012 FM291500 27014G22KT P6SM -SHRA OVC012 FM292200 28015G25KT P6SM OVC035 FM300300 28009KT P6SM SCT060<br><br>
<br><br>
CYYZ 290800Z 28007KT 15SM SCT026 BKN060 OVC078 04/02 A2969 RMK SC4SC1AC3 SLP059<br><br>
TAF CYYZ 290839Z 2909/3012 28008KT P6SM BKN025 OVC060 TEMPO 2909/2913 P6SM -RA -DZ OVC015 FM291300 25008KT P6SM SCT015 OVC050 TEMPO 2913/2915 P6SM -SHRASN BKN015 OVC050 FM291500 29010G20KT P6SM SCT015 OVC050 TEMPO 2915/2917 P6SM -SHRA BKN015 OVC030 FM291700 29015G25KT P6SM BKN030 OVC100 FM292100 29015G25KT P6SM FEW030 SCT100 BECMG 3000/3002 29012KT RMK NXT FCST BY 291200Z<br><br>
<br><br>
CYOO 290800Z AUTO 28006KT 9SM OVC070 04/04 A2967 RMK SLP053<br><br>
CYOO 290736Z AUTO 28006KT 9SM FEW012 SCT019 OVC070 04/04 A2967 RMK SLP053<br><br>
CYOO 290714Z AUTO 29006KT 9SM SCT012 BKN017 OVC040 05/05 A2967 RMK SLP053<br><br>
CYOO has no TAF <br><br>
<br><br>
CYTR 290827Z 30003KT 3SM -RA BR FEW003 OVC011 04/04 A2966 RMK SF1SC8 CIG VRB 8-14 SLP047<br><br>
CYTR 290800Z 35003KT 3SM -RA BR SCT003 OVC013 04/04 A2965 RMK SF3SC5 SLP046<br><br>
CYTR 290753Z 32004KT 3SM -RA BR SCT003 OVC013 04/04 A2966 RMK SF3SC5 SLP046<br><br>
CYTR 290733Z 33004KT 3SM -RA BR FEW003 OVC022 04/04 A2965 RMK SF2SC6 SLP045<br><br>
TAF AMD CYTR 290803Z 2908/3006 VRB03KT P6SM SCT010 BKN050 TEMPO 2908/2914 3SM -RA BR SCT003 OVC010 FM291400 27005KT 5SM -RA BR SCT006 OVC020 TEMPO 2914/2918 P6SM NSW FEW006 SCT020 OVC050 FM291800 29012KT P6SM SCT015 OVC030 BECMG 3003/3005 FEW015 SCT030 RMK NXT FCST BY 291200Z<br><br>
<br><br>
