RETRIEVED AT : Sep 26 2017 01:10 Local <br>
  RETRIEVED AT: Sep 26 2017 05:10 UTC<br><br>
CYSN has no TAF <br><br>
<br><br>
CYHM 260500Z 01003KT 15SM BKN250 21/20 A3001 RMK CI5 SLP160 DENSITY ALT 1600FT<br><br>
CYHM 260400Z 36004KT 15SM BKN250 21/20 A3001 RMK CI5 SLP160 DENSITY ALT 1600FT<br><br>
TAF CYHM 252338Z 2600/2624 VRB03KT P6SM BKN280 TEMPO 2609/2614 4SM BR PROB30 2609/2613 3/4SM BR RMK NXT FCST BY 260600Z<br><br>
<br><br>
KIAG 260453Z AUTO 00000KT 6SM HZ CLR 22/19 A3000 RMK AO2 SLP150 T02220189 403390178<br><br>
KIAG 260353Z AUTO 06003KT 7SM CLR 23/19 A2999 RMK AO2 SLP150 T02280189<br><br>
KIAG 260242Z 2603/2624 08005KT P6SM FEW250 FM260700 00000KT 4SM BR SCT250 TEMPO 2610/2612 2SM BR SCT003 FM261300 VRB03KT P6SM FEW250 FM261400 22004KT P6SM FEW250 FM261800 22008KT P6SM FEW250<br><br>
<br><br>
KBUF 260454Z COR 14004KT 10SM BKN250 23/19 A3000 RMK AO2 SLP155 T02280189 403280183<br><br>
KBUF 260354Z 12005KT 10SM FEW150 BKN280 22/20 A3001 RMK AO2 SLP155 T02220200<br><br>
KBUF 260242Z 2603/2624 12004KT P6SM FEW250 FM260800 15004KT 4SM BR FEW250 FM261300 20004KT P6SM FEW250 FM261800 24007KT P6SM FEW250<br><br>
<br><br>
CYYZ 260500Z 02005KT 15SM FEW230 24/19 A3000 RMK CI2 SLP157 DENSITY ALT 1600FT<br><br>
CYYZ 260400Z 04002KT 15SM SCT230 23/19 A3000 RMK CI4 SLP158 DENSITY ALT 1600FT<br><br>
TAF CYYZ 260240Z 2603/2706 VRB03KT P6SM SCT230 BECMG 2614/2616 16008KT RMK NXT FCST BY 260600Z<br><br>
<br><br>
CYOO 260500Z AUTO 03004KT 9SM CLR 19/17 A3000 RMK SLP159 DENSITY ALT 900FT<br><br>
CYOO 260400Z AUTO 35004KT 9SM CLR 19/17 A3001 RMK SLP162 DENSITY ALT 900FT<br><br>
CYOO has no TAF <br><br>
<br><br>
CYTR 260500Z 03002KT 5SM BR FEW250 17/17 A3000 RMK CI2 SLP161<br><br>
CYTR 260400Z 00000KT 6SM BR FEW250 18/17 A3000 RMK CI2 SLP158<br><br>
TAF CYTR 252330Z 2600/2624 VRB03KT P6SM SCT250 FM260300 VRB03KT P6SM BKN250 TEMPO 2603/2612 3SM BR BECMG 2616/2618 20009KT RMK NXT FCST BY 260600Z<br><br>
<br><br>
