RETRIEVED AT : Nov 13 2017 12:10 Local <br>
  RETRIEVED AT: Nov 13 2017 17:10 UTC<br><br>
CYSN 131600Z 28003KT 230V290 6SM BR SCT005 OVC009 04/03 A3037 RMK SF3SF5 SLP290<br><br>
TAF AMD CYSN 131611Z 1316/1402 VRB03KT P6SM OVC015 TEMPO 1316/1319 4SM BR OVC007 FM131900 30007KT P6SM OVC020 TEMPO 1319/1402 OVC030 RMK NXT FCST BY 132000Z<br><br>
<br><br>
CYHM 131700Z 32005KT 290V360 10SM FEW012 OVC042 05/02 A3035 RMK CU1SC8 CU TR SLP289<br><br>
CYHM 131600Z 32005KT 6SM BR OVC041 03/02 A3037 RMK SC8 SLP294<br><br>
TAF CYHM 131138Z 1312/1412 VRB03KT 2SM -DZ -RA BR OVC004 TEMPO 1312/1314 6SM BR SCT004 OVC008 FM131400 VRB03KT 4SM BR OVC006 TEMPO 1314/1316 P6SM NSW SCT006 OVC012 FM131600 30007KT P6SM SCT012 BKN030 TEMPO 1316/1318 OVC012 BECMG 1404/1406 27005KT RMK NXT FCST BY 131800Z<br><br>
<br><br>
KIAG 131653Z 33007KT 7SM OVC007 04/02 A3036 RMK AO2 SLP292 T00440017<br><br>
KIAG 131637Z 30007KT 8SM BKN008 OVC018 04/01 A3036 RMK AO2 T00440011<br><br>
KIAG 131616Z 32005KT 10SM SCT008 OVC019 04/01 A3036 RMK AO2 T00440011<br><br>
KIAG 131600Z 31005KT 9SM BKN008 OVC019 04/01 A3036 RMK AO2 T00440011<br><br>
KIAG 131553Z 30006KT 8SM SCT008 OVC019 04/01 A3037 RMK AO2 SLP295 T00440011<br><br>
KIAG 131545Z 31005KT 7SM SCT008 OVC019 04/01 A3036 RMK AO2 T00440011<br><br>
KIAG 131504Z 1315/1412 32004KT P6SM OVC015 FM140500 VRB03KT P6SM OVC035<br><br>
<br><br>
KBUF 131654Z 31004KT 10SM FEW009 FEW019 OVC040 04/02 A3035 RMK AO2 SLP284 T00390022<br><br>
KBUF 131554Z 31004KT 10SM FEW007 FEW019 OVC044 03/02 A3036 RMK AO2 SLP287 T00330017<br><br>
KBUF 131504Z 1315/1412 VRB03KT P6SM OVC040 FM131800 32004KT P6SM OVC015 FM140400 VRB03KT P6SM OVC035<br><br>
<br><br>
CYYZ 131700Z 30002KT 8SM FEW030 OVC050 04/01 A3035 RMK SC2SC6 SLP285<br><br>
CYYZ 131600Z VRB02KT 15SM SCT010 OVC030 04/02 A3037 RMK SF3SC5 SLP291<br><br>
TAF AMD CYYZ 131609Z 1316/1418 VRB03KT P6SM SCT012 OVC030 TEMPO 1316/1318 BKN008 OVC015 FM131800 VRB03KT P6SM OVC030 TEMPO 1318/1323 P6SM -SHRA OVC020 FM132300 VRB03KT P6SM OVC020 TEMPO 1323/1413 OVC030 FM141300 VRB03KT P6SM BKN030 RMK NXT FCST BY 131800Z<br><br>
<br><br>
CYOO 131700Z AUTO 00000KT 9SM OVC016 04/01 A3035 RMK SLP285<br><br>
CYOO 131600Z AUTO 01002KT 9SM OVC018 04/02 A3037 RMK SLP290<br><br>
CYOO has no TAF <br><br>
<br><br>
CYTR 131700Z 03002KT 15SM FEW009 BKN023 OVC039 04/01 A3037 RMK SF2SC5SC2 SLP288<br><br>
CYTR 131600Z 05004KT 15SM SCT009 OVC023 03/02 A3038 RMK SF3SC5 SLP293<br><br>
TAF AMD CYTR 131419Z 1314/1412 06005KT P6SM SCT006 OVC030 TEMPO 1314/1317 5SM BR BKN006 OVC030 FM131700 04008KT P6SM BKN030 TEMPO 1317/1320 BKN020 BECMG 1322/1324 03004KT RMK NXT FCST BY 131800Z<br><br>
<br><br>
