RETRIEVED AT : Oct 02 2017 23:10 Local <br>
  RETRIEVED AT: Oct 03 2017 03:10 UTC<br><br>
CYSN has no TAF <br><br>
<br><br>
CYHM 030300Z 04006KT 15SM FEW250 11/10 A3039 RMK CI2 SLP295<br><br>
CYHM 030200Z 05007KT 15SM SCT250 12/11 A3040 RMK CI3 SLP297<br><br>
TAF CYHM 022338Z 0300/0324 05008KT P6SM FEW050 BECMG 0304/0306 14005KT BECMG 0312/0314 20008KT FM031700 21012KT P6SM SKC BECMG 0318/0320 20012G22KT RMK NXT FCST BY 030600Z<br><br>
<br><br>
KIAG 030253Z AUTO 09003KT 10SM CLR 12/08 A3040 RMK AO2 SLP296 T01220083 51003<br><br>
KIAG 030153Z 10006KT 10SM CLR 14/09 A3040 RMK AO2 SLP297 T01390089<br><br>
KIAG 030227Z 0302/0324 VRB03KT P6SM SKC FM030500 16005KT P6SM SKC FM031400 20008KT P6SM SKC<br><br>
<br><br>
KBUF 030254Z 11005KT 10SM FEW250 13/08 A3040 RMK AO2 SLP295 T01280078 51005<br><br>
KBUF 030154Z 09004KT 10SM FEW250 14/08 A3040 RMK AO2 SLP296 T01390083<br><br>
KBUF 030227Z 0302/0324 VRB03KT P6SM SKC FM030600 16006KT P6SM SKC FM031400 20008KT P6SM SKC FM031800 23010KT P6SM SKC<br><br>
<br><br>
CYYZ 030300Z 06004KT 15SM FEW240 13/09 A3040 RMK CI2 SLP299<br><br>
CYYZ 030200Z 05003KT 15SM FEW240 14/09 A3041 RMK CI2 SLP300<br><br>
TAF CYYZ 030238Z 0303/0406 VRB03KT P6SM FEW180 BECMG 0313/0315 20012KT FM032000 21012G22KT P6SM SKC RMK NXT FCST BY 030600Z<br><br>
<br><br>
CYOO 030300Z AUTO 06005KT 9SM CLR 12/07 A3042 RMK SLP304<br><br>
CYOO 030200Z AUTO 09006KT 9SM CLR 12/07 A3041 RMK SLP302<br><br>
CYOO has no TAF <br><br>
<br><br>
CYTR 030300Z 02003KT 15SM FEW240 07/06 A3044 RMK CI2 SLP310<br><br>
CYTR 030200Z 07002KT 15SM FEW150 FEW240 08/06 A3044 RMK AC1CI2 SLP311<br><br>
TAF CYTR 022330Z 0300/0324 17005KT P6SM SCT250 FM030300 08005KT P6SM SCT150 FM031000 18005KT 6SM BR FEW005 TEMPO 0310/0313 4SM BR PROB30 0310/0313 3/4SM BR OVC005 FM031300 18008KT P6SM SCT250 RMK NXT FCST BY 030600Z<br><br>
<br><br>
