RETRIEVED AT : Feb 29 2020 09:06 Local <br>
  RETRIEVED AT: Feb 29 2020 14:06 UTC<br><br>
CYSN 291300Z 30008KT 15SM VCSH SCT027 BKN180 M09/M14 A2994 RMK SC3CI2 VCY SHSN DIST NE-SE SLP145<br><br>
TAF CYSN 291340Z 2914/0102 30008KT P6SM BKN030 BKN180 TEMPO 2914/2918 4SM -SN BKN020 BKN180 BECMG 2916/2918 27012G22KT FM291800 27012G22KT P6SM BKN030 BKN070 TEMPO 2918/0102 4SM -SN BKN020 BKN070 RMK NXT FCST BY 292000Z<br><br>
<br><br>
CYHM 291300Z 26006KT 15SM FEW015 FEW150 FEW250 M12/M15 A2991 RMK CU1AC1CI1 CU TR AC TR SLP147<br><br>
TAF CYHM 291138Z 2912/0112 29008KT P6SM BKN030 BKN080 FM291700 28010G20KT P6SM -SHSN BKN030 TEMPO 2917/2924 5SM -SHSN OVC020 FM010000 27010KT P6SM SCT040 FM011000 25008KT P6SM BKN040 RMK NXT FCST BY 291800Z<br><br>
<br><br>
KIAG 291353Z 33005KT 5SM BR BKN014 M11/M11 A2993 RMK AO2 SNE49 SLP158 P0000 T11061111<br><br>
KIAG 291254Z 27008KT 2SM -SN BR OVC015 M11/M13 A2992 RMK AO2 P0000 T11061128<br><br>
KIAG 291253Z 26008KT 2SM -SN BR BKN015 M11/M13 A2992 RMK AO2 SNE1155B23 SLP152 P0000 T11061128<br><br>
KIAG 291138Z 2912/0112 29009KT 4SM -SN OVC025 TEMPO 2912/2913 2SM -SN FM291600 29013G19KT P6SM VCSH OVC030 FM291700 29014G20KT P6SM OVC025 FM010100 27013KT P6SM BKN035<br><br>
<br><br>
KBUF 291354Z 28008KT 7SM -SN BKN011 M09/M13 A2993 RMK AO2 SLP147 P0000 T10941133 $<br><br>
KBUF 291344Z 27009KT 2SM -SN BKN013 M10/M13 A2993 RMK AO2 P0000 T11001133 $<br><br>
KBUF 291307Z 27012KT 1SM R23/5000VP6000FT -SN VV017 M10/M13 A2991 RMK AO2 P0000 T11001133<br><br>
KBUF 291254Z 27008KT 2SM R23/4500VP6000FT -SN OVC020 M09/M14 A2991 RMK AO2 SLP141 P0000 T10941139<br><br>
KBUF 291238Z 27010KT 8SM -SN BKN022 BKN027 OVC036 M09/M14 A2990 RMK AO2 P0000 T10941139<br><br>
KBUF 291228Z 27010KT 7SM -SN FEW019 BKN030 BKN036 M09/M13 A2989 RMK AO2 P0000 T10941133<br><br>
KBUF 291212Z 28010KT 7SM -SN FEW013 BKN019 OVC036 M09/M13 A2989 RMK AO2 P0000 T10941128<br><br>
KBUF 291138Z 2912/0112 28009KT 4SM -SN OVC025 FM291400 28010G16KT 4SM -SN OVC025 FM010000 27014KT P6SM BKN035<br><br>
<br><br>
CYYZ 291300Z 05008KT 330V060 15SM FEW120 FEW260 M14/M18 A2993 RMK AC1CI1 SLP147<br><br>
TAF CYYZ 291138Z 2912/0118 33006KT P6SM FEW025 SCT090 FM291700 29012G22KT P6SM -SHSN BKN030 TEMPO 2917/2924 5SM -SHSN OVC020 BECMG 2922/2924 31010KT FM010000 31012KT P6SM BKN030 FM010800 31006KT P6SM SCT040 FM011500 21010KT P6SM BKN040 RMK NXT FCST BY 291500Z<br><br>
<br><br>
CYOO 291300Z AUTO 30006KT 9SM SCT065 BKN078 M15/M19 A2993 RMK SLP148<br><br>
TAF CYOO 291340Z 2914/0102 30006KT P6SM SCT060 BKN080 TEMPO 2914/2917 P6SM -SN BKN030 BKN080 BECMG 2914/2916 31010G20KT FM291700 30010G20KT P6SM -SHSN BKN030 BKN080 TEMPO 2917/2924 5SM -SHSN BKN020 OVC030 FM010000 31010KT P6SM BKN030 BKN070 RMK FCST BASED ON AUTO OBS. NXT FCST BY 292000Z<br><br>
<br><br>
CYTR 291300Z 30005KT 15SM FEW070 M15/M18 A2992 RMK AC1 SLP140<br><br>
TAF CYTR 291130Z 2912/0112 31005KT P6SM FEW070 FM291700 29010KT P6SM SCT030 BKN080 BECMG 0100/0102 30005KT FM010500 VRB03KT P6SM SKC RMK NXT FCST BY 291800Z<br><br>
<br><br>
