RETRIEVED AT : May 23 2020 21:05 Local <br>
  RETRIEVED AT: May 24 2020 01:05 UTC<br><br>
CYSN 240000Z 32005KT 15SM FEW080 BKN200 18/15 A3001 RMK AC1CI6 SLP165 DENSITY ALT 700FT<br><br>
TAF CYSN 231942Z 2320/2401 02007KT P6SM SCT030 BKN250 RMK NXT FCST WILL BE ISSUED AT 241245Z<br><br>
<br><br>
CYHM 240000Z 00000KT 15SM BKN260 20/16 A3005 RMK CS7 SLP176 DENSITY ALT 1400FT<br><br>
TAF CYHM 232338Z 2400/2424 16005KT P6SM FEW040 BKN250 FM240200 05005KT P6SM FEW020 BKN040 FM240700 06005KT 6SM BR FEW005 OVC012 TEMPO 2408/2412 2SM BR OVC005 FM241400 18015KT P6SM BKN030 FM241900 23015KT P6SM -SHRA BKN040 PROB30 2420/2423 4SM TSRA BKN030CB RMK NXT FCST BY 240600Z<br><br>
<br><br>
KIAG 240053Z 26003KT 10SM CLR 19/15 A3004 RMK AO2 SLP170 T01940150<br><br>
KIAG 232353Z 34004KT 10SM CLR 22/16 A3002 RMK AO2 SLP166 T02220156 10256 20222 51002<br><br>
KIAG 232339Z 2400/2424 34005KT P6SM BKN250 FM240300 11005KT P6SM SCT120 BKN250 FM240800 14005KT P6SM BKN100 FM241200 17008KT P6SM SCT200 FM241500 19010KT P6SM SCT120<br><br>
<br><br>
KBUF 240054Z 21008KT 10SM FEW120 SCT200 BKN250 17/14 A3005 RMK AO2 SLP176 T01720144<br><br>
KBUF 232354Z 22008KT 10SM FEW050 SCT220 BKN250 19/16 A3004 RMK AO2 SLP170 T01940156 10250 20194 53005<br><br>
KBUF 232339Z 2400/2424 32005KT P6SM FEW050 BKN250 FM240500 12004KT P6SM SCT050 BKN250 FM240900 15006KT P6SM BKN090 FM241300 17010KT P6SM SCT200 FM241800 19008KT P6SM SCT120<br><br>
<br><br>
CYYZ 240000Z 20004KT 15SM FEW160 BKN250 22/14 A3003 RMK AC2CS5 SLP171 DENSITY ALT 1400FT<br><br>
TAF CYYZ 232338Z 2400/2506 15007KT P6SM SCT060 BKN240 BECMG 2404/2406 BKN060 FM240700 08008KT P6SM FEW008 OVC020 TEMPO 2407/2410 4SM -SHRA BR BKN008 OVC020 FM241000 11008KT 6SM BR SCT006 OVC012 TEMPO 2410/2414 2SM BR BKN006 FM241400 15012KT P6SM BKN020 FM241800 15015KT P6SM -SHRA BKN030 PROB30 2421/2502 2SM TSRA BR BKN020CB BECMG 2422/2424 22012KT FM250200 15008KT 6SM BR BKN020 RMK NXT FCST BY 240300Z<br><br>
<br><br>
CYOO 240000Z AUTO VRB02KT 9SM CLR 22/14 A3003 RMK SLP170 DENSITY ALT 1100FT<br><br>
TAF CYOO 231942Z 2320/2408 15005KT P6SM SCT240 FM240000 08005KT P6SM BKN060 FM240600 08005KT P6SM FEW012 OVC025 TEMPO 2407/2408 5SM -SHRA BR OVC012 RMK FCST BASED ON AUTO OBS. NXT FCST BY 240200Z<br><br>
<br><br>
CYTR 240000Z 20006KT 15SM BKN240 20/13 A3004 RMK CI6 SLP172<br><br>
TAF CYTR 232330Z 2400/2424 VRB03KT P6SM BKN240 FM241000 09005KT P6SM FEW020 SCT150 BKN240 FM241600 13008KT P6SM BKN040 BKN070 BECMG 2419/2421 13008G18KT RMK NXT FCST BY 240600Z<br><br>
<br><br>
