RETRIEVED AT : Jun 19 2018 19:19 Local <br>
  RETRIEVED AT: Jun 19 2018 23:19 UTC<br><br>
CYSN 192300Z 06004KT 15SM BKN180 22/11 A2994 RMK AC7 SLP140 DENSITY ALT 1200FT<br><br>
CYSN 192200Z 07007KT 15SM BKN180 22/09 A2995 RMK AC7 SLP142 DENSITY ALT 1200FT<br><br>
TAF CYSN 191938Z 1920/2001 03010KT P6SM SCT200 RMK NXT FCST WILL BE ISSUED AT 201245Z<br><br>
<br><br>
CYHM 192300Z 09006KT 15SM BKN150 OVC220 21/11 A2996 RMK AC7CC1 SLP145 DENSITY ALT 1600FT<br><br>
CYHM 192200Z 08006KT 15SM BKN160 BKN210 22/12 A2996 RMK AC6CC1 SLP145 DENSITY ALT 1700FT<br><br>
TAF CYHM 191738Z 1918/2018 05008KT P6SM SCT250 RMK NXT FCST BY 200000Z<br><br>
<br><br>
KIAG 192253Z 09005KT 10SM CLR 23/08 A2996 RMK AO2 SLP141 T02330083<br><br>
KIAG 192153Z 06006KT 10SM CLR 24/08 A2996 RMK AO2 SLP144 T02390083<br><br>
KIAG 192116Z 1921/2018 03007KT P6SM SCT250 FM200200 VRB03KT P6SM SCT120 SCT250 FM201500 VRB03KT P6SM BKN090<br><br>
<br><br>
KBUF 192254Z 01005KT 10SM BKN190 BKN250 22/08 A2996 RMK AO2 SLP144 T02220083<br><br>
KBUF 192154Z 04005KT 10SM FEW130 FEW280 23/07 A2997 RMK AO2 SLP146 T02330067<br><br>
KBUF 192116Z 1921/2018 03007KT P6SM SCT250 FM200200 VRB03KT P6SM SCT120 BKN200 FM201300 17004KT P6SM BKN080<br><br>
<br><br>
CYYZ 192300Z 15005KT 15SM FEW070 BKN180 BKN210 20/09 A2996 RMK AC2AC4CC1 SLP146 DENSITY ALT 1300FT<br><br>
CYYZ 192200Z 16006KT 15SM BKN190 BKN260 21/09 A2996 RMK AC5CI1 SLP145 DENSITY ALT 1400FT<br><br>
TAF CYYZ 192039Z 1921/2024 16007KT P6SM BKN250 FM200100 VRB03KT P6SM BKN200 FM201600 18010KT P6SM SKC BECMG 2022/2024 35008KT RMK NXT FCST BY 200000Z<br><br>
<br><br>
CYOO 192300Z AUTO 17006KT 150V230 9SM OVC240 21/08 A2995 RMK SLP143 DENSITY ALT 1200FT<br><br>
CYOO 192200Z AUTO 17005KT 9SM FEW240 22/10 A2995 RMK SLP143 DENSITY ALT 1200FT<br><br>
CYOO has no TAF <br><br>
<br><br>
CYTR 192300Z 21008KT 15SM BKN120 19/11 A2993 RMK AC5 SLP136<br><br>
CYTR 192200Z 21010KT 15SM SCT065 20/11 A2993 RMK SC3 SLP136<br><br>
TAF CYTR 191730Z 1918/2018 03008KT P6SM SCT250 BECMG 1918/1919 22010KT BECMG 1923/2001 22005KT RMK NXT FCST BY 200000Z<br><br>
<br><br>
