RETRIEVED AT : Mar 21 2020 02:05 Local <br>
  RETRIEVED AT: Mar 21 2020 06:05 UTC<br><br>
CYSN has no TAF <br><br>
<br><br>
CYHM 210500Z 32012KT 15SM OVC024 M03/M07 A3035 RMK SC8 SLP285<br><br>
TAF CYHM 210538Z 2106/2206 35012G22KT P6SM OVC020 TEMPO 2106/2110 BKN025 FM211000 03012KT P6SM SCT020 TEMPO 2110/2112 BKN020 FM211300 04012KT P6SM FEW025 FM220200 02008KT P6SM SKC RMK NXT FCST BY 211200Z<br><br>
<br><br>
KIAG 210553Z AUTO 35012KT 10SM OVC023 M02/M07 A3034 RMK AO2 SLP284 T10221067 10017 21022 51028<br><br>
KIAG 210453Z AUTO 34017G23KT 10SM OVC023 M02/M07 A3034 RMK AO2 PRESRR SLP282 T10171067 401781017<br><br>
KIAG 210526Z 2106/2206 33014G22KT P6SM OVC025 FM210900 34013KT P6SM BKN025 FM211300 36009KT P6SM SCT035 FM211700 36009KT P6SM SKC FM220000 03005KT P6SM SKC<br><br>
<br><br>
KBUF 210554Z 32011KT 10SM BKN022 OVC035 M02/M07 A3033 RMK AO2 SLP278 T10171067 10044 21017 51031<br><br>
KBUF 210454Z 33013KT 10SM BKN020 OVC040 M01/M06 A3033 RMK AO2 SLP274 T10111061 401891011<br><br>
KBUF 210526Z 2106/2206 33013KT P6SM OVC025 FM211000 34010KT P6SM BKN025 FM211400 36008KT P6SM SCT025 FM211800 35008KT P6SM SKC FM220000 03005KT P6SM SKC<br><br>
<br><br>
CYYZ 210500Z 34013G22KT 15SM BKN022 M04/M09 A3035 RMK SC7 PRESRR SLP285<br><br>
TAF CYYZ 210538Z 2106/2212 35015G25KT P6SM SCT025 TEMPO 2106/2108 BKN020 FM210900 01012G22KT P6SM SKC BECMG 2110/2112 01012KT FM220100 02008KT P6SM SKC RMK NXT FCST BY 210900Z<br><br>
<br><br>
CYOO 210500Z AUTO 33019G27KT 9SM CLR M04/M08 A3031 RMK SLP270<br><br>
CYOO 210433Z AUTO 33014G23KT 9SM SCT024 M04/M08 A3030 RMK SLP267<br><br>
TAF CYOO 210138Z 2102/2114 31018G28KT P6SM OVC020 TEMPO 2102/2106 BKN025 BECMG 2104/2106 34012G22KT FM210600 34012G22KT P6SM SCT020 TEMPO 2106/2108 BKN020 FM211000 34010KT P6SM SKC RMK FCST BASED ON AUTO OBS. NXT FCST BY 210800Z<br><br>
<br><br>
CYTR 210533Z 35011KT 15SM FEW030 M03/M09 A3031 RMK SC2 PRESRR SLP269<br><br>
TAF CYTR 210530Z 2106/2206 34010G20KT P6SM BKN025 BECMG 2106/2107 SCT025 FM211000 35008KT P6SM SKC FM211800 35008KT P6SM FEW210 FM220400 36005KT P6SM SKC RMK NXT FCST BY 211200Z<br><br>
<br><br>
