RETRIEVED AT : Apr 05 2020 19:05 Local <br>
  RETRIEVED AT: Apr 05 2020 23:05 UTC<br><br>
CYSN 052200Z 02007KT 15SM BKN250 10/02 A3009 RMK CI6 SLP192<br><br>
TAF CYSN 051938Z 0520/0601 34008KT P6SM FEW030 BECMG 0522/0524 02006KT RMK NXT FCST WILL BE ISSUED AT 061245Z<br><br>
<br><br>
CYHM 052200Z 30008G16KT 280V350 15SM FEW045 FEW250 12/01 A3008 RMK SC1CI2 SC TR SLP193<br><br>
TAF CYHM 051739Z 0518/0618 32007KT P6SM FEW025 SCT120 BECMG 0519/0521 05008KT FM060400 VRB03KT P6SM SKC BECMG 0614/0616 23007KT RMK NXT FCST BY 060000Z<br><br>
<br><br>
KIAG 052253Z 02006KT 10SM CLR 09/01 A3009 RMK AO2 SLP198 T00940011<br><br>
KIAG 052153Z 31007KT 10SM CLR 09/02 A3008 RMK AO2 SLP195 T00940017<br><br>
KIAG 052113Z 0521/0618 32008KT P6SM BKN250 FM060300 34005KT P6SM SKC FM060800 VRB04KT P6SM SKC FM061500 28006KT P6SM SCT250<br><br>
<br><br>
KBUF 052254Z 23010KT 10SM FEW120 BKN200 08/03 A3010 RMK AO2 SLP196 T00830028<br><br>
KBUF 052154Z 24009KT 10SM FEW050 BKN200 09/03 A3008 RMK AO2 SLP191 T00940033<br><br>
KBUF 052111Z 0521/0618 25010KT P6SM SCT050 BKN250 FM052300 30006KT P6SM SCT250 FM060400 36004KT P6SM SKC FM060800 VRB04KT P6SM SKC FM061500 26006KT P6SM SCT250<br><br>
<br><br>
CYYZ 052200Z 03010G18KT 330V060 15SM FEW025 SCT250 10/01 A3009 RMK CU1CI3 CU TR SLP193<br><br>
TAF CYYZ 052038Z 0521/0624 03012KT P6SM FEW025 SCT250 FM060500 36008KT P6SM SKC BECMG 0609/0611 32008KT FM061600 15010KT P6SM SCT150 FM062100 15010KT P6SM BKN100 OVC200 RMK NXT FCST BY 060000Z<br><br>
<br><br>
CYOO 052200Z AUTO 31011KT 280V360 9SM CLR 10/02 A3008 RMK SLP192<br><br>
TAF CYOO 051938Z 0520/0608 33015KT P6SM FEW030 BECMG 0600/0602 34008KT RMK FCST BASED ON AUTO OBS. NXT FCST BY 060200Z<br><br>
<br><br>
CYTR 052200Z 34008KT 15SM FEW030 BKN250 13/02 A3003 RMK CF1CI6 CUFRA TR SLP171<br><br>
TAF CYTR 051730Z 0518/0618 29008KT P6SM BKN020 OVC070 TEMPO 0518/0520 BKN025 OVC070 FM052000 32010KT P6SM SCT025 FM060000 33008KT P6SM SKC BECMG 0608/0610 VRB03KT RMK NXT FCST BY 060000Z<br><br>
<br><br>
