RETRIEVED AT : Dec 09 2017 19:10 Local <br>
  RETRIEVED AT: Dec 10 2017 00:10 UTC<br><br>
TAF CYSN 091938Z 0920/1002 22007KT P6SM OVC060 FM100000 22005KT P6SM -SN BKN020 OVC060 RMK NXT FCST WILL BE ISSUED AT 101345Z<br><br>
<br><br>
CYHM 100000Z 23006KT 5SM -SN BKN035 BKN090 M03/M04 A2976 RMK SC6AC1 SLP089<br><br>
CYHM 092300Z 23008KT 15SM -SN OVC033 M02/M05 A2976 RMK SC8 SLP088<br><br>
CYHM 092230Z 25010KT 10SM -SN OVC030 M01/M06 A2975 RMK SC8 SLP086<br><br>
TAF CYHM 092338Z 1000/1024 26005KT P6SM -SN OVC030 TEMPO 1000/1009 3SM -SN BKN015 OVC030 FM100900 26012KT P6SM BKN030 FM101500 26015G25KT 6SM -SN BKN030 RMK NXT FCST BY 100600Z<br><br>
<br><br>
KIAG 092353Z 28004KT 10SM OVC060 M01/M08 A2976 RMK AO2 SLP094 T10061078 10017 21011 51007<br><br>
KIAG 092253Z 00000KT 10SM FEW070 SCT090 OVC110 01/M08 A2976 RMK AO2 SLP091 T00061083<br><br>
KIAG 092320Z 1000/1024 VRB03KT P6SM OVC090 FM100200 26004KT P6SM VCSH BKN080 FM100600 26007KT P6SM VCSH OVC045 FM101200 28011G19KT P6SM BKN040 FM101500 26015G26KT P6SM OVC050<br><br>
<br><br>
KBUF 092354Z 00000KT 10SM FEW070 OVC100 M01/M08 A2976 RMK AO2 SLP088 4/001 T10111083 10006 21017 53005<br><br>
KBUF 092254Z 33003KT 10SM BKN110 M01/M09 A2976 RMK AO2 SLP086 T10061089<br><br>
KBUF 092320Z 1000/1024 21009KT P6SM BKN120 FM100200 VRB03KT P6SM VCSH OVC050 FM100500 26006KT 1SM -SN OVC015 FM100800 26008KT P6SM VCSH OVC040 FM101200 28011G19KT P6SM BKN025 FM101500 26015G27KT P6SM OVC035<br><br>
<br><br>
CYYZ 100000Z 28006KT 15SM -SN OVC031 M01/M07 A2976 RMK SC8 SLP087<br><br>
CYYZ 092300Z 24005KT 220V290 15SM -SN OVC035 M00/M08 A2976 RMK SC8 SLP086<br><br>
TAF CYYZ 092338Z 1000/1106 26004KT P6SM SCT025 OVC040 TEMPO 1000/1002 P6SM -SN FM100900 30012KT P6SM BKN040 FM101800 25015G25KT P6SM -SN BKN030 FM110400 30010KT P6SM BKN040 RMK NXT FCST BY 100300Z<br><br>
<br><br>
CYOO has no TAF <br><br>
<br><br>
CYTR 100000Z 27004KT 15SM BKN034 M01/M06 A2976 RMK SC6 SLP084<br><br>
CYTR 092300Z 30002KT 15SM BKN034 M00/M05 A2977 RMK SC6 SLP086<br><br>
TAF CYTR 092330Z 1000/1024 VRB03KT P6SM SCT030 BKN070 TEMPO 1000/1006 P6SM -SHSN BKN030 OVC070 FM100600 30005KT P6SM SCT070 BKN140 BECMG 1009/1011 30010KT FM101800 25015G25KT P6SM SCT020 BKN070 TEMPO 1018/1022 5SM -SHSN BKN020 FM102200 26015G25KT 6SM -SHSN FEW012 BKN030 PROB40 1022/1024 2SM -SHSN BKN012 OVC030 BECMG 1023/1024 30012G22KT RMK NXT FCST BY 100600Z<br><br>
<br><br>
