RETRIEVED AT : Oct 15 2017 14:10 Local <br>
  RETRIEVED AT: Oct 15 2017 18:10 UTC<br><br>
CYSN 151800Z 22020G37KT 15SM SCT035 BKN160 26/19 A2957 RMK SC3AC4 SLP014 DENSITY ALT 2100FT<br><br>
CYSN 151700Z 23026G35KT 15SM BKN033 BKN170 25/19 A2962 RMK SC6AC1 SLP032 DENSITY ALT 1900FT<br><br>
TAF CYSN 151238Z 1513/1601 21012G22KT P6SM SCT020 BKN070 BKN140 TEMPO 1513/1517 BKN020 OVC050 BECMG 1513/1515 22020G35KT FM151700 22025G40KT P6SM BKN030 BKN060 TEMPO 1519/1522 6SM -SHRA BR OVC020 PROB30 1519/1522 VRB30G45KT 2SM TSRA BR OVC015CB FM152200 26020G35KT P6SM BKN025 TEMPO 1522/1601 BKN020 RMK NXT FCST BY 152000Z<br><br>
<br><br>
CYHM 151800Z 23024G41KT 15SM BKN027 OVC035 23/18 A2959 RMK SC5SC3 SLP020 DENSITY ALT 2300FT<br><br>
CYHM 151700Z 22024G35KT 12SM BKN022 OVC030 23/19 A2962 RMK SC5SC3 SLP030 DENSITY ALT 2300FT<br><br>
TAF CYHM 151741Z 1518/1618 22025G35KT P6SM -SHRA BKN020 OVC070 TEMPO 1518/1519 P6SM NSW BKN025 OVC070 FM151830 22025G35KT P6SM -SHRA BKN025 OVC060 TEMPO 1518/1521 3SM SHRA BR OVC020 PROB40 1518/1521 VRB30G45KT 1SM +TSRA BR OVC020CB FM152100 25020G35KT P6SM BKN025 BKN120 TEMPO 1521/1523 BKN020 OVC120 FM152300 28020G30KT P6SM BKN025 BECMG 1601/1603 31015G25KT BECMG 1603/1605 31010KT FM160800 31008KT P6SM FEW030 BECMG 1614/1616 31010G20KT RMK NXT FCST BY 160000Z<br><br>
<br><br>
KIAG 151753Z 22025G37KT 10SM BKN040 BKN055 26/18 A2960 RMK AO2 PK WND 23038/1725 SLP021 T02560178 10261 20222 58028<br><br>
KIAG 151700Z 22021G30KT 10SM OVC030 25/18 A2965 RMK AO2 PK WND 22030/1657 PRESFR T02500178<br><br>
KIAG 151653Z 22018G28KT 10SM OVC029 24/18 A2966 RMK AO2 PK WND 21034/1603 SLP041 T02440178<br><br>
KIAG 151728Z 1518/1618 22021G32KT P6SM OVC030 FM152100 23024G40KT 4SM SHRA OVC030 FM152300 27024G39KT P6SM SCT035 FM160300 30015G25KT P6SM SCT030 FM160800 32012G19KT P6SM BKN035 FM161100 31010KT P6SM BKN035 FM161400 30010G20KT P6SM SCT035<br><br>
<br><br>
KBUF 151754Z 22013G24KT 10SM BKN042 BKN050 OVC150 24/18 A2963 RMK AO2 PK WND 23028/1656 SLP031 T02390178 10250 20211 58027<br><br>
KBUF 151654Z 22020G28KT 10SM BKN036 BKN043 OVC150 24/18 A2968 RMK AO2 PK WND 21032/1556 SLP047 T02390178<br><br>
KBUF 151728Z 1518/1618 22020G30KT P6SM BKN035 FM152100 24026G42KT 4SM SHRA OVC035 FM152300 27024G40KT P6SM SCT035 FM160300 29015G24KT P6SM BKN030 FM161100 31010KT P6SM BKN030 FM161400 30010G18KT P6SM SCT035<br><br>
<br><br>
CYYZ 151800Z 22020G31KT 15SM FEW025 BKN045 BKN070 23/18 A2954 RMK CF2SC3AC2 PRESFR SLP003 DENSITY ALT 2200FT<br><br>
CYYZ 151700Z 22019G28KT 15SM BKN025 OVC130 23/19 A2958 RMK SC7AC1 PRESFR SLP016 DENSITY ALT 2100FT<br><br>
CYYZ 151628Z 22015G25KT 15SM -RA OVC023 23/19 A2960 RMK SC8 SLP024 DENSITY ALT 2000FT<br><br>
TAF CYYZ 151741Z 1518/1624 23020G35KT P6SM -SHRA BKN025 OVC050 TEMPO 1518/1521 3SM SHRA BR OVC020 PROB30 1518/1521 VRB30G45KT 1SM +TSRA BR OVC015CB FM152100 27020G35KT P6SM SCT025 BKN120 TEMPO 1521/1523 BKN025 OVC120 FM152300 29020G32KT P6SM BKN025 BECMG 1600/1602 32018G28KT BECMG 1603/1605 34010G20KT FM160600 34012KT P6SM BKN020 TEMPO 1608/1614 P6SM -SHRA FM161500 33010G20KT P6SM BKN020 FM161700 33012G22KT P6SM BKN030 FM162100 32012G22KT P6SM FEW040 BECMG 1622/1624 32010KT RMK NXT FCST BY 152100Z<br><br>
<br><br>
CYOO 151800Z AUTO 22016G23KT 9SM FEW036 BKN055 BKN120 OVC170 22/18 A2954 RMK SLP003 DENSITY ALT 1700FT<br><br>
CYOO 151700Z AUTO 22015G25KT 9SM SCT028 BKN036 OVC065 21/18 A2958 RMK PRESFR SLP018 DENSITY ALT 1600FT<br><br>
CYOO 151635Z AUTO 21013G21KT 9SM BKN027 OVC037 20/18 A2960 RMK SLP026 DENSITY ALT 1500FT<br><br>
CYOO 151634Z AUTO 21013G19KT 9SM BKN024 BKN029 OVC037 20/18 A2960 RMK SLP025 DENSITY ALT 1500FT<br><br>
CYOO 151633Z AUTO 21013G19KT 9SM SCT024 BKN029 OVC037 20/18 A2960 RMK PRESFR SLP025 DENSITY ALT 1500FT<br><br>
CYOO 151632Z AUTO 21012G19KT 9SM BKN024 OVC034 20/18 A2960 RMK SLP026 DENSITY ALT 1500FT<br><br>
CYOO 151629Z AUTO 21010G23KT 9SM SCT024 BKN029 OVC037 20/18 A2960 RMK SLP026 DENSITY ALT 1500FT<br><br>
CYOO 151623Z AUTO 22010G23KT 9SM BKN024 BKN029 OVC036 20/18 A2961 RMK SLP029 DENSITY ALT 1400FT<br><br>
CYOO has no TAF <br><br>
<br><br>
CYTR 151800Z 22015G20KT 10SM OVC027 21/18 A2955 RMK SC8 SLP009<br><br>
CYTR 151716Z 22009KT 12SM FEW019 OVC027 20/17 A2959 RMK SC2SC6 SLP020<br><br>
CYTR 151700Z 23009KT 10SM -SHRA OVC019 20/17 A2961 RMK SC8 SLP027<br><br>
CYTR 151637Z 23010G15KT 12SM -SHRA OVC027 20/17 A2962 RMK SC8 SLP032<br><br>
TAF CYTR 151730Z 1518/1618 24015G25KT P6SM SCT010 OVC025 TEMPO 1518/1521 3SM -SHRA BR OVC010 PROB30 1518/1521 VRB35G50KT 1SM TSRA BR BKN005 OVC010CB FM152100 28020G35KT P6SM BKN030 BECMG 1602/1604 28015G25KT BECMG 1606/1608 32012KT RMK NXT FCST BY 160000Z<br><br>
<br><br>
