RETRIEVED AT : Dec 04 2017 13:10 Local <br>
  RETRIEVED AT: Dec 04 2017 18:10 UTC<br><br>
CYSN 041800Z 15008KT 12SM FEW120 OVC200 11/02 A3013 RMK AC1CI8 AC TR PRESFR SLP208<br><br>
CYSN 041700Z 16011KT 12SM SCT140 OVC220 09/02 A3018 RMK AC3CI5 SLP227<br><br>
TAF CYSN 041352Z 0414/0502 12006KT 2SM BR BKN160 OVC200 BECMG 0414/0416 P6SM NSW FM041800 14010KT P6SM SCT120 OVC200 FM050000 16012KT P6SM BKN120 OVC200 RMK NXT FCST BY 042000Z<br><br>
<br><br>
CYHM 041800Z 14009KT 15SM SCT180 BKN210 BKN220 09/03 A3011 RMK AC3CI2CI2 CONTREAIL PRESFR SLP204<br><br>
CYHM 041700Z 14009KT 15SM SCT210 BKN240 08/03 A3016 RMK CI4CS3 CONTREAIL SLP223<br><br>
TAF CYHM 041740Z 0418/0518 13010KT P6SM SCT150 OVC230 FM042100 14012KT P6SM BKN100 OVC150 BECMG 0501/0503 18015KT FM050700 18018G28KT P6SM -SHRA BKN030 OVC080 FM050900 19018G28KT P6SM -RA OVC020 FM051200 19022G32KT 4SM -RA BR OVC007 FM051600 23022G40KT P6SM OVC012 BECMG 0516/0518 BKN020 RMK NXT FCST BY 050000Z<br><br>
<br><br>
KIAG 041739Z 0418/0518 15005KT P6SM SKC FM050200 17016G22KT P6SM OVC100 FM050900 18020G26KT 6SM -RA OVC080 WS020/19050KT FM051100 19021G28KT 6SM -RA OVC045 WS020/19050KT FM051300 19020G28KT 6SM -RA OVC025<br><br>
<br><br>
KBUF 041739Z 0418/0518 14010KT P6SM BKN170 BKN250 FM050200 17017G25KT P6SM OVC100 WS020/19045KT FM050900 18020G29KT 6SM -RA OVC060 WS020/19050KT FM051300 19020G29KT 6SM -RA OVC035<br><br>
<br><br>
CYYZ 041800Z 13009KT 12SM FEW170 BKN250 07/01 A3013 RMK AC2CI5 PRESFR SLP210<br><br>
CYYZ 041700Z 14009KT 6SM BR FEW014 FEW025 FEW180 BKN210 07/04 A3019 RMK SF1SC1AC1CI5 AC TR SLP231<br><br>
TAF CYYZ 041740Z 0418/0524 13010KT P6SM SCT150 OVC200 TEMPO 0418/0419 5SM BR FM042200 13010KT P6SM BKN120 OVC150 FM050500 17012KT P6SM -SHRA OVC040 FM050900 18012G22KT P6SM -RA OVC020 FM051200 18015G25KT 5SM -RA BR OVC012 FM051600 21020G30KT P6SM BKN007 OVC015 FM051800 23022G40KT P6SM BKN020 BECMG 0519/0521 23020G30KT RMK NXT FCST BY 042100Z<br><br>
<br><br>
CYOO has no TAF <br><br>
<br><br>
CYTR 041800Z 13006KT 4SM BR BKN016 OVC200 07/04 A3024 RMK SC5CI3 VIS VRB 3-5 SLP245<br><br>
CYTR 041700Z 14008KT 4SM BR OVC010 06/04 A3028 RMK ST8 VIS VRB 3-5 SLP260<br><br>
TAF CYTR 041730Z 0418/0518 14008KT P6SM SCT010 BKN200 TEMPO 0418/0420 4SM BR BKN010 OVC200 FM042200 16012KT P6SM OVC100 TEMPO 0508/0510 P6SM -SHRA BKN030 OVC100 FM051000 16015KT P6SM -RA SCT015 OVC025 TEMPO 0510/0518 3SM -RA BR SCT008 OVC015 RMK NXT FCST BY 050000Z<br><br>
<br><br>
