RETRIEVED AT : Oct 15 2017 16:10 Local <br>
  RETRIEVED AT: Oct 15 2017 20:10 UTC<br><br>
CYSN 152000Z 29032G48KT 230V310 15SM -RA BKN023 OVC055 20/15 A2958 RMK SC5SC3 SLP019 DENSITY ALT 1400FT<br><br>
CYSN 151900Z 22023G39KT 15SM SCT032 BKN070 25/19 A2957 RMK SC4AC3 SLP012 DENSITY ALT 2000FT<br><br>
TAF CYSN 151946Z 1520/1601 22025G40KT P6SM -SHRA SCT020 BKN070 TEMPO 1520/1521 VRB35G50KT 11/2SM +SHRA BR OVC020 FM152030 27020G35KT P6SM SCT020 BKN070 FM152300 27020G30KT P6SM BKN025 RMK NXT FCST WILL BE ISSUED AT 161245Z<br><br>
<br><br>
CYHM 152000Z 26017G28KT 15SM -SHRA FEW009 FEW020 BKN041 OVC059 17/15 A2964 RMK CF1CU1SC4SC3 CF TR SLP038 DENSITY ALT 1600FT<br><br>
CYHM 151931Z 27028G44KT 4SM -SHRA BR FEW009 SCT024 BKN037 OVC130 17/15 A2963 RMK CF1CU3SC3AC1 PRESRR SLP034 DENSITY ALT 1600FT<br><br>
CYHM 151920Z 25026G42KT 9SM SHRA BKN024 OVC130 23/18 A2960 RMK CU6AC2 VIS SW 1 1/2 PRESRR SLP023 DENSITY ALT 2200FT<br><br>
CYHM 151900Z 23024G44KT 15SM -SHRA SCT028 BKN039 BKN130 23/18 A2956 RMK CU4SC1AC2 SLP011 DENSITY ALT 2300FT<br><br>
CYHM 151819Z 23027G36KT 15SM -SHRA SCT027 BKN035 BKN120 23/18 A2957 RMK CU4SC3AC1 AC TR SLP014 DENSITY ALT 2300FT<br><br>
TAF AMD CYHM 151937Z 1519/1618 27020G35KT P6SM -SHRA SCT020 BKN040 OVC120 TEMPO 1519/1520 VRB30G45KT 11/2SM SHRA BR OVC020CB FM152000 27020G35KT P6SM BKN025 BKN120 TEMPO 1521/1523 BKN020 OVC120 FM152300 28020G30KT P6SM BKN025 BECMG 1601/1603 31015G25KT BECMG 1603/1605 31010KT FM160800 31008KT P6SM FEW030 BECMG 1614/1616 31010G20KT RMK NXT FCST BY 160000Z<br><br>
<br><br>
KIAG 151953Z 23022G35KT 10SM FEW034 FEW046 SCT055 23/17 A2960 RMK AO2 PK WND 22044/1933 RAB24E40 SLP019 P0000 T02330172<br><br>
KIAG 151853Z 22026G38KT 10SM FEW035 SCT043 OVC055 25/18 A2959 RMK AO2 PK WND 24038/1846 SLP017 T02500178<br><br>
KIAG 151903Z 1519/1618 22026G38KT P6SM FEW035 BKN060 FM152000 23024G40KT 4SM SHRA OVC030 FM152200 27024G39KT P6SM SCT035 FM160300 30015G25KT P6SM SCT030 FM160800 32012G19KT P6SM BKN035 FM161100 31010KT P6SM BKN035 FM161400 30010G20KT P6SM SCT035<br><br>
<br><br>
KBUF 152002Z 24026G44KT 3SM R23/2600VP6000FT +RA BR SCT023 BKN045 BKN060 OVC130 20/18 A2962 RMK AO2 PK WND 24037/1956 P0013 T02000183<br><br>
KBUF 151954Z 25031G44KT 1/2SM R23/3500VP6000FT +RA BKN045 BKN055 OVC110 22/18 A2963 RMK AO2 PK WND 24044/1954 RAB43 PRESRR SLP029 P0000 T02170183<br><br>
KBUF 151854Z 23021G34KT 10SM BKN045 BKN049 BKN150 BKN220 24/18 A2961 RMK AO2 PK WND 22034/1852 SLP024 T02440178<br><br>
KBUF 151903Z 1519/1618 23021G34KT P6SM BKN045 BKN050 FM152000 24026G42KT 4SM SHRA OVC035 FM152200 27024G40KT P6SM SCT035 FM160300 29015G24KT P6SM BKN030 FM161100 31010KT P6SM BKN030 FM161400 30010G18KT P6SM SCT035<br><br>
<br><br>
CYYZ 152000Z 26024G32KT 15SM FEW025 FEW040 SCT070 BKN130 BKN210 18/16 A2956 RMK SF2SC1AC1AC3CI1 SC TR SLP013 DENSITY ALT 1600FT<br><br>
CYYZ 151946Z 26026G32KT 15SM FEW018 FEW040 BKN072 BKN150 18/16 A2956 RMK SF1SC2AC5AC1 SF TR AC TR SLP013 DENSITY ALT 1500FT<br><br>
CYYZ 151922Z 26030G55KT 10SM R15L/3000VP6000FT/U R24R/3000V5500FT/N -SHRA FEW015 SCT030TCU OVC050 18/15 A2956 RMK SF1TCU3SC5 SF TR TCU E MOVG E PRESRR SLP011 DENSITY ALT 1500FT<br><br>
CYYZ 151917Z 25027G36KT 1 1/2SM R15L/3000VP6000FT/D +SHRA OVC030TCU 22/18 A2955 RMK RA2TCU6 PRESRR SLP007 DENSITY ALT 2000FT<br><br>
CYYZ 151905Z 22029G38KT 15SM -RA BKN030 OVC080 24/18 A2951 RMK CU5AC3 SLP994 DENSITY ALT 2200FT<br><br>
CYYZ 151900Z 23026G36KT 15SM BKN030 BKN078 OVC110 24/18 A2951 RMK CU5AC2AC1 SLP994 DENSITY ALT 2200FT<br><br>
TAF AMD CYYZ 151950Z 1519/1624 27022G32KT P6SM SCT025 BKN100 TEMPO 1519/1523 BKN025 OVC100 FM152300 29020G32KT P6SM BKN025 BECMG 1600/1602 32018G28KT BECMG 1603/1605 34010G20KT FM160600 34012KT P6SM BKN020 TEMPO 1608/1614 P6SM -SHRA FM161500 33010G20KT P6SM BKN020 FM161700 33012G22KT P6SM BKN030 FM162100 32012G22KT P6SM FEW040 BECMG 1622/1624 32010KT RMK NXT FCST BY 152100Z<br><br>
<br><br>
CYOO 152000Z AUTO 27016G31KT 9SM -RA FEW029 SCT045 BKN055 OVC075 18/16 A2953 RMK PRESRR SLP003 DENSITY ALT 1300FT<br><br>
CYOO 151959Z AUTO 27015G31KT 7SM -RA FEW027 SCT045 BKN055 OVC074 18/16 A2953 RMK PRESRR SLP003 DENSITY ALT 1300FT<br><br>
CYOO 151954Z AUTO 26018G35KT 200V290 3SM -RA BR SCT027 SCT043 BKN060 OVC110 18/16 A2954 RMK PRESRR SLP004 DENSITY ALT 1300FT<br><br>
CYOO 151950Z AUTO 27022G35KT 200V290 4SM +RA SCT024 SCT045 BKN060 OVC120 20/17 A2955 RMK PRESRR SLP007 DENSITY ALT 1500FT<br><br>
CYOO 151949Z AUTO 28023G35KT 200V290 4SM -RA FEW024 SCT045 BKN060 OVC120 20/17 A2955 RMK PRESRR SLP008 DENSITY ALT 1500FT<br><br>
CYOO 151933Z AUTO 22017G25KT 9SM -RA FEW034 SCT047 BKN060 BKN120 21/18 A2949 RMK SLP987 DENSITY ALT 1700FT<br><br>
CYOO 151900Z AUTO 22011G23KT 9SM FEW037 SCT046 BKN065 OVC120 21/18 A2950 RMK SLP992 DENSITY ALT 1700FT<br><br>
CYOO 151856Z AUTO 21014G24KT 9SM SCT041 SCT050 BKN075 OVC120 21/18 A2951 RMK SLP994 DENSITY ALT 1700FT<br><br>
CYOO 151832Z AUTO 21019G29KT 9SM -RA FEW030 SCT040 BKN050 OVC060 21/18 A2952 RMK SLP997 DENSITY ALT 1700FT<br><br>
CYOO has no TAF <br><br>
<br><br>
CYTR 152000Z 22014G24KT 12SM BKN035 BKN070 22/17 A2951 RMK SC6AC2 SLP993<br><br>
CYTR 151900Z 22013KT 10SM OVC030 21/17 A2953 RMK SC8 SLP001<br><br>
TAF AMD CYTR 152008Z 1520/1618 22015G25KT P6SM BKN030 FM152030 26030G55KT P6SM SCT010 OVC025 TEMPO 1520/1523 3SM -SHRA BR OVC010 PROB30 1520/1523 VRB30G55KT 1SM TSRA BR BKN005 OVC010CB FM152300 28020G35KT P6SM BKN030 BECMG 1602/1604 28015G25KT BECMG 1606/1608 32012KT RMK NXT FCST BY 160000Z<br><br>
<br><br>
