RETRIEVED AT : Oct 28 2018 16:05 Local <br>
  RETRIEVED AT: Oct 28 2018 20:05 UTC<br><br>
CYSN 281915Z 26004KT 170V270 3SM BR BKN008 OVC014 05/05 A2967 RMK SF6SC2 SLP050<br><br>
CYSN 281900Z 26003KT 3SM -RA FEW008 OVC012 05/04 A2967 RMK SC1SC7 SLP050<br><br>
TAF CYSN 281938Z 2820/2901 VRB03KT P6SM OVC012 TEMPO 2820/2822 3SM -RA BR BKN008 OVC012 FM282200 VRB03KT P6SM -RA OVC015 TEMPO 2822/2901 5SM -SHRA BR BKN008 OVC015 RMK NXT FCST WILL BE ISSUED AT 291245Z<br><br>
<br><br>
CYHM 281900Z 26004KT 15SM BKN011 OVC026 06/04 A2965 RMK SC7SC1 SLP048<br><br>
TAF CYHM 281739Z 2818/2918 25008KT P6SM SCT007 BKN015 OVC070 TEMPO 2818/2821 SCT015 OVC070 FM282100 25007KT P6SM -SHRA BKN015 OVC050 TEMPO 2821/2824 P6SM NSW SCT015 OVC050 FM290000 35005KT P6SM -SHRA BKN015 OVC025 FM290300 35008KT P6SM OVC025 FM290500 31008KT P6SM SCT010 BKN050 FM291100 27010KT P6SM -SHRA SCT020 BKN030 BECMG 2915/2917 27015G25KT FM291700 27015G25KT P6SM BKN025 RMK NXT FCST BY 290000Z<br><br>
<br><br>
KIAG 281953Z 24004KT 2 1/2SM BR OVC007 04/03 A2966 RMK AO2 CIG 004V012 SLP054 T00440033<br><br>
KIAG 281944Z 24005KT 2 1/2SM BR OVC009 04/03 A2966 RMK AO2 CIG 006V014 T00440033<br><br>
KIAG 281927Z 24005KT 3SM BR OVC009 04/03 A2966 RMK AO2 CIG 006V013 T00440028<br><br>
KIAG 281918Z 24005KT 3SM BR OVC011 04/03 A2966 RMK AO2 CIG 006V014 T00440033<br><br>
KIAG 281910Z 24006KT 2 1/2SM BR OVC011 04/03 A2966 RMK AO2 T00440028<br><br>
KIAG 281853Z 22006KT 4SM BR OVC011 04/03 A2967 RMK AO2 RAB01E11B24E45 SLP058 P0001 T00440028<br><br>
KIAG 281813Z 23005KT 9SM BKN012 OVC018 04/02 A2968 RMK AO2 RAB01E11 P0000 T00440022<br><br>
KIAG 281729Z 2818/2918 25008KT P6SM -RA OVC011 FM282100 21004KT P6SM OVC020 FM290300 VRB03KT 5SM -SHRA OVC012 FM291000 30007KT P6SM OVC020 FM291400 27012G20KT P6SM OVC015 FM291700 26015G25KT P6SM OVC020<br><br>
<br><br>
KBUF 282002Z 27005KT 2SM -RA BR BKN008 OVC014 05/04 A2966 RMK AO2 P0000 T00500039<br><br>
KBUF 281954Z 26005KT 5SM -RA BR BKN009 OVC014 05/04 A2966 RMK AO2 SLP050 P0001 T00500039<br><br>
KBUF 281933Z 27005KT 10SM -RA BKN009 BKN016 OVC020 05/04 A2966 RMK AO2 CIG 007V012 P0001 T00500039<br><br>
KBUF 281854Z 26008KT 5SM -RA BR FEW017 OVC023 05/03 A2967 RMK AO2 RAB03 SLP053 P0000 T00500033<br><br>
KBUF 281729Z 2818/2918 26010KT P6SM -RA BKN010 OVC014 FM282200 VRB03KT P6SM OVC012 FM290100 VRB03KT P6SM OVC007 FM290300 00000KT 5SM -SHRA OVC012 FM291100 28007KT P6SM OVC012 FM291700 26014G24KT P6SM OVC020<br><br>
<br><br>
CYYZ 281937Z 23006KT 15SM SCT013 BKN020 06/03 A2964 RMK SC3SC4 SLP044<br><br>
CYYZ 281900Z 25006KT 200V270 15SM BKN013 OVC044 06/03 A2964 RMK SC6SC2 SLP045<br><br>
CYYZ 281836Z 24008KT 15SM SCT013 BKN044 OVC085 06/03 A2965 RMK SC4SC2AC2 SLP048<br><br>
TAF CYYZ 281739Z 2818/2924 23010KT P6SM -RA OVC012 FM281820 23010KT P6SM OVC012 TEMPO 2818/2821 BKN025 OVC050 FM282100 24008KT P6SM BKN025 OVC050 TEMPO 2821/2823 BKN020 OVC050 FM282300 VRB03KT P6SM OVC012 TEMPO 2823/2904 P6SM -SHRA FM290400 VRB03KT P6SM SCT020 OVC050 BECMG 2905/2907 30007KT FM291100 24008KT P6SM -SHRASN BKN015 OVC050 FM291400 29010G20KT P6SM -SHRA BKN015 OVC030 FM291700 29015G25KT P6SM BKN030 FM291900 29015G25KT P6SM SCT030 BKN100 RMK NXT FCST BY 282100Z<br><br>
<br><br>
CYOO 281900Z AUTO 21006KT 170V240 9SM FEW007 BKN014 OVC019 04/03 A2966 RMK SLP050<br><br>
CYOO 281857Z AUTO 22006KT 170V240 9SM FEW007 BKN012 OVC018 04/03 A2966 RMK SLP050<br><br>
CYOO 281852Z AUTO 19005KT 170V240 9SM -RA FEW007 BKN012 OVC018 04/03 A2966 RMK SLP051<br><br>
CYOO 281851Z AUTO 19005KT 180V240 9SM -RA BKN009 OVC018 04/03 A2966 RMK SLP050<br><br>
CYOO 281844Z AUTO 21004KT 160V240 9SM -RA SCT009 OVC013 04/04 A2966 RMK SLP051<br><br>
CYOO 281842Z AUTO 20004KT 160V220 9SM SCT009 OVC013 04/04 A2966 RMK SLP051<br><br>
CYOO 281840Z AUTO 18004KT 9SM BKN009 OVC016 04/03 A2966 RMK SLP051<br><br>
CYOO has no TAF <br><br>
<br><br>
CYTR 281936Z 00000KT 4SM -RA BR BKN005 OVC022 04/03 A2967 RMK SF7SC1 SLP052<br><br>
CYTR 281921Z 00000KT 2 1/2SM -RA BR OVC007 04/03 A2967 RMK SF8 SLP053<br><br>
CYTR 281909Z 00000KT 3SM -RA BR OVC010 04/03 A2968 RMK SF8 SLP054<br><br>
CYTR 281900Z 00000KT 6SM -RA BR OVC011 04/03 A2967 RMK SF8 PCPN VRY LGT SLP053<br><br>
CYTR 281836Z 00000KT 12SM -RA BKN011 OVC031 04/02 A2968 RMK SF6SC2 SLP055<br><br>
TAF AMD CYTR 281927Z 2819/2918 VRB03KT 11/2SM -RA BR OVC007 TEMPO 2819/2903 6SM BR SCT007 OVC020 FM290300 VRB03KT P6SM SCT020 BKN050 TEMPO 2903/2914 P6SM -RA OVC020 FM291400 27005KT 6SM -RASN BR BKN006 OVC020 FM291700 29010KT P6SM -RASN BKN015 OVC040 RMK NXT FCST BY 290000Z<br><br>
<br><br>
