RETRIEVED AT : Mar 06 2020 16:05 Local <br>
  RETRIEVED AT: Mar 06 2020 21:05 UTC<br><br>
CYSN 062000Z 02013G19KT 5SM -SN BKN005 OVC017 01/01 A2999 RMK SC6SC2 SLP161<br><br>
CYSN 061949Z 02012G17KT 5SM -SN OVC004 01/01 A2998 RMK SC8 SLP157<br><br>
TAF CYSN 061938Z 0620/0702 02012G22KT 3/4SM -SNRA BR OVC004 TEMPO 0620/0623 6SM -SN OVC015 FM062300 01018G28KT 4SM -SNRA BR BKN008 OVC015 TEMPO 0623/0702 6SM -RA BR OVC015 BECMG 0700/0702 01015G25KT RMK NXT FCST WILL BE ISSUED AT 071345Z<br><br>
<br><br>
CYHM 062049Z 36015KT 3SM -SN SCT013 BKN023 OVC038 01/M01 A3002 RMK CF3SC3SC2 SLP177<br><br>
CYHM 062013Z 36013G20KT 4SM -SN BKN010 BKN017 OVC044 01/M01 A3000 RMK CF5SC1SC2 SLP168<br><br>
CYHM 062000Z 36012G22KT 2 1/2SM -SN BKN009 BKN017 OVC028 01/M01 A2999 RMK CF5SC2SC1 SUN DIMLY VSBL SLP167<br><br>
CYHM 061942Z 36014G20KT 5SM -SN BKN008 OVC015 01/M01 A2998 RMK CF6SC2 SLP164<br><br>
CYHM 061925Z 36011G16KT 2SM -SN BKN007 OVC016 01/M01 A2997 RMK SN1CF7SC2 SLP161<br><br>
TAF CYHM 061747Z 0618/0718 36010KT 5/8SM -SN VV004 TEMPO 0618/0620 3SM -SN OVC015 FM062000 01015G25KT 2SM -SN OVC008 TEMPO 0620/0624 6SM -SN OVC030 PROB30 0620/0622 1SM -SN VV005 FM070000 01012G22KT P6SM OVC020 FM070600 01010KT P6SM SCT020 FM071200 36006KT P6SM SKC BECMG 0716/0718 25009KT RMK NXT FCST BY 070000Z<br><br>
<br><br>
KIAG 062057Z 01014KT 1 1/4SM R28R/5500VP6000FT -SN BR BKN006 OVC011 01/M01 A3000 RMK AO2 P0000 T00061006<br><br>
KIAG 062053Z 02013KT 1 1/4SM R28R/5500VP6000FT -SN BR BKN008 OVC013 01/M01 A3000 RMK AO2 SLP173 P0001 60003 T00061006 53030<br><br>
KIAG 062027Z 02011KT 1 1/2SM R28R/6000VP6000FT -SN BR OVC006 01/M01 A2998 RMK AO2 CIG 005V010 P0000 T00061006<br><br>
KIAG 062015Z 01013KT 2SM -SN BR OVC006 01/M01 A2997 RMK AO2 P0000 T00061006<br><br>
KIAG 062009Z 02013KT 1 1/4SM R28R/4000VP6000FT -SN BR OVC006 01/M01 A2997 RMK AO2 P0000 T00061006<br><br>
KIAG 061953Z 02014G19KT 3/4SM R28R/3500VP6000FT -SN BR BKN006 OVC011 01/M01 A2996 RMK AO2 SLP160 P0002 T00061006<br><br>
KIAG 061945Z 02010KT 3/4SM R28R/3500VP6000FT -SN BR BKN006 OVC014 01/M01 A2996 RMK AO2 P0002 T00061006<br><br>
KIAG 061936Z 02012KT 1SM R28R/3500VP6000FT -SN BR OVC007 01/M01 A2995 RMK AO2 P0002 T00061006<br><br>
KIAG 061918Z 0619/0718 02011KT 1/2SM SN FG BKN008 BKN015 OVC024 TEMPO 0620/0622 1 1/2SM -SN FM062200 01015G22KT 2SM -SN OVC010 FM070200 01014G23KT 6SM BR OVC020 FM070600 01011G19KT P6SM BKN035 FM071300 34006KT P6SM SCT250<br><br>
<br><br>
KBUF 062054Z 01009KT 1 1/4SM R23/4500VP6000FT -SN BR BKN006 OVC012 01/M01 A2998 RMK AO2 SLP160 CIG 004V008 P0003 60006 T00111006 53025<br><br>
KBUF 062046Z 36011G15KT 3/4SM R23/4500VP6000FT -SN BR BKN006 OVC012 01/M01 A2998 RMK AO2 CIG 004V008 P0002 T00111006<br><br>
KBUF 062004Z 01010G18KT 1 1/4SM R23/4500VP6000FT -SN BR BKN006 OVC012 01/M01 A2995 RMK AO2 CIG 004V008 P0001 T00111006<br><br>
KBUF 061954Z 01008KT 3/4SM R23/4000V6000FT -SN BR BKN006 OVC012 01/M01 A2994 RMK AO2 SLP147 CIG 004V008 P0002 T00111006<br><br>
KBUF 061941Z 02011KT 3/4SM R23/4000V5000FT -SN BR BKN007 BKN012 OVC019 01/M01 A2993 RMK AO2 P0001 T00111006<br><br>
KBUF 061933Z 02009KT 3/4SM R23/4000V5000FT -SN BR FEW007 BKN012 OVC019 01/M01 A2993 RMK AO2 P0000 T00111006<br><br>
KBUF 061927Z 02009G17KT 1SM R23/4500VP6000FT -SN BR FEW007 BKN012 OVC019 01/M01 A2992 RMK AO2 P0000 T00111006<br><br>
KBUF 061916Z 02014KT 2 1/2SM R23/6000VP6000FT -SN BKN012 BKN019 OVC026 02/M01 A2992 RMK AO2 P0000 T00171011<br><br>
KBUF 061911Z 02011G19KT 2 1/2SM -SN SCT012 BKN019 OVC026 02/M01 A2991 RMK AO2 P0000 T00171011<br><br>
KBUF 061740Z 0618/0718 35004KT 2SM -SN BR SCT005 SCT013 OVC023 TEMPO 0618/0619 1SM -SN OVC005 FM061900 01007KT 2SM -SN OVC012 FM062100 01012G19KT 2SM -SN OVC012 FM070400 01012G19KT P6SM OVC020 FM070800 36008KT P6SM BKN250<br><br>
<br><br>
CYYZ 062053Z 01011KT 4SM -SN BKN013 OVC019 01/M01 A3004 RMK SC5SC3 SLP181<br><br>
CYYZ 062009Z 01012G20KT 10SM -RASN SCT017 OVC027 02/M00 A3001 RMK CF3SC5 SLP171<br><br>
CYYZ 062000Z 01012G17KT 15SM SCT017 OVC028 02/M00 A3001 RMK CF3SC5 SLP170<br><br>
CYYZ 061924Z 02008G15KT 12SM SCT018 OVC024 02/00 A2999 RMK CF3SC5 SLP163<br><br>
TAF CYYZ 062045Z 0621/0724 01012G22KT P6SM SCT015 OVC030 TEMPO 0621/0624 5SM -SHRASN OVC015 BECMG 0621/0623 01020G30KT FM070000 01020G30KT P6SM SCT015 OVC040 BECMG 0701/0703 01012G22KT FM070400 36012KT P6SM SCT030 FM071200 35010KT P6SM SKC BECMG 0716/0718 23009KT RMK NXT FCST BY 070000Z<br><br>
<br><br>
CYOO 062000Z AUTO 01015G26KT 9SM OVC030 03/M03 A2999 RMK SLP164<br><br>
TAF CYOO 061938Z 0620/0708 01012G22KT P6SM -RASN OVC030 TEMPO 0620/0624 5SM -SN BR OVC015 FM070000 01015G25KT P6SM OVC030 FM070600 36010KT P6SM FEW030 RMK FCST BASED ON AUTO OBS. NXT FCST BY 070200Z<br><br>
<br><br>
CYTR 062045Z 05016G22KT 15SM OVC022 02/M02 A3001 RMK SC8 SLP167<br><br>
CYTR 062013Z 03017G26KT 7SM -SHSN BKN022 OVC028 02/M02 A2999 RMK SC6SC2 SLP160<br><br>
CYTR 062000Z 03016G24KT 5SM -SHSN BR BKN017 OVC028 02/M02 A2998 RMK SC6SC2 VIS VRB 3-7 CIG VRB 12-22 SLP158<br><br>
CYTR 061940Z 04016G24KT 3SM -SHSN BR BKN022 OVC030 02/M02 A2998 RMK SN2SC5SC2 VIS VRB 2 1/4-4 SLP155<br><br>
CYTR 061927Z 03020KT 6SM -SHSN BR BKN022 OVC080 02/M02 A2997 RMK SC5AC3 SLP153<br><br>
TAF CYTR 061730Z 0618/0718 04015G25KT P6SM BKN025 OVC080 TEMPO 0618/0623 5SM -SHRASN BR BKN020 OVC080 BECMG 0618/0620 04018G28KT FM062300 03018G28KT P6SM BKN025 OVC080 BECMG 0702/0704 01015KT FM070500 01012KT P6SM SCT025 FM070800 36008KT P6SM SKC RMK NXT FCST BY 070000Z<br><br>
<br><br>
