RETRIEVED AT : Jun 07 2020 23:05 Local <br>
  RETRIEVED AT: Jun 08 2020 03:05 UTC<br><br>
CYSN has no TAF <br><br>
<br><br>
TAF CYHM 072338Z 0800/0824 06010KT P6SM FEW040 SCT270 FM080500 04006KT P6SM FEW090 SCT120 FM081200 05006KT P6SM SCT060 BECMG 0820/0822 10005KT RMK NXT FCST BY 080600Z<br><br>
<br><br>
KIAG 072330Z 0800/0824 01004KT P6SM SCT250 FM080500 31004KT P6SM FEW250 FM081400 02004KT P6SM FEW250 FM081700 34005KT P6SM FEW250<br><br>
<br><br>
KBUF 072330Z 0800/0824 33005KT P6SM SCT050 BKN250 FM080200 34004KT P6SM FEW250 FM081900 28006KT P6SM FEW250<br><br>
<br><br>
TAF CYYZ 080238Z 0803/0906 36008KT P6SM FEW250 FM081600 15008KT P6SM SCT070 BECMG 0820/0822 16008G18KT FM090100 16008KT P6SM SKC BECMG 0904/0906 08006KT RMK NXT FCST BY 080600Z<br><br>
<br><br>
TAF CYOO 080138Z 0802/0814 33008KT P6SM SKC FM080600 36006KT P6SM FEW120 RMK FCST BASED ON AUTO OBS. NXT FCST BY 080800Z<br><br>
<br><br>
TAF CYTR 072330Z 0800/0824 22010KT P6SM FEW070 SCT250 BECMG 0800/0802 34005KT FM081000 34005KT P6SM FEW250 BECMG 0816/0818 22008KT RMK NXT FCST BY 080600Z<br><br>
<br><br>
