RETRIEVED AT : Jun 19 2018 06:12 Local <br>
  RETRIEVED AT: Jun 19 2018 10:12 UTC<br><br>
CYSN has no TAF <br><br>
<br><br>
CYHM 191000Z 03009KT 15SM FEW160 SCT250 17/14 A2998 RMK AC1CI3 SLP151 DENSITY ALT 1100FT<br><br>
CYHM 190900Z 03008KT 15SM FEW150 BKN250 16/14 A2996 RMK AC1CI5 SLP144 DENSITY ALT 1100FT<br><br>
TAF CYHM 190538Z 1906/2006 32005KT P6SM SCT015 BKN070 TEMPO 1906/1908 BKN015 BECMG 1908/1910 03012KT FM191200 03012G22KT P6SM SCT070 BECMG 1917/1919 07010KT FM200000 07007KT P6SM BKN150 RMK NXT FCST BY 191200Z<br><br>
<br><br>
KIAG 190904Z 1909/2006 01008KT P6SM SCT025 BKN060 FM191000 03010KT P6SM SCT060 FM200100 03006KT P6SM FEW200 FM200300 VRB03KT P6SM SCT250<br><br>
<br><br>
KBUF 190954Z 02007KT 10SM FEW065 SCT130 BKN250 17/15 A2996 RMK AO2 SLP142 T01720150 $<br><br>
KBUF 190854Z 01007KT 10SM CLR 18/16 A2994 RMK AO2 SLP134 T01780156 53012 $<br><br>
KBUF 190904Z 1909/2006 01008KT P6SM SCT025 OVC060 FM191200 02007KT P6SM SCT060 FM200100 07004KT P6SM SCT200 FM200500 VRB03KT P6SM SCT250<br><br>
<br><br>
TAF CYYZ 190838Z 1909/2012 34012KT P6SM SCT160 BECMG 1911/1913 02010KT FM191800 07005KT P6SM SCT200 BECMG 2000/2002 VRB03KT FM200600 VRB03KT P6SM BKN160 RMK NXT FCST BY 191200Z<br><br>
<br><br>
CYOO 191000Z AUTO 34007KT 320V020 9SM CLR 17/14 A2997 RMK SLP147 DENSITY ALT 700FT<br><br>
CYOO 190900Z AUTO 36010G15KT 9SM CLR 17/14 A2994 RMK SLP139 DENSITY ALT 700FT<br><br>
CYOO has no TAF <br><br>
<br><br>
CYTR 191000Z 01010G15KT 15SM FEW040 SCT250 16/12 A2995 RMK SC1CI3 SLP142<br><br>
CYTR 190900Z 36009KT 15SM FEW120 BKN250 16/13 A2991 RMK AC1CI4 SLP129<br><br>
TAF CYTR 190530Z 1906/2006 35010KT P6SM FEW040 SCT120 FM191200 02010KT P6SM FEW250 BECMG 1917/1919 20008KT BECMG 1923/2001 22005KT RMK NXT FCST BY 191200Z<br><br>
<br><br>
