RETRIEVED AT : Sep 26 2017 04:10 Local <br>
  RETRIEVED AT: Sep 26 2017 08:10 UTC<br><br>
CYSN has no TAF <br><br>
<br><br>
CYHM 260800Z 06003KT 15SM BKN230 20/19 A3001 RMK CI7 SLP159 DENSITY ALT 1500FT<br><br>
CYHM 260700Z 05004KT 15SM BKN230 20/19 A3001 RMK CI7 SLP160 DENSITY ALT 1500FT<br><br>
TAF CYHM 260538Z 2606/2706 VRB03KT P6SM BKN240 TEMPO 2609/2614 4SM BR PROB30 2609/2613 3/4SM BR FM261700 20012KT P6SM SKC BECMG 2701/2703 21005KT RMK NXT FCST BY 261200Z<br><br>
<br><br>
KIAG 260753Z AUTO 00000KT 4SM BR CLR 21/19 A3000 RMK AO2 SLP152 T02110189<br><br>
KIAG 260653Z AUTO 00000KT 4SM BR CLR 22/19 A3000 RMK AO2 SLP151 T02170194<br><br>
KIAG 260538Z 2606/2706 VRB03KT P6SM BKN250 FM260700 VRB03KT 4SM BR BKN250 FM260900 VRB03KT 2SM BR SCT250 FM261100 VRB03KT P6SM SCT250 FM261800 22007KT P6SM SCT040 SCT250 FM270000 19004KT P6SM SCT250<br><br>
<br><br>
KBUF 260754Z 16006KT 10SM BKN250 21/18 A3001 RMK AO2 SLP157 T02110183<br><br>
KBUF 260654Z 14004KT 10SM BKN250 21/19 A3001 RMK AO2 SLP158 T02110189<br><br>
KBUF 260538Z 2606/2706 VRB03KT P6SM BKN250 FM261600 24008KT P6SM FEW040 SCT250 FM270000 VRB04KT P6SM SCT250<br><br>
<br><br>
CYYZ 260800Z 32003KT 15SM FEW090 BKN220 21/18 A2999 RMK AC1CI4 SLP155 DENSITY ALT 1400FT<br><br>
CYYZ 260700Z 03003KT 15SM FEW230 23/18 A3000 RMK CI2 SLP156 DENSITY ALT 1500FT<br><br>
TAF CYYZ 260538Z 2606/2712 VRB03KT P6SM SCT230 BECMG 2614/2616 16008KT FM261700 20010KT P6SM SKC BECMG 2619/2621 16010KT BECMG 2623/2701 20007KT RMK NXT FCST BY 260900Z<br><br>
<br><br>
CYOO 260800Z AUTO 00000KT 9SM CLR 19/17 A2999 RMK SLP155 DENSITY ALT 900FT<br><br>
CYOO 260700Z AUTO 05002KT 9SM CLR 19/17 A3000 RMK SLP158 DENSITY ALT 900FT<br><br>
CYOO has no TAF <br><br>
<br><br>
CYTR 260800Z 05002KT 6SM BR FEW250 18/18 A3001 RMK CI2 SLP162<br><br>
CYTR 260700Z 00000KT 5SM BR FEW250 17/17 A3001 RMK CI2 SLP163<br><br>
TAF CYTR 260530Z 2606/2706 VRB03KT P6SM FEW250 TEMPO 2606/2612 3SM BR BECMG 2616/2618 20009KT RMK NXT FCST BY 261200Z<br><br>
<br><br>
