RETRIEVED AT : Jun 09 2019 05:05 Local <br>
  RETRIEVED AT: Jun 09 2019 09:05 UTC<br><br>
CYSN has no TAF <br><br>
<br><br>
CYHM 090800Z 04008KT 030V090 15SM FEW230 12/07 A3017 RMK CI2 SLP218<br><br>
TAF CYHM 090538Z 0906/1006 04007KT P6SM BKN240 FM091400 09010G20KT P6SM BKN180 BECMG 1001/1003 13010KT FM100500 13010KT P6SM SCT070 BKN150 RMK NXT FCST BY 091200Z<br><br>
<br><br>
KIAG 090853Z AUTO 00000KT 10SM CLR 13/07 A3018 RMK AO2 SLP218 T01330067 53003<br><br>
KIAG 090753Z AUTO 07003KT 10SM CLR 13/06 A3017 RMK AO2 SLP217 T01330061<br><br>
KIAG 090818Z 0908/1006 09006KT P6SM SCT250 FM091500 13010G16KT P6SM BKN250 FM092200 14008KT P6SM BKN060<br><br>
<br><br>
KBUF 090854Z COR 12007KT 10SM FEW200 OVC280 15/08 A3019 RMK AO2 SLP221 T01500083 53003<br><br>
KBUF 090754Z 12007KT 10SM FEW200 BKN280 15/08 A3019 RMK AO2 SLP219 T01500083<br><br>
KBUF 090818Z 0908/1006 11006KT P6SM SCT250 FM091500 13010G16KT P6SM BKN250 FM092200 14008KT P6SM BKN060<br><br>
<br><br>
CYYZ 090800Z 06009KT 15SM BKN250 14/05 A3018 RMK CI6 SLP223<br><br>
TAF CYYZ 090838Z 0909/1012 06010KT P6SM SCT240 BECMG 0913/0915 11010G20KT FM100200 11010KT P6SM SCT070 BKN150 FM100800 13012KT P6SM BKN100 FM101100 12015KT 6SM -SHRA BR OVC025 RMK NXT FCST BY 091200Z<br><br>
<br><br>
CYOO 090800Z AUTO 00000KT 9SM CLR 11/08 A3019 RMK SLP226<br><br>
TAF CYOO 090738Z 0908/0920 VRB03KT P6SM SKC BECMG 0913/0915 12010G20KT RMK FCST BASED ON AUTO OBS. NXT FCST BY 091400Z<br><br>
<br><br>
CYTR 090800Z 04006KT 15SM FEW220 12/06 A3021 RMK CI1 SLP232<br><br>
TAF CYTR 090530Z 0906/1006 05005KT P6SM FEW220 FM091200 10005KT P6SM FEW220 BECMG 0915/0917 13008KT RMK NXT FCST BY 091200Z<br><br>
<br><br>
