RETRIEVED AT : May 16 2020 18:05 Local <br>
  RETRIEVED AT: May 16 2020 22:05 UTC<br><br>
CYSN 162100Z 05005KT 010V090 15SM FEW030 FEW250 18/10 A3017 RMK SC1CI2 SC TR SLP219 DENSITY ALT 500FT<br><br>
TAF CYSN 161938Z 1620/1701 02006KT P6SM FEW030 RMK NXT FCST WILL BE ISSUED AT 171245Z<br><br>
<br><br>
CYHM 162100Z 09009KT 040V110 15SM FEW042 SCT250 19/09 A3017 RMK CU1CI2 SLP221 DENSITY ALT 1100FT<br><br>
TAF CYHM 161741Z 1618/1718 05007KT P6SM FEW030 FM170100 06005KT P6SM SKC FM171000 06012KT P6SM SCT040 BKN180 FM171600 05015G25KT P6SM SCT040 BKN140 RMK NXT FCST BY 170000Z<br><br>
<br><br>
KIAG 162153Z 03006KT 10SM CLR 18/07 A3017 RMK AO2 SLP222 T01830067<br><br>
KIAG 162053Z 04010KT 10SM CLR 18/07 A3017 RMK AO2 SLP220 T01830072 56009<br><br>
KIAG 162020Z 1620/1718 04006KT P6SM SCT040 FM162300 06005KT P6SM SCT250 FM171400 09011G18KT P6SM OVC100<br><br>
<br><br>
KBUF 162154Z 05006KT 10SM FEW045 BKN240 18/08 A3018 RMK AO2 SLP220 T01830078<br><br>
KBUF 162054Z 01005KT 10SM SCT041 SCT240 18/08 A3017 RMK AO2 SLP218 T01830078 56008<br><br>
KBUF 162020Z 1620/1718 04006KT P6SM SCT040 FM162300 07005KT P6SM SCT250 FM171500 09011G17KT P6SM OVC100<br><br>
<br><br>
CYYZ 162100Z 15009KT 120V180 15SM SCT050 SCT200 16/08 A3018 RMK SC3CI1 SLP223<br><br>
TAF CYYZ 162038Z 1621/1724 15008KT P6SM SCT050 TEMPO 1621/1624 BKN030 FM170000 13008KT P6SM SCT040 BECMG 1701/1703 07007KT FM170900 08008KT P6SM SCT050 BKN220 FM171200 09012KT P6SM SCT050 OVC150 BECMG 1717/1719 09012G22KT FM172100 09012G22KT P6SM -RA BKN030 OVC070 RMK NXT FCST BY 170000Z<br><br>
<br><br>
CYOO 162100Z AUTO 12007KT 100V190 9SM SCT055 15/08 A3019 RMK SLP227<br><br>
TAF CYOO 161938Z 1620/1708 20008KT P6SM FEW050 TEMPO 1620/1701 BKN050 BECMG 1622/1624 12005KT FM170100 VRB03KT P6SM FEW050 FM170600 05007KT P6SM FEW040 SCT240 RMK FCST BASED ON AUTO OBS. NXT FCST BY 170200Z<br><br>
<br><br>
CYTR 162100Z 21007KT 15SM SCT040 14/07 A3020 RMK SC3 SLP229<br><br>
TAF CYTR 161731Z 1618/1718 31005KT P6SM BKN030 BECMG 1618/1619 20008KT FM170200 VRB03KT P6SM FEW030 BECMG 1706/1708 04007KT FM171200 05010KT P6SM BKN200 RMK NXT FCST BY 170000Z<br><br>
<br><br>
