RETRIEVED AT : Jun 01 2020 03:05 Local <br>
  RETRIEVED AT: Jun 01 2020 07:05 UTC<br><br>
CYSN has no TAF <br><br>
<br><br>
CYHM 010600Z 24007KT 15SM FEW065 SCT080 BKN090 08/05 A3022 RMK SC1AC1AC3 SLP238<br><br>
TAF CYHM 010538Z 0106/0206 25008KT P6SM SKC BECMG 0113/0115 25015KT FM011600 26015KT P6SM SCT080 BECMG 0200/0202 24010KT RMK NXT FCST BY 011200Z<br><br>
<br><br>
KIAG 010653Z AUTO 25006KT 10SM FEW070 BKN095 09/06 A3021 RMK AO2 RAB0555E04 SLP236 P0000 T00940061<br><br>
KIAG 010553Z AUTO 23004KT 10SM SCT070 OVC100 10/07 A3021 RMK AO2 RAB39E48 SLP235 P0000 60000 T01000072 10117 20094 58009<br><br>
KIAG 010522Z 0106/0206 22006KT P6SM VCSH BKN060 FM011000 28006KT P6SM SCT060 BKN250 FM011400 25012KT P6SM SCT200 FM011800 24016G23KT P6SM SCT200 FM020000 23012KT P6SM BKN200<br><br>
<br><br>
KBUF 010654Z 23006KT 10SM BKN070 BKN100 09/08 A3022 RMK AO2 SLP236 T00940083 $<br><br>
KBUF 010554Z 19008KT 10SM BKN070 BKN100 09/09 A3022 RMK AO2 SLP235 T00940089 10100 20094 58008 $<br><br>
KBUF 010522Z 0106/0206 22006KT P6SM VCSH BKN060 FM011000 27006KT P6SM SCT060 BKN250 FM011400 24012KT P6SM SCT200 FM011800 24018G25KT P6SM SCT200 FM020000 23012KT P6SM BKN200<br><br>
<br><br>
CYYZ 010600Z 26009KT 15SM FEW065 09/02 A3020 RMK SC2 SLP231<br><br>
TAF CYYZ 010538Z 0106/0212 25005KT P6SM FEW060 BECMG 0112/0114 28010KT FM011500 27015G25KT P6SM SCT070 FM020300 22010KT P6SM FEW080 BKN140 FM020900 24008KT P6SM -SHRA BKN050 RMK NXT FCST BY 010900Z<br><br>
<br><br>
CYOO 010600Z AUTO 03003KT 9SM BKN080 07/06 A3019 RMK SLP226<br><br>
TAF CYOO 010142Z 0102/0114 30005KT P6SM SCT080 SCT120 TEMPO 0102/0106 BKN080 FM010800 VRB03KT P6SM FEW050 BECMG 0112/0114 22010KT RMK FCST BASED ON AUTO OBS. NXT FCST BY 010800Z<br><br>
<br><br>
CYTR 010600Z 27005KT 15SM FEW025 OVC050 09/05 A3020 RMK SC2SC6 SLP227<br><br>
CYTR 010526Z 31003KT 15SM -SHRA SCT025 OVC050 09/03 A3020 RMK SC3SC5 SLP229<br><br>
TAF CYTR 010530Z 0106/0206 VRB03KT P6SM OVC050 TEMPO 0106/0108 P6SM -SHRA FM010800 VRB03KT P6SM FEW050 FM011400 24005KT P6SM BKN080 BECMG 0114/0116 24010G20KT BECMG 0119/0121 29015G25KT FM020000 30012G22KT P6SM BKN150 BECMG 0200/0202 30005KT RMK NXT FCST BY 011200Z<br><br>
<br><br>
