RETRIEVED AT : Jun 06 2018 15:55 Local <br>
  RETRIEVED AT: Jun 06 2018 19:55 UTC<br><br>
TAF AMD CYSN 061246Z 0613/0701 35008KT P6SM OVC020 TEMPO 0613/0615 BKN030 BECMG 0615/0617 SCT040 FM070000 21008KT P6SM SCT040 RMK NXT FCST BY 062000Z<br><br>
<br><br>
CYHM 061900Z 21003KT 15SM FEW025 BKN031 14/07 A2996 RMK CU2SC5 PRESFR SLP150 DENSITY ALT 900FT<br><br>
CYHM 061800Z 24005KT 15SM SCT024 OVC028 13/07 A2998 RMK CU3SC5 SLP157<br><br>
TAF CYHM 061738Z 0618/0718 30006KT P6SM OVC030 TEMPO 0618/0620 OVC020 BECMG 0618/0620 23006KT FM070500 23008KT P6SM BKN100 FM070900 23008KT P6SM BKN080 FM071400 24015KT P6SM BKN050 RMK NXT FCST BY 070000Z<br><br>
<br><br>
KIAG 061953Z 32008KT 10SM OVC031 16/07 A2997 RMK AO2 SLP151 T01610072<br><br>
KIAG 061853Z 27005KT 10SM OVC031 16/07 A2997 RMK AO2 SLP151 T01560072<br><br>
KIAG 061734Z 0618/0718 33008KT P6SM BKN025 FM062300 24005KT P6SM SCT030 FM070200 22006KT P6SM FEW250 FM071600 23011KT P6SM SCT070<br><br>
<br><br>
KBUF 061734Z 0618/0718 28006KT P6SM BKN025 FM062200 26005KT P6SM SCT030 FM070200 25005KT P6SM SCT250 FM070300 21005KT P6SM FEW200 FM071400 23009KT P6SM SCT090<br><br>
<br><br>
TAF CYYZ 061738Z 0618/0724 31010KT P6SM OVC030 BECMG 0619/0621 18010KT BKN030 FM070300 25008KT P6SM SCT040 FM070500 25008KT P6SM BKN120 FM071000 26008KT P6SM BKN060 FM071500 26012G22KT P6SM BKN040 FM072100 27015KT P6SM BKN080 RMK NXT FCST BY 062100Z<br><br>
<br><br>
CYOO 061900Z AUTO 17005KT 9SM OVC028 14/08 A2995 RMK SLP145<br><br>
CYOO 061800Z AUTO VRB04KT 9SM OVC028 15/07 A2996 RMK SLP148<br><br>
CYOO has no TAF <br><br>
<br><br>
CYTR 061900Z 22008KT 15SM SCT045 BKN250 17/11 A2993 RMK SC3CI2 SLP137<br><br>
CYTR 061800Z 25007KT 15SM BKN020 BKN069 16/11 A2994 RMK SC5AC1 SLP139<br><br>
TAF CYTR 061731Z 0618/0718 28005KT P6SM BKN025 TEMPO 0618/0620 BKN020 BECMG 0618/0620 20008KT FM062200 22008KT P6SM SCT040 FM070800 21005KT P6SM BKN100 FM071400 23012G22KT P6SM BKN040 RMK NXT FCST BY 070000Z<br><br>
<br><br>
