RETRIEVED AT : May 25 2018 23:40 Local <br>
  RETRIEVED AT: May 26 2018 03:40 UTC<br><br>
CYSN has no TAF <br><br>
<br><br>
CYHM 260300Z 22006KT 15SM FEW100 FEW250 18/08 A2981 RMK AC1CI1 AC TR CI TR SLP093 DENSITY ALT 1500FT<br><br>
CYHM 260200Z 22008KT 15SM FEW100 FEW250 19/08 A2981 RMK AC1CI1 AC TR CI TR SLP095 DENSITY ALT 1600FT<br><br>
TAF CYHM 252338Z 2600/2624 23010G20KT P6SM SCT250 BECMG 2600/2602 23010KT FM261000 23008KT P6SM BKN200 FM261400 23015KT P6SM BKN060 OVC160 BECMG 2619/2621 25015G25KT RMK NXT FCST BY 260600Z<br><br>
<br><br>
KIAG 260253Z 21009KT 10SM CLR 18/09 A2981 RMK AO2 SLP092 T01830094 50001<br><br>
KIAG 260153Z 21009KT 10SM CLR 19/10 A2982 RMK AO2 SLP093 T01890100<br><br>
KIAG 260248Z 2603/2624 23010KT P6SM SKC FM261500 23008KT P6SM BKN150<br><br>
<br><br>
KBUF 260254Z 20004KT 10SM CLR 19/09 A2983 RMK AO2 SLP098 T01890089 58002<br><br>
KBUF 260154Z 21008KT 10SM FEW250 19/09 A2983 RMK AO2 SLP099 T01940089<br><br>
KBUF 260248Z 2603/2624 23008KT P6SM SKC<br><br>
<br><br>
CYYZ 260300Z 23009KT 15SM SKC 24/06 A2976 RMK SLP077 DENSITY ALT 1900FT<br><br>
CYYZ 260200Z 24012KT 15SM FEW150 25/08 A2977 RMK AC1 AC TR SLP080 DENSITY ALT 2000FT<br><br>
TAF CYYZ 260238Z 2603/2706 24012KT P6SM FEW150 FM261000 26010KT P6SM SCT080 BKN160 BECMG 2616/2618 22012KT FM262000 22015KT P6SM BKN080 PROB30 2620/2624 VRB15G30KT 1SM +TSRA BKN020 OVC060CB FM270000 30012KT P6SM SCT060 BKN100 BECMG 2702/2704 36005KT RMK NXT FCST BY 260600Z<br><br>
<br><br>
