RETRIEVED AT : Apr 07 2018 06:17 Local <br>
  RETRIEVED AT: Apr 07 2018 10:17 UTC<br><br>
CYSN has no TAF <br><br>
<br><br>
CYHM 071000Z 28010KT 15SM FEW020 M06/M12 A2994 RMK SC1 SC TR SLP151<br><br>
CYHM 070900Z 28011KT 15SM FEW020 FEW045 M06/M12 A2993 RMK SC1SC1 SC TR SC TR SLP149<br><br>
TAF CYHM 070538Z 0706/0806 30010G20KT P6SM FEW030 FM071600 26015KT P6SM BKN030 BECMG 0722/0724 28008KT SCT040 FM080200 28006KT P6SM SKC RMK NXT FCST BY 071200Z<br><br>
<br><br>
KIAG 070953Z AUTO 30013G23KT 10SM SCT040 M03/M11 A2994 RMK AO2 SLP154 T10331111<br><br>
KIAG 070853Z AUTO 29016G24KT 10SM OVC041 M02/M10 A2992 RMK AO2 SLP147 T10221100 51015<br><br>
KIAG 070902Z 0709/0806 28014G24KT P6SM VCSH SCT025 BKN035 TEMPO 0715/0719 4SM -SHSN OVC025 FM071900 27010G18KT 4SM -SHSN SCT025 BKN035 FM072300 25008KT P6SM BKN060 FM080200 28006KT P6SM SCT035<br><br>
<br><br>
KBUF 070954Z 27010KT 10SM BKN039 M04/M11 A2993 RMK AO2 SLP146 T10441106 $<br><br>
KBUF 070854Z 28008KT 10SM BKN039 M04/M09 A2992 RMK AO2 SLP140 T10391094 51017 $<br><br>
KBUF 070901Z 0709/0806 28010KT P6SM SCT025 BKN035 FM071400 28012G22KT P6SM BKN035 FM071800 25012G20KT P6SM BKN035 FM072100 24012KT P6SM BKN060 FM080000 24008KT P6SM SCT035<br><br>
<br><br>
CYYZ 071000Z 27012KT 15SM FEW035 M06/M11 A2992 RMK SC1 SLP143<br><br>
CYYZ 070900Z 29011G16KT 15SM FEW035 M05/M11 A2991 RMK SC1 SLP138<br><br>
TAF CYYZ 070838Z 0709/0812 30012G22KT P6SM FEW040 FM071600 29015KT P6SM BKN040 BECMG 0723/0801 29010KT FEW040 FM080400 29008KT P6SM SKC RMK NXT FCST BY 071200Z<br><br>
<br><br>
CYOO 071000Z AUTO 29013G19KT 9SM CLR M05/M12 A2989 RMK SLP130<br><br>
CYOO 070900Z AUTO 29013G18KT 9SM CLR M04/M12 A2988 RMK SLP126<br><br>
CYOO has no TAF <br><br>
<br><br>
CYTR 071000Z 28012KT 15SM FEW032 M04/M09 A2985 RMK CU1 SLP113<br><br>
CYTR 070900Z 29015G21KT 15SM FEW032 M03/M09 A2983 RMK SC2 SLP106<br><br>
TAF CYTR 070530Z 0706/0806 28015G25KT P6SM SKC BECMG 0709/0711 28012G22KT FM071600 28012G22KT P6SM FEW050 TEMPO 0716/0722 BKN050 FM072200 24010KT P6SM SCT015 BKN030 TEMPO 0722/0802 4SM -SHSN BKN015 OVC030 FM080400 29008KT P6SM BKN050 RMK NXT FCST BY 071200Z<br><br>
<br><br>
