RETRIEVED AT : Mar 20 2020 23:05 Local <br>
  RETRIEVED AT: Mar 21 2020 03:05 UTC<br><br>
CYSN has no TAF <br><br>
<br><br>
CYHM 210200Z 31015G22KT 15SM OVC018 M02/M06 A3024 RMK SC8 SLP247<br><br>
TAF CYHM 202338Z 2100/2124 30015G25KT P6SM OVC020 TEMPO 2100/2110 SCT020 BKN030 BECMG 2104/2106 36008KT FM211000 03010KT P6SM SCT020 FM211200 04010KT P6SM SKC FM211800 06008KT P6SM SCT200 RMK NXT FCST BY 210600Z<br><br>
<br><br>
KIAG 210253Z 31017KT 10SM OVC019 M01/M04 A3026 RMK AO2 SLP254 T10061044 53047<br><br>
KIAG 210153Z 32019G26KT 10SM BKN018 OVC025 00/M04 A3020 RMK AO2 PK WND 31026/0146 SLP236 T00001039<br><br>
KIAG 210258Z 2103/2124 31017KT P6SM OVC019 FM210600 32015G22KT P6SM BKN060 FM211000 34011G17KT P6SM BKN070 FM211300 35010KT P6SM FEW250<br><br>
<br><br>
KBUF 210254Z 30018G26KT 10SM OVC022 00/M04 A3024 RMK AO2 PK WND 32026/0249 SLP245 T00001044 51048<br><br>
KBUF 210154Z 30014G20KT 10SM OVC019 01/M03 A3019 RMK AO2 PK WND 29026/0116 SLP228 T00111033<br><br>
KBUF 210258Z 2103/2124 30014G20KT P6SM OVC019 FM210600 33011G17KT P6SM OVC040 FM211400 36007KT P6SM SCT250<br><br>
<br><br>
CYYZ 210200Z 33022KT 15SM OVC023 M02/M07 A3022 RMK SC8 SLP240<br><br>
TAF CYYZ 210238Z 2103/2206 33018G28KT P6SM BKN025 TEMPO 2103/2106 OVC020 FM210600 35015G25KT P6SM SCT025 TEMPO 2106/2108 BKN020 FM210900 01012G22KT P6SM SKC BECMG 2110/2112 01012KT FM211800 01012KT P6SM SCT200 FM220000 36008KT P6SM SKC RMK NXT FCST BY 210600Z<br><br>
<br><br>
CYOO 210200Z AUTO 32021G29KT 9SM SCT025 M02/M07 A3019 RMK SLP228<br><br>
CYOO 210142Z AUTO 31017G29KT 9SM BKN025 M02/M06 A3018 RMK PRESRR SLP225<br><br>
CYOO 210139Z AUTO 32015G32KT 9SM BKN023 M02/M06 A3017 RMK PRESRR SLP224<br><br>
CYOO 210128Z AUTO 31024G35KT 9SM SCT021 BKN025 M02/M06 A3016 RMK SLP219<br><br>
TAF CYOO 210138Z 2102/2114 31018G28KT P6SM OVC020 TEMPO 2102/2106 BKN025 BECMG 2104/2106 34012G22KT FM210600 34012G22KT P6SM SCT020 TEMPO 2106/2108 BKN020 FM211000 34010KT P6SM SKC RMK FCST BASED ON AUTO OBS. NXT FCST BY 210800Z<br><br>
<br><br>
CYTR 210200Z 30017G22KT 15SM BKN020 BKN250 00/M04 A3012 RMK SC5CI1 SLP205<br><br>
TAF AMD CYTR 210156Z 2101/2124 30015G25KT P6SM BKN020 OVC250 BECMG 2102/2104 34010G20KT SCT020 FM210700 35008KT P6SM SKC FM211700 35008KT P6SM SCT210 RMK NXT FCST BY 210600Z<br><br>
<br><br>
