RETRIEVED AT : Sep 09 2019 00:15 Local <br>
  RETRIEVED AT: Sep 09 2019 04:15 UTC<br><br>
CYSN has no TAF <br><br>
<br><br>
CYHM 090400Z 03007KT 15SM FEW160 10/07 A3023 RMK AC1 SLP241<br><br>
CYHM 090300Z 02007KT 15SM FEW160 10/07 A3022 RMK AC2 SLP238<br><br>
TAF CYHM 082338Z 0900/0924 09005KT P6SM SCT050 BKN160 TEMPO 0900/0903 BKN050 OVC160 FM090300 03006KT P6SM SCT040 BKN120 FM091200 03010KT P6SM SCT040 BKN080 FM092200 06008KT P6SM FEW040 RMK NXT FCST BY 090600Z<br><br>
<br><br>
KIAG 090353Z AUTO A3022 RMK AO2 SLPNO PWINO RVRNO $<br><br>
KIAG 090253Z 00000KT 10SM SCT045 A3022 RMK AO2 SLPNO 52020 $<br><br>
KIAG 090250Z 0903/0924 35005KT P6SM SCT200 FM091000 VRB04KT 5SM BR SCT200 FM091300 08005KT P6SM SCT150 FM092300 06007KT P6SM FEW200<br><br>
<br><br>
KBUF 090354Z 04004KT 10SM SCT046 BKN180 13/09 A3022 RMK AO2 SLP234 T01330094<br><br>
KBUF 090254Z 01004KT 10SM BKN180 14/10 A3022 RMK AO2 SLP233 T01440100 53017<br><br>
KBUF 090250Z 0903/0924 02005KT P6SM SCT200 FM091000 VRB04KT 5SM BR SCT200 FM091200 08006KT P6SM SCT150 FM092300 06007KT P6SM FEW200<br><br>
<br><br>
CYYZ 090400Z 05009KT 15SM FEW180 11/07 A3024 RMK AC1 AC TR SLP242<br><br>
CYYZ 090300Z 05008KT 15SM FEW180 11/07 A3023 RMK AC1 AC TR SLP241<br><br>
TAF CYYZ 090238Z 0903/1006 03008KT P6SM FEW050 SCT180 FM091500 08009KT P6SM SCT025 BKN120 FM091800 12010KT P6SM BKN030 OVC100 FM092100 12010KT P6SM SCT030 FM100000 07007KT P6SM SKC RMK NXT FCST BY 090600Z<br><br>
<br><br>
CYOO 090400Z AUTO 05004KT 9SM CLR 10/07 A3024 RMK SLP243<br><br>
CYOO 090300Z AUTO 36004KT 9SM CLR 10/08 A3023 RMK SLP240<br><br>
TAF CYOO 090138Z 0902/0914 VRB03KT P6SM FEW030 BKN210 BECMG 0904/0906 04007KT BECMG 0912/0914 09008KT RMK FCST BASED ON AUTO OBS. NXT FCST BY 090800Z<br><br>
<br><br>
CYTR 090400Z 05006KT 15SM BKN040 11/07 A3025 RMK SC5 SLP245<br><br>
CYTR 090300Z 04009KT 15SM SCT040 BKN250 12/07 A3024 RMK SC4CI2 SLP240<br><br>
TAF CYTR 082330Z 0900/0924 34004KT P6SM SCT050 BKN220 BECMG 0903/0905 03005KT FM091100 05006KT P6SM SCT040 BKN150 FM092100 21005KT P6SM FEW040 RMK NXT FCST BY 090600Z<br><br>
<br><br>
