RETRIEVED AT : Dec 12 2017 04:10 Local <br>
  RETRIEVED AT: Dec 12 2017 09:10 UTC<br><br>
CYSN has no TAF <br><br>
<br><br>
CYHM 120900Z 30002KT 1 1/4SM -SN BKN016 OVC026 M03/M03 A2953 RMK SN5SC1SC2 SLP013<br><br>
CYHM 120800Z 03002KT 1 1/4SM -SN OVC011 M03/M03 A2955 RMK SN6SC2 SLP020<br><br>
TAF CYHM 120538Z 1206/1306 05007KT 1SM -SN VV010 TEMPO 1206/1210 3SM -SN OVC020 FM121000 27010KT 2SM -SN OVC020 TEMPO 1210/1214 5SM -SN OVC030 BECMG 1212/1214 30008KT FM121400 29020G35KT P6SM -SN SCT030 OVC050 PROB30 1214/1216 11/2SM -SHSN BLSN VV012 FM121900 30020G30KT P6SM SCT050 BECMG 1220/1222 29015KT RMK NXT FCST BY 121200Z<br><br>
<br><br>
KIAG 120855Z AUTO 03004KT 1SM R28R/6000VP6000FT -SN BR FEW006 OVC010 M01/M03 A2954 RMK AO2 P0000 T10111033<br><br>
KIAG 120853Z AUTO 03004KT 3/4SM R28R/6000VP6000FT -SN BR VV009 M01/M03 A2954 RMK AO2 SLP018 P0004 60010 T10111033 58021<br><br>
KIAG 120808Z AUTO 07004KT 3/4SM R28R/P6000FT -SN OVC009 M01/M04 A2956 RMK AO2 P0000 T10111039<br><br>
KIAG 120802Z AUTO 07004KT 1SM R28R/P6000FT -SN FEW005 OVC010 M01/M04 A2957 RMK AO2 P0000 T10111039<br><br>
KIAG 120753Z AUTO 07004KT 3/4SM R28R/6000VP6000FT -SN VV011 M01/M04 A2957 RMK AO2 SLP029 P0004 T10111039<br><br>
KIAG 120751Z AUTO 07004KT 3/4SM R28R/6000VP6000FT -SN VV011 M01/M04 A2957 RMK AO2 P0003<br><br>
KIAG 120732Z AUTO 08005KT 1SM R28R/P6000FT -SN VV014 M01/M04 A2958 RMK AO2 P0002 T10111039<br><br>
KIAG 120729Z AUTO 08005KT 3/4SM R28R/P6000FT -SN VV015 M01/M04 A2958 RMK AO2 P0002 T10111039<br><br>
KIAG 120719Z AUTO 09004KT 1SM R28R/P6000FT -SN VV015 M01/M04 A2959 RMK AO2 P0001 T10111039<br><br>
KIAG 120908Z 1209/1306 VRB04KT 1SM -SN OVC012 FM121100 27005KT 1SM -SN OVC015 FM121500 32012G20KT 1SM -SN OVC015 FM121800 28015G25KT P6SM VCSH OVC035 FM122300 27017G23KT 1SM -SN OVC015<br><br>
<br><br>
KBUF 120904Z 14004KT 1SM R23/5000VP6000FT -SN BR SCT006 OVC010 M01/M02 A2953 RMK AO2 P0001 T10111017 $<br><br>
KBUF 120854Z 13003KT 3/4SM R23/5000VP6000FT -SN BR OVC006 M01/M02 A2953 RMK AO2 SLP010 SNINCR 1/4 P0004 60013 T10111017 56036 $<br><br>
KBUF 120811Z 14004KT 1SM R23/5500VP6000FT -SN BR BKN005 OVC009 M02/M02 A2956 RMK AO2 P0001 T10171017 $<br><br>
KBUF 120801Z 14004KT 3/4SM R23/5500VP6000FT -SN BR SCT006 OVC009 M02/M02 A2956 RMK AO2 P0000 T10171017 $<br><br>
KBUF 120754Z 12005KT 1SM R23/5500VP6000FT -SN BR FEW006 OVC011 M02/M02 A2957 RMK AO2 SLP021 P0005 T10171017 $<br><br>
KBUF 120908Z 1209/1306 VRB04KT 1SM -SN OVC012 FM121100 25005KT 1SM -SN OVC015 FM121500 29012G20KT 1SM -SN OVC015 FM121800 28013G22KT P6SM VCSH OVC035 FM122200 28015G21KT 4SM -SN OVC025 FM130000 27015G21KT 2SM -SN OVC015<br><br>
<br><br>
CYYZ 120900Z 36005KT 2SM -SN OVC016 M03/M04 A2954 RMK SN6SC2 /S02/ SLP015<br><br>
CYYZ 120800Z 07004KT 1 3/4SM -SN VV009 M03/M04 A2957 RMK SN8 SLP023<br><br>
CYYZ 120727Z 07005KT 2SM -SN VV010 M03/M05 A2958 RMK SN8 SLP028<br><br>
TAF CYYZ 120838Z 1209/1312 05005KT 11/2SM -SN VV008 TEMPO 1209/1210 3SM -SN OVC015 FM121000 01005KT 6SM -SN SCT008 OVC015 TEMPO 1210/1215 21/2SM -SN OVC008 BECMG 1213/1215 30015G25KT FM121500 30020G30KT P6SM -SN BKN030 OVC060 FM121700 29020G30KT P6SM SCT030 FM130200 33015G25KT P6SM -SHSN BKN030 TEMPO 1302/1305 2SM -SHSN BLSN OVC020 BECMG 1305/1307 33015KT RMK NXT FCST BY 121200Z<br><br>
<br><br>
CYOO 120900Z AUTO 07007KT 1 1/2SM -SN OVC017 M04/M05 A2956 RMK SLP018<br><br>
CYOO 120800Z AUTO 07007KT 1 1/4SM -SN OVC013 M04/M05 A2959 RMK SLP030<br><br>
CYOO has no TAF <br><br>
<br><br>
CYTR 120900Z 05008KT 1SM -SN OVC010 M07/M09 A2961 RMK SN6NS2 /S02/ SLP034<br><br>
CYTR 120800Z 05010KT 1SM -SN VV001 M07/M08 A2965 RMK SN8 SLP048<br><br>
CYTR 120719Z 06011KT 1SM -SN VV001 M07/M08 A2968 RMK SN8 SLP056<br><br>
TAF AMD CYTR 120908Z 1209/1306 05010KT 11/2SM -SN OVC012 TEMPO 1209/1216 3/4SM -SN VV008 FM121600 02010KT 3SM -SN BKN012 OVC030 FM122100 29012G22KT 3SM -SN BLSN BKN020 OVC040 BECMG 1302/1304 33012G22KT RMK NXT FCST BY 121200Z<br><br>
<br><br>
