RETRIEVED AT : Jun 07 2019 20:07 Local <br>
  RETRIEVED AT: Jun 08 2019 00:07 UTC<br><br>
CYSN 080000Z 07004KT 15SM FEW250 23/10 A2998 RMK CI2 SLP154 DENSITY ALT 1300FT<br><br>
CYSN 072300Z 09004KT 15SM SCT250 25/09 A2998 RMK CI3 SLP152 DENSITY ALT 1500FT<br><br>
TAF CYSN 071939Z 0720/0801 33006KT P6SM SKC BECMG 0722/0724 02005KT RMK NXT FCST WILL BE ISSUED AT 081245Z<br><br>
<br><br>
CYHM 080000Z 12004KT 360V120 15SM FEW250 23/11 A3000 RMK CI2 SLP160 DENSITY ALT 1800FT<br><br>
CYHM 072300Z 11006KT 060V120 15SM FEW260 24/08 A3000 RMK CI2 SLP159 DENSITY ALT 2000FT<br><br>
TAF CYHM 072338Z 0800/0824 04005KT P6SM FEW240 FM080300 03005KT P6SM SKC BECMG 0812/0814 05015KT RMK NXT FCST BY 080600Z<br><br>
<br><br>
KIAG 072353Z 05006KT 10SM CLR 23/08 A3000 RMK AO2 SLP158 T02330083 10256 20233 53001<br><br>
KIAG 072253Z 06005KT 10SM CLR 25/08 A2999 RMK AO2 SLP155 T02500083<br><br>
KIAG 072320Z 0800/0824 05005KT P6SM SKC FM080200 VRB03KT P6SM FEW250 FM080900 08005KT P6SM FEW250 FM081500 07010KT P6SM FEW250<br><br>
<br><br>
KBUF 072354Z 05005KT 10SM FEW280 23/08 A3001 RMK AO2 SLP160 T02330078 10256 20233 53004<br><br>
KBUF 072254Z 02006KT 10SM FEW280 24/07 A3000 RMK AO2 SLP155 T02440072<br><br>
KBUF 072320Z 0800/0824 05005KT P6SM SKC FM080400 VRB03KT P6SM FEW250 FM080900 10005KT P6SM FEW250 FM081500 07009KT P6SM FEW250<br><br>
<br><br>
CYYZ 080000Z 36006KT 330V040 15SM FEW180 23/09 A3000 RMK AC1 AC TR SLP159 DENSITY ALT 1600FT<br><br>
CYYZ 072300Z 36006KT 330V040 15SM FEW180 24/08 A2999 RMK AC1 AC TR SLP156 DENSITY ALT 1700FT<br><br>
TAF CYYZ 072338Z 0800/0906 04007KT P6SM FEW250 FM081200 08012KT P6SM SKC BECMG 0814/0816 13010G20KT BECMG 0900/0902 09010KT RMK NXT FCST BY 080300Z<br><br>
<br><br>
CYOO 080000Z AUTO 33007KT 9SM CLR 24/10 A2999 RMK SLP156 DENSITY ALT 1500FT<br><br>
CYOO 072300Z AUTO 32008KT 290V350 9SM CLR 25/08 A2998 RMK SLP152 DENSITY ALT 1600FT<br><br>
TAF CYOO 071939Z 0720/0808 VRB03KT P6SM SKC BECMG 0804/0806 04008KT RMK FCST BASED ON AUTO OBS. NXT FCST BY 080200Z<br><br>
<br><br>
CYTR 080000Z 22008KT 15SM FEW250 22/10 A2998 RMK CI1 SLP151<br><br>
CYTR 072300Z 23009KT 15SM FEW050 FEW250 23/11 A2997 RMK CF1CI1 CUFRA TR SLP148<br><br>
TAF CYTR 072330Z 0800/0824 23010KT P6SM FEW050 FEW250 BECMG 0800/0802 VRB03KT BECMG 0804/0806 04007KT FM081400 09007KT P6SM SKC BECMG 0816/0818 21010KT RMK NXT FCST BY 080600Z<br><br>
<br><br>
