RETRIEVED AT : Nov 04 2017 13:10 Local <br>
  RETRIEVED AT: Nov 04 2017 17:10 UTC<br><br>
CYSN 041700Z 10013G18KT 15SM SCT024 OVC230 09/04 A3028 RMK SC4CI4 SLP257<br><br>
CYSN 041600Z 07013G19KT 15SM FEW028 SCT110 OVC180 08/03 A3030 RMK SC2AC2AS4 SLP264<br><br>
TAF CYSN 041238Z 0413/0501 10005KT P6SM FEW020 BKN110 OVC250 BECMG 0413/0415 09010KT FM041600 09012KT P6SM SCT110 BKN170 BECMG 0418/0420 09012G22KT FM050000 09012G22KT P6SM BKN040 BKN120 RMK NXT FCST BY 042000Z<br><br>
<br><br>
CYHM 041700Z 08019G24KT 15SM FEW023 BKN150 OVC220 08/02 A3025 RMK SC2AC5CS1 SLP251<br><br>
CYHM 041600Z 07019G24KT 15SM FEW025 SCT180 OVC220 07/02 A3027 RMK SC1AC3CS5 SC TR SLP260<br><br>
TAF AMD CYHM 041509Z 0415/0512 06012G22KT P6SM FEW025 BKN180 OVC220 FM042100 06015G25KT P6SM BKN140 OVC220 FM050000 07010G20KT P6SM SCT030 BKN120 TEMPO 0500/0502 P6SM -SHRA BKN030 OVC120 FM050200 07008KT 6SM -SHRA BR FEW012 OVC025 FM050400 08008KT 5SM -SHRA BR FEW008 OVC015 FM050600 09008KT 4SM -SHRA BR BKN008 OVC015 FM050800 18012KT 2SM -SHRA BR FEW004 OVC008 RMK NXT FCST BY 041800Z<br><br>
<br><br>
KIAG 041653Z 09009G18KT 10SM CLR 09/02 A3028 RMK AO2 SLP263 T00890017<br><br>
KIAG 041553Z 08011KT 10SM CLR 08/01 A3030 RMK AO2 SLP270 T00830011<br><br>
KIAG 041502Z 0415/0512 08010KT P6SM OVC120 FM041800 09013KT P6SM OVC120 FM042300 14005KT P6SM OVC035 FM050500 15005KT 6SM -RA OVC025 FM050800 17012G22KT 6SM -RA OVC020<br><br>
<br><br>
KBUF 041654Z 09012KT 10SM FEW025 FEW110 BKN160 OVC240 08/02 A3027 RMK AO2 SLP257 T00780017<br><br>
KBUF 041554Z 07016G20KT 10SM FEW025 FEW110 BKN160 OVC240 07/02 A3029 RMK AO2 SLP262 T00670017<br><br>
KBUF 041502Z 0415/0512 07012KT P6SM OVC150 FM041800 09013KT P6SM OVC120 FM042200 10009KT P6SM OVC035 FM050400 17007KT P6SM OVC030 FM050800 18015G27KT 6SM -RA OVC025 FM051100 18015G25KT P6SM OVC035<br><br>
<br><br>
CYYZ 041700Z 07009G17KT 15SM FEW023 OVC028 06/M00 A3029 RMK SF2SC6 SLP265<br><br>
CYYZ 041600Z 07013KT 15SM SCT020 OVC027 05/M00 A3032 RMK SF3SC5 SLP275<br><br>
TAF CYYZ 041438Z 0415/0518 08008KT P6SM SCT025 OVC090 TEMPO 0415/0416 BKN020 OVC090 FM041600 09010G20KT P6SM SCT015 BKN025 BKN120 TEMPO 0416/0420 BKN015 BKN025 OVC120 FM042000 09012G22KT P6SM BKN120 FM050100 10010KT P6SM SCT040 BKN120 TEMPO 0501/0503 P6SM -SHRA BKN040 OVC120 FM050300 09008KT P6SM -SHRA BKN030 OVC070 FM050500 10008KT 5SM -SHRA BR FEW006 OVC015 FM050800 14008KT 1SM -SHRA BR BKN003 OVC008 FM051200 19012KT 2SM -SHRA BR BKN006 OVC012 FM051600 19012G22KT 4SM -SHRA BR BKN008 OVC015 RMK NXT FCST BY 041800Z<br><br>
<br><br>
CYOO 041700Z AUTO 07009G15KT 9SM SCT120 06/M00 A3031 RMK PRESFR SLP271<br><br>
CYOO 041600Z AUTO 06009G15KT 9SM OVC095 06/M00 A3035 RMK SLP284<br><br>
CYOO has no TAF <br><br>
<br><br>
CYTR 041700Z 07004KT 15SM OVC090 05/02 A3038 RMK AC8 SLP291<br><br>
CYTR 041600Z 04010KT 15SM OVC090 05/02 A3039 RMK AC8 SLP296<br><br>
TAF CYTR 041130Z 0412/0512 VRB03KT P6SM FEW250 BECMG 0414/0416 07010G20KT BKN100 FM050300 12012KT P6SM -DZ SCT020 BKN040 FM050600 14012G22KT P6SM -RA BKN020 OVC040 TEMPO 0506/0512 3SM -RA BR OVC010 RMK NXT FCST BY 041800Z<br><br>
<br><br>
