RETRIEVED AT : Oct 08 2017 14:10 Local <br>
  RETRIEVED AT: Oct 08 2017 18:10 UTC<br><br>
CYSN 081800Z 23012G17KT 15SM BKN030 21/15 A2988 RMK SC7 SLP120 DENSITY ALT 1200FT<br><br>
CYSN 081700Z 24014KT 15SM BKN033 21/15 A2988 RMK SC7 SLP117 DENSITY ALT 1200FT<br><br>
TAF CYSN 081238Z 0813/0901 23015G25KT P6SM FEW050 BECMG 0818/0820 22010G20KT RMK NXT FCST BY 082000Z<br><br>
<br><br>
CYHM 081800Z 25011KT 15SM FEW025 BKN035 21/13 A2990 RMK CU1SC5 SLP123 DENSITY ALT 1700FT<br><br>
CYHM 081700Z 27013KT 15SM FEW023 BKN030 21/14 A2989 RMK CU2SC5 SLP121 DENSITY ALT 1700FT<br><br>
TAF CYHM 081739Z 0818/0918 25013G23KT P6SM BKN030 BECMG 0819/0821 21010KT FM090000 22010KT P6SM SKC BECMG 0900/0902 13005KT FM090300 14007KT P6SM BKN050 OVC160 FM090500 05012KT 4SM -RA BR BKN006 OVC020 FM090700 05012KT 3/4SM RA BR VV002 FM091400 04012G22KT 2SM -RA BR OVC008 FM091700 03010KT 6SM BR OVC010 RMK NXT FCST BY 090000Z<br><br>
<br><br>
KIAG 081753Z 23013KT 10SM OVC035 22/14 A2990 RMK AO2 SLP120 T02170139 10222 20200 51017<br><br>
KIAG 081653Z 26012KT 10SM OVC036 22/14 A2990 RMK AO2 SLP119 T02170139<br><br>
KIAG 081720Z 0818/0918 25013G20KT P6SM SCT025 BKN035 FM082200 23007KT P6SM SCT250 FM090400 VRB03KT 5SM RA OVC040 FM090600 09005KT 3SM +RA OVC025 FM090900 08010KT 3SM +RA OVC003 FM091600 34009KT P6SM SCT003 OVC012<br><br>
<br><br>
KBUF 081754Z 25011KT 10SM BKN037 BKN050 21/14 A2991 RMK AO2 SLP125 T02060144 10211 20189 51016<br><br>
KBUF 081654Z 23014G25KT 10SM SCT035 BKN043 BKN050 20/14 A2991 RMK AO2 PK WND 25027/1558 SLP125 T02000144<br><br>
KBUF 081720Z 0818/0918 25015G22KT P6SM SCT025 BKN045 FM082000 24010KT P6SM SCT200 FM090300 10004KT 5SM RA OVC040 FM090600 08006KT 3SM +RA OVC020 FM091100 10006KT 3SM +RA OVC003 FM091700 34008KT P6SM SCT003 OVC012<br><br>
<br><br>
CYYZ 081800Z 25011KT 240V320 15SM FEW035 FEW250 24/13 A2985 RMK CU1CI1 CU TR CI TR SLP109 DENSITY ALT 1900FT<br><br>
CYYZ 081700Z 27017KT 15SM FEW033 23/14 A2985 RMK CU1 SLP109 DENSITY ALT 1700FT<br><br>
TAF CYYZ 081739Z 0818/0924 27012G22KT P6SM SCT030 BECMG 0819/0821 22012KT BECMG 0900/0902 23005KT FM090500 10008KT 6SM -RA BR SCT008 OVC025 FM090700 09010KT 2SM RA BR OVC006 PROB30 0909/0914 3/4SM -RA BR OVC003 FM091400 04012KT 5SM -RA BR BKN008 OVC020 FM091700 04008KT P6SM OVC012 FM092000 33010KT P6SM BKN030 FM092300 VRB03KT P6SM FEW030 RMK NXT FCST BY 082100Z<br><br>
<br><br>
CYOO 081800Z AUTO 31008KT 250V320 9SM FEW038 23/13 A2985 RMK SLP107 DENSITY ALT 1500FT<br><br>
CYOO 081700Z AUTO 26008G15KT 9SM SCT029 OVC036 21/14 A2985 RMK SLP107 DENSITY ALT 1300FT<br><br>
CYOO has no TAF <br><br>
<br><br>
CYTR 081800Z 23013G18KT 15SM BKN024 21/15 A2985 RMK SC7 SLP108<br><br>
CYTR 081700Z 23014G24KT 15SM FEW024 OVC035 20/15 A2984 RMK CF1SC8 SLP106<br><br>
TAF CYTR 081730Z 0818/0918 24015G25KT P6SM BKN025 BECMG 0818/0820 24012KT SCT025 FM082000 24012KT P6SM SCT025 BECMG 0823/0901 VRB03KT FM090200 24005KT P6SM SCT020 BKN220 FM090800 04008KT 3SM -SHRA BR SCT008 BKN020 OVC160 TEMPO 0908/0916 2SM -SHRA BR BKN008 OVC020 FM091600 01012KT P6SM SCT010 OVC020 TEMPO 0916/0918 5SM -SHRA BR OVC010 RMK NXT FCST BY 090000Z<br><br>
<br><br>
