RETRIEVED AT : May 24 2020 19:05 Local <br>
  RETRIEVED AT: May 24 2020 23:05 UTC<br><br>
CYSN 242200Z 20011KT 15SM BKN065 BKN220 28/17 A2994 RMK SC5CI2 SLP140 DENSITY ALT 1900FT<br><br>
TAF CYSN 241938Z 2420/2501 20010KT P6SM SCT060 BKN220 TEMPO 2420/2501 BKN060 RMK NXT FCST WILL BE ISSUED AT 251245Z<br><br>
<br><br>
CYHM 242200Z 19011G19KT 15SM FEW040TCU SCT110 27/18 A2995 RMK TCU1AC2 DIST TCU SE SLP143 DENSITY ALT 2400FT<br><br>
TAF CYHM 241742Z 2418/2518 18012G22KT P6SM FEW030 SCT250 FM242100 20012G22KT P6SM BKN040 TEMPO 2421/2503 P6SM -SHRA PROB30 2421/2503 VRB20G30KT 4SM TSRA BKN030CB FM250300 22010KT P6SM BKN040 FM251200 22012KT P6SM SCT020 BKN030 TEMPO 2512/2518 BKN020 RMK NXT FCST BY 250000Z<br><br>
<br><br>
KIAG 242253Z 19009KT 10SM CLR 27/16 A2995 RMK AO2 SLP137 T02720161<br><br>
KIAG 242153Z 18007KT 10SM SCT060 28/17 A2996 RMK AO2 SLP142 T02780167<br><br>
KIAG 242126Z 2421/2518 20007KT P6SM SCT050 FM250000 18008KT P6SM VCSH BKN050 FM250400 19012KT 6SM -SHRA BKN040 FM250900 20012KT P6SM SCT050<br><br>
<br><br>
KBUF 242254Z 19010KT 10SM FEW060 FEW080 FEW120 SCT250 28/16 A2996 RMK AO2 SLP141 T02830161<br><br>
KBUF 242154Z 19009G18KT 10SM FEW060 FEW085 FEW100 SCT250 28/16 A2997 RMK AO2 SLP145 T02830161<br><br>
KBUF 242126Z 2421/2518 22008KT P6SM SCT050 BKN250 FM250100 19008KT P6SM VCSH BKN050 FM250500 19010KT 6SM -SHRA BKN040 FM251000 20010KT P6SM BKN050 FM251400 22012KT P6SM FEW250<br><br>
<br><br>
CYYZ 242200Z 12014KT 15SM FEW050TCU FEW100 SCT240 24/16 A2995 RMK TCU1AC1CI2 SLP143 DENSITY ALT 1700FT<br><br>
TAF CYYZ 242038Z 2421/2524 15012KT P6SM SCT050 TEMPO 2421/2424 P6SM VCTS SCT030CB BKN050 FM250000 17010KT P6SM BKN040 TEMPO 2500/2506 P6SM -SHRA PROB30 2500/2506 VRB15G25KT 4SM TSRA BKN030CB FM250600 18010KT P6SM SCT040 BECMG 2510/2512 24012KT FM252000 17010KT P6SM VCTS SCT030CB BKN050 RMK NXT FCST BY 250000Z<br><br>
<br><br>
CYOO 242200Z AUTO 12011G17KT 9SM SCT120 23/16 A2997 RMK SLP148 DENSITY ALT 1400FT<br><br>
TAF CYOO 241938Z 2420/2508 11010KT P6SM BKN180 FM242100 11008KT P6SM BKN050 TEMPO 2421/2501 P6SM -SHRA VCTS SCT030CB BKN050 FM250100 VRB03KT P6SM BKN040 FM250400 VRB03KT P6SM SCT008 BKN020 RMK FCST BASED ON AUTO OBS. NXT FCST BY 250200Z<br><br>
<br><br>
CYTR 242200Z 15007KT 15SM FEW100 BKN250 25/14 A3001 RMK AC2CI2 SLP161<br><br>
TAF CYTR 241740Z 2418/2518 14008KT P6SM FEW040 SCT100 FM250200 19008KT P6SM -SHRA FEW020 BKN040 OVC060 PROB30 2502/2506 VRB15G25KT 2SM TSRA BR SCT020 OVC030CB FM250600 20005KT 3SM -SHRA BR SCT006 BKN012 OVC030 FM250900 20005KT 2SM BR BKN006 OVC010 PROB30 2509/2514 1SM -DZ BR OVC004 FM251500 20005KT 6SM BR OVC008 FM251700 20005KT P6SM BKN015 RMK NXT FCST BY 250000Z<br><br>
<br><br>
