RETRIEVED AT : Sep 19 2017 01:10 Local <br>
  RETRIEVED AT: Sep 19 2017 05:10 UTC<br><br>
CYSN has no TAF <br><br>
<br><br>
CYHM 190500Z 08004KT 10SM BKN120 OVC170 17/17 A3005 RMK AC7AC1 SLP174 DENSITY ALT 1100FT<br><br>
CYHM 190400Z 04002KT 8SM MIFG FEW120 FEW180 18/18 A3006 RMK AC1AC1 SLP177 DENSITY ALT 1200FT<br><br>
TAF CYHM 182338Z 1900/1924 VRB03KT P6SM SCT040 BKN100 FM190200 VRB03KT 6SM BR SCT002 TEMPO 1902/1906 2SM BR PROB30 1902/1906 1/2SM FG BKN002 FM190600 VRB03KT 1/2SM FG BKN002 FM191100 01005KT 3SM -RA BR BKN005 OVC030 FM191400 05007KT 5SM -RA BR SCT005 BKN015 OVC030 FM191700 04007KT P6SM BKN050 PROB30 1918/1924 VRB15G25KT 2SM TSRA BR BKN020 OVC030CB RMK NXT FCST BY 190600Z<br><br>
<br><br>
KIAG 190453Z AUTO 30003KT 7SM CLR 21/18 A3003 RMK AO2 SLP164 T02110183 402890161<br><br>
KIAG 190353Z AUTO 00000KT 8SM CLR 22/18 A3004 RMK AO2 SLP166 T02170183<br><br>
KIAG 190257Z 1903/1924 VRB03KT P6SM BKN150 FM190500 00000KT P6SM BKN080 FM191400 19004KT P6SM BKN070 FM191900 03006KT P6SM BKN050<br><br>
<br><br>
KBUF 190454Z 00000KT 10SM BKN100 BKN190 19/18 A3004 RMK AO2 SLP169 T01940183 402780172<br><br>
KBUF 190354Z 17004KT 10SM SCT100 BKN200 20/19 A3005 RMK AO2 SLP172 T02000189<br><br>
KBUF 190257Z 1903/1924 VRB03KT P6SM BKN150 FM190500 16004KT P6SM BKN070 FM191400 21004KT P6SM SCT070 FM192000 03005KT P6SM BKN050<br><br>
<br><br>
CYYZ 190500Z 36006KT 15SM BKN130 20/18 A3004 RMK AC7 SLP172 DENSITY ALT 1200FT<br><br>
CYYZ 190400Z 35008KT 15SM FEW095 BKN130 20/18 A3004 RMK AC2AC5 SLP173 DENSITY ALT 1200FT<br><br>
TAF CYYZ 190242Z 1903/2006 01007KT P6SM BKN140 FM190800 02005KT P6SM BKN050 PROB30 1908/1913 1/2SM FG BKN002 FM191400 02005KT P6SM BKN010 OVC070 FM191700 14007KT P6SM BKN030 TEMPO 1918/1923 P6SM -SHRA PROB30 1918/1923 VRB15G25KT 2SM TSRA BR BKN015 OVC030CB FM200000 10005KT P6SM BKN100 FM200400 04005KT 6SM BR FEW002 SCT100 PROB30 2004/2006 2SM BR RMK NXT FCST BY 190600Z<br><br>
<br><br>
CYOO 190500Z AUTO 01003KT 360V100 9SM SCT140 18/16 A3004 RMK SLP172 DENSITY ALT 700FT<br><br>
CYOO 190400Z AUTO 33002KT 9SM CLR 18/16 A3004 RMK SLP173 DENSITY ALT 700FT<br><br>
CYOO has no TAF <br><br>
<br><br>
CYTR 190500Z 33002KT 7SM FEW042 18/18 A3003 RMK SC2 SLP170<br><br>
CYTR 190400Z 05003KT 7SM BKN041 BKN140 18/18 A3004 RMK SC5AC1 SLP174<br><br>
TAF AMD CYTR 190410Z 1904/1924 VRB03KT 6SM BR SCT040 BKN140 TEMPO 1904/1911 2SM BR PROB40 1906/1911 1/4SM FG VV001 FM191100 VRB03KT 1SM BR SCT050 BECMG 1911/1913 P6SM NSW FM191600 VRB03KT P6SM SCT030 TEMPO 1916/1924 P6SM -SHRA BKN030 PROB30 1918/1922 2SM TSRA BR BKN020CB RMK NXT FCST BY 190600Z<br><br>
<br><br>
