RETRIEVED AT : Nov 04 2017 23:10 Local <br>
  RETRIEVED AT: Nov 05 2017 03:10 UTC<br><br>
CYSN has no TAF <br><br>
<br><br>
CYHM 050307Z 05011KT 8SM +RA SCT033 OVC076 05/04 A3004 RMK SC3AC5 SLP180<br><br>
CYHM 050300Z 04011KT 10SM -RA OVC033 06/03 A3005 RMK SC8 SLP183<br><br>
CYHM 050200Z 05016G21KT 15SM SCT035 OVC090 05/04 A3003 RMK SC3AC5 PRESFR SLP176<br><br>
CYHM 050148Z 05015KT 15SM BKN033 OVC070 05/04 A3004 RMK SC6AC2 SLP182<br><br>
TAF CYHM 042338Z 0500/0524 06015G25KT P6SM BKN050 OVC140 TEMPO 0500/0501 P6SM -SHRA BKN020 OVC050 FM050100 07012KT P6SM FEW012 OVC025 TEMPO 0501/0507 3SM -SHRA BR OVC012 PROB30 0501/0507 VRB15G25KT 2SM TSRA BR OVC008CB FM050700 10008KT 21/2SM -SHRA BR OVC008 TEMPO 0507/0509 6SM -SHRA BR OVC010 PROB30 0507/0509 VRB15G25KT 11/2SM TSRA BR OVC005CB FM050900 18012G22KT 6SM -SHRA BR OVC008 TEMPO 0509/0523 21/2SM -SHRA BR OVC005 BECMG 0512/0514 19015G25KT FM052300 21012G22KT 11/2SM SHRA BR OVC005 PROB40 0523/0524 VRB20G35KT 1SM +TSRA BR OVC004CB RMK NXT FCST BY 050600Z<br><br>
<br><br>
KIAG 050253Z 10012KT 10SM FEW034 FEW085 07/01 A3002 RMK AO2 SLP173 T00720011 58037<br><br>
KIAG 050153Z 08010KT 10SM FEW034 SCT070 OVC090 08/01 A3007 RMK AO2 SLP191 T00780011<br><br>
KIAG 050241Z 0503/0524 09010KT P6SM VCSH BKN050 FM050500 16008KT P6SM OVC035 WS020/20040KT FM051000 18012KT 4SM SHRA OVC025 WS020/20045KT FM051400 18016G23KT P6SM VCSH OVC025<br><br>
<br><br>
KBUF 050254Z 06007KT 10SM FEW045 BKN085 OVC150 07/02 A3002 RMK AO2 SLP172 T00670022 58033<br><br>
KBUF 050154Z 08012KT 10SM BKN038 BKN045 OVC070 07/02 A3007 RMK AO2 PRESFR SLP187 T00670022<br><br>
KBUF 050241Z 0503/0524 10009KT P6SM VCSH BKN050 FM050500 14009KT P6SM OVC045 WS020/20040KT FM051000 17014G20KT 4SM SHRA OVC025 WS020/20045KT FM051400 18017G25KT P6SM VCSH OVC025<br><br>
<br><br>
CYYZ 050300Z 09012KT 15SM SCT013 BKN035 OVC085 06/03 A3008 RMK SC3SC3AC2 SLP191<br><br>
CYYZ 050200Z 08012G20KT 15SM SCT013 BKN042 OVC085 05/02 A3008 RMK SC4SC2AC2 SLP192<br><br>
CYYZ 050149Z 09014G21KT 15SM BKN016 OVC090 05/02 A3009 RMK SC6AC2 SLP195<br><br>
TAF CYYZ 050239Z 0503/0606 08012KT P6SM BKN040 OVC080 TEMPO 0503/0505 5SM -SHRA BR BKN015 OVC040 FM050500 09007KT 6SM -SHRA BR SCT006 OVC015 TEMPO 0505/0508 21/2SM -SHRA BR BKN006 OVC015 FM050800 14010KT 11/2SM -SHRA BR BKN003 OVC006 TEMPO 0508/0512 3SM -SHRA BR SCT003 OVC006 FM051200 19012G22KT 2SM -SHRA BR BKN006 OVC012 FM051700 20010G20KT 4SM -SHRA BR BKN008 OVC015 FM052100 21010G20KT 6SM -SHRA BR SCT008 OVC015 FM060000 19008KT 11/2SM SHRA BR OVC006 PROB40 0600/0603 VRB20G35KT 1SM +TSRA BR OVC004CB FM060300 26006KT 6SM BR BKN012 OVC070 FM060500 31012KT P6SM -SHRA SCT012 OVC030 RMK NXT FCST BY 050600Z<br><br>
<br><br>
CYOO 050300Z AUTO 10017G24KT 9SM BKN041 BKN075 OVC092 06/01 A3008 RMK SLP190<br><br>
CYOO 050252Z AUTO 09015G21KT 9SM SCT041 BKN075 OVC094 06/01 A3008 RMK SLP193<br><br>
CYOO 050231Z AUTO 09015G22KT 9SM -RA SCT050 OVC075 05/01 A3009 RMK PRESFR SLP195<br><br>
CYOO 050200Z AUTO 08013G18KT 9SM BKN075 OVC091 05/00 A3012 RMK SLP206<br><br>
CYOO has no TAF <br><br>
<br><br>
CYTR 050300Z 08008G17KT 15SM OVC074 05/01 A3015 RMK AC8 SLP214<br><br>
CYTR 050200Z 07011KT 15SM BKN076 OVC120 04/00 A3018 RMK AC7AC1 SLP222<br><br>
TAF CYTR 042330Z 0500/0524 08010KT P6SM BKN120 OVC200 FM050200 09010KT P6SM SCT020 BKN060 TEMPO 0502/0506 5SM -SHRA BR SCT020 OVC040 FM050600 14010KT P6SM -RA BKN025 OVC040 TEMPO 0506/0511 3SM -RA BR OVC010 FM051100 16012KT 6SM -RA BR SCT010 OVC020 TEMPO 0511/0520 3SM -RA BR FM052000 19010KT 2SM -RA BR SCT007 OVC012 RMK NXT FCST BY 050600Z<br><br>
<br><br>
