RETRIEVED AT : Apr 30 2018 06:12 Local <br>
  RETRIEVED AT: Apr 30 2018 10:12 UTC<br><br>
CYSN has no TAF <br><br>
<br><br>
CYHM 301000Z 27008KT 15SM FEW024 M01/M09 A3017 RMK SC1 SC TR SLP226<br><br>
CYHM 300900Z 30007KT 15SM SKC M00/M09 A3017 RMK SLP225<br><br>
TAF CYHM 300543Z 3006/0106 27008KT P6SM SKC BECMG 3016/3018 27014KT FM302300 26008KT P6SM SKC RMK NXT FCST BY 301200Z<br><br>
<br><br>
KIAG 300953Z AUTO 22005KT 10SM CLR 00/M06 A3015 RMK AO2 SLP221 T00001061<br><br>
KIAG 300853Z AUTO 27007KT 10SM CLR 00/M08 A3015 RMK AO2 SLP220 T00001078 56002<br><br>
KIAG 300858Z 3009/0106 28007KT P6SM SKC FM301500 30014G20KT P6SM FEW250 FM302300 23009KT P6SM SKC<br><br>
<br><br>
KBUF 300954Z 22007KT 10SM FEW100 01/M03 A3016 RMK AO2 SLP217 T00111028<br><br>
KBUF 300854Z 22008KT 10SM CLR 02/M05 A3015 RMK AO2 SLP217 T00171050 58000<br><br>
KBUF 300858Z 3009/0106 27006KT P6SM SKC FM301400 27014G20KT P6SM FEW250 FM302300 23012KT P6SM SKC FM010300 23008KT P6SM SKC<br><br>
<br><br>
CYYZ 301000Z 31009KT 15SM SKC 01/M08 A3015 RMK SLP215<br><br>
CYYZ 300900Z 31007KT 15SM SKC 02/M09 A3015 RMK SLP215<br><br>
TAF CYYZ 300838Z 3009/0112 31008KT P6SM SKC BECMG 3012/3014 31012KT BECMG 0102/0104 VRB03KT RMK NXT FCST BY 301200Z<br><br>
<br><br>
CYOO 301000Z AUTO 34011G16KT 9SM CLR 03/M06 A3011 RMK SLP203<br><br>
CYOO 300900Z AUTO 34011G18KT 9SM CLR 03/M05 A3011 RMK SLP202<br><br>
CYOO has no TAF <br><br>
<br><br>
CYTR 301000Z 30011KT 15SM BKN048 06/M07 A3005 RMK SC6 SLP180<br><br>
CYTR 300900Z 32012G17KT 15SM BKN053 06/M08 A3005 RMK SC7 SLP179<br><br>
TAF CYTR 300530Z 3006/0106 31010KT P6SM BKN090 FM300900 31012KT P6SM SCT090 FM301400 32015G25KT P6SM SKC BECMG 3018/3020 32010G20KT BECMG 3023/0101 30008KT RMK NXT FCST BY 301200Z<br><br>
<br><br>
