RETRIEVED AT : Nov 05 2017 11:10 Local <br>
  RETRIEVED AT: Nov 05 2017 16:10 UTC<br><br>
CYSN 051600Z 18021G30KT 5SM BR OVC039 14/13 A2981 RMK SC8 SLP099 DENSITY ALT 400FT<br><br>
CYSN 051525Z 19024G30KT 4SM -RA BR OVC026 14/12 A2983 RMK SC8 SLP104 DENSITY ALT 400FT<br><br>
CYSN 051500Z 19019G26KT 15SM FEW008 BKN026 OVC090 14/12 A2984 RMK SF1SC5AC2 SLP106 DENSITY ALT 400FT<br><br>
CYSN 051440Z 17014G25KT 15SM FEW008 SCT028 BKN120 OVC220 13/12 A2983 RMK SF1SC2AC3CI2 PRESFR SLP103 DENSITY ALT 400FT<br><br>
TAF CYSN 051343Z 0514/0602 18015G25KT P6SM OVC025 TEMPO 0514/0518 21/2SM -SHRA BR OVC012 PROB40 0514/0518 VRB20G30KT 11/4SM +TSRA BR BKN008CB FM051800 19017G30KT 5SM -SHRA BR BKN020 BKN160 FM052100 19013G27KT 5SM SHRA BR BKN020 OVC150 PROB30 0521/0524 VRB20G35KT 21/2SM +TSRA BR BKN010CB FM060000 21012G25KT 3SM SHRA BR BKN010 OVC070 PROB30 0600/0602 VRB20G35KT 11/2SM +TSRA BR BKN005CB RMK NXT FCST BY 052000Z<br><br>
<br><br>
CYHM 051600Z 19018G25KT 4SM -RA BR OVC005 13/13 A2982 RMK SC8 SLP102 DENSITY ALT 900FT<br><br>
CYHM 051532Z 19014G23KT 4SM -RA BR OVC005 13/12 A2982 RMK SC8 SLP102 DENSITY ALT 900FT<br><br>
CYHM 051522Z 19016G21KT 2SM -RA BR OVC005 13/12 A2983 RMK FG1SC7 SLP105 DENSITY ALT 800FT<br><br>
CYHM 051500Z 18017G23KT 9SM -RA OVC006 13/12 A2983 RMK SC8 SLP106 DENSITY ALT 800FT<br><br>
CYHM 051421Z 18015G20KT 3SM -RA BR OVC005 12/12 A2983 RMK SC8 SLP107 DENSITY ALT 800FT<br><br>
TAF AMD CYHM 051518Z 0515/0612 18015G25KT 3SM -RA -DZ BR OVC005 TEMPO 0515/0518 P6SM NSW OVC025 FM051800 20015G25KT 6SM -SHRA BR OVC012 TEMPO 0518/0521 21/2SM -DZ BR OVC005 FM052100 21012G22KT 3SM -SHRA BR BKN006 OVC015 PROB40 0521/0524 VRB20G35KT 1SM +TSRA BR BKN004 OVC020CB FM060000 23010KT 4SM -DZ BR OVC006 FM060400 30010KT 6SM BR SCT006 OVC010 FM061000 31007KT P6SM FEW008 BKN015 RMK NXT FCST BY 051800Z<br><br>
<br><br>
KIAG 051553Z 18016G28KT 7SM -RA SCT013 BKN032 OVC100 14/11 A2985 RMK AO2 PK WND 19028/1550 RAB33 SLP113 P0001 T01390106<br><br>
KIAG 051453Z 17015G24KT 10SM FEW013 SCT032 SCT080 14/11 A2986 RMK AO2 RAE52 TSB19E50 SLP116 P0015 60029 T01390106 58018<br><br>
KIAG 051421Z 19015KT 1 3/4SM R28R/3000VP6000FT +TSRA FEW023 BKN030 OVC110 13/10 A2989 RMK AO2 LTG DSNT E-SW TSB19 P0007 T01330100<br><br>
KIAG 051418Z 20015KT 4SM VCTS -RA BKN030 BKN050 OVC095 13/10 A2989 RMK AO2 LTG DSNT E-SW P0002 T01330100<br><br>
KIAG 051501Z 0515/0612 17013G23KT P6SM -SHRA OVC025 FM051700 19017G23KT P6SM VCSH OVC025 FM052200 18013G20KT 2SM +SHRA OVC020 FM060800 26009KT 2SM +SHRA OVC020 FM061000 28008KT 6SM -SHRA OVC020<br><br>
<br><br>
KBUF 051554Z 18014G23KT 4SM R23/5500VP6000FT +RA BR BKN032 BKN039 OVC050 13/12 A2988 RMK AO2 PK WND 16027/1517 LTG DSNT NE AND SE SLP122 P0007 T01280117 $<br><br>
KBUF 051512Z 18016G26KT 9SM -RA SCT027 BKN060 OVC100 12/11 A2988 RMK AO2 PK WND 17026/1506 LTG DSNT NE P0001 T01220111 $<br><br>
KBUF 051454Z 18017KT 5SM -RA BR BKN027 BKN043 BKN095 BKN170 13/11 A2988 RMK AO2 SLP121 TSB25E44 TS MOVD NE CB DSNT NE P0015 60019 T01280111 58016 $<br><br>
KBUF 051446Z 18013G17KT 5SM R23/5500VP6000FT -RA BR BKN027 BKN043 OVC095 12/11 A2989 RMK AO2 LTG DSNT NE AND E TSB25E44 TS MOVD NE CB DSNT NE P0015 T01220111 $<br><br>
KBUF 051441Z 19009G16KT 1 1/2SM R23/5500VP6000FT +TSRA BR SCT033CB BKN043 OVC085 12/11 A2989 RMK AO2 LTG DSNT NE AND E TSB25 OCNL LTGICCC VC NW-NE TS VC NW-NE MOV NE P0012 T01220106 $<br><br>
KBUF 051427Z COR 17012G21KT 4SM +TSRA BR BKN040CB BKN080 OVC095 12/11 A2988 RMK AO2 LTG DSNT ALQDS TSB25 OCNL LTGICCC VC SW-NW-NE TS VC SW-NW-NE MOV E P0003 T01220106 $<br><br>
KBUF 051501Z 0515/0612 17014G24KT 5SM -RA BR OVC025 TEMPO 0515/0516 2SM TSRA OVC015CB FM051700 19017G25KT P6SM VCSH OVC025 FM052200 18014G22KT 2SM +SHRA OVC020 FM060800 24009KT 2SM +SHRA OVC015 FM061100 31008KT 6SM -SHRA OVC020<br><br>
<br><br>
CYYZ 051600Z 14005KT 1 1/2SM -DZ BR OVC002 11/10 A2982 RMK ST8 SLP102<br><br>
CYYZ 051545Z 14007KT 1 3/4SM -DZ BR OVC002 11/10 A2982 RMK ST8 SLP103<br><br>
CYYZ 051520Z 14007KT 2SM R15L/4500VP6000FT/D R23/5000VP6000FT/D -SHRA BR BKN004 OVC009 11/10 A2983 RMK SF6SF2 CVCTV CLD EMBD CIG VRB 2-6 SLP105<br><br>
CYYZ 051500Z 14007KT 3SM R15L/5000VP6000FT/U R23/5000VP6000FT/U -SHRA BR OVC004 11/10 A2984 RMK SF8 CVCTV CLD EMBD CIG VRB 2-6 SLP108<br><br>
CYYZ 051454Z 14006KT 3SM R15L/5000VP6000FT/D R23/5000VP6000FT/D -SHRA BR OVC004 11/10 A2984 RMK SF8 CVCTV CLD EMBD CIG VRB 2-7 SLP111<br><br>
CYYZ 051443Z 14006KT 1 3/4SM R15L/5000VP6000FT/U R23/4500VP6000FT/U SHRA BR OVC004 11/10 A2984 RMK SF8 CVCTV CLD EMBD CIG VRB 2-6 SLP110<br><br>
