RETRIEVED AT : Sep 24 2017 20:10 Local <br>
  RETRIEVED AT: Sep 25 2017 00:10 UTC<br><br>
CYSN 250000Z 18004KT 15SM SKC 24/20 A3007 RMK SLP182 DENSITY ALT 1400FT<br><br>
CYSN 242300Z 16004KT 15SM SKC 28/20 A3006 RMK SLP181 DENSITY ALT 1800FT<br><br>
TAF CYSN 241938Z 2420/2501 36006KT P6SM FEW040 FM242300 VRB03KT P6SM SKC RMK NXT FCST WILL BE ISSUED AT 251245Z<br><br>
<br><br>
CYHM 250000Z 18005KT 15SM SKC 24/18 A3010 RMK SLP193 DENSITY ALT 1900FT<br><br>
CYHM 242300Z 18007KT 15SM SKC 27/19 A3010 RMK SLP191 DENSITY ALT 2200FT<br><br>
TAF CYHM 242340Z 2500/2524 VRB03KT P6SM SKC RMK NXT FCST BY 250600Z<br><br>
<br><br>
KIAG 242353Z 22004KT 9SM CLR 25/18 A3009 RMK AO2 SLP184 T02500183 10339 20250 57001<br><br>
KIAG 242253Z 00000KT 10SM CLR 30/18 A3009 RMK AO2 SLP183 T03000183<br><br>
KIAG 242330Z 2500/2524 VRB03KT P6SM SKC FM250800 00000KT 4SM BR SKC FM251200 VRB03KT P6SM FEW250 FM251700 14004KT P6SM FEW250 FM252000 09007KT P6SM FEW250<br><br>
<br><br>
KBUF 242354Z 00000KT 10SM CLR 28/20 A3010 RMK AO2 SLP189 T02830200 10322 20278 53000<br><br>
KBUF 242254Z 02003KT 10SM CLR 29/20 A3010 RMK AO2 SLP188 T02940200<br><br>
KBUF 242330Z 2500/2524 VRB04KT P6SM SKC FM250800 VRB03KT 4SM BR SKC FM251200 VRB03KT P6SM FEW250 FM252000 07006KT P6SM FEW250<br><br>
<br><br>
CYYZ 250000Z 12004KT 15SM SKC 29/18 A3008 RMK SLP184 DENSITY ALT 2200FT<br><br>
CYYZ 242300Z 15005KT 15SM FEW250 30/18 A3007 RMK CI1 CI TR SLP183 DENSITY ALT 2300FT<br><br>
TAF CYYZ 242340Z 2500/2606 VRB03KT P6SM SKC FM251700 15008KT P6SM SCT240 RMK NXT FCST BY 250300Z<br><br>
<br><br>
CYOO 250000Z AUTO 22002KT 9SM CLR 26/18 A3008 RMK SLP186 DENSITY ALT 1600FT<br><br>
CYOO 242335Z AUTO 00000KT 9SM CLR 27/18 A3008 RMK SLP185 DENSITY ALT 1700FT<br><br>
CYOO 242324Z AUTO 18002KT 5SM HZ CLR 27/18 A3007 RMK SLP184 DENSITY ALT 1700FT<br><br>
CYOO 242300Z AUTO 21004KT 9SM CLR 28/17 A3007 RMK SLP184 DENSITY ALT 1900FT<br><br>
CYOO has no TAF <br><br>
<br><br>
CYTR 250000Z 21002KT 15SM SKC 24/20 A3006 RMK SLP178<br><br>
CYTR 242300Z 20003KT 12SM SKC 26/21 A3005 RMK HAZY SLP177<br><br>
TAF CYTR 242330Z 2500/2524 VRB03KT P6SM SKC TEMPO 2504/2512 3SM BR BECMG 2515/2517 20008KT RMK NXT FCST BY 250600Z<br><br>
<br><br>
