RETRIEVED AT : May 31 2020 14:05 Local <br>
  RETRIEVED AT: May 31 2020 18:05 UTC<br><br>
CYSN 311700Z 30009KT 280V360 15SM SCT055 14/03 A3024 RMK SC3 SLP245<br><br>
TAF AMD CYSN 311302Z 3113/0101 33008KT P6SM FEW015 BKN040 TEMPO 3113/3118 BKN015 FM311800 30010KT P6SM SCT040 TEMPO 3118/0101 BKN040 RMK NXT FCST BY 312000Z<br><br>
<br><br>
CYHM 311700Z 32010G16KT 270V350 15SM BKN050 12/02 A3025 RMK CU7 SLP250<br><br>
TAF CYHM 311738Z 3118/0118 32012KT P6SM BKN050 TEMPO 3118/0103 SCT050 FM010300 24007KT P6SM SCT060 BECMG 0113/0115 25015KT RMK NXT FCST BY 010000Z<br><br>
<br><br>
KIAG 311753Z 31013G20KT 10SM SCT055 13/00 A3025 RMK AO2 SLP249 T01330000 10139 20083 51004<br><br>
KIAG 311653Z 33009KT 10SM SCT050 12/01 A3024 RMK AO2 SLP246 T01220006<br><br>
KIAG 311727Z 3118/0118 33012KT P6SM SCT050 FM312200 26007KT P6SM BKN070 FM010800 28006KT P6SM SCT100 FM011600 24012G20KT P6SM BKN150<br><br>
<br><br>
KBUF 311754Z 29016G23KT 10SM BKN055 BKN070 12/01 A3025 RMK AO2 SLP246 T01220006 10122 20078 53005 $<br><br>
KBUF 311654Z 32012KT 10SM BKN060 BKN070 12/02 A3024 RMK AO2 SLP243 T01220017 $<br><br>
KBUF 311727Z 3118/0118 34012KT P6SM SCT050 FM312200 26007KT P6SM BKN070 FM010800 28005KT P6SM SCT100 FM011600 25014G22KT P6SM BKN150<br><br>
<br><br>
CYYZ 311700Z 01016G24KT 320V020 15SM SCT055 BKN062 14/M01 A3024 RMK CF3SC2 SLP244<br><br>
TAF CYYZ 311738Z 3118/0124 35015G25KT P6SM BKN060 TEMPO 3118/0104 SCT060 BECMG 3123/0101 33010KT FM010400 VRB03KT P6SM SCT060 BECMG 0104/0106 22008KT FM011500 27015G25KT P6SM SCT070 RMK NXT FCST BY 312100Z<br><br>
<br><br>
CYOO 311700Z AUTO 31016G22KT 280V350 9SM SCT055 14/01 A3022 RMK SLP237<br><br>
TAF CYOO 311338Z 3114/0102 35010G20KT P6SM FEW060 BECMG 3115/3117 30015KT RMK FCST BASED ON AUTO OBS. NXT FCST BY 312000Z<br><br>
<br><br>
CYTR 311700Z 29012KT 15SM BKN060 14/01 A3018 RMK SC7 SLP224<br><br>
TAF CYTR 311731Z 3118/0118 30010G20KT P6SM BKN060 TEMPO 3118/0101 SCT060 FM010200 29007KT P6SM FEW100 BECMG 0108/0110 24005KT FM011300 24005KT P6SM BKN080 BECMG 0114/0116 24010G20KT RMK NXT FCST BY 010000Z<br><br>
<br><br>
