RETRIEVED AT : Sep 24 2017 04:10 Local <br>
  RETRIEVED AT: Sep 24 2017 08:10 UTC<br><br>
CYSN has no TAF <br><br>
<br><br>
CYHM 240800Z 23004KT 15SM SKC 17/16 A3014 RMK SLP204 DENSITY ALT 1000FT<br><br>
CYHM 240700Z 25003KT 15SM FEW120 FEW250 18/17 A3013 RMK AC1CI1 AC TR CI TR SLP202 DENSITY ALT 1100FT<br><br>
TAF CYHM 240538Z 2406/2506 VRB03KT P6SM SKC FM241700 05007KT P6SM FEW050 BECMG 2421/2423 VRB03KT RMK NXT FCST BY 241200Z<br><br>
<br><br>
KIAG 240753Z AUTO 00000KT 7SM CLR 21/17 A3013 RMK AO2 SLP195 T02060172<br><br>
KIAG 240653Z AUTO 00000KT 9SM CLR 21/17 A3012 RMK AO2 SLP194 T02060167<br><br>
KIAG 240520Z 2406/2506 20004KT P6SM SKC FM241400 23005KT P6SM SKC FM241700 01008KT P6SM SKC FM250100 17003KT P6SM SKC<br><br>
<br><br>
KBUF 240754Z 19004KT 10SM CLR 18/16 A3014 RMK AO2 SLP201 T01780161<br><br>
KBUF 240654Z 18004KT 10SM CLR 18/16 A3013 RMK AO2 SLP200 T01780161<br><br>
KBUF 240520Z 2406/2506 20004KT P6SM SKC FM241400 24005KT P6SM SKC FM241700 25008KT P6SM SKC FM250100 16004KT P6SM SKC<br><br>
<br><br>
CYYZ 240800Z 32004KT 15SM SKC 22/18 A3012 RMK SLP197 DENSITY ALT 1300FT<br><br>
CYYZ 240700Z 27003KT 15SM SKC 23/19 A3011 RMK SLP195 DENSITY ALT 1400FT<br><br>
TAF CYYZ 240538Z 2406/2512 30008KT P6SM SKC FM241500 26008KT P6SM FEW050 BECMG 2502/2504 33005KT BECMG 2510/2512 VRB03KT RMK NXT FCST BY 240900Z<br><br>
<br><br>
CYOO 240800Z AUTO 04002KT 9SM CLR 18/16 A3011 RMK SLP197 DENSITY ALT 700FT<br><br>
CYOO 240700Z AUTO 03003KT 9SM CLR 19/16 A3010 RMK SLP194 DENSITY ALT 700FT<br><br>
CYOO has no TAF <br><br>
<br><br>
CYTR 240800Z 31003KT 6SM BR MIFG SKC 19/18 A3010 RMK SLP194<br><br>
CYTR 240700Z 00000KT 6SM BR SKC 19/19 A3010 RMK SLP191<br><br>
TAF CYTR 240530Z 2406/2506 VRB03KT P6SM SKC TEMPO 2406/2412 2SM BR BECMG 2414/2416 20008KT FM250000 VRB03KT P6SM SKC RMK NXT FCST BY 241200Z<br><br>
<br><br>
