RETRIEVED AT : Feb 23 2020 15:05 Local <br>
  RETRIEVED AT: Feb 23 2020 20:05 UTC<br><br>
CYSN 231900Z 21017G23KT 15SM SCT170 BKN230 07/M06 A2998 RMK AC3CI3 SLP157<br><br>
TAF CYSN 231942Z 2320/2402 22015G25KT P6SM SCT240 RMK NXT FCST WILL BE ISSUED AT 241345Z<br><br>
<br><br>
CYHM 231900Z 21014G19KT 15SM FEW190 FEW250 08/M04 A2995 RMK AC1CI2 AC TR SLP151<br><br>
TAF CYHM 231742Z 2318/2418 22012G22KT P6SM FEW240 BECMG 2401/2403 23012KT FM241100 23008KT P6SM BKN015 RMK NXT FCST BY 240000Z<br><br>
<br><br>
KIAG 231953Z 22017KT 10SM CLR 08/M07 A2997 RMK AO2 SLP159 T00781067<br><br>
KIAG 231853Z 23014KT 10SM CLR 07/M07 A2999 RMK AO2 PK WND 21027/1812 SLP168 T00671072<br><br>
KIAG 231720Z 2318/2418 22016G24KT P6SM SCT250 FM232200 20012KT P6SM SCT050 FM240300 21016G24KT P6SM SCT200 FM241400 24012KT P6SM BKN025<br><br>
<br><br>
KBUF 231954Z 22012KT 10SM FEW170 SCT220 SCT260 08/M08 A2998 RMK AO2 SLP158 T00831078<br><br>
KBUF 231854Z 24013KT 10SM FEW140 BKN200 BKN250 07/M08 A3000 RMK AO2 SLP163 T00721083<br><br>
KBUF 231720Z 2318/2418 22016G24KT P6SM SCT250 FM232200 21010KT P6SM SCT050 FM240300 22014G22KT P6SM SCT200 FM241400 24012KT P6SM BKN025<br><br>
<br><br>
CYYZ 231900Z 16012G19KT 130V200 15SM BKN220 09/M02 A2994 RMK CI5 SLP146<br><br>
TAF CYYZ 231742Z 2318/2424 20012G22KT P6SM SCT240 BECMG 2401/2403 23012KT FM241000 22008KT P6SM BKN020 FM241800 27008KT P6SM SCT030 RMK NXT FCST BY 232100Z<br><br>
<br><br>
CYOO 231900Z AUTO 19012KT 9SM CLR 06/M02 A2996 RMK SLP155<br><br>
TAF CYOO 231942Z 2320/2408 20010G20KT P6SM FEW240 BECMG 2400/2402 22008KT RMK FCST BASED ON AUTO OBS. NXT FCST BY 240200Z<br><br>
<br><br>
CYTR 231900Z 22008KT 15SM FEW180 BKN250 04/M02 A3000 RMK AC2CI5 SLP162<br><br>
TAF CYTR 231735Z 2318/2418 23012G22KT P6SM OVC220 FM240000 22006KT P6SM FEW040 BECMG 2405/2407 23010KT FEW020 FM241100 25008KT P6SM BKN020 BECMG 2415/2417 26010G20KT RMK NXT FCST BY 240000Z<br><br>
<br><br>
