RETRIEVED AT : Mar 29 2020 10:05 Local <br>
  RETRIEVED AT: Mar 29 2020 14:05 UTC<br><br>
CYSN 291300Z 08004KT 5SM BR FEW004 BKN041 OVC085 09/09 A2960 RMK SF2SC5AC1 SLP026<br><br>
TAF AMD CYSN 291351Z 2913/3001 10005KT WS005/20022KT P6SM SCT008 BKN040 OVC080 TEMPO 2913/2915 5SM -SHRA BR BKN007 OVC020 BECMG 2913/2915 18012KT FM291500 18012KT P6SM SCT015 OVC040 TEMPO 2915/2917 5SM SHRA BR BKN007 OVC015 PROB30 2915/2917 11/2SM TSRA BR BKN004 OVC010CB FM291700 23018G28KT P6SM BKN015 BKN040 TEMPO 2917/2920 SCT020 BKN040 BECMG 2918/2920 23020G35KT FM292000 23020G35KT P6SM SCT020 BKN040 TEMPO 2922/3001 P6SM -SHRA BKN020 BKN040 RMK NXT FCST BY 292000Z<br><br>
<br><br>
CYHM 291300Z 05010G18KT 1/4SM R12/P6000FT/U -RA FG VV002 04/04 A2960 RMK FG8 SLP031<br><br>
TAF CYHM 291144Z 2912/3012 04012KT 1/4SM -SHRA FG VV001 TEMPO 2912/2915 1/2SM -DZ FG VV002 PROB30 2912/2915 1SM +TSRA BR BKN006 OVC012CB FM291500 21015G25KT 5SM -SHRA BR BKN005 OVC010 TEMPO 2915/2917 P6SM NSW SCT006 OVC012 FM291700 23018G28KT P6SM BKN020 TEMPO 2917/2922 BKN030 BECMG 2917/2919 23020G38KT FM292200 23020G38KT P6SM -SHRA BKN015 OVC040 BECMG 3003/3005 23015G25KT RMK NXT FCST BY 291800Z<br><br>
<br><br>
KIAG 291353Z 15006KT 10SM FEW075 SCT095 14/12 A2958 RMK AO2 SLP021 T01390122<br><br>
KIAG 291253Z 10006KT 6SM BR SCT048 OVC080 10/09 A2961 RMK AO2 SLP034 T01000094<br><br>
KIAG 291138Z 2912/3012 08007KT 6SM -RA BR BKN080 WS020/24045KT FM291500 16014G25KT P6SM OVC050 FM291700 18015G25KT 4SM -RA VCTS OVC025CB FM291900 22014G25KT P6SM BKN040<br><br>
<br><br>
KBUF 291354Z 18008KT 10SM FEW060 SCT080 OVC140 17/13 A2960 RMK AO2 RAB1255E15 SLP024 P0000 T01670128<br><br>
KBUF 291254Z 13009KT 10SM FEW060 BKN080 OVC150 15/12 A2963 RMK AO2 SLP035 T01500117<br><br>
KBUF 291138Z 2912/3012 10006KT P6SM BKN080 WS020/24045KT FM291500 18018G29KT P6SM OVC060 FM291800 19014G23KT 4SM -RA VCTS BKN020CB FM292000 24016G27KT P6SM BKN050<br><br>
<br><br>
CYYZ 291300Z 09016G23KT 6SM -RA BR OVC004 06/05 A2962 RMK SC8 SLP036<br><br>
TAF CYYZ 291144Z 2912/3018 09012G22KT 2SM -RA BR OVC003 TEMPO 2912/2913 6SM -RA BR OVC004 FM291300 11012KT 2SM -RA BR OVC003 TEMPO 2913/2917 6SM -DZ BR OVC004 PROB30 2913/2916 11/2SM +TSRA BR OVC004CB FM291700 21015KT P6SM SCT004 BKN020 TEMPO 2917/2919 5SM SHRA BR BECMG 2917/2919 23020G35KT FM291900 23020G35KT P6SM BKN025 BKN040 TEMPO 2919/2922 P6SM -SHRA BKN020 OVC040 PROB30 2919/2921 21/2SM TSRA BR OVC020CB FM292200 23018G28KT P6SM BKN025 FM300300 23015G25KT P6SM -SHRA OVC015 BECMG 3010/3012 24010G20KT BECMG 3016/3018 27015KT RMK NXT FCST BY 291500Z<br><br>
<br><br>
CYOO 291334Z AUTO 08020G26KT 6SM RA BR OVC004 06/06 A2962 RMK PRESFR SLP036<br><br>
CYOO 291318Z AUTO 10022G30KT 5SM RA BR OVC004 06/06 A2965 RMK PRESFR SLP045<br><br>
CYOO 291303Z AUTO 10015G22KT 6SM -RA BR OVC004 06/06 A2967 RMK SLP053<br><br>
CYOO 291300Z AUTO 10017G26KT 5SM -RA BR OVC004 06/06 A2967 RMK SLP053<br><br>
CYOO 291256Z AUTO 10019G26KT 5SM RA BR OVC004 06/06 A2967 RMK SLP053<br><br>
CYOO 291220Z AUTO 10019G29KT 6SM RA BR OVC004 06/06 A2968 RMK PRESFR SLP055<br><br>
TAF CYOO 291338Z 2914/3002 09018G28KT 3SM -RA BR OVC004 TEMPO 2914/2917 6SM -RA BR SCT004 OVC008 PROB30 2915/2917 2SM +TSRA BR SCT005 OVC010CB FM291700 17012KT 5SM -SHRA BR BKN005 OVC015 TEMPO 2917/2920 P6SM NSW BKN020 BECMG 2918/2920 23018G30KT FM292000 23018G30KT P6SM BKN020 BKN040 TEMPO 2920/2924 SCT020 BKN040 FM300000 23015G25KT P6SM BKN030 TEMPO 3000/3002 BKN020 RMK FCST BASED ON AUTO OBS. NXT FCST BY 292000Z<br><br>
<br><br>
CYTR 291300Z 10008KT 4SM -RA BR OVC007 06/06 A2978 RMK SF8 VIS VRB 3-5 CIG VRB 5-9 SLP088<br><br>
TAF CYTR 291130Z 2912/3012 09012KT 6SM -RA BR OVC010 TEMPO 2912/2917 2SM -SHRA BR OVC005 PROB30 2912/2917 1SM TSRA BR OVC003CB FM291700 13012G22KT 3SM -SHRA BR BKN010 OVC015 PROB40 2917/2921 VRB15G25KT 1/2SM +TSRA FG BKN010 OVC015CB FM292100 22015G25KT P6SM SCT015 OVC040 TEMPO 2921/2924 6SM -SHRA BR BKN015 OVC040 FM300300 24015KT P6SM OVC015 FM300800 23012KT 6SM -RA BR OVC010 RMK NXT FCST BY 291800Z<br><br>
<br><br>
