RETRIEVED AT : Nov 13 2017 13:10 Local <br>
  RETRIEVED AT: Nov 13 2017 18:10 UTC<br><br>
CYSN 131800Z 31006KT 7SM OVC013 04/03 A3036 RMK SC8 SLP284<br><br>
CYSN 131700Z 31007KT 6SM BR OVC008 05/03 A3036 RMK SF8 CIG VRB 6-10 SLP286<br><br>
TAF AMD CYSN 131611Z 1316/1402 VRB03KT P6SM OVC015 TEMPO 1316/1319 4SM BR OVC007 FM131900 30007KT P6SM OVC020 TEMPO 1319/1402 OVC030 RMK NXT FCST BY 132000Z<br><br>
<br><br>
CYHM 131800Z 29005KT 15SM FEW015 OVC042 05/02 A3035 RMK SC1SC7 SLP286<br><br>
CYHM 131700Z 32005KT 290V360 10SM FEW012 OVC042 05/02 A3035 RMK CU1SC8 CU TR SLP289<br><br>
TAF CYHM 131738Z 1318/1418 30005KT P6SM FEW012 OVC030 TEMPO 1318/1403 5SM BR BKN012 OVC030 FM140300 VRB03KT 4SM BR OVC015 TEMPO 1403/1416 P6SM NSW OVC025 FM141600 26006KT P6SM BKN025 RMK NXT FCST BY 140000Z<br><br>
<br><br>
KIAG 131753Z 30005KT 8SM BKN009 OVC014 05/02 A3035 RMK AO2 CIG 007V011 SLP288 T00500017 10050 20017 58002<br><br>
KIAG 131653Z 33007KT 7SM OVC007 04/02 A3036 RMK AO2 SLP292 T00440017<br><br>
KIAG 131637Z 30007KT 8SM BKN008 OVC018 04/01 A3036 RMK AO2 T00440011<br><br>
KIAG 131616Z 32005KT 10SM SCT008 OVC019 04/01 A3036 RMK AO2 T00440011<br><br>
KIAG 131723Z 1318/1418 30004KT P6SM BKN007 FM132000 30004KT P6SM BKN020 FM132300 VRB03KT P6SM OVC030 FM141300 28004KT P6SM OVC035 FM141700 VRB03KT P6SM BKN040<br><br>
<br><br>
KBUF 131754Z 33005KT 10SM BKN012 BKN040 OVC047 04/02 A3034 RMK AO2 SLP282 60000 T00440022 10044 20011 58001<br><br>
KBUF 131740Z 30007KT 10SM BKN012 OVC040 04/02 A3034 RMK AO2 T00440017<br><br>
KBUF 131654Z 31004KT 10SM FEW009 FEW019 OVC040 04/02 A3035 RMK AO2 SLP284 T00390022<br><br>
KBUF 131723Z 1318/1418 30005KT P6SM OVC015 FM132300 28004KT P6SM OVC020 FM140000 VRB03KT P6SM OVC025 FM141500 VRB03KT P6SM BKN035<br><br>
<br><br>
CYYZ 131800Z 31003KT 270V350 8SM SCT030 OVC050 05/01 A3035 RMK SC3SC5 SLP284<br><br>
CYYZ 131700Z 30002KT 8SM FEW030 OVC050 04/01 A3035 RMK SC2SC6 SLP285<br><br>
TAF CYYZ 131738Z 1318/1424 VRB03KT P6SM FEW020 OVC040 TEMPO 1318/1403 P6SM -DZ BKN015 OVC030 FM140300 VRB03KT 4SM BR OVC015 TEMPO 1403/1417 P6SM NSW OVC025 FM141700 15006KT P6SM BKN025 RMK NXT FCST BY 132100Z<br><br>
<br><br>
CYOO 131800Z AUTO VRB02KT 9SM OVC014 04/01 A3035 RMK SLP284<br><br>
CYOO 131700Z AUTO 00000KT 9SM OVC016 04/01 A3035 RMK SLP285<br><br>
CYOO has no TAF <br><br>
<br><br>
CYTR 131800Z 04004KT 15SM BKN025 OVC047 04/01 A3035 RMK SC6SC2 SLP282<br><br>
CYTR 131700Z 03002KT 15SM FEW009 BKN023 OVC039 04/01 A3037 RMK SF2SC5SC2 SLP288<br><br>
TAF CYTR 131730Z 1318/1418 03005KT P6SM FEW009 BKN025 TEMPO 1318/1320 BKN009 OVC020 FM140600 02004KT P6SM SCT010 BKN025 TEMPO 1406/1415 BKN010 OVC025 RMK NXT FCST BY 140000Z<br><br>
<br><br>
