RETRIEVED AT : Sep 03 2018 02:05 Local <br>
  RETRIEVED AT: Sep 03 2018 06:05 UTC<br><br>
CYSN has no TAF <br><br>
<br><br>
CYHM 030500Z 21006KT 15SM SKC 22/22 A3015 RMK SLP208 DENSITY ALT 1600FT<br><br>
TAF CYHM 030538Z 0306/0406 22006KT P6SM SKC PROB30 0307/0311 3/4SM BR FM031400 24010KT P6SM SCT050 BKN250 BECMG 0315/0317 24010G20KT FM031700 24010G20KT P6SM -SHRA BKN040 BKN250 PROB30 0317/0321 2SM TSRA BR OVC030CB FM032300 28008KT P6SM SCT040 FM040200 VRB03KT P6SM FEW040 RMK NXT FCST BY 031200Z<br><br>
<br><br>
KIAG 030553Z AUTO 21006KT 10SM CLR 23/21 A3015 RMK AO2 SLP206 T02280206 10250 20228 53000<br><br>
KIAG 030453Z AUTO 19006KT 10SM CLR 23/21 A3015 RMK AO2 SLP204 T02280206 402780222<br><br>
KIAG 030538Z 0306/0406 20006KT P6SM SKC FM031000 22010KT P6SM SCT150 FM031500 24014G22KT P6SM SCT050 FM031800 24016G24KT P6SM VCTS BKN035CB FM032200 24012KT P6SM BKN040 FM040100 23006KT P6SM SCT150<br><br>
<br><br>
KBUF 030554Z 18005KT 10SM CLR 22/21 A3016 RMK AO2 SLP210 T02220206 10250 20222 55000<br><br>
KBUF 030454Z 17006KT 10SM CLR 23/21 A3016 RMK AO2 SLP210 T02330206 402830222<br><br>
KBUF 030538Z 0306/0406 18006KT P6SM SKC FM031000 22010KT P6SM SCT150 FM031500 24016G24KT P6SM SCT150 FM032000 24014G22KT P6SM BKN050 FM040000 24006KT P6SM SCT150<br><br>
<br><br>
CYYZ 030500Z 19004KT 15SM SKC 25/21 A3011 RMK SLP196 DENSITY ALT 1700FT<br><br>
TAF CYYZ 030538Z 0306/0412 23006KT P6SM SKC BECMG 0314/0316 26010G20KT FM031700 27012G22KT P6SM -SHRA BKN040 BKN250 PROB30 0317/0322 2SM TSRA BR OVC030CB FM040000 34008KT P6SM FEW050 FM040300 34005KT P6SM FEW030 RMK NXT FCST BY 030900Z<br><br>
<br><br>
CYOO 030500Z AUTO 00000KT 9SM CLR 21/21 A3011 RMK SLP197 DENSITY ALT 1000FT<br><br>
CYOO has no TAF <br><br>
<br><br>
CYTR 030500Z 22006KT 15SM SKC 24/22 A3011 RMK SLP196<br><br>
TAF CYTR 030530Z 0306/0406 23006KT P6SM SKC BECMG 0307/0309 SCT030 BKN080 BECMG 0311/0313 24012G22KT FM031300 25012G22KT P6SM BKN030 OVC060 FM031800 25010G20KT 6SM -SHRA BR OVC030 PROB30 0318/0324 VRB15G25KT 3SM TSRA BR OVC020CB FM040300 VRB03KT P6SM BKN030 OVC080 BECMG 0403/0405 FEW030 SCT080 RMK NXT FCST BY 031200Z<br><br>
<br><br>
