RETRIEVED AT : Apr 05 2020 09:05 Local <br>
  RETRIEVED AT: Apr 05 2020 13:05 UTC<br><br>
CYSN 051200Z 35006KT 10SM OVC021 07/06 A3005 RMK SC8 SLP181<br><br>
TAF CYSN 051241Z 0513/0601 35008KT P6SM OVC020 TEMPO 0513/0517 BKN025 OVC150 FM051700 32008KT P6SM FEW020 SCT120 BECMG 0522/0524 01006KT RMK NXT FCST BY 052000Z<br><br>
<br><br>
CYHM 051200Z 31011G17KT 15SM FEW012 SCT027 BKN250 04/02 A3006 RMK SC1SC4CI3 SC TR SLP188<br><br>
TAF CYHM 051138Z 0512/0612 32010KT P6SM BKN010 OVC030 TEMPO 0512/0514 SCT010 BKN030 FM051400 33010KT P6SM SCT015 BKN140 TEMPO 0514/0518 BKN015 BKN140 FM051800 36005KT P6SM FEW025 SCT120 BECMG 0519/0521 06008KT FM060400 02005KT P6SM SKC BECMG 0610/0612 VRB03KT RMK NXT FCST BY 051800Z<br><br>
<br><br>
KIAG 051253Z 35006KT 10SM FEW010 BKN017 OVC024 07/04 A3006 RMK AO2 RAB12E31 SLP188 P0000 T00670044<br><br>
KIAG 051205Z 34005KT 8SM SCT018 BKN024 OVC030 07/05 A3005 RMK AO2 T00670050<br><br>
KIAG 051153Z 34005KT 7SM SCT027 OVC033 07/05 A3004 RMK AO2 SLP181 60001 70001 T00670050 10072 20061 53016<br><br>
KIAG 051120Z 0512/0612 31005KT P6SM OVC035 FM051300 32006KT P6SM VCSH BKN025 FM051600 34007KT P6SM BKN015 FM051900 31008KT P6SM SCT020 BKN150 FM052300 30005KT P6SM FEW250<br><br>
<br><br>
KBUF 051254Z 30006KT 10SM BKN011 OVC032 08/05 A3006 RMK AO2 SLP182 T00830050<br><br>
KBUF 051154Z 24008KT 10SM OVC050 08/04 A3004 RMK AO2 SLP177 OCNL BINOVC 60002 70002 T00780044 10078 20072 53012<br><br>
KBUF 051120Z 0512/0612 23004KT P6SM OVC040 FM051400 32006KT P6SM VCSH BKN020 FM051600 33006KT P6SM BKN015 FM051900 30008KT P6SM SCT020 BKN150 FM052300 26004KT P6SM FEW250<br><br>
<br><br>
CYYZ 051200Z 33010G16KT 15SM SCT035 06/03 A3006 RMK SC4 SLP183<br><br>
TAF CYYZ 051138Z 0512/0618 36010KT P6SM SCT012 OVC040 TEMPO 0512/0515 BKN012 OVC050 PROB30 0512/0513 OVC008 FM051500 35015KT P6SM SCT015 BKN180 FM052100 36008KT P6SM SKC BECMG 0609/0611 33008KT FM061600 15010KT P6SM SCT150 RMK NXT FCST BY 051500Z<br><br>
<br><br>
CYOO 051200Z AUTO 33010KT 9SM FEW012 OVC043 05/04 A3004 RMK SLP178<br><br>
TAF AMD CYOO 051006Z 0510/0520 34010KT P6SM SCT008 OVC030 TEMPO 0510/0515 4SM BR BKN008 OVC030 PROB30 0510/0515 OVC007 FM051500 32015KT P6SM SCT015 BKN180 TEMPO 0515/0517 BKN015 RMK FCST BASED ON AUTO OBS. NXT FCST BY 051400Z<br><br>
<br><br>
CYTR 051200Z 23004KT 10SM OVC030 07/06 A3002 RMK SC8 SLP168<br><br>
TAF CYTR 051130Z 0512/0612 VRB03KT P6SM FEW010 OVC030 TEMPO 0512/0513 3SM -RA -DZ BR OVC010 PROB30 0512/0513 2SM -DZ BR OVC008 FM051300 31005KT P6SM OVC012 TEMPO 0513/0517 SCT012 OVC025 FM051700 32010KT P6SM BKN025 TEMPO 0517/0520 BKN020 FM052000 32010KT P6SM SCT025 FM060000 31008KT P6SM SKC BECMG 0608/0610 VRB03KT RMK NXT FCST BY 051800Z<br><br>
<br><br>
