RETRIEVED AT : May 12 2018 04:05 Local <br>
  RETRIEVED AT: May 12 2018 08:05 UTC<br><br>
CYSN has no TAF <br><br>
<br><br>
CYHM 120700Z 04008KT 15SM BKN096 OVC130 06/01 A3007 RMK AC7AC1 SLP190<br><br>
TAF CYHM 120538Z 1206/1306 05005KT P6SM -RA OVC110 TEMPO 1206/1211 OVC080 FM121100 05012KT P6SM BKN060 FM121400 05012KT P6SM SCT020 BKN080 FM121700 05015KT P6SM FEW030 SCT120 BKN250 BECMG 1218/1220 SKC BECMG 1222/1224 04007KT RMK NXT FCST BY 121200Z<br><br>
<br><br>
KIAG 120753Z AUTO 09006KT 10SM BKN100 OVC120 10/M02 A3006 RMK AO2 SLP185 T01001022<br><br>
KIAG 120653Z AUTO 07006KT 10SM SCT055 OVC100 10/M01 A3009 RMK AO2 SLP193 T01001011<br><br>
KIAG 120526Z 1206/1306 07006KT P6SM OVC090 FM120900 07006KT P6SM -RA OVC070 FM121200 06007KT P6SM VCSH OVC040 FM121500 05008KT P6SM OVC045 FM121800 04008KT P6SM BKN090 FM130100 VRB03KT P6SM BKN250<br><br>
<br><br>
KBUF 120754Z 06007KT 10SM BKN110 OVC140 11/00 A3007 RMK AO2 SLP184 T01060000<br><br>
KBUF 120654Z 08005KT 10SM BKN100 OVC160 11/M01 A3008 RMK AO2 SLP189 T01061011<br><br>
KBUF 120526Z 1206/1306 07007KT P6SM OVC090 FM120900 07006KT 6SM -RA OVC040 FM121300 06007KT P6SM VCSH OVC035 FM121900 04007KT P6SM BKN080 FM130200 VRB03KT P6SM BKN250<br><br>
<br><br>
CYYZ 120700Z 12003KT 15SM SCT090 BKN140 08/M03 A3010 RMK AC3AC4 SLP198<br><br>
TAF CYYZ 120538Z 1206/1312 09003KT P6SM OVC120 TEMPO 1207/1211 P6SM -RA OVC080 BECMG 1208/1210 02005KT FM121400 06010KT P6SM FEW080 SCT220 BECMG 1218/1220 12008KT BECMG 1304/1306 35005KT FM131000 06005KT P6SM SCT006 RMK NXT FCST BY 120900Z<br><br>
<br><br>
CYOO 120700Z AUTO VRB02KT 9SM BKN180 OVC200 04/01 A3011 RMK SLP203<br><br>
CYOO has no TAF <br><br>
<br><br>
CYTR 120700Z 01002KT 15SM OVC240 01/M02 A3013 RMK CI8 SLP207<br><br>
TAF CYTR 120530Z 1206/1306 VRB03KT P6SM OVC250 FM120900 VRB03KT P6SM BKN100 BECMG 1214/1216 09008KT SCT180 RMK NXT FCST BY 121200Z<br><br>
<br><br>
