RETRIEVED AT : Mar 29 2020 21:05 Local <br>
  RETRIEVED AT: Mar 30 2020 01:05 UTC<br><br>
CYSN 300000Z 25024G36KT 15SM SCT082 11/04 A2972 RMK AC3 PRESRR SLP069<br><br>
TAF CYSN 291938Z 2920/3001 21008KT P6SM SCT040 BECMG 2920/2921 23025G45KT FM300000 23018G30KT P6SM BKN030 RMK NXT FCST WILL BE ISSUED AT 301245Z<br><br>
<br><br>
CYHM 300000Z 23020G33KT 15SM FEW030 BKN042 BKN075 10/04 A2972 RMK CF2SC4AC1 SLP070<br><br>
TAF AMD CYHM 292342Z 3000/3024 24022G35KT P6SM FEW030 BKN050 FM300200 23018G28KT P6SM FEW020 BKN040 TEMPO 3002/3006 P6SM -SHRA BKN020 OVC030 FM300600 23015G25KT P6SM -SHRA OVC015 TEMPO 3006/3012 P6SM NSW SCT020 OVC040 BECMG 3014/3016 26015G25KT FM302200 27010G20KT P6SM -SHRA BKN015 OVC030 RMK NXT FCST BY 300600Z<br><br>
<br><br>
KIAG 300053Z 24021G35KT 10SM OVC055 09/04 A2978 RMK AO2 PK WND 24040/0016 SLP091 T00940039<br><br>
KIAG 292353Z 25027G33KT 10SM OVC055 12/04 A2973 RMK AO2 PK WND 25033/2353 SLP074 60004 T01170039 10200 20117 51045<br><br>
KIAG 292340Z 3000/3024 25019G32KT P6SM BKN050 FM300300 23018G25KT P6SM BKN035 WS020/22045KT FM301000 23019G30KT P6SM OVC025 FM301300 23018G31KT P6SM VCSH OVC015 FM302200 25015KT P6SM VCSH OVC012<br><br>
<br><br>
KBUF 300054Z 22017G25KT 10SM OVC050 08/03 A2983 RMK AO2 PK WND 23028/0004 SLP102 T00780033<br><br>
KBUF 292354Z 22019G25KT 10SM BKN048 BKN100 08/04 A2978 RMK AO2 PK WND 21032/2319 SLP085 60020 T00830039 10222 20083 51048<br><br>
KBUF 300035Z 3001/3024 22023G34KT P6SM BKN050 FM300300 24019G29KT P6SM OVC040 FM301200 24019G31KT P6SM VCSH OVC020 FM302100 24018G24KT 4SM -SHRA OVC007<br><br>
<br><br>
CYYZ 300000Z 24018G27KT 15SM FEW040 FEW070 11/04 A2967 RMK CU1AC1 SLP053<br><br>
TAF CYYZ 292338Z 3000/3106 24020G30KT P6SM BKN050 BECMG 3001/3003 23015G25KT FM300400 23015G25KT P6SM FEW020 BKN040 TEMPO 3004/3008 P6SM -SHRA BKN015 OVC030 FM300800 24012G22KT P6SM -SHRA OVC015 TEMPO 3008/3017 P6SM NSW SCT020 OVC030 FM301700 26015G25KT P6SM -SHRA OVC015 BECMG 3020/3022 29010G20KT FM310300 35008KT P6SM -SHRA OVC012 RMK NXT FCST BY 300300Z<br><br>
<br><br>
CYOO 300000Z AUTO 26017G25KT 9SM SCT080 13/04 A2965 RMK SLP046 DENSITY ALT 500FT<br><br>
TAF AMD CYOO 292320Z 2923/3008 25018G35KT P6SM SCT040 BECMG 3001/3003 23015G25KT FM300500 23012G22KT P6SM FEW020 BKN040 TEMPO 3005/3008 P6SM -SHRA BKN015 OVC030 RMK FCST BASED ON AUTO OBS. NXT FCST BY 300200Z<br><br>
<br><br>
CYTR 300000Z 21008KT 15SM FEW015 BKN060 10/08 A2968 RMK SF1SC7 SLP053<br><br>
CYTR 292326Z 21008KT 10SM FEW015 OVC060 10/09 A2967 RMK SF1SC8 SLP048<br><br>
TAF CYTR 292330Z 3000/3024 21008KT P6SM FEW015 OVC060 TEMPO 3000/3002 5SM -SHRA BR BECMG 3000/3002 23015G25KT FM300300 24015KT P6SM SCT020 BKN050 TEMPO 3003/3006 BKN020 OVC050 FM300600 23012KT P6SM SCT012 OVC025 TEMPO 3006/3012 5SM -RA -DZ BR BKN012 OVC025 FM301200 23012KT 3SM -SHRA BR OVC008 BECMG 3014/3016 24012G22KT FM301800 24012G22KT P6SM -SHRA OVC012 RMK NXT FCST BY 300600Z<br><br>
<br><br>
