RETRIEVED AT : Jul 06 2020 02:05 Local <br>
  RETRIEVED AT: Jul 06 2020 06:05 UTC<br><br>
CYSN has no TAF <br><br>
<br><br>
CYHM 060500Z 06004KT 15SM FEW100 BKN250 22/13 A3001 RMK AC2CI3 SLP158 DENSITY ALT 1700FT<br><br>
TAF CYHM 060539Z 0606/0706 06005KT P6SM SCT240 FM061700 07007KT P6SM SCT070 FM070300 15005KT P6SM FEW060 RMK NXT FCST BY 061200Z<br><br>
<br><br>
KIAG 060553Z AUTO 00000KT 10SM CLR 19/14 A3000 RMK AO2 SLP153 T01940139 10289 20194 53006<br><br>
KIAG 060453Z AUTO 00000KT 10SM CLR 21/14 A2999 RMK AO2 SLP150 T02110139 403220156<br><br>
KIAG 060527Z 0606/0706 VRB03KT P6SM SCT250 FM061500 07005KT P6SM SCT150 FM061800 06009KT P6SM SCT200 FM070200 12004KT P6SM SCT250<br><br>
<br><br>
KBUF 060554Z 00000KT 10SM FEW250 22/14 A3001 RMK AO2 SLP155 T02220144 10306 20217 50004<br><br>
KBUF 060454Z 15005KT 10SM FEW250 23/14 A3001 RMK AO2 SLP156 T02330139 403280172<br><br>
KBUF 060527Z 0606/0706 14004KT P6SM SCT250 FM061500 06005KT P6SM SCT150 FM061800 07008KT P6SM SCT200 FM070200 13004KT P6SM SCT250<br><br>
<br><br>
CYYZ 060500Z 01004KT 15SM FEW260 25/16 A3000 RMK CI2 SLP156 DENSITY ALT 1800FT<br><br>
TAF CYYZ 060539Z 0606/0712 02005KT P6SM SCT240 FM061600 13010KT P6SM FEW070 BECMG 0700/0702 04005KT RMK NXT FCST BY 060900Z<br><br>
<br><br>
CYOO 060500Z AUTO 02005KT 9SM OVC190 23/17 A2999 RMK SLP153 DENSITY ALT 1300FT<br><br>
TAF CYOO 060138Z 0602/0614 34007KT P6SM SCT240 BECMG 0605/0607 02007KT FM061200 10012KT P6SM FEW100 RMK FCST BASED ON AUTO OBS. NXT FCST BY 060800Z<br><br>
<br><br>
CYTR 060500Z AUTO 03004KT 9SM CLR 22/17 A2999 RMK SLP156<br><br>
TAF CYTR 060530Z 0606/0706 03005KT P6SM SCT100 BECMG 0615/0617 20008KT FM061700 20008KT P6SM SCT040 TEMPO 0620/0624 BKN040 BECMG 0700/0702 VRB03KT RMK FCST BASED ON AUTO OBS 060600-061000Z. NXT FCST BY 061200Z<br><br>
<br><br>
