RETRIEVED AT : Jun 28 2020 10:05 Local <br>
  RETRIEVED AT: Jun 28 2020 14:05 UTC<br><br>
CYSN 281300Z 27008KT 15SM FEW020 21/17 A2976 RMK CU1 CU TR SLP078 DENSITY ALT 1300FT<br><br>
TAF CYSN 281238Z 2813/2901 29007KT P6SM FEW025 FM281900 35006KT P6SM BKN050 BECMG 2823/2901 VRB03KT RMK NXT FCST BY 282000Z<br><br>
<br><br>
CYHM 281300Z 27007KT 15SM FEW090 20/17 A2978 RMK AC1 AC TR SLP084 DENSITY ALT 1700FT<br><br>
TAF CYHM 281138Z 2812/2912 28007KT P6SM SKC FM281700 05006KT P6SM BKN040 BECMG 2820/2822 12008KT FM290200 02006KT P6SM FEW040 RMK NXT FCST BY 281800Z<br><br>
<br><br>
KIAG 281353Z 30006KT 10SM CLR 22/17 A2977 RMK AO2 SLP078 T02170167<br><br>
KIAG 281253Z 30008KT 10SM CLR 20/17 A2977 RMK AO2 SLP078 T02000167<br><br>
KIAG 281137Z 2812/2912 28005KT P6SM SCT250 FM281400 30005KT P6SM FEW250 FM281700 32007KT P6SM FEW250 FM282300 VRB04KT P6SM FEW250<br><br>
<br><br>
KBUF 281354Z 27008KT 10SM FEW020 22/17 A2978 RMK AO2 SLP081 T02170167 $<br><br>
KBUF 281254Z 28010KT 10SM SCT014 20/17 A2978 RMK AO2 SLP080 T02000167 $<br><br>
KBUF 281137Z 2812/2912 26005KT P6SM SCT250 FM281500 27006KT P6SM FEW250 FM281800 29007KT P6SM SCT120 FM290000 VRB03KT P6SM FEW250<br><br>
<br><br>
CYYZ 281300Z 34009KT 15SM FEW035 22/17 A2976 RMK CF1 CF TR SLP077 DENSITY ALT 1700FT<br><br>
TAF CYYZ 281138Z 2812/2918 32012KT P6SM SKC BECMG 2812/2814 34012KT FM281700 35012KT P6SM SCT050 TEMPO 2817/2821 BKN050 FM290000 01010KT P6SM FEW050 FM291700 12010KT P6SM SCT050 RMK NXT FCST BY 281500Z<br><br>
<br><br>
CYOO 281300Z AUTO 32005KT 9SM CLR 21/18 A2974 RMK SLP071 DENSITY ALT 1400FT<br><br>
TAF CYOO 281338Z 2814/2902 32006KT P6SM SKC FM281700 33008KT P6SM SCT050 TEMPO 2817/2821 BKN050 FM282100 36006KT P6SM BKN050 TEMPO 2821/2901 P6SM -SHRA RMK FCST BASED ON AUTO OBS. NXT FCST BY 282000Z<br><br>
<br><br>
CYTR 281300Z 34005KT 15SM FEW056 BKN092 22/17 A2973 RMK SC2AC6 SLP067<br><br>
TAF CYTR 281130Z 2812/2912 VRB03KT P6SM BKN040 OVC070 FM281400 25008KT P6SM SCT040 TEMPO 2816/2901 6SM -SHRA BR BKN040 PROB30 2818/2823 VRB15G25KT 2SM TSRA BR OVC030CB FM290100 VRB03KT P6SM FEW050 PROB30 2906/2912 2SM BR RMK NXT FCST BY 281800Z<br><br>
<br><br>
