RETRIEVED AT : Oct 20 2018 21:26 Local <br>
  RETRIEVED AT: Oct 21 2018 01:26 UTC<br><br>
CYSN 210100Z 05007KT 15SM -SHRA OVC020 07/05 A2971 RMK SC8 LAST STFD OBS/NXT 211100Z SLP065<br><br>
CYSN 210000Z 24005KT 10SM -SHRA OVC031 06/06 A2968 RMK CU8 SLP054<br><br>
TAF CYSN 201938Z 2020/2101 27008KT P6SM BKN030 BKN050 TEMPO 2020/2023 P6SM -SHRA BECMG 2023/2101 36010G20KT RMK NXT FCST WILL BE ISSUED AT 211245Z<br><br>
<br><br>
CYHM 210100Z 31005KT 15SM -SHRA BKN029 BKN040 05/05 A2973 RMK SC6SC1 CVCTV CLD EMBD SLP075<br><br>
CYHM 210000Z 01005KT 310V020 10SM -SHRA SCT009 OVC026 06/05 A2971 RMK CF3SC5 PRESRR SLP067<br><br>
TAF CYHM 202341Z 2100/2124 30005KT P6SM BKN030 BKN050 TEMPO 2100/2102 P6SM -SHRA BKN020 BKN050 FM210200 32012G22KT P6SM BKN030 TEMPO 2102/2106 BKN020 FM211100 30010G20KT P6SM SCT030 FM211600 29010G20KT P6SM BKN040 BECMG 2122/2124 27010KT RMK NXT FCST BY 210600Z<br><br>
<br><br>
KIAG 210105Z 36010KT 3SM RA BR BKN026 OVC034 05/03 A2972 RMK AO2 WSHFT 0041 P0003 T00500028<br><br>
KIAG 210055Z 35011G22KT 2 1/2SM +RA BR FEW009 BKN028 OVC049 05/03 A2971 RMK AO2 WSHFT 0041 VIS 2V5 PRESRR P0000 T00500028<br><br>
KIAG 210053Z 35014G22KT 3SM +RA BR FEW009 BKN032 OVC050 05/03 A2971 RMK AO2 RAE02B28 PRESRR SLP069 P0004 T00500033<br><br>
KIAG 202353Z 24008KT 10SM -RA OVC050 06/04 A2967 RMK AO2 SLP054 P0001 60002 T00610044 10094 20061 53018<br><br>
KIAG 202341Z 2100/2124 32011G17KT P6SM -SHRA OVC050 FM210200 34015G22KT P6SM VCSH OVC025 FM210900 33016G22KT P6SM -SHRASN OVC025 FM211600 31014KT P6SM -SHRASN OVC025 FM212200 28013KT P6SM BKN035 FM212300 28012KT P6SM BKN110<br><br>
<br><br>
KBUF 210054Z 24009KT 10SM SCT012 BKN060 OVC075 07/06 A2968 RMK AO2 RAB08E34 SLP054 P0000 T00670056<br><br>
KBUF 202354Z 24005KT 10SM FEW030 OVC060 06/06 A2967 RMK AO2 RAB01E28 SLP052 P0001 60006 T00610056 10083 20061 53013 $<br><br>
KBUF 202341Z 2100/2124 32010KT 5SM -SHRA BKN040 FM210400 35015G22KT P6SM VCSH OVC025 FM210900 33015KT P6SM -SHRA OVC007 FM211100 32014G20KT P6SM -SHRASN OVC007 FM212000 29014G20KT P6SM BKN035 FM212300 28010G17KT P6SM BKN120<br><br>
<br><br>
CYYZ 210100Z 35016G21KT 15SM FEW050 OVC120 06/M01 A2973 RMK SC1AC7 SLP072<br><br>
CYYZ 210000Z 35014G19KT 15SM FEW060 OVC140 07/M00 A2970 RMK SC1AC7 SLP062<br><br>
TAF CYYZ 202341Z 2100/2206 35012G22KT P6SM SCT050 BKN080 BECMG 2100/2102 35015G28KT FM210800 34012KT P6SM BKN030 TEMPO 2109/2114 P6SM -SHSN FM211500 33010G20KT P6SM BKN030 FM211700 32012G22KT P6SM BKN040 BECMG 2119/2121 29010G20KT RMK NXT FCST BY 210300Z<br><br>
<br><br>
CYOO 210100Z AUTO 33008KT 9SM FEW200 06/00 A2971 RMK SLP066<br><br>
CYOO 210000Z AUTO 33009G15KT 9SM BKN180 06/00 A2969 RMK SLP058<br><br>
CYOO has no TAF <br><br>
<br><br>
CYTR 210100Z 34006KT 15SM FEW120 BKN180 07/M02 A2968 RMK AC1AC5 SLP055<br><br>
CYTR 210000Z 33005KT 15SM FEW040 BKN100 08/M02 A2966 RMK SC1AC6 SLP046<br><br>
TAF CYTR 202330Z 2100/2124 30006KT P6SM FEW040 BKN100 FM210400 34008KT P6SM BKN040 BKN100 FM211400 31010KT P6SM SCT040 SCT200 BECMG 2114/2116 31012G22KT BECMG 2121/2123 28005KT RMK NXT FCST BY 210600Z<br><br>
<br><br>
