RETRIEVED AT : Mar 13 2020 12:05 Local <br>
  RETRIEVED AT: Mar 13 2020 16:05 UTC<br><br>
CYSN 131500Z 27019G38KT 15SM BKN052 06/M00 A2980 RMK SC7 SLP096<br><br>
TAF CYSN 131238Z 1313/1401 29025G40KT P6SM OVC020 TEMPO 1313/1315 OVC025 BECMG 1313/1315 26020G35KT FM131500 26020G35KT P6SM BKN025 TEMPO 1315/1401 BKN020 BECMG 1322/1324 27018G28KT RMK NXT FCST BY 132000Z<br><br>
<br><br>
CYHM 131500Z 27020G32KT 15SM FEW028 BKN046 05/M02 A2980 RMK SC2SC5 SLP100<br><br>
TAF CYHM 131140Z 1312/1412 29020G35KT P6SM BKN015 OVC030 TEMPO 1312/1318 SCT015 OVC030 FM131800 27022G35KT P6SM BKN030 BECMG 1322/1324 27015G25KT BECMG 1406/1408 28010KT RMK NXT FCST BY 131800Z<br><br>
<br><br>
KIAG 131553Z 25015G23KT 10SM OVC039 06/00 A2983 RMK AO2 PK WND 26032/1513 SLP112 T00560000<br><br>
KIAG 131453Z 26018G27KT 10SM FEW031 BKN042 OVC049 06/01 A2981 RMK AO2 PK WND 26032/1442 RAB24E51 SLP102 P0000 60000 T00560006 51077<br><br>
KIAG 131410Z 26016KT 10SM SCT024 BKN036 OVC043 06/01 A2977 RMK AO2 PK WND 26029/1359 T00560006<br><br>
KIAG 131503Z 1315/1412 26018G32KT P6SM VCSH BKN040 OVC050 FM131700 25025G40KT P6SM BKN035 FM132100 26016G24KT P6SM SCT040 FM140600 27012KT P6SM SCT040<br><br>
<br><br>
KBUF 131554Z 25018G25KT 10SM FEW023 FEW035 BKN050 06/M01 A2985 RMK AO2 PK WND 27029/1505 RAB11E24 SLP110 P0000 T00561006<br><br>
KBUF 131454Z 25019G25KT 10SM FEW023 FEW035 BKN048 07/01 A2980 RMK AO2 PK WND 27031/1404 SLP095 SHRA DSNT W-N-E P0000 60000 T00670011 51065<br><br>
KBUF 131503Z 1315/1412 25020G30KT P6SM VCSH FEW023 BKN040 FM131700 25025G40KT P6SM BKN035 FM132100 25018G26KT P6SM SCT040 FM140800 27012KT P6SM SCT040<br><br>
<br><br>
CYYZ 131545Z 27013G28KT 15SM FEW031 BKN042 05/M00 A2977 RMK CU2SC5 SLP088<br><br>
CYYZ 131527Z 26017G31KT 15SM -SHRA FEW030 BKN046 05/M01 A2976 RMK CU2SC4 PRESRR SLP084<br><br>
CYYZ 131500Z 27027G36KT 15SM FEW028 BKN044 06/M02 A2974 RMK CU2SC4 SLP076<br><br>
CYYZ 131413Z 28023G32KT 15SM FEW025 BKN034 05/M00 A2971 RMK CU2SC4 SLP066<br><br>
TAF CYYZ 131445Z 1315/1418 27025G40KT P6SM BKN030 TEMPO 1315/1324 P6SM -SHRA BECMG 1322/1324 27020G30KT FM140600 29012G22KT P6SM SCT025 FM141500 32010KT P6SM BKN025 BKN200 RMK NXT FCST BY 131800Z<br><br>
<br><br>
CYOO 131500Z AUTO 27021G31KT 9SM BKN031 OVC043 05/00 A2973 RMK PRESRR SLP071<br><br>
TAF CYOO 131339Z 1314/1402 29015G25KT P6SM SCT020 BKN030 TEMPO 1314/1402 BKN020 OVC030 RMK FCST BASED ON AUTO OBS. NXT FCST BY 132000Z<br><br>
<br><br>
CYTR 131549Z 24021G27KT 12SM -SHRA BKN025 07/01 A2970 RMK SC7 SLP062<br><br>
CYTR 131500Z 28018G29KT 15SM BKN025 06/02 A2968 RMK SC7 PRESRR SLP052<br><br>
CYTR 131430Z 27024G29KT 15SM SCT020 06/02 A2965 RMK SC4 PRESRR SLP044<br><br>
TAF AMD CYTR 131305Z 1313/1412 23015G25KT 5SM -SHRA BR BKN008 OVC020 BECMG 1313/1315 26020G35KT P6SM NSW BKN025 FM131500 26020G35KT P6SM BKN025 TEMPO 1315/1322 P6SM -SHRA BKN020 FM132200 27020G35KT P6SM BKN030 FM141000 29015G25KT P6SM SCT030 RMK NXT FCST BY 131800Z<br><br>
<br><br>
