RETRIEVED AT : Jul 03 2020 08:05 Local <br>
  RETRIEVED AT: Jul 03 2020 12:05 UTC<br><br>
CYSN 031100Z 22005KT 15SM FEW110 BKN250 22/17 A2991 RMK AC2CI3 SLP128 DENSITY ALT 1300FT<br><br>
CYSN has no TAF <br><br>
<br><br>
CYHM 031100Z 27004KT 15SM SCT250 21/16 A2994 RMK CI3 SLP137 DENSITY ALT 1600FT<br><br>
TAF CYHM 031138Z 0312/0412 VRB03KT P6SM SCT250 BECMG 0313/0315 03007KT FM031700 35012KT P6SM SCT060 TEMPO 0317/0324 BKN060 BECMG 0321/0323 36010KT FM040200 01006KT P6SM SKC RMK NXT FCST BY 031800Z<br><br>
<br><br>
KIAG 031153Z 25004KT 10SM CLR 23/16 A2993 RMK AO2 SLP127 T02330161 10239 20183 50004<br><br>
KIAG 031053Z 22005KT 10SM CLR 21/16 A2993 RMK AO2 SLP128 T02110161<br><br>
KIAG 031120Z 0312/0412 22005KT P6SM SKC FM031400 29006KT P6SM FEW250 FM031700 32007KT P6SM SCT200 FM032000 35007KT P6SM SCT100 FM032300 02005KT P6SM SCT100<br><br>
<br><br>
KBUF 031154Z 22009KT 10SM FEW150 SCT260 24/19 A2994 RMK AO2 SLP132 T02440189 10250 20222 50004<br><br>
KBUF 031054Z 24007KT 10SM FEW120 SCT260 23/18 A2994 RMK AO2 SLP134 T02330183<br><br>
KBUF 031120Z 0312/0412 24007KT P6SM FEW120 SCT260 FM031500 28007KT P6SM SCT250 FM031700 31008KT P6SM SCT200 FM032000 34008KT P6SM SCT090 FM032300 01006KT P6SM SCT090<br><br>
<br><br>
CYYZ 031100Z 32009KT 15SM FEW130 SCT250 23/16 A2992 RMK AC1CI3 SLP130 DENSITY ALT 1700FT<br><br>
TAF CYYZ 031138Z 0312/0418 32010KT P6SM FEW140 BECMG 0314/0316 35012G22KT FM031700 35012G22KT P6SM SCT050 TEMPO 0317/0323 BKN050 FM040000 35010KT P6SM SKC RMK NXT FCST BY 031500Z<br><br>
<br><br>
CYOO 031100Z AUTO 33006KT 9SM CLR 22/17 A2991 RMK SLP126 DENSITY ALT 1300FT<br><br>
TAF CYOO 030741Z 0308/0320 30006KT P6SM FEW060 SCT120 BECMG 0308/0310 34006KT BECMG 0313/0315 34010KT FM031700 35012KT P6SM SCT050 TEMPO 0317/0320 BKN050 RMK FCST BASED ON AUTO OBS. NXT FCST BY 031400Z<br><br>
<br><br>
CYTR 031100Z 31003KT 15SM FEW040 BKN080 OVC250 23/21 A2989 RMK SC2AC4CI2 SLP122<br><br>
TAF CYTR 031130Z 0312/0412 VRB03KT P6SM FEW040 BKN080 OVC250 BECMG 0315/0317 20010KT FM031700 20010KT P6SM BKN040 TEMPO 0317/0324 5SM -SHRA BR BKN030 PROB40 0317/0324 VRB15G30KT 2SM TSRA BR SCT015 OVC030CB FM040200 30005KT P6SM BKN060 BECMG 0405/0407 01008KT RMK FCST BASED ON AUTO OBS 040200-041000Z. NXT FCST BY 031800Z<br><br>
<br><br>
