RETRIEVED AT : Jul 04 2020 09:05 Local <br>
  RETRIEVED AT: Jul 04 2020 13:05 UTC<br><br>
CYSN 041200Z 01008KT 15SM FEW250 24/16 A2997 RMK CI1 SLP150 DENSITY ALT 1400FT<br><br>
TAF CYSN 041238Z 0413/0501 02008KT P6SM FEW250 BECMG 0422/0424 VRB03KT RMK NXT FCST BY 042000Z<br><br>
<br><br>
CYHM 041200Z 02009KT 15SM FEW250 23/14 A3001 RMK CI1 SLP160 DENSITY ALT 1800FT<br><br>
TAF CYHM 041138Z 0412/0512 02008KT P6SM FEW020 FEW250 BECMG 0414/0416 04012KT BECMG 0422/0424 VRB03KT RMK NXT FCST BY 041800Z<br><br>
<br><br>
KIAG 041253Z 01007KT 10SM CLR 23/15 A2998 RMK AO2 SLP147 T02330150<br><br>
KIAG 041153Z 34008KT 10SM CLR 22/15 A2998 RMK AO2 SLP145 T02220150 10228 20200 53007<br><br>
KIAG 041120Z 0412/0512 34006KT P6SM SKC FM041600 03006KT P6SM FEW250 FM042100 36006KT P6SM SCT250 FM042300 00000KT P6SM FEW250 FM050800 22004KT P6SM FEW250<br><br>
<br><br>
KBUF 041254Z 36007KT 10SM FEW065 FEW200 26/17 A2998 RMK AO2 SLP148 T02560172<br><br>
KBUF 041154Z 34009KT 10SM FEW065 FEW200 24/18 A2998 RMK AO2 SLP146 T02390178 10239 20222 53006<br><br>
KBUF 041256Z 0413/0512 35009KT P6SM FEW070 FM041700 01004KT P6SM FEW250 FM042100 35007KT P6SM SCT250 FM042300 02004KT P6SM FEW250 FM050800 20004KT P6SM FEW250<br><br>
<br><br>
CYYZ 041200Z 36010KT 15SM FEW250 23/13 A3001 RMK CI1 SLP160 DENSITY ALT 1500FT<br><br>
TAF CYYZ 041138Z 0412/0518 35012KT P6SM FEW250 FM041600 04008KT P6SM SKC BECMG 0417/0419 17010KT BECMG 0423/0501 36008KT FM051500 30010KT P6SM SCT100 RMK NXT FCST BY 041500Z<br><br>
<br><br>
CYOO 041200Z AUTO 36010G16KT 9SM CLR 23/13 A2998 RMK SLP152 DENSITY ALT 1300FT<br><br>
TAF CYOO 040740Z 0408/0420 34008KT P6SM FEW070 BECMG 0415/0417 17010KT RMK FCST BASED ON AUTO OBS. NXT FCST BY 041400Z<br><br>
<br><br>
CYTR 041200Z 36006KT 15SM FEW080 FEW250 23/13 A2997 RMK AC1CI2 SLP149<br><br>
TAF CYTR 041136Z 0412/0512 01005KT P6SM FEW080 BECMG 0417/0419 20008KT BECMG 0501/0503 VRB03KT RMK NXT FCST BY 041800Z<br><br>
<br><br>
