RETRIEVED AT : May 22 2020 21:05 Local <br>
  RETRIEVED AT: May 23 2020 01:05 UTC<br><br>
CYSN 230000Z 28004KT 15SM BKN065 BKN100 17/12 A2998 RMK SC5AC2 SLP152 DENSITY ALT 600FT<br><br>
TAF CYSN 221940Z 2220/2301 01008KT P6SM SCT080 BKN220 FM222200 VRB03KT P6SM SCT050 BKN080 TEMPO 2222/2301 P6SM -SHRA BKN050 RMK NXT FCST WILL BE ISSUED AT 231245Z<br><br>
<br><br>
CYHM 230000Z 24007KT 15SM -RA FEW035 OVC060 18/16 A3000 RMK CF1SC7 PCPN VRY LGT SLP162 DENSITY ALT 1300FT<br><br>
TAF CYHM 222338Z 2300/2324 20008KT P6SM SCT020 OVC040 TEMPO 2300/2308 4SM -SHRA BR BKN020 OVC030 FM230800 28005KT P6SM SCT015 BKN030 TEMPO 2308/2312 BKN015 BECMG 2312/2314 FEW040 FM231600 06010KT P6SM SCT040 TEMPO 2320/2323 P6SM -SHRA BKN040 RMK NXT FCST BY 230600Z<br><br>
<br><br>
KIAG 230053Z 23004KT 10SM OVC050 19/13 A2999 RMK AO2 SLP154 T01940133<br><br>
KIAG 222353Z 34005KT 10SM BKN050 OVC090 21/13 A2998 RMK AO2 SLP151 T02110128 10250 20211 56006<br><br>
KIAG 222320Z 2300/2324 02005KT P6SM OVC060 FM230500 VRB03KT P6SM -SHRA OVC040 FM231100 VRB03KT P6SM VCSH BKN025 FM231600 05006KT P6SM BKN035 FM232000 07009KT P6SM SCT040<br><br>
<br><br>
KBUF 230054Z 23007KT 10SM FEW011 OVC049 18/15 A3000 RMK AO2 SLP158 T01780150<br><br>
KBUF 222354Z 20010KT 10SM FEW012 BKN050 OVC090 21/15 A3000 RMK AO2 SLP157 T02060150 10261 20206 53002<br><br>
KBUF 222320Z 2300/2324 24007KT P6SM VCSH OVC050 FM230200 VRB03KT 6SM -RA OVC035 FM230500 VRB03KT 4SM -RA BR OVC020 FM230800 VRB03KT 4SM -SHRA BR OVC007 FM231100 VRB03KT P6SM VCSH BKN015 FM231600 03006KT P6SM BKN035 FM232100 06009KT P6SM SCT040<br><br>
<br><br>
CYYZ 230000Z 16005KT 15SM BKN060 20/09 A2999 RMK SC7 SLP156 DENSITY ALT 1200FT<br><br>
TAF AMD CYYZ 230023Z 2300/2406 15007KT P6SM BKN060 BKN220 BECMG 2303/2305 10005KT FM231100 02008KT P6SM SKC FM231600 12012KT P6SM FEW050 FM240400 09008KT P6SM SCT025 RMK NXT FCST BY 230300Z<br><br>
<br><br>
CYOO 230000Z AUTO 12002KT 9SM BKN250 20/08 A2999 RMK SLP156 DENSITY ALT 1000FT<br><br>
TAF CYOO 221940Z 2220/2308 18007KT P6SM FEW090 BKN200 BECMG 2223/2301 VRB03KT RMK FCST BASED ON AUTO OBS. NXT FCST BY 230200Z<br><br>
<br><br>
CYTR 230000Z 19002KT 15SM SCT150 21/08 A2998 RMK AC3 SLP154<br><br>
TAF CYTR 222330Z 2300/2324 22005KT P6SM SCT180 BECMG 2300/2302 VRB03KT FM231200 VRB03KT P6SM SKC BECMG 2315/2317 20010KT RMK NXT FCST BY 230600Z<br><br>
<br><br>
