RETRIEVED AT : May 12 2018 18:05 Local <br>
  RETRIEVED AT: May 12 2018 22:05 UTC<br><br>
CYSN 122100Z 34006KT 15SM FEW060 FEW140 FEW250 13/05 A3009 RMK SC1AC1CI2 SC TR AC TR SLP194<br><br>
TAF CYSN 121938Z 1220/1301 03008KT P6SM BKN230 BECMG 1221/1223 VRB03KT FEW230 RMK NXT FCST WILL BE ISSUED AT 131245Z<br><br>
<br><br>
CYHM 122100Z 05011KT 030V100 15SM FEW150 SCT250 14/M04 A3009 RMK AC1CI4 AC TR SLP196<br><br>
TAF CYHM 121738Z 1218/1318 05010G20KT P6SM BKN070 BECMG 1222/1224 04006KT SCT200 FM130000 04005KT P6SM BKN200 FM130600 04005KT P6SM BKN140 FM131000 04006KT 6SM BR SCT006 BKN010 FM131300 04006KT P6SM BKN200 BECMG 1314/1316 04010KT RMK NXT FCST BY 130000Z<br><br>
<br><br>
KIAG 122153Z 06010KT 10SM CLR 17/02 A3007 RMK AO2 SLP187 T01670017<br><br>
KIAG 122053Z 06008KT 10SM FEW060 17/04 A3009 RMK AO2 SLP193 T01670039 50004<br><br>
KIAG 122100Z 1221/1318 06008KT P6SM FEW060 FM130000 03004KT P6SM SCT250 FM130800 09004KT P6SM BKN140<br><br>
<br><br>
KBUF 122154Z 04005KT 10SM FEW060 SCT200 17/06 A3007 RMK AO2 SLP185 T01670061<br><br>
KBUF 122054Z 04005KT 10SM BKN060 BKN200 17/07 A3009 RMK AO2 SLP190 T01720067 50007<br><br>
KBUF 122100Z 1221/1318 04005KT P6SM BKN060 FM130400 08004KT P6SM BKN200 FM130600 11004KT P6SM BKN130<br><br>
<br><br>
CYYZ 122100Z 16008KT 15SM FEW090 FEW230 13/M01 A3009 RMK AC1CI1 SLP194<br><br>
TAF CYYZ 122038Z 1221/1324 15007KT P6SM SCT230 TEMPO 1221/1222 BKN230 FM130100 15006KT P6SM BKN200 BECMG 1302/1304 VRB03KT FM130600 VRB03KT P6SM BKN140 BECMG 1315/1317 10008KT SCT200 FM132300 18007KT P6SM SCT200 RMK NXT FCST BY 130000Z<br><br>
<br><br>
CYOO 122100Z AUTO 15007KT 130V200 9SM CLR 14/M04 A3010 RMK SLP197<br><br>
CYOO has no TAF <br><br>
<br><br>
CYTR 122100Z 23009KT 15SM FEW100 BKN240 13/04 A3008 RMK AC1CI5 SLP189<br><br>
TAF CYTR 121730Z 1218/1318 10008KT P6SM SCT100 BKN240 BECMG 1219/1221 21008KT FM130000 21005KT P6SM FEW240 BECMG 1300/1302 VRB03KT FM131400 13008KT P6SM FEW260 RMK NXT FCST BY 130000Z<br><br>
<br><br>
