RETRIEVED AT : Oct 27 2018 12:05 Local <br>
  RETRIEVED AT: Oct 27 2018 16:05 UTC<br><br>
CYSN 271525Z 08014G22KT 15SM FEW010 BKN068 OVC100 07/04 A2981 RMK SF1AC6AC1 SLP099<br><br>
CYSN 271500Z 08012G20KT 10SM -RA FEW010 SCT040 BKN060 OVC100 06/05 A2982 RMK SF2SC2SC2AC2 SLP103<br><br>
TAF CYSN 271238Z 2713/2801 08012KT 5SM -RA BR BKN008 OVC030 TEMPO 2713/2715 P6SM -RA SCT008 OVC030 PROB30 2713/2715 BKN007 FM271500 08015G25KT 5SM -RA BR BKN010 OVC030 TEMPO 2715/2717 P6SM -RA SCT010 OVC030 PROB30 2715/2717 BKN008 FM271700 07015G25KT 5SM -RA BR BKN012 OVC030 TEMPO 2717/2801 P6SM -RA OVC030 RMK NXT FCST BY 272000Z<br><br>
<br><br>
CYHM 271538Z 04021KT 10SM -RA OVC009 03/03 A2981 RMK SF8 SLP102<br><br>
CYHM 271500Z 04021KT 4SM -RA BR OVC009 03/02 A2982 RMK SF8 SLP105<br><br>
CYHM 271440Z 04020G30KT 4SM -RA BR OVC008 03/02 A2981 RMK SF8 SLP104<br><br>
TAF CYHM 271141Z 2712/2812 04018G30KT P6SM -RA BKN007 OVC015 TEMPO 2712/2717 2SM -RA BR BKN005 OVC015 FM271700 06015G25KT 4SM -RA BR OVC006 BECMG 2722/2724 04012G22KT FM280200 04012G22KT 2SM -RA BR OVC004 FM280700 01008KT 5SM -RA BR SCT008 OVC012 RMK NXT FCST BY 271800Z<br><br>
<br><br>
KIAG 271553Z 08014G20KT 10SM BKN013 BKN044 OVC070 06/03 A2980 RMK AO2 RAE00 SLP102 P0000 T00560028<br><br>
KIAG 271453Z 09014G22KT 10SM -RA SCT013 BKN044 OVC070 04/03 A2983 RMK AO2 SLP111 P0000 60002 T00440028 55002<br><br>
KIAG 271525Z 2715/2812 09014G22KT P6SM -RA SCT013 BKN045 FM271600 06014G24KT 6SM -RA OVC015 FM280500 02009KT 6SM -RA SCT007 OVC012 FM280900 32005KT 6SM -RA OVC012<br><br>
<br><br>
KBUF 271554Z 06015KT 10SM BKN009 BKN027 OVC045 04/03 A2979 RMK AO2 RAE50 SLP094 P0001 T00440033<br><br>
KBUF 271454Z 07014KT 8SM -RA BKN008 BKN027 OVC060 04/03 A2981 RMK AO2 SLP101 P0000 60007 T00440033 56004<br><br>
KBUF 271525Z 2715/2812 07014KT P6SM -RA BKN008 FM271800 07014G24KT 6SM -RA OVC009 FM280100 03013G19KT 6SM -RA OVC007 FM280500 01007KT 6SM -RA OVC007 FM280800 33006KT 6SM -RA OVC007<br><br>
<br><br>
CYYZ 271500Z 04007KT 12SM -RA BKN026 OVC055 04/01 A2988 RMK SC6SC2 SLP124<br><br>
CYYZ 271454Z 04009KT 12SM -RA BKN024 OVC055 03/01 A2988 RMK SC6SC2 SLP123<br><br>
CYYZ 271433Z 04009KT 15SM OVC027 03/01 A2988 RMK SC8 SLP125<br><br>
TAF CYYZ 271440Z 2715/2818 04010KT P6SM -RA OVC030 TEMPO 2715/2718 5SM -RA BR SCT009 OVC015 BECMG 2715/2717 05012G22KT FM271800 06015G25KT P6SM -RA SCT009 OVC015 FM272200 04010G20KT P6SM -RA OVC015 TEMPO 2722/2724 4SM -RASN BR OVC008 FM280000 04010G20KT 4SM -RASN BR OVC008 FM280600 02010KT 6SM -SNRA SCT008 OVC015 BECMG 2806/2808 35008KT FM281400 30005KT P6SM -RA BKN008 OVC030 RMK NXT FCST BY 271800Z<br><br>
<br><br>
CYOO 271500Z AUTO 07012G20KT 9SM OVC050 06/M01 A2989 RMK SLP128<br><br>
CYOO has no TAF <br><br>
<br><br>
CYTR 271500Z 05009KT 15SM OVC057 05/M04 A2996 RMK SC8 SLP149<br><br>
TAF CYTR 271130Z 2712/2812 05008KT P6SM BKN080 TEMPO 2712/2718 P6SM -SHRA OVC050 BECMG 2712/2714 05012G22KT FM271800 05015G25KT P6SM -RA SCT020 OVC040 FM272000 05015G25KT 4SM -RA BR OVC020 TEMPO 2720/2803 2SM -RASN BR OVC008 FM280300 03015G25KT 6SM -SN SCT008 OVC020 TEMPO 2803/2812 2SM -SN BKN008 OVC020 BECMG 2803/2805 03010KT RMK NXT FCST BY 271800Z<br><br>
<br><br>
