RETRIEVED AT : Oct 29 2018 06:05 Local <br>
  RETRIEVED AT: Oct 29 2018 10:05 UTC<br><br>
CYSN has no TAF <br><br>
<br><br>
CYHM 290900Z 26005KT 15SM FEW020 BKN030 OVC110 04/03 A2971 RMK SF1SC5AC2 SLP069<br><br>
TAF CYHM 290538Z 2906/3006 31006KT P6SM SCT015 OVC030 TEMPO 2906/2911 5SM -DZ -RA BR OVC015 FM291100 27010KT P6SM SCT020 BKN030 TEMPO 2911/2917 P6SM -SHRA OVC020 BECMG 2913/2915 27010G20KT FM291700 27015G30KT P6SM BKN025 OVC090 FM292100 29015G30KT P6SM FEW030 SCT100 BECMG 2923/3001 28012KT BECMG 3004/3006 28008KT RMK NXT FCST BY 291200Z<br><br>
<br><br>
KIAG 290953Z AUTO 27004KT 10SM SCT024 OVC080 04/03 A2972 RMK AO2 RAE33 SLP075 P0000 T00390028<br><br>
KIAG 290951Z AUTO 26004KT 10SM SCT024 OVC080 04/03 A2972 RMK AO2 RAE33 P0000<br><br>
KIAG 290935Z AUTO 29006KT 10SM BKN023 OVC055 04/03 A2972 RMK AO2 RAE33 P0000 T00390028<br><br>
KIAG 290853Z AUTO 31010KT 10SM -RA FEW009 SCT044 OVC050 04/03 A2970 RMK AO2 SLP068 P0001 60006 T00440028 53018<br><br>
KIAG 290843Z AUTO 31009KT 10SM -RA SCT009 BKN047 OVC060 04/03 A2970 RMK AO2 P0001 T00440028<br><br>
KIAG 290826Z AUTO 31015KT 10SM -RA BKN008 BKN011 OVC018 04/03 A2969 RMK AO2 CIG 005V009 P0001 T00440028<br><br>
KIAG 290815Z AUTO 31016G21KT 7SM -RA SCT006 BKN010 OVC017 05/03 A2969 RMK AO2 P0000 T00500033<br><br>
KIAG 290807Z AUTO 31011KT 5SM -RA BR BKN008 BKN013 OVC018 06/04 A2968 RMK AO2 CIG 005V010 P0000 T00560039<br><br>
KIAG 290848Z 2909/3006 32005KT 6SM -RA OVC007 FM291000 30007KT 6SM -SHRA OVC015 FM291500 27014G21KT 6SM -SHRA OVC020 FM292200 28017G24KT P6SM BKN035 FM300300 29010KT P6SM SCT080<br><br>
<br><br>
KBUF 290954Z 29007KT 10SM -RA FEW009 BKN015 OVC045 04/03 A2973 RMK AO2 SLP074 P0002 T00390033<br><br>
KBUF 290915Z 31010KT 10SM -RA SCT006 BKN011 OVC047 04/03 A2971 RMK AO2 P0001 T00440033<br><br>
KBUF 290854Z 28011KT 6SM -RA BR BKN008 OVC021 05/04 A2969 RMK AO2 SLP060 P0003 60004 T00500044 51012<br><br>
KBUF 290830Z 29007KT 5SM -RA BR BKN008 BKN021 OVC039 05/04 A2969 RMK AO2 P0002 T00500044<br><br>
KBUF 290812Z 30007KT 7SM -RA FEW009 SCT036 OVC043 06/05 A2968 RMK AO2 P0001 T00560050<br><br>
KBUF 290848Z 2909/3006 VRB03KT 4SM -RA BR OVC007 FM291100 29006KT 6SM -SHRA OVC012 FM291500 27014G22KT P6SM -SHRA OVC012 FM292200 28015G25KT P6SM OVC035 FM300300 28009KT P6SM SCT060<br><br>
<br><br>
CYYZ 290900Z 27005KT 15SM BKN018 OVC078 05/02 A2969 RMK SF7AS1 SLP061<br><br>
TAF CYYZ 290839Z 2909/3012 28008KT P6SM BKN025 OVC060 TEMPO 2909/2913 P6SM -RA -DZ OVC015 FM291300 25008KT P6SM SCT015 OVC050 TEMPO 2913/2915 P6SM -SHRASN BKN015 OVC050 FM291500 29010G20KT P6SM SCT015 OVC050 TEMPO 2915/2917 P6SM -SHRA BKN015 OVC030 FM291700 29015G25KT P6SM BKN030 OVC100 FM292100 29015G25KT P6SM FEW030 SCT100 BECMG 3000/3002 29012KT RMK NXT FCST BY 291200Z<br><br>
<br><br>
CYOO 291004Z AUTO 28007KT 9SM SCT018 BKN050 OVC065 04/03 A2969 RMK SLP060<br><br>
CYOO 290942Z AUTO 26006KT 9SM BKN018 BKN026 OVC075 04/03 A2969 RMK SLP060<br><br>
CYOO 290900Z AUTO 25004KT 9SM OVC075 04/03 A2968 RMK SLP055<br><br>
CYOO has no TAF <br><br>
<br><br>
CYTR 290943Z 31005KT 6SM -RA BR OVC018 04/03 A2967 RMK SC8 PCPN VRY LGT SLP051<br><br>
CYTR 290900Z 31003KT 4SM -RA BR OVC013 04/04 A2966 RMK SC8 PCPN VRY LGT CIG VRB 9-17 SLP048<br><br>
CYTR 290827Z 30003KT 3SM -RA BR FEW003 OVC011 04/04 A2966 RMK SF1SC8 CIG VRB 8-14 SLP047<br><br>
TAF AMD CYTR 290803Z 2908/3006 VRB03KT P6SM SCT010 BKN050 TEMPO 2908/2914 3SM -RA BR SCT003 OVC010 FM291400 27005KT 5SM -RA BR SCT006 OVC020 TEMPO 2914/2918 P6SM NSW FEW006 SCT020 OVC050 FM291800 29012KT P6SM SCT015 OVC030 BECMG 3003/3005 FEW015 SCT030 RMK NXT FCST BY 291200Z<br><br>
<br><br>
