RETRIEVED AT : Oct 30 2017 06:10 Local <br>
  RETRIEVED AT: Oct 30 2017 10:10 UTC<br><br>
CYSN has no TAF <br><br>
<br><br>
CYHM 301000Z 28014G23KT 15SM FEW026 SCT050 BKN200 05/00 A2945 RMK SC1SC2CC4 SLP981<br><br>
CYHM 300900Z 29017G23KT 15SM FEW026 BKN050 BKN210 05/00 A2945 RMK SF1SC4CI2 SLP977<br><br>
TAF CYHM 300538Z 3006/3106 31012G22KT P6SM SCT030 OVC060 FM301300 28020G30KT P6SM BKN060 BECMG 3015/3017 25020G35KT FM301900 24020G35KT 6SM -SHRA BR OVC025 TEMPO 3019/3022 OVC020 BECMG 3022/3024 25018G28KT FM310300 25020G30KT P6SM BKN040 RMK NXT FCST BY 301200Z<br><br>
<br><br>
KIAG 301003Z AUTO 29021G33KT 10SM BKN026 BKN035 OVC044 08/01 A2940 RMK AO2 PK WND 29033/0957 T00780011<br><br>
KIAG 300953Z AUTO 29020G34KT 10SM SCT026 BKN036 OVC043 08/02 A2940 RMK AO2 PK WND 29036/0943 SLP961 T00780017<br><br>
KIAG 300943Z AUTO 29025G36KT 10SM SCT026 OVC036 08/02 A2939 RMK AO2 PK WND 29036/0943 T00780017<br><br>
KIAG 300853Z AUTO 29024G31KT 10SM OVC025 08/02 A2938 RMK AO2 PK WND 31032/0758 SLP954 T00830022 55004<br><br>
KIAG 300816Z AUTO 30020G27KT 10SM SCT021 BKN028 OVC035 08/03 A2936 RMK AO2 PK WND 31032/0758 T00830028<br><br>
KIAG 300523Z 3006/3106 33016G23KT P6SM OVC045 FM301000 30019G34KT P6SM BKN045 FM301600 26022G41KT P6SM BKN250 FM301800 26023G41KT P6SM BKN040 FM302300 26021G30KT P6SM BKN200<br><br>
<br><br>
KBUF 300954Z 28020G29KT 10SM BKN022 OVC029 06/02 A2939 RMK AO2 PK WND 28029/0954 SLP957 T00610022<br><br>
KBUF 300854Z 29016G26KT 10SM OVC021 07/03 A2937 RMK AO2 PK WND 29028/0821 SLP948 T00670033 55004<br><br>
KBUF 300523Z 3006/3106 32013G20KT P6SM OVC045 FM301000 29016G30KT P6SM BKN045 FM302000 25025G44KT 4SM RA OVC007 FM310200 25020G28KT P6SM BKN040 FM310400 25019G28KT P6SM SCT120<br><br>
<br><br>
CYYZ 301000Z 30021G27KT 15SM FEW020 FEW049 BKN200 BKN220 06/00 A2939 RMK CF1SC2CC3CI2 CF TR SLP956<br><br>
CYYZ 300900Z 30022G33KT 15SM FEW020 BKN038 BKN048 OVC180 06/00 A2937 RMK CF1SC5SC2AS1 CF TR SLP952<br><br>
TAF CYYZ 300838Z 3009/3112 31025G35KT P6SM SCT020 OVC060 TEMPO 3009/3012 BKN020 BECMG 3012/3014 27025G35KT FM302000 26020G30KT P6SM OVC030 TEMPO 3020/3024 P6SM -SHRA FM310100 24015G25KT P6SM BKN040 RMK NXT FCST BY 301200Z<br><br>
<br><br>
CYOO 301000Z AUTO 30016G23KT 9SM BKN032 OVC190 07/01 A2930 RMK SLP925<br><br>
CYOO 300900Z AUTO 32024G34KT 9SM BKN150 OVC170 07/01 A2928 RMK SLP919<br><br>
CYOO has no TAF <br><br>
<br><br>
CYTR 301000Z 30021G32KT 6SM -SHRA BR BKN012 OVC037 05/04 A2912 RMK SF6SC2 /R10/ SLP863<br><br>
CYTR 300900Z 31018G25KT 6SM -SHRA BR BKN012 OVC037 05/05 A2911 RMK SF6SC2 SLP859<br><br>
CYTR 300842Z 31021G28KT 6SM -SHRA BR BKN012 OVC037 06/05 A2911 RMK SF6SC2 SLP859<br><br>
TAF CYTR 300530Z 3006/3106 33015G25KT 4SM -RA BR BKN005 OVC012 TEMPO 3006/3009 6SM -RA BR SCT005 BKN012 OVC020 PROB30 3006/3008 2SM RA BR BKN002 OVC005 FM300900 30018G28KT 6SM -RA BR SCT008 BKN012 OVC020 TEMPO 3009/3012 P6SM NSW SCT012 BKN020 BECMG 3010/3012 28020G35KT FM301200 28020G35KT P6SM SCT020 BKN040 TEMPO 3012/3014 BKN020 OVC040 BECMG 3019/3021 24015G25KT FM302100 24015G25KT P6SM SCT040 BECMG 3021/3023 24012KT FM310200 24010KT P6SM FEW040 RMK NXT FCST BY 301200Z<br><br>
<br><br>
