RETRIEVED AT : Jun 06 2020 08:05 Local <br>
  RETRIEVED AT: Jun 06 2020 12:05 UTC<br><br>
CYSN has no TAF <br><br>
<br><br>
TAF CYHM 061139Z 0612/0712 31007KT P6SM FEW050 FM061700 30010G20KT P6SM SCT070 FM070000 33010KT P6SM FEW050 BECMG 0703/0705 36010KT RMK NXT FCST BY 061800Z<br><br>
<br><br>
KIAG 061120Z 0612/0712 32005KT P6SM SCT100 FM061700 30011KT P6SM BKN050 FM070000 33006KT P6SM SCT120 FM070600 35004KT P6SM SCT080<br><br>
<br><br>
KBUF 061120Z 0612/0712 24005KT P6SM SCT100 FM061500 33008KT P6SM SCT120 FM061800 30010KT P6SM BKN050 FM070000 32006KT P6SM SCT090 FM070700 00000KT P6SM SCT060<br><br>
<br><br>
TAF CYYZ 061139Z 0612/0718 35008KT P6SM SKC FM061500 33010G20KT P6SM SCT070 FM070000 36010G20KT P6SM SKC BECMG 0706/0708 36010KT RMK NXT FCST BY 061500Z<br><br>
<br><br>
TAF CYOO 060738Z 0608/0620 28005KT P6SM BKN060 FM061000 32010G20KT P6SM SKC FM061700 33010G20KT P6SM SCT070 RMK FCST BASED ON AUTO OBS. NXT FCST BY 061400Z<br><br>
<br><br>
TAF CYTR 061130Z 0612/0712 32005KT P6SM FEW080 BECMG 0613/0615 30012G22KT FM061900 33012G22KT P6SM BKN040 TEMPO 0619/0701 5SM -SHRA BR PROB30 0619/0701 VRB15G25KT 2SM TSRA BR BKN020 OVC030CB FM070100 33008KT P6SM BKN050 FM070800 25005KT P6SM SCT050 RMK NXT FCST BY 061800Z<br><br>
<br><br>
