RETRIEVED AT : Oct 28 2018 00:05 Local <br>
  RETRIEVED AT: Oct 28 2018 04:05 UTC<br><br>
CYSN has no TAF <br><br>
<br><br>
CYHM 280313Z 03012KT 3SM -SN OVC004 01/01 A2979 RMK SF8 VIS VRB 2 - 4 SLP098<br><br>
CYHM 280300Z 04013KT 3SM -RASN BR OVC005 01/01 A2980 RMK SF8 VIS VRB 2 - 4 SLP099<br><br>
CYHM 280215Z 03013KT 6SM -SN OVC004 01/01 A2980 RMK SF8 SLP100<br><br>
CYHM 280210Z CCA 04014KT 5SM -SN BR OVC005 01/01 A2980 RMK SF8 SLP100<br><br>
TAF AMD CYHM 280049Z 2800/2824 04012G22KT 2SM -RA BR OVC004 TEMPO 2800/2807 6SM -RASN BR OVC006 FM280700 01008KT 5SM -RASN BR OVC008 FM281200 33005KT 6SM -RASN BR SCT008 OVC012 FM281500 23005KT P6SM -RA BKN010 OVC040 FM281900 23005KT P6SM BKN015 OVC040 BECMG 2820/2822 17005KT FM282300 07005KT P6SM -RA OVC015 RMK NXT FCST BY 280600Z<br><br>
<br><br>
KIAG 280402Z AUTO 03008KT 8SM -RA OVC005 03/02 A2977 RMK AO2 P0000 T00280017<br><br>
KIAG 280353Z AUTO 03008KT 7SM -RA OVC006 03/02 A2977 RMK AO2 RAB13E27B49 SLP092 P0000 T00280017<br><br>
KIAG 280343Z AUTO 03008KT 9SM OVC006 03/02 A2977 RMK AO2 RAB13E27 P0000 T00280017<br><br>
KIAG 280253Z 05012KT 10SM OVC007 03/02 A2978 RMK AO2 RAE44 CIG 005V010 SLP095 P0002 60006 T00280017 56004<br><br>
KIAG 280243Z 05010KT 10SM -RA OVC006 03/02 A2978 RMK AO2 CIG 005V011 P0002 T00280017<br><br>
KIAG 280255Z 2803/2824 04012KT P6SM -RA OVC007 FM280900 32004KT 6SM -SHRA BR OVC007 FM281300 VRB03KT P6SM VCSH OVC007 FM281700 25008KT P6SM OVC012 FM282100 22008KT P6SM OVC020<br><br>
<br><br>
KBUF 280354Z 01007KT 10SM -RA OVC006 03/02 A2976 RMK AO2 SLP082 P0002 T00280022<br><br>
KBUF 280254Z 03011KT 10SM -RA OVC006 03/02 A2976 RMK AO2 CIG 005V010 SLP085 RAB32 P0000 60004 T00280022 58003<br><br>
KBUF 280255Z 2803/2824 04013KT P6SM -RA OVC007 FM280900 32006KT 6SM -SHRA BR OVC007 FM281300 26005KT P6SM VCSH OVC007 FM281800 25009KT P6SM OVC012 FM282000 21009KT P6SM OVC012<br><br>
<br><br>
CYYZ 280346Z 01005KT 5SM -SN FEW003 OVC009 01/M00 A2981 RMK SF2SF6 SLP103<br><br>
CYYZ 280300Z 02008KT 5SM -SN OVC008 01/M00 A2982 RMK SF8 CIG VRB 6-10 SLP105<br><br>
TAF CYYZ 280238Z 2803/2906 02010KT 21/2SM -SN OVC008 TEMPO 2803/2806 P6SM -SNRA OVC012 FM280600 35008KT 6SM -SNRA SCT008 OVC015 TEMPO 2806/2814 5SM -SNRA BR BKN008 OVC015 FM281400 28005KT P6SM -RA SCT008 OVC030 TEMPO 2814/2816 6SM -RASN BKN008 OVC030 FM281600 26007KT P6SM -RA BKN015 OVC050 FM281900 23008KT P6SM BKN020 OVC050 BECMG 2820/2822 VRB03KT FM290000 VRB03KT P6SM -SHRA SCT020 OVC030 RMK NXT FCST BY 280600Z<br><br>
<br><br>
CYOO 280339Z AUTO 03005KT 5SM -RA BR OVC013 02/02 A2980 RMK SLP098<br><br>
CYOO 280300Z AUTO 04006KT 360V070 9SM -RA BKN022 OVC027 02/01 A2981 RMK SLP100<br><br>
CYOO 280243Z AUTO 03005KT 9SM -RA BKN024 OVC029 02/02 A2981 RMK SLP102<br><br>
CYOO has no TAF <br><br>
<br><br>
CYTR 280340Z 03011KT 3SM -RA BR BKN009 OVC022 01/00 A2979 RMK SF6SC2 CIG VRB 6-12 SLP092<br><br>
CYTR 280326Z 03009KT 2SM -RA BR SCT006 OVC022 01/01 A2980 RMK SF3SC5 VIS VRB 1 1/2-2 1/2 SLP094<br><br>
CYTR 280300Z 03010KT 2SM -RA BR OVC005 01/01 A2980 RMK SF8 VIS VRB 1 1/2-2 1/2 CIG VRB 3-7 SLP097<br><br>
CYTR 280228Z 05010KT 2SM -RA BR OVC001 01/01 A2982 RMK SF8 VIS VRB 1 1/2-2 1/2 CIG VRB 0-2 SLP101<br><br>
TAF AMD CYTR 280240Z 2802/2824 05010KT P6SM -RA SCT008 OVC020 TEMPO 2802/2804 2SM -SNRAPL BR VV001 FM280400 03010KT P6SM -RA SCT008 OVC020 TEMPO 2804/2812 2SM -SNRA BKN008 OVC020 FM281200 34005KT P6SM BKN015 OVC030 BECMG 2816/2818 24005KT RMK NXT FCST BY 280600Z<br><br>
<br><br>
