RETRIEVED AT : Jun 28 2020 22:05 Local <br>
  RETRIEVED AT: Jun 29 2020 02:05 UTC<br><br>
CYSN 290100Z 34005KT 15SM FEW040 FEW060 24/17 A2979 RMK SC1SC1 LAST STFD OBS/NEXT 29 1100UTC SLP089 DENSITY ALT 1600FT<br><br>
CYSN has no TAF <br><br>
<br><br>
CYHM 290100Z 35006KT 15SM FEW040 FEW087 23/16 A2982 RMK CU1AC2 CU TR SLP098 DENSITY ALT 2100FT<br><br>
TAF CYHM 282338Z 2900/2924 33008KT P6SM SCT050 FM290200 02006KT P6SM FEW040 BECMG 2907/2909 VRB03KT FM291500 05007KT P6SM SCT050 RMK NXT FCST BY 290600Z<br><br>
<br><br>
KIAG 290153Z 22005KT 10SM CLR 21/18 A2983 RMK AO2 SLP097 T02060178<br><br>
KIAG 290053Z 19004KT 10SM SCT055 23/18 A2981 RMK AO2 SLP090 T02280183<br><br>
KIAG 282324Z 2900/2924 33006KT P6SM SCT250 FM290400 VRB03KT P6SM SKC FM291500 35008KT P6SM SCT250<br><br>
<br><br>
KBUF 290154Z 22008KT 10SM FEW060 19/18 A2984 RMK AO2 SLP102 T01890178 $<br><br>
KBUF 290054Z 22008KT 10SM FEW060 20/18 A2982 RMK AO2 SLP097 T02000178 $<br><br>
KBUF 282324Z 2900/2924 23010KT P6SM SCT250 FM290300 27005KT P6SM SKC FM290800 VRB04KT P6SM SKC FM291500 33007KT P6SM FEW250<br><br>
<br><br>
CYYZ 290100Z 36010KT 15SM FEW080 25/14 A2982 RMK AC1 AC TR SLP096 DENSITY ALT 2000FT<br><br>
TAF CYYZ 282338Z 2900/3006 35012KT P6SM FEW050 BECMG 2901/2902 01008KT FM291700 15010KT P6SM SCT050 BECMG 3000/3002 08007KT RMK NXT FCST BY 290300Z<br><br>
<br><br>
CYOO 290100Z AUTO 32008KT 9SM CLR 24/17 A2980 RMK SLP092 DENSITY ALT 1700FT<br><br>
TAF CYOO 290139Z 2902/2914 35007KT P6SM FEW050 RMK FCST BASED ON AUTO OBS. NXT FCST BY 290800Z<br><br>
<br><br>
CYTR 290100Z 00000KT 15SM FEW040 FEW110 24/18 A2978 RMK CU1AC2 TCU DIST E SLP083<br><br>
TAF CYTR 282330Z 2900/2924 01010KT P6SM FEW040 SCT110 FM290200 VRB03KT P6SM FEW040 PROB30 2908/2911 2SM BR BECMG 2915/2917 22008KT FM291700 22008KT P6SM -SHRA BKN040 PROB30 2919/2924 VRB15G25KT 2SM TSRA BR OVC040CB RMK NXT FCST BY 290600Z<br><br>
<br><br>
