RETRIEVED AT : Dec 10 2017 13:10 Local <br>
  RETRIEVED AT: Dec 10 2017 18:10 UTC<br><br>
CYSN 101800Z 26015G24KT 15SM FEW025 BKN050 M01/M07 A2982 RMK SC2SC5 SLP105<br><br>
CYSN 101710Z 28014G21KT 8SM -SN OVC056 M01/M07 A2984 RMK SC8 SLP110<br><br>
CYSN 101700Z 27013G20KT 230V290 15SM OVC048 M01/M07 A2984 RMK SC8 SLP111<br><br>
TAF CYSN 101340Z 1014/1102 25018G28KT P6SM SCT030 OVC100 FM101900 25020G30KT 4SM -SHSN BKN030 OVC060 TEMPO 1019/1101 P6SM NSW SCT030 BKN060 PROB30 1019/1101 21/2SM -SHSN OVC015 FM110100 25020G30KT P6SM BKN030 OVC060 RMK NXT FCST BY 102000Z<br><br>
<br><br>
CYHM 101800Z 25021G29KT 10SM -SN SCT018 OVC025 M03/M06 A2980 RMK CF3SC5 PCPN VRY LGT SLP105<br><br>
CYHM 101700Z 24019G25KT 3SM -SN FEW016 BKN021 OVC030 M03/M06 A2982 RMK CF2SC3SC3 SLP113<br><br>
CYHM 101639Z 25015G22KT 3SM -SN SCT016 OVC028 M03/M06 A2983 RMK SC4SC4 SLP114<br><br>
TAF CYHM 101741Z 1018/1118 26015G25KT P6SM -SN BKN030 OVC050 TEMPO 1018/1104 21/2SM -SN OVC020 FM110400 25012G22KT 21/2SM -SN OVC025 PROB30 1104/1106 11/2SM -SHSN VV008 FM110600 33008KT P6SM SCT030 BECMG 1110/1112 02005KT FM111500 02005KT P6SM SCT020 BKN180 RMK NXT FCST BY 110000Z<br><br>
<br><br>
KIAG 101753Z 26018KT 8SM -SN FEW042 BKN050 OVC070 M01/M08 A2982 RMK AO2 UPB45E50SNB52 SLP113 P0000 60000 T10061078 10000 21017 58016<br><br>
KIAG 101653Z 27019G25KT 10SM OVC065 M01/M08 A2984 RMK AO2 PK WND 27027/1554 SLP118 T10061083<br><br>
KIAG 101720Z 1018/1118 26019G28KT P6SM OVC050 FM102100 25015G25KT P6SM -SN OVC040 FM110300 25012G19KT P6SM OVC060 FM110600 27009KT P6SM OVC035 FM110900 32008KT P6SM SCT040 FM111600 30006KT P6SM SCT040<br><br>
<br><br>
KBUF 101754Z 26013KT 5SM -SN OVC032 M02/M06 A2982 RMK AO2 SLP107 4/001 P0000 60000 T10171061 11017 21028 57016<br><br>
KBUF 101654Z 27013G24KT 9SM -SN FEW038 BKN050 OVC070 M02/M07 A2983 RMK AO2 SLP109 PCPN VRY LGT P0000 T10221072<br><br>
KBUF 101720Z 1018/1118 26015G26KT P6SM -SN OVC040 FM101900 25018G25KT 1 1/2SM -SN OVC025 FM102100 25017G25KT 1/2SM SN OVC012 FM110100 26014G21KT 2SM -SN OVC025 FM110300 25013G19KT P6SM VCSH OVC035 FM111400 30005KT P6SM SCT040<br><br>
<br><br>
CYYZ 101800Z 24016G23KT 15SM -SN BKN025 OVC100 M02/M07 A2978 RMK CU6AS2 SLP095<br><br>
CYYZ 101700Z 24012G20KT 10SM -SN SCT016 OVC022 M02/M06 A2981 RMK CF4SC4 SLP105<br><br>
TAF CYYZ 101741Z 1018/1124 25015G25KT P6SM -SN SCT020 OVC060 TEMPO 1018/1102 4SM -SN OVC020 PROB30 1018/1021 2SM -SHSN FM110200 25015KT 6SM -SN OVC030 TEMPO 1102/1104 11/4SM -SN OVC015 BECMG 1102/1104 32012KT FM110400 35012KT P6SM -SHSN BKN030 FM110600 35010KT P6SM SCT030 FM111500 VRB03KT P6SM BKN180 FM112100 10010KT 3SM -SN BKN020 OVC080 PROB30 1121/1124 2SM -SN OVC020 RMK NXT FCST BY 102100Z<br><br>
<br><br>
CYOO has no TAF <br><br>
<br><br>
CYTR 101800Z 25013KT 15SM FEW030 OVC072 M01/M07 A2978 RMK SC2AC6 SLP091<br><br>
CYTR 101744Z 26012G17KT 15SM SCT030 BKN072 M01/M07 A2979 RMK SC3AC4 SLP093<br><br>
CYTR 101700Z 28004KT 8SM -SHSN SCT024 OVC072 M02/M05 A2980 RMK SC4AC4 SLP097<br><br>
CYTR 101641Z 28005KT 6SM -SHSN SCT024 OVC083 M02/M04 A2981 RMK SC4AC4 SLP099<br><br>
TAF CYTR 101730Z 1018/1118 27005KT P6SM SCT020 BKN070 TEMPO 1018/1023 3SM -SHSN BKN020 OVC070 BECMG 1018/1020 25015G25KT FM102300 26015G25KT P6SM FEW012 BKN030 TEMPO 1023/1102 11/2SM -SHSN BKN012 OVC030 FM110200 30012KT P6SM SCT030 BKN050 FM110800 33008KT P6SM SKC FM111600 33005KT P6SM BKN200 RMK NXT FCST BY 110000Z<br><br>
<br><br>
