RETRIEVED AT : Jul 04 2020 20:05 Local <br>
  RETRIEVED AT: Jul 05 2020 00:05 UTC<br><br>
CYSN 042300Z 36004KT 15SM FEW230 30/11 A2994 RMK CI2 SLP137 DENSITY ALT 2100FT<br><br>
TAF CYSN 041938Z 0420/0501 03006KT P6SM SCT250 BECMG 0422/0424 VRB03KT RMK NXT FCST WILL BE ISSUED AT 051245Z<br><br>
<br><br>
CYHM 042300Z 28002KT 15SM FEW250 30/12 A2997 RMK CI1 SLP145 DENSITY ALT 2700FT<br><br>
TAF CYHM 042338Z 0500/0524 VRB03KT P6SM FEW250 BECMG 0513/0515 25007KT BECMG 0522/0524 02005KT RMK NXT FCST BY 050600Z<br><br>
<br><br>
KIAG 042353Z 34003KT 10SM CLR 28/11 A2996 RMK AO2 SLP137 T02830106 10300 20278 55011<br><br>
KIAG 042253Z 34005KT 10SM CLR 29/09 A2995 RMK AO2 SLP136 T02890094<br><br>
KIAG 042331Z 0500/0524 33005KT P6SM SKC FM050200 VRB03KT P6SM SKC FM051300 23005KT P6SM FEW250 FM051800 27010KT P6SM FEW060 SCT250<br><br>
<br><br>
KBUF 042354Z 36004KT 10SM FEW200 FEW260 30/07 A2997 RMK AO2 SLP142 T03000072 10322 20300 55007<br><br>
KBUF 042254Z 35005KT 10SM FEW260 31/08 A2996 RMK AO2 SLP139 T03060083<br><br>
KBUF 042331Z 0500/0524 33005KT P6SM SKC FM050230 VRB03KT P6SM SKC FM051300 24006KT P6SM SCT250 FM051800 25010KT P6SM FEW060 SCT250<br><br>
<br><br>
CYYZ 042300Z 15006KT 15SM FEW260 29/11 A2995 RMK CI1 SLP141 DENSITY ALT 2300FT<br><br>
TAF CYYZ 042338Z 0500/0606 15006KT P6SM FEW250 BECMG 0500/0502 02008KT BECMG 0513/0515 28008KT FM060000 02006KT P6SM SKC RMK NXT FCST BY 050300Z<br><br>
<br><br>
CYOO 042300Z AUTO 23004KT 190V260 9SM CLR 29/10 A2995 RMK SLP142 DENSITY ALT 2000FT<br><br>
TAF CYOO 041938Z 0420/0508 17008KT P6SM FEW250 BECMG 0423/0501 35005KT RMK FCST BASED ON AUTO OBS. NXT FCST BY 050200Z<br><br>
<br><br>
CYTR 042300Z 20008KT 15SM SCT250 28/14 A2992 RMK CI3 SLP133<br><br>
TAF CYTR 042330Z 0500/0524 20008KT P6SM SCT250 FM050200 35005KT P6SM SCT080 FM050900 VRB03KT P6SM BKN080 BECMG 0515/0517 23008KT FM052000 25012KT P6SM BKN030 BKN200 RMK FCST BASED ON AUTO OBS 050200-051000Z. NXT FCST BY 050600Z<br><br>
<br><br>
