RETRIEVED AT : Sep 25 2017 17:10 Local <br>
  RETRIEVED AT: Sep 25 2017 21:10 UTC<br><br>
CYSN 252100Z 04005KT 10SM BKN250 29/20 A3000 RMK CI6 SLP161 DENSITY ALT 1900FT<br><br>
CYSN 252000Z 04009KT 12SM BKN250 29/20 A3002 RMK CI6 SLP165 DENSITY ALT 1900FT<br><br>
TAF CYSN 251938Z 2520/2601 36006KT P6SM BKN290 RMK NXT FCST WILL BE ISSUED AT 261245Z<br><br>
<br><br>
CYHM 252100Z 13009KT 15SM FEW080 BKN250 30/15 A3003 RMK AC1CI6 SLP166 DENSITY ALT 2600FT<br><br>
CYHM 252000Z 16008KT 15SM FEW042 BKN250 31/16 A3004 RMK SC1CI6 SLP170 DENSITY ALT 2700FT<br><br>
TAF CYHM 251738Z 2518/2618 VRB03KT P6SM SCT300 PROB30 2609/2613 3/4SM BR RMK NXT FCST BY 260000Z<br><br>
<br><br>
KIAG 252053Z 03009KT 10SM CLR 32/21 A3002 RMK AO2 SLP160 T03170206 56014<br><br>
KIAG 251953Z 02008KT 9SM CLR 32/20 A3003 RMK AO2 SLP162 T03170200<br><br>
KIAG 252049Z 2521/2618 05007KT P6SM FEW250 FM252300 08005KT P6SM FEW250 FM260200 VRB03KT P6SM FEW250 FM260700 VRB03KT 4SM BR SCT250 TEMPO 2610/2612 2SM BR FM261300 21005KT P6SM FEW250<br><br>
<br><br>
KBUF 252054Z 05006KT 10SM FEW050 BKN210 BKN300 32/19 A3002 RMK AO2 SLP162 T03220189 56015<br><br>
KBUF 251954Z VRB06KT 10SM FEW050 FEW180 BKN260 BKN330 32/18 A3004 RMK AO2 SLP166 T03220183<br><br>
KBUF 252049Z 2521/2618 05007KT P6SM FEW050 FM252300 08005KT P6SM FEW250 FM260300 13004KT P6SM FEW250 FM260700 16004KT 4SM BR SCT250 FM261300 22006KT P6SM SCT250<br><br>
<br><br>
CYYZ 252100Z 14008KT 110V180 15SM FEW170 BKN250 30/18 A3001 RMK AC2CI4 SLP163 DENSITY ALT 2400FT<br><br>
CYYZ 252000Z 17006KT 120V180 15SM BKN250 31/18 A3003 RMK CI5 SLP168 DENSITY ALT 2400FT<br><br>
TAF CYYZ 252038Z 2521/2624 16008KT P6SM SCT300 BECMG 2522/2524 VRB03KT BECMG 2614/2616 16008KT RMK NXT FCST BY 260000Z<br><br>
<br><br>
CYOO 252100Z AUTO 12004KT 9SM CLR 30/17 A3003 RMK SLP167 DENSITY ALT 2100FT<br><br>
CYOO 252000Z AUTO 19006KT 120V240 9SM CLR 31/17 A3004 RMK SLP172 DENSITY ALT 2200FT<br><br>
CYOO has no TAF <br><br>
<br><br>
CYTR 252100Z 23004KT 15SM FEW160 SCT250 30/20 A3003 RMK AC1CI4 SLP168<br><br>
CYTR 252000Z 24005KT 6SM HZ FEW160 FEW250 30/19 A3003 RMK AC1CI2 SLP171<br><br>
TAF CYTR 251730Z 2518/2618 21009KT P6SM SCT250 BECMG 2522/2524 VRB03KT FM260300 VRB03KT P6SM BKN250 TEMPO 2603/2612 3SM BR BECMG 2616/2618 20009KT RMK NXT FCST BY 260000Z<br><br>
<br><br>
