RETRIEVED AT : May 30 2020 02:05 Local <br>
  RETRIEVED AT: May 30 2020 06:05 UTC<br><br>
CYSN has no TAF <br><br>
<br><br>
CYHM 300500Z 24004KT 15SM SKC 12/10 A2995 RMK SLP142<br><br>
TAF AMD CYHM 300547Z 3006/3106 24005KT P6SM FEW050 FM300800 23005KT P6SM BKN030 TEMPO 3008/3015 BKN020 BECMG 3012/3014 28012KT FM301500 30012G22KT P6SM BKN030 TEMPO 3015/3017 BKN020 FM301700 30015G25KT P6SM BKN040 FM310100 32010KT P6SM FEW040 RMK NXT FCST BY 301200Z<br><br>
<br><br>
KIAG 300553Z AUTO 26007KT 10SM CLR 12/10 A2994 RMK AO2 SLP142 60000 T01170100 10167 20117 51016 $<br><br>
KIAG 300453Z AUTO 29009KT 10SM CLR 13/11 A2993 RMK AO2 SLP137 T01280106 402390128 /<br><br>
KIAG 300524Z 3006/3106 27010KT P6SM SKC FM300900 24005KT P6SM SCT050 FM301200 23006KT P6SM VCSH BKN040 FM301500 25012KT P6SM VCSH BKN035 FM301900 27015G23KT P6SM BKN050 FM310000 31012KT P6SM SCT060<br><br>
<br><br>
KBUF 300554Z 25005KT 10SM CLR 12/11 A2995 RMK AO2 SLP142 T01220106 10150 20122 53015 $<br><br>
KBUF 300454Z 28009KT 10SM FEW029 13/11 A2994 RMK AO2 SLP137 T01330111 402390133 $<br><br>
KBUF 300524Z 3006/3106 26009KT P6SM SKC FM300900 23005KT P6SM SCT050 FM301200 22006KT P6SM VCSH BKN040 FM301500 24012KT P6SM VCSH BKN035 FM301900 25015G23KT P6SM BKN050 FM310000 30012KT P6SM SCT060<br><br>
<br><br>
CYYZ 300500Z 28009KT 15SM SKC 12/11 A2992 RMK SLP133<br><br>
TAF CYYZ 300540Z 3006/3112 28010KT P6SM FEW060 FM300900 24005KT P6SM BKN030 TEMPO 3009/3015 BKN020 BECMG 3012/3014 27010G20KT FM301700 29015G25KT P6SM BKN050 FM310100 34012KT P6SM SCT040 BECMG 3101/3103 34006KT FM311100 35012KT P6SM SKC RMK NXT FCST BY 300900Z<br><br>
<br><br>
CYOO 300541Z AUTO 30009KT 9SM BKN018 13/11 A2991 RMK SLP129<br><br>
CYOO 300500Z AUTO 28007KT 9SM FEW038 14/12 A2989 RMK SLP124<br><br>
CYOO 300424Z AUTO 29010G16KT 9SM SCT020 BKN026 OVC040 15/12 A2988 RMK SLP122 DENSITY ALT 500FT<br><br>
CYOO 300419Z AUTO 30010G16KT 9SM FEW019 BKN024 BKN030 OVC040 15/12 A2988 RMK SLP122 DENSITY ALT 500FT<br><br>
CYOO 300413Z AUTO 30008G16KT 9SM SCT019 BKN026 OVC040 15/12 A2988 RMK SLP120 DENSITY ALT 500FT<br><br>
TAF AMD CYOO 300559Z 3005/3014 30010KT P6SM FEW020 TEMPO 3005/3010 BKN020 FM301000 26005KT P6SM BKN020 BECMG 3012/3014 24010KT RMK FCST BASED ON AUTO OBS. NXT FCST BY 300800Z<br><br>
<br><br>
CYTR 300500Z 29007KT 15SM SCT030 OVC080 15/13 A2984 RMK SC3AC5 SLP105<br><br>
TAF CYTR 300530Z 3006/3106 29008KT P6SM FEW012 SCT030 BKN090 TEMPO 3006/3010 5SM -DZ BR FEW003 BKN012 OVC030 PROB30 3006/3010 2SM -DZ BR BKN003 OVC012 FM301000 25008KT P6SM FEW012 BKN040 TEMPO 3010/3015 P6SM -SHRA BKN012 OVC040 FM301600 22010KT 5SM -SHRA BR BKN015 OVC040 TEMPO 3016/3021 P6SM NSW SCT015 BKN040 FM302100 28012G22KT P6SM SCT015 BKN040 BECMG 3100/3102 34010KT FEW040 RMK NXT FCST BY 301200Z<br><br>
<br><br>
