RETRIEVED AT : Mar 20 2020 21:05 Local <br>
  RETRIEVED AT: Mar 21 2020 01:05 UTC<br><br>
CYSN 210000Z 29018G24KT 15SM OVC027 02/M01 A3014 RMK SC8 PRESRR SLP209<br><br>
TAF CYSN 201938Z 2020/2101 30020G30KT P6SM SCT030 TEMPO 2020/2101 BKN030 BECMG 2022/2024 29015G25KT RMK NXT FCST WILL BE ISSUED AT 211245Z<br><br>
<br><br>
CYHM 210000Z 29018G24KT 15SM OVC017 M01/M04 A3015 RMK SC8 SLP217<br><br>
TAF CYHM 202338Z 2100/2124 30015G25KT P6SM OVC020 TEMPO 2100/2110 SCT020 BKN030 BECMG 2104/2106 36008KT FM211000 03010KT P6SM SCT020 FM211200 04010KT P6SM SKC FM211800 06008KT P6SM SCT200 RMK NXT FCST BY 210600Z<br><br>
<br><br>
KIAG 210053Z 30013G25KT 10SM OVC020 01/M03 A3017 RMK AO2 PK WND 29029/0042 SLP224 T00061028<br><br>
KIAG 202353Z 29019G26KT 10SM OVC028 02/M02 A3012 RMK AO2 PK WND 30029/2335 PRESRR SLP205 T00171022 10117 20017 53067<br><br>
KIAG 202330Z 2100/2124 29017G25KT P6SM BKN025 OVC030 FM210400 32015G22KT P6SM BKN060 FM210800 34011G17KT P6SM BKN070 FM211100 35010KT P6SM FEW250<br><br>
<br><br>
KBUF 210054Z 29017G20KT 10SM BKN019 OVC026 02/M02 A3015 RMK AO2 PK WND 30026/0018 SLP215 T00221022<br><br>
KBUF 202354Z 30012G22KT 10SM OVC023 04/M01 A3010 RMK AO2 SLP194 T00441006 10167 20044 51064<br><br>
KBUF 202330Z 2100/2124 28015G23KT P6SM OVC023 FM210600 33011G17KT P6SM OVC040 FM211400 36007KT P6SM SCT250<br><br>
<br><br>
CYYZ 210000Z 31024G32KT 15SM BKN022 00/M05 A3014 RMK SC7 PRESRR SLP211<br><br>
TAF CYYZ 202338Z 2100/2206 31018G28KT P6SM BKN020 OVC100 TEMPO 2100/2102 SCT020 OVC100 FM210200 33015G25KT P6SM BKN025 TEMPO 2102/2106 BKN020 FM210600 35015G25KT P6SM SCT025 TEMPO 2106/2108 BKN020 FM210900 01012G22KT P6SM SKC BECMG 2112/2114 01012KT FM211800 01012KT P6SM SCT200 FM220000 36008KT P6SM SKC RMK NXT FCST BY 210300Z<br><br>
<br><br>
CYOO 210000Z AUTO 30019G28KT 9SM OVC017 M01/M04 A3010 RMK PRESRR SLP200<br><br>
TAF AMD CYOO 210011Z 2100/2108 31018G28KT P6SM OVC015 BECMG 2104/2106 34012G22KT FM210600 34012G22KT P6SM SCT020 TEMPO 2106/2108 BKN020 RMK FCST BASED ON AUTO OBS. NXT FCST BY 210200Z<br><br>
<br><br>
CYTR 210000Z 28016G30KT 15SM BKN025 02/M03 A3000 RMK SC6 PRESRR SLP163<br><br>
TAF CYTR 202330Z 2100/2124 28020G35KT P6SM BKN025 OVC250 TEMPO 2100/2102 BKN020 OVC250 BECMG 2100/2102 30015G25KT FM210200 30015G25KT P6SM SCT025 BECMG 2102/2104 34010G20KT FM210700 35008KT P6SM SKC FM211700 35008KT P6SM SCT210 RMK NXT FCST BY 210600Z<br><br>
<br><br>
