RETRIEVED AT : Nov 13 2017 05:10 Local <br>
  RETRIEVED AT: Nov 13 2017 10:10 UTC<br><br>
CYSN has no TAF <br><br>
<br><br>
CYHM 131000Z 35003KT 2SM -RA BR OVC002 01/01 A3031 RMK SC8 SLP274<br><br>
CYHM 130900Z 34002KT 2 1/2SM -RA BR OVC002 01/01 A3031 RMK SC8 SLP274<br><br>
TAF AMD CYHM 130705Z 1307/1406 04005KT 2SM -SNRA BR OVC004 TEMPO 1307/1310 6SM -RA BR SCT004 OVC020 FM131000 VRB03KT 2SM -DZ BR BKN005 OVC015 TEMPO 1310/1314 6SM BR SCT005 OVC015 PROB30 1311/1313 2SM -FZDZ BR FM131400 30007KT P6SM SCT015 BKN030 TEMPO 1314/1318 BKN015 BECMG 1404/1406 27005KT RMK NXT FCST BY 131200Z<br><br>
<br><br>
KIAG 130953Z AUTO 05003KT 7SM -RA BKN034 OVC046 02/M01 A3031 RMK AO2 SLP277 P0000 T00171006 $<br><br>
KIAG 130853Z AUTO 00000KT 5SM -RA BR SCT039 OVC048 02/M01 A3031 RMK AO2 SLP275 P0001 60005 T00171006 56005 $<br><br>
KIAG 130910Z 1309/1406 00000KT 5SM -RA BR OVC050 FM131300 VRB03KT P6SM OVC015 FM140500 VRB03KT P6SM OVC035<br><br>
<br><br>
KBUF 130954Z 07003KT 9SM -RASN OVC033 01/01 A3030 RMK AO2 SLP268 P0001 T00110006<br><br>
KBUF 130854Z COR 00000KT 8SM -RASN OVC037 01/01 A3030 RMK AO2 SNB51 SLP270 P0003 60008 T00060006 56003<br><br>
KBUF 130910Z 1309/1406 00000KT P6SM -RASN OVC035 FM131300 VRB03KT P6SM OVC015 FM140400 VRB03KT P6SM OVC035<br><br>
<br><br>
CYYZ 131000Z 01004KT 8SM SCT011 OVC024 02/01 A3032 RMK SF4SC4 SLP276<br><br>
CYYZ 130939Z 01004KT 8SM SCT012 BKN024 OVC041 02/01 A3032 RMK SF3SC2SC3 SLP276<br><br>
CYYZ 130926Z 01004KT 8SM -DZ SCT009 OVC038 02/01 A3032 RMK SF3SC5 SLP276<br><br>
CYYZ 130900Z 35004KT 10SM -DZ BKN013 OVC024 02/01 A3032 RMK ST5SC3 SLP276<br><br>
CYYZ 130842Z 01004KT 12SM BKN016 OVC034 02/01 A3032 RMK SC5SC3 SLP275<br><br>
CYYZ 130827Z 01004KT 10SM -RA BKN016 OVC038 02/01 A3032 RMK SC5SC3 SLP275<br><br>
TAF CYYZ 130839Z 1309/1412 VRB03KT P6SM -RA SCT008 OVC030 TEMPO 1309/1310 3SM -RASN BR BKN008 OVC025 FM131000 33005KT P6SM -DZ -SN BKN010 OVC025 TEMPO 1310/1314 P6SM NSW SCT010 BKN025 FM131400 28008KT P6SM BKN030 FM132000 VRB03KT P6SM BKN030 TEMPO 1320/1323 P6SM -SHRA BKN020 BECMG 1404/1406 30005KT RMK NXT FCST BY 131200Z<br><br>
<br><br>
CYOO 131000Z AUTO 01003KT 9SM -RA BKN020 BKN027 OVC033 02/02 A3033 RMK SLP277<br><br>
CYOO 130953Z AUTO 36003KT 9SM -RA BKN020 BKN027 OVC033 02/02 A3033 RMK SLP277<br><br>
CYOO 130900Z AUTO 35003KT 9SM OVC014 02/01 A3033 RMK SLP276<br><br>
CYOO 130841Z AUTO 34002KT 9SM OVC014 02/02 A3033 RMK SLP276<br><br>
CYOO has no TAF <br><br>
<br><br>
CYTR 131000Z 04002KT 8SM -RA SCT017 BKN041 OVC120 01/00 A3035 RMK SC4SC2AC2 SLP282<br><br>
CYTR 130900Z 04002KT 12SM -RA OVC041 02/M00 A3034 RMK SC8 SLP280<br><br>
CYTR 130837Z 00000KT 12SM -RA OVC041 02/M01 A3034 RMK SC8 SLP280<br><br>
TAF CYTR 130530Z 1306/1406 06005KT P6SM OVC050 FM130700 06005KT P6SM -RASN FEW020 OVC040 FM130900 05007KT 6SM -RASN BR SCT012 OVC030 TEMPO 1309/1315 BKN012 OVC030 FM131500 05007KT P6SM SCT012 OVC030 TEMPO 1315/1322 BKN012 OVC030 FM132200 04004KT P6SM FEW020 OVC040 RMK NXT FCST BY 131200Z<br><br>
<br><br>
