RETRIEVED AT : May 17 2020 04:05 Local <br>
  RETRIEVED AT: May 17 2020 08:05 UTC<br><br>
CYSN has no TAF <br><br>
<br><br>
CYHM 170700Z 03009KT 15SM SCT220 07/06 A3019 RMK CI3 SLP229<br><br>
TAF CYHM 170538Z 1706/1806 03008KT P6SM SCT200 FM171000 06012KT P6SM SCT040 BKN200 FM171600 05015G25KT P6SM SCT040 BKN120 OVC200 FM172000 05015G25KT P6SM -RA SCT020 BKN040 OVC080 TEMPO 1720/1721 5SM -RA BR BKN020 OVC040 FM180000 06015G25KT 2SM -RA BR OVC006 RMK NXT FCST BY 171200Z<br><br>
<br><br>
KIAG 170753Z AUTO 05007KT 10SM CLR 08/05 A3019 RMK AO2 SLP229 T00780050 $<br><br>
KIAG 170653Z AUTO 05004KT 10SM CLR 08/05 A3021 RMK AO2 SLP233 T00780050 $<br><br>
KIAG 170544Z 1706/1806 09006KT P6SM OVC250 FM171500 08012G20KT P6SM BKN100 FM172000 07012G20KT 6SM -SHRA BKN040 FM172300 08012G20KT 4SM RA BR SCT025 OVC035 FM180300 08012KT 4SM RA OVC015 FM180500 07012KT 2SM RA BR OVC007<br><br>
<br><br>
KBUF 170754Z 04007KT 10SM BKN280 09/05 A3019 RMK AO2 SLP226 T00890050<br><br>
KBUF 170654Z 06004KT 10SM FEW200 SCT290 09/06 A3020 RMK AO2 SLP228 T00890056<br><br>
KBUF 170544Z 1706/1806 09006KT P6SM OVC250 FM171500 08012G18KT P6SM OVC100 FM171900 07012G18KT 6SM -SHRA SCT025 BKN035 FM172300 08012KT 4SM RA BR OVC025 FM180200 08010KT 4SM RA BR OVC015<br><br>
<br><br>
CYYZ 170700Z 06004KT 15SM BKN240 09/06 A3023 RMK CI6 SLP240<br><br>
TAF CYYZ 170538Z 1706/1812 04005KT P6SM BKN250 FM170900 08008KT P6SM SCT150 BKN220 FM171200 09012KT P6SM SCT050 BKN150 OVC200 BECMG 1717/1719 09015G25KT FM172100 09015G25KT P6SM -RA BKN030 OVC070 TEMPO 1721/1803 3SM -RA BR BKN012 OVC030 FM180300 08012KT 2SM -RA BR OVC008 RMK NXT FCST BY 170900Z<br><br>
<br><br>
CYOO 170700Z AUTO 00000KT 9SM SCT250 06/05 A3023 RMK SLP241<br><br>
TAF CYOO 170738Z 1708/1720 VRB03KT P6SM SCT240 FM170900 06007KT P6SM BKN240 TEMPO 1709/1712 2SM BR FM171200 06010KT P6SM BKN200 FM171600 09012KT P6SM BKN150 RMK FCST BASED ON AUTO OBS. NXT FCST BY 171400Z<br><br>
<br><br>
CYTR 170700Z 00000KT 15SM BKN250 05/03 A3025 RMK CI6 SLP245<br><br>
TAF CYTR 170530Z 1706/1806 VRB03KT P6SM SCT250 PROB30 1706/1710 1SM BR FM171200 05010KT P6SM BKN200 BECMG 1716/1718 09010KT OVC150 FM172200 06008KT P6SM SCT060 OVC100 TEMPO 1722/1802 P6SM -RA BKN060 OVC100 FM180200 05005KT P6SM -RA SCT030 OVC050 TEMPO 1802/1806 5SM -RA BR BKN030 OVC050 RMK NXT FCST BY 171200Z<br><br>
<br><br>
