RETRIEVED AT : Nov 11 2018 14:05 Local <br>
  RETRIEVED AT: Nov 11 2018 19:05 UTC<br><br>
CYSN 111800Z 24010KT 15SM SCT035 BKN060 OVC080 04/M04 A3030 RMK SC4SC2AC2 SLP264<br><br>
TAF CYSN 111338Z 1114/1202 23005KT P6SM FEW025 SCT050 BKN250 BECMG 1115/1117 26010KT FM111800 26010KT P6SM SCT030 BKN080 TEMPO 1118/1122 5SM -SHSN BKN020 OVC030 RMK NXT FCST BY 112000Z<br><br>
<br><br>
CYHM 111800Z 24012KT 15SM SCT027 BKN075 BKN250 03/M03 A3027 RMK SC4AC3CI1 CI TR SLP263<br><br>
TAF CYHM 111740Z 1118/1218 25010KT P6SM BKN030 OVC080 TEMPO 1118/1202 3SM -SHSN BKN015 OVC040 PROB30 1118/1121 11/2SM -SHSN OVC010 FM120200 23005KT P6SM SCT030 BKN060 FM121000 VRB03KT P6SM BKN050 BKN200 FM121600 24005KT P6SM BKN030 BKN140 RMK NXT FCST BY 120000Z<br><br>
<br><br>
KIAG 111853Z 23007KT 10SM BKN032 OVC039 02/M03 A3029 RMK AO2 SLP271 T00171033<br><br>
KIAG 111753Z 25009KT 10SM BKN034 OVC047 03/M04 A3030 RMK AO2 SLP274 T00281039 10028 21028 58010<br><br>
KIAG 111731Z 1118/1218 26009KT P6SM BKN035 FM112100 24008KT P6SM OVC025 FM112300 24007KT P6SM OVC035 FM120300 23004KT 6SM -DZ BR OVC025 FM120700 VRB03KT 5SM -DZ BR OVC025 FM121300 19005KT P6SM OVC035 FM121600 20007KT P6SM OVC060<br><br>
<br><br>
KBUF 111854Z 20004KT 2SM -SN BR BKN007 OVC024 01/00 A3030 RMK AO2 SFC VIS 5 SLP268 P0001 T00060000<br><br>
KBUF 111836Z 20007KT 2SM -SN BR FEW007 BKN024 OVC028 01/M01 A3030 RMK AO2 SFC VIS 2 1/2 P0001 T00061006<br><br>
KBUF 111826Z 19007KT 1 1/2SM R23/5500VP6000FT -SN BR FEW007 BKN026 OVC030 01/M01 A3030 RMK AO2 TWR VIS 2 P0000 T00061006<br><br>
KBUF 111806Z 20009KT 1 3/4SM -SN BR BKN032 OVC045 01/M01 A3030 RMK AO2 TWR VIS 2 P0000 T00111006<br><br>
KBUF 111754Z 19009KT 9SM -SN FEW013 SCT018 OVC034 01/M01 A3030 RMK AO2 SNB32 SLP270 P0000 60000 T00111011 10022 21011 58011<br><br>
KBUF 111811Z 1118/1218 22008KT 2SM -SN OVC025 FM112100 23008KT P6SM OVC035 FM120400 20005KT 6SM -DZ BR OVC025 FM120800 21005KT 4SM -DZ BR OVC015 FM121400 20005KT P6SM OVC045 FM121700 21009KT P6SM OVC080<br><br>
<br><br>
CYYZ 111848Z 25004KT 15SM FEW025 FEW040 OVC070 03/M05 A3027 RMK CU1SC1AS8 CU TR SC TR SLP257<br><br>
CYYZ 111814Z 23010G16KT 15SM -SN OVC032 03/M07 A3027 RMK SC8 SLP260<br><br>
CYYZ 111800Z 24013G18KT 15SM FEW035 OVC042 03/M07 A3027 RMK CU1SC8 CU TR SLP259<br><br>
TAF CYYZ 111740Z 1118/1224 24012KT P6SM FEW030 BKN080 FM112000 23010KT P6SM BKN030 OVC080 TEMPO 1120/1124 P6SM -SHSN FM120300 26006KT P6SM BKN050 FM120900 24005KT P6SM SCT050 BKN200 FM121600 24010KT P6SM SCT040 BKN140 FM122000 21008KT P6SM BKN030 BKN120 RMK NXT FCST BY 112100Z<br><br>
<br><br>
CYOO 111901Z AUTO 23005KT 180V250 5SM -UP SCT027 OVC034 02/M02 A3028 RMK SLP260<br><br>
CYOO 111853Z AUTO 22006KT 130V260 6SM -UP BKN029 OVC036 02/M02 A3028 RMK SLP260<br><br>
CYOO 111848Z AUTO 21006KT 130V240 5SM -UP BKN029 OVC036 02/M02 A3028 RMK SLP261<br><br>
CYOO 111845Z AUTO VRB02KT 5SM -RA -UP BKN029 OVC036 02/M02 A3028 RMK SLP261<br><br>
CYOO 111842Z AUTO 20005KT 150V230 9SM -RA -UP BKN029 OVC036 02/M02 A3028 RMK SLP261<br><br>
CYOO 111829Z AUTO 19007KT 180V250 9SM -RA OVC037 03/M03 A3028 RMK SLP261<br><br>
CYOO 111800Z AUTO 19006KT 150V210 9SM BKN037 OVC048 03/M04 A3028 RMK SLP262<br><br>
CYOO has no TAF <br><br>
<br><br>
CYTR 111800Z 12002KT 15SM FEW044 OVC160 02/M05 A3032 RMK SC1AS7 SUN DIMLY VISBL SLP271<br><br>
TAF CYTR 111730Z 1118/1218 VRB03KT P6SM SCT040 BKN150 TEMPO 1118/1123 6SM -SHSN BKN040 BECMG 1118/1120 24005KT FM112300 24005KT P6SM SCT015 OVC030 TEMPO 1123/1207 5SM -SHRASN OVC015 FM120700 27005KT P6SM SCT020 BKN040 FM121400 24005KT P6SM -SHRA BKN020 OVC040 BECMG 1216/1218 22012KT RMK NXT FCST BY 120000Z<br><br>
<br><br>
