RETRIEVED AT : Sep 08 2018 14:46 Local <br>
  RETRIEVED AT: Sep 08 2018 18:46 UTC<br><br>
CYSN 081800Z 06014G20KT 15SM FEW030 OVC250 16/08 A3026 RMK SC1CI7 SLP247<br><br>
CYSN 081700Z 05016G21KT 15SM FEW030 OVC250 16/08 A3026 RMK SC1CI7 SLP249<br><br>
TAF CYSN 081238Z 0813/0901 07015G25KT P6SM FEW025 BKN250 FM082000 07012G22KT P6SM OVC220 RMK NXT FCST BY 082000Z<br><br>
<br><br>
CYHM 081800Z 05017KT 15SM SCT030 BKN180 BKN240 15/09 A3027 RMK SC3AS3CI1 SLP253<br><br>
CYHM 081700Z 05018G23KT 15SM FEW023 BKN032 15/09 A3027 RMK CU2SC5 SLP254<br><br>
TAF CYHM 081738Z 0818/0918 04017G27KT P6SM FEW030 BKN200 TEMPO 0818/0824 BKN030 OVC200 FM090000 06012G22KT P6SM BKN200 BECMG 0912/0914 08015G25KT FM091600 08018G28KT P6SM FEW030 OVC180 RMK NXT FCST BY 090000Z<br><br>
<br><br>
KIAG 081753Z 06013KT 10SM SCT034 17/09 A3026 RMK AO2 SLP246 T01670089 10172 20156 56002<br><br>
KIAG 081653Z 06015KT 10SM SCT031 17/09 A3026 RMK AO2 SLP246 T01720094<br><br>
KIAG 081736Z 0818/0918 06014KT P6SM SCT035 OVC200 FM082100 06012KT P6SM OVC200 FM090000 07008KT P6SM BKN250 FM091400 09012G20KT P6SM OVC200<br><br>
<br><br>
KBUF 081754Z 06012KT 7SM SCT035 BKN220 17/08 A3025 RMK AO2 SLP243 T01720083 10178 20156 56002<br><br>
KBUF 081654Z 04012KT 10SM BKN034 BKN220 17/09 A3025 RMK AO2 SLP244 T01720089<br><br>
KBUF 081736Z 0818/0918 05014KT P6SM SCT035 OVC200 FM082100 06012KT P6SM OVC200 FM090000 06008KT P6SM BKN250 FM091500 08012G20KT P6SM OVC200<br><br>
<br><br>
CYYZ 081800Z 09004KT 360V120 15SM FEW050 BKN160 BKN220 16/03 A3028 RMK SC1AS5CI2 SC TR SLP257<br><br>
CYYZ 081700Z 08005KT 15SM FEW050 BKN180 BKN260 16/02 A3030 RMK SC1AS5CI2 SC TR SLP262<br><br>
TAF CYYZ 081738Z 0818/0924 06010G20KT P6SM FEW050 BKN200 BECMG 0901/0903 04010KT FM091000 04013KT P6SM SCT030 OVC220 BECMG 0913/0915 08015G25KT BKN030 FM091900 08015G25KT P6SM SCT030 BECMG 0922/0924 08015KT RMK NXT FCST BY 082100Z<br><br>
<br><br>
CYOO 081800Z AUTO 04007KT 340V060 9SM CLR 16/04 A3028 RMK SLP257<br><br>
CYOO 081700Z AUTO 04008KT 020V090 9SM CLR 15/04 A3029 RMK SLP261<br><br>
CYOO has no TAF <br><br>
<br><br>
CYTR 081800Z 04006G15KT 15SM FEW150 BKN210 17/05 A3028 RMK AC2CS5 HALO SLP254<br><br>
CYTR 081700Z 02011KT 15SM FEW150 BKN210 16/04 A3029 RMK AC2CS4 HALO SLP258<br><br>
TAF CYTR 081730Z 0818/0918 03010G20KT P6SM FEW150 BKN210 BECMG 0823/0901 03005KT FM091200 05010KT P6SM FEW100 SCT250 BECMG 0913/0915 07012G22KT RMK NXT FCST BY 090000Z<br><br>
<br><br>
