RETRIEVED AT : May 20 2018 07:04 Local <br>
  RETRIEVED AT: May 20 2018 11:04 UTC<br><br>
CYSN has no TAF <br><br>
<br><br>
TAF AMD CYHM 200724Z 2007/2106 30012KT P6SM FEW007 BKN015 TEMPO 2007/2014 SCT015 BKN025 FM201400 36006KT P6SM BKN020 FM201700 05006KT P6SM BKN030 BECMG 2019/2021 VRB03KT FM210200 07008KT P6SM BKN020 RMK NXT FCST BY 201200Z<br><br>
<br><br>
KIAG 201053Z 29006KT 10SM BKN050 OVC060 16/12 A2995 RMK AO2 SLP142 T01560117<br><br>
KIAG 201028Z AUTO 31010KT 10SM SCT015 BKN047 OVC060 16/12 A2993 RMK AO2 T01560122<br><br>
KIAG 200953Z AUTO 32010KT 10SM OVC016 16/12 A2992 RMK AO2 SLP130 T01560122<br><br>
KIAG 200912Z 2009/2106 29010KT P6SM OVC015 FM201600 31008KT P6SM SCT130 FM210000 28004KT P6SM FEW040 FM210500 VRB03KT P6SM SKC<br><br>
<br><br>
KBUF 201054Z 22006KT 9SM BKN010 OVC020 16/13 A2997 RMK AO2 RAE09 SLP144 P0000 T01610128<br><br>
KBUF 201043Z 28007KT 10SM BKN010 OVC018 17/14 A2995 RMK AO2 RAE09 P0000 T01720139<br><br>
KBUF 201013Z 31005KT 10SM BKN016 OVC024 18/14 A2993 RMK AO2 RAE09 P0000 T01780139<br><br>
KBUF 200954Z 30012G15KT 8SM -RA SCT002 OVC012 18/14 A2993 RMK AO2 RAB24 SLP130 P0000 T01780144<br><br>
KBUF 200942Z VRB06KT 8SM -RA SCT002 OVC012 16/13 A2992 RMK AO2 RAB24 P0000 T01560128<br><br>
KBUF 200912Z 2009/2106 28008KT P6SM BKN003 OVC008 FM201300 30006KT P6SM OVC015 FM201600 31006KT P6SM OVC025 FM201800 31007KT P6SM SCT080 FM210300 26004KT P6SM FEW130<br><br>
<br><br>
TAF AMD CYYZ 201006Z 2010/2112 33012G22KT P6SM BKN012 TEMPO 2010/2014 5SM -DZ BR BKN008 BECMG 2012/2014 34010G20KT FM201700 35012KT P6SM FEW025 BECMG 2101/2103 35008KT RMK NXT FCST BY 201200Z<br><br>
<br><br>
CYOO has no TAF <br><br>
<br><br>
CYTR 201000Z 32006G16KT 15SM OVC012 16/14 A2984 RMK SF8 SLP105<br><br>
CYTR 200912Z 31009KT 10SM OVC010 17/14 A2981 RMK SF8 SLP095<br><br>
