RETRIEVED AT : Mar 09 2020 05:05 Local <br>
  RETRIEVED AT: Mar 09 2020 09:05 UTC<br><br>
CYSN has no TAF <br><br>
<br><br>
CYHM 090800Z 23011KT 15SM FEW140 SCT250 07/M02 A3016 RMK AC2CI1 SLP221<br><br>
TAF CYHM 090538Z 0906/1006 21010KT P6SM FEW160 SCT250 FM091500 23018G30KT P6SM BKN260 FM092300 23015G25KT P6SM SCT050 BKN090 BKN230 FM100300 23012G25KT P6SM -RA OVC050 RMK NXT FCST BY 091200Z<br><br>
<br><br>
KIAG 090853Z AUTO 22011KT 10SM BKN100 10/M03 A3019 RMK AO2 SLP228 T01001028 50003<br><br>
KIAG 090753Z AUTO 23013KT 10SM FEW120 10/M03 A3019 RMK AO2 SLP228 T01001033<br><br>
KIAG 090838Z 0909/1006 21014KT P6SM BKN150 WS020/23050KT FM091400 22016G26KT P6SM SCT100 FM091600 23018G34KT P6SM SCT250 FM092200 23017G26KT P6SM BKN100 FM100500 21012G19KT P6SM OVC080<br><br>
<br><br>
KBUF 090854Z 22013KT 10SM FEW100 BKN170 12/M05 A3020 RMK AO2 SLP228 T01221050 51003<br><br>
KBUF 090754Z 21015KT 10SM BKN170 11/M05 A3019 RMK AO2 SLP226 T01111050<br><br>
KBUF 090838Z 0909/1006 20012KT P6SM BKN120 WS020/23050KT FM091400 23016KT P6SM SCT100 FM091600 23018G28KT P6SM SCT250 FM092300 23012G18KT P6SM BKN100 FM100300 21011KT P6SM OVC090<br><br>
<br><br>
CYYZ 090800Z 21012KT 15SM FEW150 09/M02 A3014 RMK AC2 SLP210<br><br>
TAF CYYZ 090838Z 0909/1012 21010G20KT P6SM SCT100 BKN150 FM091500 22015G25KT P6SM BKN250 FM092200 22015G25KT P6SM BKN100 BKN230 FM100300 23015G25KT P6SM -RA OVC040 BECMG 1005/1007 21012G22KT FM100900 21010G20KT P6SM -RA OVC015 RMK NXT FCST BY 091200Z<br><br>
<br><br>
CYOO 090800Z AUTO 18003KT 9SM BKN110 BKN130 OVC160 06/M00 A3014 RMK SLP213<br><br>
TAF CYOO 090738Z 0908/0920 21005KT P6SM SCT120 BKN160 FM091200 23010KT P6SM SCT080 FM091500 23012G22KT P6SM BKN260 RMK FCST BASED ON AUTO OBS. NXT FCST BY 091400Z<br><br>
<br><br>
CYTR 090800Z 20003KT 15SM BKN120 05/M01 A3015 RMK AC6 SLP212<br><br>
TAF CYTR 090530Z 0906/1006 20008KT P6SM SCT140 BKN250 FM090900 24010KT P6SM BKN080 BKN250 BECMG 0914/0916 24015G25KT FM091800 24015G25KT P6SM SCT080 BKN250 BECMG 0921/0923 25010G20KT BKN060 BKN180 FM100300 22008KT P6SM -SHRA OVC060 RMK NXT FCST BY 091200Z<br><br>
<br><br>
