RETRIEVED AT : May 13 2018 06:05 Local <br>
  RETRIEVED AT: May 13 2018 10:05 UTC<br><br>
CYSN has no TAF <br><br>
<br><br>
CYHM 130900Z 08007KT 15SM OVC150 07/01 A3009 RMK AC8 SLP196<br><br>
TAF CYHM 130538Z 1306/1406 03005KT P6SM FEW140 BKN250 FM131500 05007KT P6SM FEW100 FM140300 VRB03KT P6SM FEW060 RMK NXT FCST BY 131200Z<br><br>
<br><br>
KIAG 130953Z AUTO 10006KT 10SM CLR 08/02 A3008 RMK AO2 SLP191 T00780017<br><br>
KIAG 130853Z AUTO 10004KT 10SM CLR 07/M01 A3010 RMK AO2 SLP197 T00671006 58001<br><br>
KIAG 130858Z 1309/1406 04005KT P6SM SCT100 FM131000 11004KT P6SM BKN090 FM131900 VRB03KT P6SM SCT090 FM132000 00000KT P6SM SCT030 FM140500 22004KT P6SM SCT030<br><br>
<br><br>
KBUF 130954Z 10006KT 10SM OVC150 09/06 A3009 RMK AO2 SLP189 T00940056<br><br>
KBUF 130854Z 00000KT 10SM FEW100 BKN170 OVC270 09/04 A3010 RMK AO2 SLP194 T00890039 58000<br><br>
KBUF 130858Z 1309/1406 04005KT P6SM SCT100 FM131000 11005KT P6SM BKN090 FM131800 15006KT P6SM SCT070 FM132200 19005KT P6SM SCT030 FM140200 VRB03KT P6SM SCT030<br><br>
<br><br>
CYYZ 130900Z 01004KT 15SM OVC180 08/M06 A3009 RMK AC8 SLP194<br><br>
TAF CYYZ 130838Z 1309/1412 36005KT P6SM BKN180 BECMG 1311/1313 10005KT FM131500 12008KT P6SM FEW120 FM132300 18007KT P6SM FEW080 BECMG 1400/1402 20005KT RMK NXT FCST BY 131200Z<br><br>
<br><br>
CYOO 130900Z AUTO 18004KT 9SM BKN160 BKN180 OVC200 08/M00 A3010 RMK SLP198<br><br>
CYOO has no TAF <br><br>
<br><br>
CYTR 130900Z 00000KT 15SM BKN170 05/01 A3013 RMK AC7 SLP205<br><br>
TAF CYTR 130533Z 1306/1406 VRB03KT P6SM SCT240 BECMG 1313/1315 14008KT BECMG 1318/1320 24008KT FM140200 VRB03KT P6SM FEW030 RMK NXT FCST BY 131200Z<br><br>
<br><br>
