RETRIEVED AT : Jun 15 2020 04:05 Local <br>
  RETRIEVED AT: Jun 15 2020 08:05 UTC<br><br>
CYSN has no TAF <br><br>
<br><br>
TAF CYHM 150539Z 1506/1606 04007KT P6SM FEW240 PROB30 1508/1512 2SM BR FM151400 07012KT P6SM FEW050 BECMG 1523/1601 07007KT RMK NXT FCST BY 151200Z<br><br>
<br><br>
KIAG 150520Z 1506/1606 08004KT P6SM SKC FM151400 07008KT P6SM SKC FM151800 06010KT P6SM SCT060 FM160000 07005KT P6SM SKC<br><br>
<br><br>
KBUF 150520Z 1506/1606 07006KT P6SM SKC FM151400 06008KT P6SM SKC FM151800 07010KT P6SM SCT060 FM160000 05005KT P6SM SKC<br><br>
<br><br>
TAF CYYZ 150539Z 1506/1612 04005KT P6SM FEW240 BECMG 1512/1514 09012KT FM151700 12010KT P6SM FEW050 BECMG 1523/1601 09005KT BECMG 1603/1605 VRB03KT RMK NXT FCST BY 150900Z<br><br>
<br><br>
TAF CYOO 150738Z 1508/1520 VRB03KT P6SM SKC BECMG 1512/1514 09007KT FM151700 12010KT P6SM FEW050 RMK FCST BASED ON AUTO OBS. NXT FCST BY 151400Z<br><br>
<br><br>
TAF CYTR 150530Z 1506/1606 VRB03KT P6SM SKC FM151400 07005KT P6SM FEW060 BECMG 1518/1520 22010KT BECMG 1523/1601 VRB03KT RMK NXT FCST BY 151200Z<br><br>
<br><br>
