RETRIEVED AT : Nov 04 2018 04:05 Local <br>
  RETRIEVED AT: Nov 04 2018 09:05 UTC<br><br>
CYSN has no TAF <br><br>
<br><br>
CYHM 040800Z 28002KT 15SM FEW030 00/M01 A3041 RMK SC1 SLP308<br><br>
TAF CYHM 040540Z 0406/0506 VRB03KT P6SM FEW030 TEMPO 0406/0408 BKN030 FM041400 07007KT P6SM FEW030 BKN140 BECMG 0415/0417 09010G20KT FM050200 12012KT P6SM BKN180 RMK NXT FCST BY 041200Z<br><br>
<br><br>
KIAG 040853Z 00000KT 10SM CLR 00/M01 A3042 RMK AO2 SLP315 T00001011 51016<br><br>
KIAG 040753Z 00000KT 10SM FEW039 01/M01 A3041 RMK AO2 SLP309 T00111011<br><br>
KIAG 040520Z 0406/0506 25005KT P6SM SCT040 FM040900 VRB03KT P6SM SCT040 BKN250 FM041400 10005KT P6SM BKN100 FM041800 10010KT P6SM BKN100 FM050400 13007KT P6SM SCT050 BKN100<br><br>
<br><br>
KBUF 040854Z COR 00000KT 10SM FEW045 FEW250 01/M01 A3042 RMK AO2 SLP310 T00061011 51015 $<br><br>
KBUF 040754Z 00000KT 10SM FEW045 FEW250 02/M01 A3041 RMK AO2 SLP304 T00171006 $<br><br>
KBUF 040520Z 0406/0506 25004KT P6SM BKN040 FM040900 VRB04KT P6SM SCT040 BKN250 FM041400 10006KT P6SM BKN100 FM050300 13008KT P6SM SCT050 BKN100<br><br>
<br><br>
CYYZ 040800Z 24004KT 15SM BKN040 M00/M02 A3041 RMK SC6 FROIN SLP305<br><br>
TAF CYYZ 040845Z 0409/0512 24005KT P6SM BKN040 TEMPO 0409/0412 SCT040 FM041200 VRB03KT P6SM SCT200 FM041500 07005KT P6SM FEW030 BKN180 FM041800 11012KT P6SM SCT030 BKN150 FM042300 09010G20KT P6SM BKN100 FM050300 11015KT P6SM BKN180 FM050800 14015KT 5SM -RA BR OVC020 FM051100 15015KT 2SM -RA BR OVC007 RMK NXT FCST BY 041200Z<br><br>
<br><br>
CYOO 040800Z AUTO 01002KT 9SM OVC038 M00/M00 A3039 RMK SLP299<br><br>
CYOO has no TAF <br><br>
<br><br>
CYTR 040800Z 28006KT 15SM OVC030 03/01 A3041 RMK SC8 SLP301<br><br>
TAF CYTR 040530Z 0406/0506 25005KT P6SM SCT030 TEMPO 0406/0408 BKN030 FM041000 VRB03KT P6SM SCT020 FM041700 10008KT P6SM FEW020 SCT100 SCT250 FM050000 07008KT P6SM FEW020 SCT080 BKN200 BECMG 0504/0506 12010KT RMK NXT FCST BY 041200Z<br><br>
<br><br>
