RETRIEVED AT : Oct 15 2017 06:10 Local <br>
  RETRIEVED AT: Oct 15 2017 10:10 UTC<br><br>
CYSN has no TAF <br><br>
<br><br>
CYHM 151000Z 21014G21KT 15SM BKN055 BKN150 18/16 A2977 RMK SC5AC2 SLP083 DENSITY ALT 1600FT<br><br>
CYHM 150900Z 20008KT 15SM FEW060 SCT085 BKN130 17/15 A2980 RMK SC2AC1AC2 SLP091 DENSITY ALT 1400FT<br><br>
TAF AMD CYHM 150607Z 1506/1606 08006KT 11/2SM BR BKN003 OVC070 TEMPO 1506/1508 6SM BR SCT003 BKN070 FM150800 19010KT 6SM BR SCT090 BKN200 TEMPO 1508/1511 2SM BR FM151100 21015KT WS005/22035KT P6SM SCT008 BKN025 TEMPO 1511/1518 5SM -DZ -RA BR BKN008 OVC020 BECMG 1513/1515 22020G35KT FM151800 23025G40KT P6SM -SHRA OVC025 PROB30 1518/1521 VRB30G50KT 2SM +TSRA BR OVC020CB FM152100 24020G35KT P6SM BKN025 BECMG 1523/1524 29018G30KT BECMG 1603/1604 31012KT RMK NXT FCST BY 151200Z<br><br>
<br><br>
KIAG 150953Z AUTO 19010KT 10SM FEW047 BKN075 20/14 A2980 RMK AO2 SLP091 T02000144<br><br>
KIAG 150853Z AUTO 18009KT 10SM SCT039 BKN060 OVC080 19/14 A2983 RMK AO2 SLP099 T01940144 56042<br><br>
KIAG 150905Z 1509/1606 19010KT P6SM BKN060 WS020/22050KT FM151400 21020G31KT P6SM BKN060 FM151800 21024G35KT P6SM BKN050 FM152000 23026G42KT 3SM SHRA OVC015 FM152200 26024G38KT P6SM BKN040 FM160200 29018G28KT P6SM BKN025<br><br>
<br><br>
KBUF 150954Z 20016G23KT 10SM FEW040 BKN070 OVC130 19/14 A2982 RMK AO2 PK WND 19026/0921 SLP097 T01940144<br><br>
KBUF 150854Z 20008KT 10SM FEW039 FEW050 BKN070 OVC130 18/14 A2985 RMK AO2 SLP104 T01780139 56038<br><br>
KBUF 150905Z 1509/1606 20010KT P6SM BKN070 WS020/22050KT FM151400 21020G29KT P6SM BKN060 FM151800 21024G35KT P6SM BKN050 FM152000 23026G42KT 3SM SHRA OVC015 FM152200 25024G38KT P6SM BKN040 FM160200 28018G28KT P6SM BKN025<br><br>
<br><br>
CYYZ 151000Z 14008KT 10SM BKN057 16/15 A2975 RMK SC6 SLP075 DENSITY ALT 1000FT<br><br>
CYYZ 150900Z 13006KT 6SM BR FEW007 BKN062 OVC078 15/15 A2979 RMK SF1SC4AC3 SLP088 DENSITY ALT 900FT<br><br>
CYYZ 150851Z 13005KT 6SM BR FEW008 BKN058 OVC080 15/15 A2979 RMK SF2SC3AC3 SLP089 DENSITY ALT 900FT<br><br>
TAF CYYZ 150838Z 1509/1612 14005KT 6SM BR SCT006 OVC025 TEMPO 1509/1511 5SM -SHRA BR BKN006 OVC025 FM151100 19010KT WS005/21030KT P6SM BKN015 OVC030 TEMPO 1511/1518 5SM -DZ -RA BR BKN008 OVC015 BECMG 1514/1515 22020G35KT FM151800 22025G40KT P6SM -SHRA OVC025 PROB30 1518/1521 VRB30G50KT 2SM +TSRA BR OVC020CB FM152100 25025G40KT P6SM BKN025 BECMG 1600/1601 31018G28KT FM160500 33012G22KT P6SM BKN015 BECMG 1609/1610 33008KT RMK NXT FCST BY 151200Z<br><br>
<br><br>
CYOO 151000Z AUTO 11005KT 5SM BR BKN037 OVC055 16/15 A2977 RMK SLP084 DENSITY ALT 700FT<br><br>
CYOO 150917Z AUTO 11008KT 5SM BR BKN043 OVC055 16/15 A2979 RMK PRESFR SLP090 DENSITY ALT 700FT<br><br>
CYOO 150900Z AUTO 12005KT 100V160 3SM -RA BR SCT049 BKN055 OVC071 16/15 A2981 RMK PRESFR SLP097 DENSITY ALT 700FT<br><br>
CYOO 150859Z AUTO 13005KT 3SM -RA BR SCT049 BKN055 OVC071 16/15 A2982 RMK PRESFR SLP098 DENSITY ALT 700FT<br><br>
CYOO 150850Z AUTO 15006KT 2 1/4SM RA BR SCT049 BKN060 BKN071 OVC085 16/15 A2983 RMK SLP101 DENSITY ALT 700FT<br><br>
CYOO 150819Z AUTO 13006KT 5SM -RA BR OVC070 16/15 A2985 RMK SLP110 DENSITY ALT 700FT<br><br>
CYOO 150814Z AUTO 14007KT 5SM BR OVC070 16/15 A2985 RMK PRESFR SLP110 DENSITY ALT 700FT<br><br>
CYOO has no TAF <br><br>
<br><br>
CYTR 151000Z 16005KT 10SM FEW008 OVC063 16/15 A2982 RMK SF2SC6 SLP097<br><br>
CYTR 150900Z 00000KT 8SM FEW008 OVC073 16/15 A2986 RMK SF2AC6 SLP111<br><br>
TAF AMD CYTR 150742Z 1507/1606 VRB03KT P6SM SCT015 OVC030 TEMPO 1507/1518 5SM -SHRA BR OVC015 BECMG 1512/1514 22015G25KT FM151800 24020G35KT P6SM SCT010 OVC025 TEMPO 1518/1524 3SM -SHRA BR OVC010 PROB30 1519/1522 VRB35G50KT 1SM TSRA BR BKN005 OVC010CB FM160000 24022G38KT P6SM BKN030 BECMG 1602/1604 28020G30KT RMK NXT FCST BY 151200Z<br><br>
<br><br>
