RETRIEVED AT : Nov 05 2017 20:10 Local <br>
  RETRIEVED AT: Nov 06 2017 01:10 UTC<br><br>
CYSN 060100Z 20013KT 15SM -RA FEW022 OVC110 16/15 A2971 RMK SC2AC6 SLP061 DENSITY ALT 900FT<br><br>
CYSN 060000Z 19011G20KT 10SM -RA SCT018 BKN058 OVC130 16/15 A2971 RMK SC3SC2AC3 SLP062 DENSITY ALT 800FT<br><br>
TAF AMD CYSN 052121Z 0521/0602 19015G25KT P6SM -SHRA SCT020 OVC090 TEMPO 0521/0522 5SM -RA BR OVC020 FM052200 19015G25KT P6SM -SHRA OVC025 TEMPO 0522/0602 3SM SHRA BR BKN020 OVC150 PROB30 0522/0602 VRB20G35KT 21/2SM +TSRA BR BKN007CB RMK NXT FCST WILL BE ISSUED AT 061345Z<br><br>
<br><br>
CYHM 060100Z 20008KT 15SM FEW014 SCT110 OVC140 15/14 A2970 RMK CF1AC2AC5 SLP060 DENSITY ALT 1200FT<br><br>
CYHM 060000Z 20010G16KT 15SM FEW012 FEW050 SCT085 OVC150 15/14 A2971 RMK CF1CU1AC2AC4 SLP062 DENSITY ALT 1200FT<br><br>
TAF CYHM 052339Z 0600/0624 18015G25KT P6SM FEW004 BKN060 OVC100 TEMPO 0600/0603 5SM -SHRA BR BKN004 OVC020 BECMG 0600/0602 23012KT FM060300 25010KT 4SM -DZ BR OVC006 TEMPO 0603/0610 6SM BR SCT006 OVC010 BECMG 0603/0605 30010KT FM061000 31007KT P6SM FEW008 BKN015 FM061200 31009KT P6SM SCT020 FM061500 31009G19KT P6SM FEW025 FM062100 34009KT P6SM FEW140 RMK NXT FCST BY 060600Z<br><br>
<br><br>
KIAG 060100Z 19013KT 10SM -RA SCT009 BKN100 17/14 A2973 RMK AO2 LTG DSNT S RAB0059 P0000 T01670139<br><br>
KIAG 060053Z 18012KT 10SM SCT016 BKN060 OVC110 17/14 A2973 RMK AO2 LTG DSNT S RAE41 SLP068 P0000 T01670139<br><br>
KIAG 060000Z 19015G22KT 6SM -RA BR SCT016 BKN060 OVC110 16/14 A2972 RMK AO2 P0000 T01610139<br><br>
KIAG 052353Z 19018G30KT 3SM RA BR SCT016 BKN025 OVC045 16/14 A2972 RMK AO2 PK WND 16030/2348 LTG DSNT SE TSE07 SLP066 P0016 60033 T01610139 10167 20156 58017<br><br>
KIAG 052328Z 18012KT 7SM -RA SCT016 BKN025 OVC045 16/13 A2974 RMK AO2 LTG DSNT E-S TSE07 P0009 T01610133<br><br>
KIAG 052313Z 17013G21KT 5SM VCTS RA SCT016 BKN025 OVC045 16/13 A2974 RMK AO2 LTG DSNT SE-SW TSE07 PRESFR P0006 T01610133<br><br>
KIAG 052327Z 0600/0624 19014G20KT 4SM RA VCTS OVC015CB FM060200 20014G20KT 4SM RA VCTS OVC007CB FM060300 20015KT 4SM -RA BR OVC012 FM060800 29010KT P6SM OVC012 FM062000 33011KT P6SM FEW025 BKN250<br><br>
<br><br>
KBUF 060054Z 20012G21KT 5SM TSRA SCT025CB BKN035 OVC070 15/13 A2976 RMK AO2 PK WND 17029/0031 LTG DSNT SE AND S TSB38 SLP077 OCNL LTGIC SE TS SE MOV E P0023 T01500133 $<br><br>
KBUF 060038Z 18020G29KT 5SM TSRA SCT025CB BKN035 OVC070 16/14 A2976 RMK AO2 PK WND 17029/0031 LTG DSNT SE-SW TSB38 OCNL LTGIC S TS S MOV E P0017 T01560144 $<br><br>
KBUF 060033Z 17021G29KT 5SM RA SCT025 BKN035 OVC070 15/14 A2975 RMK AO2 PK WND 17029/0031 LTG DSNT SE-SW P0015 T01500144 $<br><br>
KBUF 052354Z 17017KT 3SM +RA FEW017 BKN025 OVC075 15/14 A2977 RMK AO2 LTG DSNT SE-SW TSE35 SLP081 TS DSIPTD P0037 60060 T01500144 10161 20144 58011 $<br><br>
KBUF 052336Z 18014KT 5SM +RA FEW007 SCT017 OVC025 15/14 A2978 RMK AO2 LTG DSNT E-SW TSE35 TS DSIPTD P0027 T01500139 $<br><br>
KBUF 052321Z 17012KT 4SM +TSRA FEW007 BKN017CB OVC025 15/13 A2980 RMK AO2 LTG DSNT ALQDS OCNL LTGIC S TS S MOV E P0020 T01500133 $<br><br>
KBUF 052312Z 18009KT 2SM +TSRA SCT017 BKN025CB OVC035 15/13 A2980 RMK AO2 LTG DSNT ALQDS OCNL LTGIC S TS S MOV E P0017 T01500133 $<br><br>
KBUF 052327Z 0600/0624 19013KT 2SM +RA VCTS OVC015CB FM060200 19014G20KT 2SM +RA VCTS OVC007CB FM060500 22013KT 4SM -RA BR OVC012 FM061000 30012KT P6SM OVC015 FM062100 33010KT P6SM FEW025 BKN250<br><br>
<br><br>
CYYZ 060100Z 14005KT 6SM BR FEW002 SCT015 BKN110 OVC170 14/13 A2968 RMK SF1ST2AC3AC2 VIS 12 E SLP055 DENSITY ALT 800FT<br><br>
CYYZ 060000Z 13006KT 6SM BR FEW002 SCT018 OVC110 14/14 A2970 RMK SF2SC2AC4 SLP061 DENSITY ALT 900FT<br><br>
CYYZ 052312Z 14006KT 6SM BR SCT002 OVC007 15/14 A2970 RMK SF4ST4 SLP062 DENSITY ALT 900FT<br><br>
TAF AMD CYYZ 060032Z 0600/0706 14005KT 6SM BR SCT015 OVC050 TEMPO 0600/0601 21/2SM -SHRA BR BKN015 OVC050 FM060200 21007KT P6SM -DZ BKN015 OVC030 TEMPO 0602/0605 P6SM NSW SCT015 BKN030 FM060500 31010KT P6SM BKN020 TEMPO 0605/0618 SCT025 FM061800 33010G20KT P6SM FEW030 FEW260 BECMG 0619/0621 36010KT BECMG 0701/0703 34009KT RMK NXT FCST BY 060300Z<br><br>
<br><br>
CYOO 060100Z AUTO 17005KT 130V200 9SM BKN006 OVC009 14/13 A2971 RMK SLP064 DENSITY ALT 600FT<br><br>
CYOO 060000Z AUTO 18005KT 130V200 9SM BKN008 OVC014 14/12 A2973 RMK SLP073 DENSITY ALT 600FT<br><br>
CYOO 052316Z AUTO 15004KT 9SM OVC013 13/12 A2973 RMK SLP071 DENSITY ALT 500FT<br><br>
CYOO has no TAF <br><br>
<br><br>
CYTR 060100Z 19009KT 12SM -RA OVC008 13/12 A2975 RMK SF8 SLP076<br><br>
CYTR 060000Z 23006KT 10SM -RA OVC012 13/12 A2977 RMK SF8 SLP083<br><br>
TAF CYTR 052330Z 0600/0624 18010KT P6SM -SHRA SCT005 OVC025 TEMPO 0600/0604 2SM +SHRA BR OVC005 PROB30 0600/0603 VRB20G35KT 3/4SM +TSRA BR BKN003 OVC030CB FM060400 20010KT 1SM -RA -DZ BR BKN004 OVC010 BECMG 0604/0606 25010KT FM060800 29010G20KT P6SM SCT012 BKN030 TEMPO 0608/0613 BKN012 OVC030 FM061500 29010G20KT P6SM SCT030 BECMG 0620/0622 30008KT RMK NXT FCST BY 060600Z<br><br>
<br><br>
