RETRIEVED AT : Jan 20 2019 14:05 Local <br>
  RETRIEVED AT: Jan 20 2019 19:05 UTC<br><br>
CYSN 201805Z 34013G20KT 2 1/2SM -SN DRSN BKN018 M12/M16 A2989 RMK SC7 SLP130<br><br>
CYSN 201800Z 34015KT 3SM -SN DRSN BKN018 M13/M16 A2989 RMK SC7 SLP130<br><br>
CYSN 201757Z 33016G24KT 3SM -SN DRSN SCT011 BKN018 M12/M16 A2989 RMK SC3SC4 SLP130<br><br>
TAF CYSN 201338Z 2014/2102 34015G25KT 11/2SM -SN OVC012 TEMPO 2014/2018 5SM -SN OVC025 FM201800 33012G22KT P6SM BKN030 TEMPO 2018/2024 21/2SM -SN RMK NXT FCST BY 202000Z<br><br>
<br><br>
CYHM 201800Z 32014G21KT 15SM FEW030 SCT090 M14/M21 A2990 RMK CU2AC1 SLP148<br><br>
TAF CYHM 201738Z 2018/2118 33015G25KT P6SM SCT050 BECMG 2023/2101 32012KT RMK NXT FCST BY 210000Z<br><br>
<br><br>
KIAG 201853Z 34014KT 1/2SM R28R/3000VP6000FT SN SCT010 OVC020 M14/M17 A2987 RMK AO2 SLP140 P0000 T11391167 $<br><br>
KIAG 201753Z 32018KT 2SM R28R/4500VP6000FT -SN OVC017 M14/M17 A2986 RMK AO2 SLP138 P0000 60000 T11391167 11128 21139 51012 $<br><br>
KIAG 201739Z 2018/2118 33014G22KT 2SM -SN SCT015 OVC025 FM202200 32014G22KT 4SM -SN BKN025 FM210300 33014G24KT 2SM -SN BLSN BKN015 FM211200 33014G24KT P6SM VCSH BKN025<br><br>
<br><br>
KBUF 201901Z 31011KT 3SM -SN OVC018 M14/M17 A2986 RMK AO2 P0000 T11391172<br><br>
KBUF 201854Z 30013G19KT 1 1/2SM -SN BLSN OVC018 M14/M17 A2986 RMK AO2 SLP126 P0000 T11391172<br><br>
KBUF 201842Z 30014KT 1 1/2SM R23/3500VP6000FT -SN BKN018 OVC025 M13/M17 A2985 RMK AO2 P0000 T11331167<br><br>
KBUF 201831Z 31014KT 2 1/2SM R23/4000VP6000FT -SN OVC023 M13/M17 A2985 RMK AO2 P0000 T11331167<br><br>
KBUF 201801Z 30012KT 1 1/2SM -SN OVC022 M13/M16 A2984 RMK AO2 P0000 T11281161<br><br>
KBUF 201754Z COR 30012KT 5SM -SN FEW017 BKN022 OVC029 M13/M17 A2984 RMK AO2 SLP119 P0000 60004 4/013 933012 T11281167 11128 21133 51012<br><br>
KBUF 201742Z 31011G19KT 3SM R23/6000VP6000FT -SN BKN019 OVC025 M13/M17 A2984 RMK AO2 P0000 T11281167<br><br>
KBUF 201723Z 32011G19KT 2 1/2SM -SN BKN022 OVC043 M13/M16 A2983 RMK AO2 P0000 T11281161<br><br>
KBUF 201739Z 2018/2118 32014G20KT 4SM -SN BKN025 TEMPO 2018/2021 2SM -SN BKN025 FM210000 32012G20KT 6SM -SHSN SCT025 BKN040 FM210400 31012G18KT P6SM VCSH BKN025 FM211500 31012G18KT P6SM SCT025 BKN040<br><br>
<br><br>
CYYZ 201800Z 33022G30KT 15SM DRSN SCT019 M15/M20 A2991 RMK SC3 SLP144<br><br>
TAF CYYZ 201738Z 2018/2124 34020G30KT P6SM FEW060 BECMG 2100/2102 34025G35KT FM210400 34020G30KT P6SM SKC BECMG 2116/2118 32015G25KT RMK NXT FCST BY 202100Z<br><br>
<br><br>
CYOO 201857Z AUTO 32024G30KT 2 1/4SM -SN BLSN CLR M17/M22 A2986 RMK VIS VRB 3/4-3 SLP127<br><br>
CYOO 201856Z AUTO 33025G30KT 3SM -SN CLR M17/M22 A2986 RMK SLP127<br><br>
CYOO 201853Z AUTO 32021G29KT 3SM HZ CLR M16/M22 A2986 RMK SLP126<br><br>
CYOO 201811Z AUTO 32024G31KT 2 1/2SM BLSN FEW050 M17/M22 A2985 RMK VIS VRB 1 1/4-3 SLP124<br><br>
CYOO 201804Z AUTO 34020G35KT 3SM BLSN FEW050 M17/M23 A2986 RMK SLP125<br><br>
CYOO 201800Z AUTO 33021G35KT 2 1/2SM BLSN FEW050 M17/M22 A2986 RMK SLP125<br><br>
CYOO 201742Z AUTO 33024G31KT 2 1/2SM BLSN FEW050 M17/M23 A2985 RMK SLP123<br><br>
CYOO 201738Z AUTO 33022G30KT 5SM HZ CLR M17/M22 A2985 RMK SLP124<br><br>
CYOO 201734Z AUTO 33017G27KT 6SM HZ CLR M17/M22 A2986 RMK SLP126<br><br>
CYOO 201731Z AUTO 33019G27KT 5SM HZ CLR M17/M22 A2986 RMK SLP125<br><br>
CYOO 201727Z AUTO 33016G25KT 6SM HZ CLR M17/M22 A2986 RMK SLP125<br><br>
CYOO 201723Z AUTO 34019G26KT 5SM HZ CLR M17/M22 A2985 RMK SLP124<br><br>
CYOO 201710Z AUTO 32015G28KT 6SM HZ CLR M17/M22 A2986 RMK SLP127<br><br>
TAF AMD CYOO 201829Z 2018/2102 32015G30KT P6SM SKC TEMPO 2018/2022 2SM BLSN RMK FCST BASED ON AUTO OBS. NXT FCST BY 202000Z<br><br>
<br><br>
CYTR 201800Z 33015KT 12SM FEW015 OVC024 M15/M21 A2981 RMK SC1SC8 SLP104<br><br>
CYTR 201739Z 34007KT 12SM FEW015 BKN024 M15/M21 A2982 RMK SC1SC7 SLP106<br><br>
TAF CYTR 201730Z 2018/2118 33015G25KT P6SM SCT025 BKN250 TEMPO 2018/2112 3SM -SHSN BLSN BKN025 BECMG 2104/2106 33012G22KT FM211200 33012G22KT P6SM SKC RMK NXT FCST BY 210000Z<br><br>
<br><br>
