RETRIEVED AT : May 18 2020 03:05 Local <br>
  RETRIEVED AT: May 18 2020 07:05 UTC<br><br>
CYSN has no TAF <br><br>
<br><br>
CYHM 180600Z 05017G26KT 12SM OVC012 08/08 A3007 RMK SC8 SLP188<br><br>
TAF CYHM 180540Z 1806/1906 05020G30KT P6SM -RA SCT015 BKN030 OVC070 TEMPO 1806/1808 5SM -RA BR OVC012 FM180800 05020G30KT P6SM OVC012 TEMPO 1808/1820 4SM -RA BR OVC007 PROB30 1810/1818 21/2SM -RA BR OVC005 FM182000 05015G25KT P6SM SCT010 BKN030 OVC070 FM190000 05015KT P6SM BKN040 OVC100 FM190500 04015KT P6SM SCT050 BKN150 RMK NXT FCST BY 181200Z<br><br>
<br><br>
KIAG 180653Z AUTO 07010KT 7SM -RA OVC007 11/11 A3008 RMK AO2 CIG 006V010 SLP189 P0003 T01110106 $<br><br>
KIAG 180620Z AUTO 07012KT 9SM -RA OVC006 12/11 A3008 RMK AO2 P0001 T01170106 $<br><br>
KIAG 180553Z AUTO 08012KT 10SM -RA OVC007 12/11 A3008 RMK AO2 SLP187 P0001 60022 T01170106 10139 20117 55007 $<br><br>
KIAG 180543Z AUTO 07010KT 10SM -RA BKN007 OVC037 12/11 A3007 RMK AO2 P0001 T01170106 $<br><br>
KIAG 180531Z AUTO 07010KT 10SM -RA SCT009 OVC037 12/11 A3007 RMK AO2 P0001 T01170106 $<br><br>
KIAG 180650Z 1807/1906 07012KT 6SM -RA OVC007 FM181300 10014G22KT 5SM RA BR OVC015 FM182200 08014G24KT P6SM VCSH OVC025 FM190200 08012KT P6SM OVC040<br><br>
<br><br>
KBUF 180654Z 05013KT 10SM OVC007 13/12 A3007 RMK AO2 RAB22E35 CIG 005V009 SLP181 P0000 T01330122 $<br><br>
KBUF 180638Z 06010KT 10SM BKN008 OVC027 14/12 A3007 RMK AO2 RAB22E35 P0000 T01390122 $<br><br>
KBUF 180617Z 07011KT 10SM FEW007 OVC027 14/12 A3007 RMK AO2 T01390122 $<br><br>
KBUF 180554Z 07011KT 10SM OVC029 13/12 A3007 RMK AO2 RAE52 SLP181 P0001 60022 T01330117 10139 20128 55006 $<br><br>
KBUF 180549Z 07012KT 10SM -RA OVC029 13/12 A3007 RMK AO2 P0001 $<br><br>
KBUF 180652Z 1807/1906 06012KT 6SM -RA OVC007 TEMPO 1807/1811 BKN015 FM181100 07014G20KT 4SM RA BR BKN015 FM181600 10014G22KT 6SM -SHRA OVC015 FM182100 08014G22KT P6SM VCSH OVC025 FM190100 07012KT P6SM OVC040<br><br>
<br><br>
CYYZ 180642Z 08012G17KT 10SM -RA BKN012 OVC024 11/10 A3012 RMK SF5SC3 SLP201<br><br>
CYYZ 180600Z 07013G20KT 12SM -RA FEW012 OVC032 12/10 A3011 RMK SF1SC8 SF TR SLP200<br><br>
TAF CYYZ 180540Z 1806/1912 07012KT P6SM -RA OVC040 TEMPO 1806/1812 5SM -RA BR OVC030 FM181200 08015KT P6SM BKN040 OVC080 TEMPO 1812/1818 P6SM -RA BKN020 OVC040 BECMG 1812/1814 09018G28KT FM181800 08018G28KT P6SM BKN040 OVC100 BECMG 1822/1824 08015KT RMK NXT FCST BY 180900Z<br><br>
<br><br>
CYOO 180600Z AUTO 06007KT 9SM -RA OVC040 12/11 A3014 RMK PCPN 1.2MM PAST HR SLP209<br><br>
TAF CYOO 180139Z 1802/1814 06007KT P6SM BKN060 OVC100 TEMPO 1802/1808 P6SM -RA OVC050 BECMG 1804/1806 07012KT FM180800 07012G22KT P6SM BKN040 OVC080 TEMPO 1808/1814 5SM -RA BR OVC030 RMK FCST BASED ON AUTO OBS. NXT FCST BY 180800Z<br><br>
<br><br>
CYTR 180600Z 04009KT 6SM -RA BR BKN019 OVC050 12/09 A3018 RMK SC6SC2 SLP220<br><br>
TAF CYTR 180530Z 1806/1906 07005KT P6SM -RA SCT015 OVC060 TEMPO 1806/1812 5SM -RA BR BKN015 OVC060 FM181200 06008KT P6SM FEW015 BKN030 OVC060 BECMG 1814/1816 06012G22KT FM182000 06012G22KT P6SM SCT060 BKN180 BECMG 1900/1902 06010KT RMK NXT FCST BY 181200Z<br><br>
<br><br>
