RETRIEVED AT : Jan 20 2019 12:05 Local <br>
  RETRIEVED AT: Jan 20 2019 17:05 UTC<br><br>
CYSN 201600Z 35012G19KT 2SM -SN DRSN OVC020 M13/M15 A2989 RMK SN1SC7 SLP130<br><br>
TAF CYSN 201338Z 2014/2102 34015G25KT 11/2SM -SN OVC012 TEMPO 2014/2018 5SM -SN OVC025 FM201800 33012G22KT P6SM BKN030 TEMPO 2018/2024 21/2SM -SN RMK NXT FCST BY 202000Z<br><br>
<br><br>
CYHM 201600Z 32016KT 15SM FEW030 FEW050 SCT090 SCT240 M14/M19 A2988 RMK CU1SC1AC1CI1 CI TR SLP139<br><br>
TAF CYHM 201138Z 2012/2112 36015G25KT P6SM BKN030 TEMPO 2012/2013 5SM -SN BLSN OVC020 FM201700 34015G25KT P6SM FEW030 BECMG 2023/2101 32010KT RMK NXT FCST BY 201800Z<br><br>
<br><br>
KIAG 201658Z 33015KT 1 1/4SM R28R/3500VP6000FT -SN SCT016 OVC024 M13/M16 A2986 RMK AO2 P0000 T11331161<br><br>
KIAG 201653Z 33014KT 3/4SM R28R/2000VP6000FT -SN VV009 M13/M16 A2986 RMK AO2 SLP136 P0000 T11331161<br><br>
KIAG 201610Z 34016G22KT 3/4SM R28R/3500V5000FT -SN BR VV009 M13/M16 A2985 RMK AO2 P0000 T11331156<br><br>
KIAG 201600Z 33012KT 1SM R28R/3500V6000FT -SN VV009 M13/M16 A2985 RMK AO2 P0000 T11331161<br><br>
KIAG 201553Z COR 34013KT 3/4SM R28R/3000V4500FT -SN VV009 M13/M16 A2985 RMK AO2 SLP134 P0000 T11331161<br><br>
KIAG 201618Z 2016/2112 35012G18KT 1SM -SN VV015 FM201800 34015G25KT 2SM -SN BKN015 FM202200 33012G18KT 4SM -SN BKN025 FM210000 32012KT 3SM -SHSN BKN025 FM210900 33012KT 6SM -SHSN BKN025<br><br>
<br><br>
KBUF 201654Z 32014KT 3SM R23/5500VP6000FT -SN FEW021 BKN027 OVC046 M13/M17 A2983 RMK AO2 SLP119 P0000 T11331172<br><br>
KBUF 201629Z 33010G21KT 3SM R23/5000VP6000FT -SN FEW016 BKN021 BKN065 M13/M17 A2983 RMK AO2 P0000 T11331167<br><br>
KBUF 201554Z 33012KT 1 3/4SM R23/3500VP6000FT -SN BKN019 OVC025 M13/M16 A2983 RMK AO2 SLP117 P0000 T11281161 $<br><br>
KBUF 201531Z 34011KT 1 3/4SM -SN BKN016 BKN021 BKN028 M13/M16 A2981 RMK AO2 P0000 T11281156 $<br><br>
KBUF 201617Z 2016/2112 33012KT 2SM -SN BKN015 OVC025 FM201800 33015G25KT 4SM -SHSN BLSN SCT015 BKN025 FM202300 32012KT 6SM -SHSN BKN025<br><br>
<br><br>
CYYZ 201642Z 33027KT 15SM R33L/3000VP6000FT/U BLSN FEW055 M15/M21 A2990 RMK SC1 VIS 1 S-NW SLP141<br><br>
CYYZ 201600Z 35015G27KT 15SM DRSN FEW055 M16/M21 A2990 RMK SC1 SLP142<br><br>
TAF CYYZ 201439Z 2015/2118 34015G25KT P6SM SCT060 BECMG 2015/2017 34020G30KT BECMG 2019/2021 34025G35KT FM210400 34020G30KT P6SM SKC BECMG 2116/2118 32015G25KT RMK NXT FCST BY 201800Z<br><br>
<br><br>
CYOO 201701Z AUTO 32015G25KT 5SM HZ CLR M17/M22 A2986 RMK SLP127<br><br>
CYOO 201659Z AUTO 34019G27KT 6SM HZ CLR M17/M22 A2986 RMK SLP126<br><br>
CYOO 201633Z AUTO 32020G25KT 5SM HZ FEW065 M18/M23 A2987 RMK SLP128<br><br>
CYOO 201600Z AUTO 34018G29KT 6SM HZ OVC044 M17/M21 A2986 RMK SLP126<br><br>
CYOO 201557Z AUTO 34019G29KT 6SM HZ OVC044 M17/M21 A2986 RMK SLP125<br><br>
CYOO 201552Z AUTO 34021G29KT 5SM HZ OVC044 M17/M21 A2985 RMK SLP123<br><br>
CYOO 201528Z AUTO 34014G24KT 6SM HZ OVC044 M16/M20 A2985 RMK SLP123<br><br>
CYOO 201513Z AUTO 34014G22KT 6SM -SN BKN044 OVC060 M16/M20 A2985 RMK SLP122<br><br>
TAF AMD CYOO 201516Z 2015/2102 35015G25KT P6SM BKN040 OVC060 TEMPO 2015/2017 5SM -SN FM202100 34020G30KT P6SM BKN030 RMK FCST BASED ON AUTO OBS. NXT FCST BY 202000Z<br><br>
<br><br>
CYTR 201644Z 34013KT 7SM SCT025 BKN250 M16/M21 A2980 RMK SC4CI2 SLP102<br><br>
CYTR 201614Z 34011G18KT 6SM -SN BKN025 M16/M21 A2981 RMK SC7 SLP102<br><br>
CYTR 201600Z 36013KT 4SM -SN OVC025 M16/M21 A2981 RMK SC8 SLP102<br><br>
CYTR 201519Z 36012KT 2SM -SN OVC026 M17/M22 A2981 RMK SN4SC4 SLP104<br><br>
CYTR 201507Z 34012G18KT 4SM -SN OVC029 M17/M22 A2981 RMK SC8 SLP103<br><br>
TAF AMD CYTR 201528Z 2015/2112 36015G25KT P6SM -SN OVC030 TEMPO 2015/2106 2SM -SN BLSN OVC020 FM210600 34012G22KT P6SM OVC040 TEMPO 2106/2112 6SM -SHSN BLSN RMK NXT FCST BY 201800Z<br><br>
<br><br>
