RETRIEVED AT : Sep 19 2017 13:10 Local <br>
  RETRIEVED AT: Sep 19 2017 17:10 UTC<br><br>
CYSN 191700Z 36007KT 8SM FEW024 SCT071 OVC250 24/21 A3001 RMK CU2AC2CI4 VIS LWR NW SLP163 DENSITY ALT 1400FT<br><br>
CYSN 191600Z 35006KT 8SM SCT023 OVC200 24/21 A3002 RMK CU3CI5 VIS LWR W- NE HZ SLP166 DENSITY ALT 1400FT<br><br>
TAF AMD CYSN 191308Z 1913/2001 VRB03KT 6SM BR SCT008 BKN150 TEMPO 1913/1915 2SM BR BKN008 FM191500 VRB03KT P6SM BKN050 TEMPO 1915/1917 BKN020 FM192000 03005KT P6SM BKN100 RMK NXT FCST BY 192000Z<br><br>
<br><br>
CYHM 191700Z 11005KT 020V140 10SM FEW015 BKN020 BKN130 24/20 A3004 RMK CU2SC3AC1 SLP172 DENSITY ALT 1900FT<br><br>
CYHM 191620Z 08005KT 050V120 10SM FEW010 SCT014 BKN018 BKN120 22/20 A3004 RMK CF1SC2SC2AC1 SLP173 DENSITY ALT 1700FT<br><br>
CYHM 191600Z 06004KT 040V110 6SM BR SCT008 BKN012 22/20 A3005 RMK SF4SC3 SLP176 DENSITY ALT 1700FT<br><br>
TAF AMD CYHM 191408Z 1914/2012 06010KT P6SM BKN040 TEMPO 1914/1918 4SM BR BKN015 FM191800 04007KT P6SM BKN050 PROB30 1918/1923 VRB15G25KT 2SM TSRA BR BKN020 OVC030CB FM200000 05005KT P6SM BKN140 PROB30 2008/2012 1SM BR RMK NXT FCST BY 191800Z<br><br>
<br><br>
KIAG 191653Z VRB04KT 10SM CLR 27/18 A3002 RMK AO2 SLP161 T02670183<br><br>
KIAG 191553Z 23005KT 10SM SCT060 SCT070 26/18 A3003 RMK AO2 SLP165 T02560178<br><br>
KIAG 191519Z 1915/2012 00000KT P6SM SCT070 BKN250 FM200200 VRB03KT P6SM SCT200<br><br>
<br><br>
KBUF 191654Z 30006KT 10SM FEW035 FEW065 FEW110 FEW180 BKN260 27/17 A3003 RMK AO2 SLP164 T02670172<br><br>
KBUF 191554Z 18003KT 10SM FEW028 FEW060 FEW110 FEW180 BKN260 25/17 A3004 RMK AO2 SLP169 ACC DSNT NW T02500172<br><br>
KBUF 191519Z 1915/2012 VRB03KT P6SM SCT090 BKN250 FM192200 03005KT P6SM SCT200 FM200200 VRB03KT P6SM SCT200<br><br>
<br><br>
CYYZ 191700Z 13006KT 100V180 10SM BKN030 BKN045 26/20 A3002 RMK CU5SC2 SLP166 DENSITY ALT 1900FT<br><br>
CYYZ 191635Z 16007KT 110V180 10SM BKN022 BKN030 BKN140 25/20 A3003 RMK CU5SC1AC1 WSHFT 1623 SLP168 DENSITY ALT 1800FT<br><br>
CYYZ 191600Z 00000KT 10SM BKN025 BKN035 BKN140 25/19 A3004 RMK CU5SC1AC1 SLP171 DENSITY ALT 1700FT<br><br>
TAF CYYZ 191438Z 1915/2018 02005KT P6SM BKN150 TEMPO 1915/1918 BKN012 FM191800 08007KT P6SM BKN050 PROB30 1918/1923 VRB15G25KT 2SM TSRA BR BKN015 OVC030CB FM200000 02005KT P6SM BKN100 FM200600 07008KT 6SM BR FEW002 SCT100 PROB30 2006/2012 2SM BR FM201200 11008KT P6SM BKN012 FM201600 12007KT P6SM SCT100 RMK NXT FCST BY 191800Z<br><br>
<br><br>
CYOO 191700Z AUTO VRB04KT 9SM FEW025 25/19 A3002 RMK SLP167 DENSITY ALT 1600FT<br><br>
CYOO 191600Z AUTO VRB02KT 9SM SCT044 24/19 A3003 RMK SLP171 DENSITY ALT 1400FT<br><br>
CYOO 191536Z AUTO 14005KT 090V210 7SM SCT018 BKN044 24/19 A3004 RMK SLP173 DENSITY ALT 1400FT<br><br>
CYOO 191530Z AUTO VRB02KT 8SM BKN016 BKN044 24/19 A3004 RMK SLP174 DENSITY ALT 1400FT<br><br>
CYOO 191522Z AUTO VRB02KT 8SM FEW014 BKN044 24/19 A3004 RMK SLP174 DENSITY ALT 1400FT<br><br>
CYOO 191512Z AUTO VRB02KT 5SM HZ FEW014 SCT044 23/19 A3004 RMK SLP173 DENSITY ALT 1300FT<br><br>
CYOO has no TAF <br><br>
<br><br>
CYTR 191700Z 18003KT 15SM FEW053 BKN200 25/20 A3003 RMK CU1CI7 SLP170<br><br>
CYTR 191600Z 14002KT 15SM FEW040 FEW110 BKN240 25/19 A3004 RMK SC1AC1CI6 SLP174<br><br>
TAF CYTR 191130Z 1912/2012 VRB03KT 3SM BR SCT050 BECMG 1912/1914 P6SM NSW FM191600 07008KT P6SM SCT030 TEMPO 1916/1918 P6SM -SHRA BKN030 BECMG 1916/1918 21008KT FM191800 21008KT P6SM SCT030 TEMPO 1918/1924 P6SM -SHRA BKN030 PROB30 1918/1922 2SM TSRA BR BKN020CB FM200000 02008KT P6SM SCT020 BKN050 FM200300 02005KT 6SM BR FEW020 TEMPO 2003/2012 2SM BR RMK NXT FCST BY 191800Z<br><br>
<br><br>
