RETRIEVED AT : May 05 2018 05:58 Local <br>
  RETRIEVED AT: May 05 2018 09:58 UTC<br><br>
CYSN has no TAF <br><br>
<br><br>
CYHM 050900Z 21007KT 15SM FEW063 FEW090 07/05 A3002 RMK SC1AC1 SC TR AC TR SLP168<br><br>
CYHM 050800Z 24007KT 15SM FEW065 FEW090 08/06 A3002 RMK SC1AC1 SLP168<br><br>
TAF CYHM 050540Z 0506/0606 22008KT P6SM SKC FM050800 22008KT P6SM FEW030 SCT070 BECMG 0513/0515 23012G22KT FM051800 24010G20KT P6SM BKN060 TEMPO 0520/0524 P6SM -SHRA PROB30 0520/0524 3SM TSRA BR BKN020 OVC060CB FM060000 23012KT P6SM FEW040 SCT080 FM060300 23006KT P6SM BKN040 BKN080 BECMG 0603/0605 VRB03KT RMK NXT FCST BY 051200Z<br><br>
<br><br>
KIAG 050953Z AUTO 21010KT 10SM CLR 10/04 A3003 RMK AO2 SLP170 T01000044<br><br>
KIAG 050853Z AUTO 22009KT 10SM OVC075 10/04 A3002 RMK AO2 SLP168 T01000044 53002<br><br>
KIAG 050912Z 0509/0606 22008KT P6SM BKN080 FM051000 22009KT P6SM SCT080 FM051400 22013G23KT P6SM FEW080 FM051600 23020G33KT P6SM SCT080 FM052100 24015G23KT P6SM SCT250 FM052300 23010KT P6SM SCT100<br><br>
<br><br>
KBUF 050954Z 20008KT 10SM FEW075 08/06 A3003 RMK AO2 SLP173 T00830056<br><br>
KBUF 050854Z 20007KT 10SM BKN080 08/06 A3003 RMK AO2 SLP172 T00830056 53003<br><br>
KBUF 050912Z 0509/0606 21007KT P6SM BKN080 FM051000 21007KT P6SM SCT080 FM051400 23013G23KT P6SM FEW080 FM051700 24020G33KT P6SM SCT080 FM052000 24017G26KT P6SM SCT250 FM052300 23010KT P6SM SCT100<br><br>
<br><br>
CYYZ 050900Z 24004KT 15SM FEW075 FEW230 09/06 A2999 RMK AC1CI1 CI TR SLP159<br><br>
CYYZ 050800Z 25009KT 15SM FEW230 09/06 A2999 RMK CI1 CI TR SLP158<br><br>
TAF CYYZ 050838Z 0509/0612 25010KT P6SM SCT080 FM052000 25015KT P6SM FEW040 BKN070 TEMPO 0520/0605 P6SM -SHRA BECMG 0603/0605 33010KT FM060500 33010KT P6SM -SHRA BKN040 BKN080 BECMG 0606/0608 VRB03KT RMK NXT FCST BY 051200Z<br><br>
<br><br>
CYOO 050900Z AUTO 02005KT 9SM CLR 03/02 A2999 RMK SLP160<br><br>
CYOO 050800Z AUTO 36003KT 220V010 9SM CLR 04/03 A2999 RMK SLP158<br><br>
CYOO has no TAF <br><br>
<br><br>
CYTR 050900Z 23005KT 15SM SKC 08/04 A2998 RMK SLP153<br><br>
CYTR 050800Z 24007KT 15SM SKC 07/04 A2998 RMK SLP152<br><br>
TAF CYTR 050530Z 0506/0606 29012KT P6SM SKC BECMG 0506/0508 26008KT FM051500 24012G22KT P6SM FEW060 FM051900 24012G22KT P6SM BKN060 BECMG 0521/0523 22008KT FM060200 22008KT P6SM FEW060 SCT250 RMK NXT FCST BY 051200Z<br><br>
<br><br>
