RETRIEVED AT : Oct 03 2017 01:10 Local <br>
  RETRIEVED AT: Oct 03 2017 05:10 UTC<br><br>
CYSN has no TAF <br><br>
<br><br>
CYHM 030500Z 03006KT 15SM FEW250 09/09 A3038 RMK CI1 SLP292<br><br>
CYHM 030400Z 02004KT 15SM FEW250 10/09 A3039 RMK CI1 SLP294<br><br>
TAF CYHM 022338Z 0300/0324 05008KT P6SM FEW050 BECMG 0304/0306 14005KT BECMG 0312/0314 20008KT FM031700 21012KT P6SM SKC BECMG 0318/0320 20012G22KT RMK NXT FCST BY 030600Z<br><br>
<br><br>
KIAG 030353Z AUTO 08004KT 10SM CLR 12/08 A3040 RMK AO2 SLP294 T01170078<br><br>
KIAG 030227Z 0302/0324 VRB03KT P6SM SKC FM030500 16005KT P6SM SKC FM031400 20008KT P6SM SKC<br><br>
<br><br>
KBUF 030354Z 14005KT 10SM FEW250 12/08 A3040 RMK AO2 SLP294 T01220078<br><br>
KBUF 030227Z 0302/0324 VRB03KT P6SM SKC FM030600 16006KT P6SM SKC FM031400 20008KT P6SM SKC FM031800 23010KT P6SM SKC<br><br>
<br><br>
CYYZ 030500Z 02004KT 15SM FEW240 11/08 A3039 RMK CI2 SLP295<br><br>
CYYZ 030400Z CCA 04003KT 15SM FEW240 14/10 A3039 RMK CI2 SLP295<br><br>
TAF CYYZ 030238Z 0303/0406 VRB03KT P6SM FEW180 BECMG 0313/0315 20012KT FM032000 21012G22KT P6SM SKC RMK NXT FCST BY 030600Z<br><br>
<br><br>
CYOO 030500Z AUTO 09006KT 9SM CLR 12/09 A3041 RMK SLP299<br><br>
CYOO 030400Z AUTO 10004KT 9SM CLR 11/08 A3041 RMK SLP299<br><br>
CYOO has no TAF <br><br>
<br><br>
CYTR 030500Z 35002KT 15SM SCT250 06/06 A3043 RMK CI4 SLP307<br><br>
CYTR 030400Z 05003KT 15SM SCT240 07/06 A3043 RMK CI4 SLP308<br><br>
TAF CYTR 022330Z 0300/0324 17005KT P6SM SCT250 FM030300 08005KT P6SM SCT150 FM031000 18005KT 6SM BR FEW005 TEMPO 0310/0313 4SM BR PROB30 0310/0313 3/4SM BR OVC005 FM031300 18008KT P6SM SCT250 RMK NXT FCST BY 030600Z<br><br>
<br><br>
