RETRIEVED AT : Mar 29 2020 14:05 Local <br>
  RETRIEVED AT: Mar 29 2020 18:05 UTC<br><br>
CYSN 291751Z 27017G28KT 230V330 3SM -TSRA OVC016CB 09/09 A2954 RMK CB8 PRESRR SLP005<br><br>
CYSN 291745Z 32013KT 10SM -SHRA OVC037 09/08 A2950 RMK CU8 PRESRR SLP993<br><br>
CYSN 291700Z 31003KT 15SM BKN037 13/12 A2950 RMK SC6 SLP991 DENSITY ALT 600FT<br><br>
TAF AMD CYSN 291658Z 2916/3001 21008KT P6SM BKN030 TEMPO 2918/2920 11/2SM +TSRAGR BR BKN004 OVC010CB FM291930 23018G28KT P6SM SCT020 BKN040 TEMPO 2919/2921 BKN020 BKN040 BECMG 2919/2921 23020G38KT RMK NXT FCST BY 292000Z<br><br>
<br><br>
CYHM 291700Z VRB03KT 15SM FEW025 BKN028 BKN240 14/13 A2950 RMK SC2SC4CI1 SLP994 DENSITY ALT 1400FT<br><br>
CYHM 291613Z VRB04KT 3SM R12/4000VP6000FT/U BR BKN024 11/11 A2952 RMK FG1CU6 MDT CU ASOCTD SLP003 DENSITY ALT 1000FT<br><br>
TAF CYHM 291738Z 2918/3018 21010G20KT P6SM BKN025 BKN240 TEMPO 2918/2919 3SM +TSRAGR BR BKN005 OVC015CB FM291900 23020G38KT P6SM SCT020 BKN040 TEMPO 2919/2922 BKN020 BKN040 FM292200 23020G32KT P6SM BKN030 BKN050 TEMPO 3000/3002 BKN020 OVC040 FM300200 23018G28KT P6SM -SHRA BKN020 OVC030 TEMPO 3002/3006 SCT020 OVC040 FM300600 23015G25KT P6SM -SHRA OVC015 BECMG 3014/3016 26015G25KT RMK NXT FCST BY 300000Z<br><br>
<br><br>
KIAG 291753Z 21013KT 10SM VCTS FEW048 SCT060 BKN080 20/14 A2948 RMK AO2 PK WND 20030/1712 LTG DSNT S-NW SLP986 T02000144 10217 20089 58021<br><br>
KIAG 291653Z 20021G27KT 10SM FEW036 SCT043 BKN065 21/14 A2951 RMK AO2 PK WND 21029/1630 SLP994 T02110144<br><br>
KIAG 291734Z 2918/3018 22018G30KT 2SM TSRA OVC025CB TEMPO 2918/2919 VRB30G45KT 1SM +TSRA OVC015CB FM291900 24020G34KT P6SM VCSH BKN040 FM292100 24023G38KT P6SM BKN050 FM300200 24018G32KT P6SM BKN080 FM300800 23018G29KT P6SM -SHRA OVC030 FM301200 23018G31KT 5SM -SHRA BR OVC015<br><br>
<br><br>
KBUF 291754Z 20020G29KT 10SM SCT035 BKN110 BKN170 BKN250 22/14 A2949 RMK AO2 PK WND 19030/1712 LTG DSNT SW-NW SLP984 CB DSNT SW-NW MOV NE 60000 T02220144 10233 20139 58027<br><br>
KBUF 291654Z 20019G27KT 10SM SCT034 SCT047 BKN060 BKN170 21/14 A2953 RMK AO2 PK WND 19031/1607 SLP999 T02110144<br><br>
KBUF 291733Z 2918/3018 20018G30KT 2SM TSRA OVC025CB TEMPO 2918/2919 VRB30G45KT 1SM +TSRA OVC015CB FM291900 23018G34KT P6SM VCSH OVC025 FM292100 24023G38KT P6SM BKN045 FM300200 24018G32KT P6SM BKN040 FM300900 24020G30KT P6SM -SHRA OVC030 FM301200 24019G31KT 4SM -SHRA BR OVC015<br><br>
<br><br>
CYYZ 291723Z 12003KT 7SM BKN005 BKN025 10/10 A2951 RMK ST6SC1 SLP997 DENSITY ALT 600FT<br><br>
CYYZ 291700Z VRB02KT 6SM BR BKN003 OVC020 09/09 A2952 RMK ST7SC1 SLP000<br><br>
TAF CYYZ 291738Z 2918/3024 10006KT WS005/22020KT P6SM SCT004 BKN020 TEMPO 2918/2919 SCT020 BKN040 BECMG 2918/2919 23015G30KT FM291900 23015G30KT P6SM SCT020 BKN040 TEMPO 2919/2920 P6SM VCTS BKN012CB BKN040 BECMG 2919/2920 23020G38KT FM292200 23018G30KT P6SM SCT025 BKN040 TEMPO 3002/3004 BKN020 OVC040 FM300400 23015G25KT P6SM -SHRA OVC015 TEMPO 3004/3006 OVC025 BECMG 3008/3010 24012G22KT FM301700 26015G25KT P6SM -SHRA OVC015 RMK NXT FCST BY 292100Z<br><br>
<br><br>
CYOO 291707Z AUTO 09005KT 9SM OVC012 09/09 A2953 RMK TS/LTNG TEMPO UNAVBL SLP005<br><br>
CYOO 291700Z AUTO 10008KT 9SM -RA FEW006 OVC012 09/09 A2953 RMK TS/LTNG TEMPO UNAVBL SLP005<br><br>
CYOO 291653Z AUTO 10010KT 9SM -RA FEW006 OVC012 09/09 A2953 RMK TS/LTNG TEMPO UNAVBL SLP006<br><br>
CYOO 291635Z AUTO 09009KT 070V160 9SM SCT004 OVC014 08/08 A2953 RMK TS/LTNG TEMPO UNAVBL SLP005<br><br>
CYOO 291633Z AUTO 09009G15KT 070V170 9SM BKN004 OVC014 08/08 A2953 RMK TS/LTNG TEMPO UNAVBL SLP005<br><br>
CYOO 291625Z AUTO 15008G16KT 080V170 7SM -RA BKN006 OVC016 08/08 A2954 RMK TS/LTNG TEMPO UNAVBL SLP007<br><br>
CYOO 291615Z AUTO 09011G16KT 3SM -RA BR BKN006 BKN010 OVC016 08/08 A2954 RMK TS/LTNG TEMPO UNAVBL SLP007<br><br>
CYOO 291612Z AUTO 10011KT 2 1/2SM -RA BR BKN006 BKN010 OVC018 08/08 A2954 RMK TS/LTNG TEMPO UNAVBL SLP007<br><br>
CYOO 291611Z AUTO 10011KT 2 1/2SM -RA BR SCT006 BKN010 OVC018 08/08 A2954 RMK TS/LTNG TEMPO UNAVBL SLP007<br><br>
CYOO 291609Z AUTO 10011KT 3SM -RA BR SCT006 BKN010 OVC018 08/08 A2954 RMK TS/LTNG TEMPO UNAVBL SLP008<br><br>
CYOO 291607Z AUTO 10010G15KT 3SM -RA BR BKN006 BKN010 OVC018 08/08 A2954 RMK TS/LTNG TEMPO UNAVBL SLP009<br><br>
TAF CYOO 291338Z 2914/3002 09018G28KT 3SM -RA BR OVC004 TEMPO 2914/2917 6SM -RA BR SCT004 OVC008 PROB30 2915/2917 2SM +TSRA BR SCT005 OVC010CB FM291700 17012KT 5SM -SHRA BR BKN005 OVC015 TEMPO 2917/2920 P6SM NSW BKN020 BECMG 2918/2920 23018G30KT FM292000 23018G30KT P6SM BKN020 BKN040 TEMPO 2920/2924 SCT020 BKN040 FM300000 23015G25KT P6SM BKN030 TEMPO 3000/3002 BKN020 RMK FCST BASED ON AUTO OBS. NXT FCST BY 292000Z<br><br>
<br><br>
CYTR 291700Z 10008KT 8SM -RA BKN009 OVC018 09/08 A2960 RMK SF7SC1 CIG VRB 6-12 SLP025<br><br>
CYTR 291635Z 10009KT 8SM -RA BKN007 OVC016 08/07 A2961 RMK SF7SC1 PRESFR CIG VRB 5-9 SLP030<br><br>
TAF CYTR 291730Z 2918/3018 10012KT P6SM -RA SCT008 OVC020 TEMPO 2918/2920 1SM SHRA BR OVC008 PROB40 2918/2920 VRB15G30KT 1SM +TSRA BR BKN005 OVC015CB FM292000 22015G25KT P6SM SCT010 OVC025 TEMPO 2920/2924 2SM -SHRA BR BKN010 OVC025 PROB30 2920/2921 VRB15G30KT 1SM +TSRA BR BKN005 OVC015CB FM300300 24015KT P6SM OVC020 FM300800 23012KT 6SM -RA BR OVC010 FM301300 23012G22KT 3SM -SHRA BR OVC008 RMK NXT FCST BY 300000Z<br><br>
<br><br>
