RETRIEVED AT : Apr 05 2020 22:05 Local <br>
  RETRIEVED AT: Apr 06 2020 02:05 UTC<br><br>
CYSN 060100Z 16003KT 15SM SKC 06/02 A3012 RMK LAST STFD OBS/NEXT 061100 UTC SLP202<br><br>
CYSN has no TAF <br><br>
<br><br>
CYHM 060100Z 36005KT 15SM SKC 06/01 A3011 RMK SLP205<br><br>
TAF CYHM 052340Z 0600/0624 30007KT P6SM FEW040 FM060400 VRB03KT P6SM SKC BECMG 0614/0616 23007KT FM062000 23008KT P6SM BKN100 OVC200 RMK NXT FCST BY 060600Z<br><br>
<br><br>
KIAG 060153Z 00000KT 10SM CLR 04/M01 A3013 RMK AO2 SLP212 T00391006<br><br>
KIAG 060053Z 00000KT 10SM CLR 07/00 A3012 RMK AO2 SLP207 T00670000<br><br>
KIAG 052329Z 0600/0624 34006KT P6SM SCT250 FM060400 VRB03KT P6SM SKC FM061500 26006KT P6SM SCT250<br><br>
<br><br>
KBUF 060154Z 23006KT 10SM CLR 05/02 A3013 RMK AO2 SLP209 T00500017<br><br>
KBUF 060054Z 25006KT 10SM FEW200 06/02 A3012 RMK AO2 SLP205 T00610017<br><br>
KBUF 052329Z 0600/0624 25008KT P6SM BKN200 FM060200 30006KT P6SM SCT250 FM060600 VRB03KT P6SM SKC FM061500 24006KT P6SM FEW250<br><br>
<br><br>
CYYZ 060100Z 36007KT 15SM SKC 06/00 A3012 RMK SLP206<br><br>
TAF CYYZ 052340Z 0600/0706 02009KT P6SM FEW040 FEW200 FM060500 36008KT P6SM SKC BECMG 0609/0611 32008KT FM061600 15010KT P6SM SCT150 FM062100 15010KT P6SM BKN100 OVC200 BECMG 0701/0703 03006KT RMK NXT FCST BY 060300Z<br><br>
<br><br>
CYOO 060100Z AUTO 32005KT 9SM CLR 05/M00 A3011 RMK SLP203<br><br>
TAF CYOO 060138Z 0602/0614 31006KT P6SM SKC RMK FCST BASED ON AUTO OBS. NXT FCST BY 060800Z<br><br>
<br><br>
CYTR 060100Z 28007KT 15SM SKC 08/01 A3007 RMK SLP186<br><br>
TAF CYTR 052330Z 0600/0624 30008KT P6SM SKC BECMG 0608/0610 VRB03KT BECMG 0616/0618 21010KT FM062000 21010KT P6SM FEW120 BKN200 FM062300 24005KT P6SM BKN080 RMK NXT FCST BY 060600Z<br><br>
<br><br>
