RETRIEVED AT : Jun 21 2020 07:05 Local <br>
  RETRIEVED AT: Jun 21 2020 11:05 UTC<br><br>
CYSN has no TAF <br><br>
<br><br>
TAF AMD CYHM 210829Z 2108/2206 VRB03KT P6SM FEW110 PROB30 2108/2111 1SM BR FM211500 20012KT P6SM SCT080 FM212100 20010KT P6SM SCT080 RMK NXT FCST BY 211200Z<br><br>
<br><br>
KIAG 210901Z 2109/2206 20004KT P6SM SCT070 FM211500 21008KT P6SM SCT050 FM220200 19006KT P6SM SCT100<br><br>
<br><br>
KBUF 210900Z 2109/2206 17004KT P6SM SCT070 FM211500 22008KT P6SM SCT050 TEMPO 2118/2122 BKN050 FM220000 19006KT P6SM SCT100<br><br>
<br><br>
TAF CYYZ 210838Z 2109/2212 VRB03KT P6SM SKC FM211200 15008KT P6SM SKC FM211500 15012G22KT P6SM FEW060 FM211800 15012G22KT P6SM SCT080 TEMPO 2118/2202 P6SM VCTS SCT080CB FM220200 12008KT P6SM FEW080 BECMG 2208/2210 VRB03KT RMK NXT FCST BY 211200Z<br><br>
<br><br>
TAF CYOO 210754Z 2108/2120 VRB03KT P6SM SKC PROB30 2108/2111 1SM BR FM211300 16008KT P6SM SKC BECMG 2118/2120 13010KT RMK FCST BASED ON AUTO OBS. NXT FCST BY 211400Z<br><br>
<br><br>
TAF AMD CYTR 210807Z 2108/2206 VRB03KT 6SM BR FEW100 TEMPO 2108/2110 4SM BR PROB30 2108/2110 1SM BR FM211400 20008KT P6SM FEW040 BECMG 2202/2204 VRB03KT RMK NXT FCST BY 211200Z<br><br>
<br><br>
