RETRIEVED AT : Sep 09 2018 01:05 Local <br>
  RETRIEVED AT: Sep 09 2018 05:05 UTC<br><br>
CYSN has no TAF <br><br>
<br><br>
CYHM 090400Z 09006KT 15SM FEW030 BKN250 10/06 A3025 RMK SC1CI6 SC TR SLP248<br><br>
TAF CYHM 082338Z 0900/0924 06012KT P6SM BKN200 BECMG 0911/0913 08015G25KT FM091600 08018G28KT P6SM FEW030 OVC180 FM092300 09018G28KT P6SM -RA SCT030 OVC100 RMK NXT FCST BY 090600Z<br><br>
<br><br>
KIAG 090453Z AUTO 00000KT 10SM CLR 11/06 A3024 RMK AO2 SLP244 T01060056 401780106<br><br>
KIAG 090353Z AUTO 00000KT 10SM CLR 11/06 A3025 RMK AO2 SLP247 T01110061<br><br>
KIAG 090317Z 0903/0924 00000KT P6SM BKN250 FM091100 09009KT P6SM BKN250 FM091400 09011G17KT P6SM BKN250<br><br>
<br><br>
KBUF 090454Z 07004KT 10SM FEW150 BKN280 11/07 A3024 RMK AO2 SLP243 T01060072 401780106<br><br>
KBUF 090354Z 06003KT 10SM FEW110 SCT150 OVC250 11/07 A3025 RMK AO2 SLP243 T01110067<br><br>
KBUF 090317Z 0903/0924 09004KT P6SM FEW100 OVC250 FM091200 09009KT P6SM BKN250 FM091700 08013G19KT P6SM BKN250 FM092100 09013KT P6SM OVC200<br><br>
<br><br>
CYYZ 090400Z 04007KT 15SM FEW030 BKN250 13/06 A3027 RMK SC1CI4 SLP252<br><br>
TAF CYYZ 090238Z 0903/1006 05007KT P6SM BKN250 BECMG 0905/0907 06010KT FM091000 04013KT P6SM SCT030 OVC180 BECMG 0913/0915 08015G25KT BKN030 OVC160 FM091900 08015G25KT P6SM SCT030 OVC150 BECMG 0922/0924 08015KT FM100400 10012G22KT P6SM -RA BKN020 OVC070 BECMG 1004/1006 10015G25KT RMK NXT FCST BY 090600Z<br><br>
<br><br>
CYOO 090400Z AUTO 05010G16KT 9SM CLR 12/04 A3028 RMK SLP258<br><br>
CYOO has no TAF <br><br>
<br><br>
CYTR 090400Z 04006KT 15SM BKN240 08/05 A3030 RMK CI6 SLP263<br><br>
TAF CYTR 082330Z 0900/0924 04005KT P6SM SCT150 BKN210 BECMG 0913/0915 07012G22KT BECMG 0922/0924 06010KT RMK NXT FCST BY 090600Z<br><br>
<br><br>
