RETRIEVED AT : Feb 22 2020 16:05 Local <br>
  RETRIEVED AT: Feb 22 2020 21:05 UTC<br><br>
CYSN 222000Z 21020KT 15SM SCT250 04/M03 A3014 RMK CI4 SLP212<br><br>
TAF CYSN 221938Z 2220/2302 24015G25KT P6SM FEW030 BECMG 2300/2302 24010G20KT RMK NXT FCST WILL BE ISSUED AT 231345Z<br><br>
<br><br>
CYHM 222000Z 23014G20KT 15SM FEW250 04/M04 A3012 RMK CI1 SLP210<br><br>
TAF CYHM 221742Z 2218/2318 24012G22KT P6SM SKC BECMG 2305/2307 24010KT FM230900 24010KT P6SM BKN220 FM231500 23010G20KT P6SM SCT030 BKN180 RMK NXT FCST BY 230000Z<br><br>
<br><br>
KIAG 222053Z AUTO 23020G30KT 10SM CLR 03/M06 A3014 RMK AO2 PK WND 21033/2029 SLP220 T00281056 56012<br><br>
KIAG 221953Z 22021G30KT 10SM CLR 02/M05 A3014 RMK AO2 PK WND 23032/1939 SLP222 T00221050<br><br>
KIAG 221939Z 24024G32KT 10SM CLR 02/M05 A3015 RMK AO2 PK WND 23032/1939 T00221050<br><br>
KIAG 221722Z 2218/2318 23018G26KT P6SM BKN025 FM221900 23016G24KT P6SM SCT030 FM222300 23014G22KT P6SM SKC FM231200 22014G22KT P6SM SCT200<br><br>
<br><br>
KBUF 222054Z 23019KT 10SM SCT260 03/M05 A3014 RMK AO2 PK WND 24029/1955 SLP216 T00281050 56015<br><br>
KBUF 221954Z 24021G29KT 10SM FEW270 03/M07 A3015 RMK AO2 PK WND 25034/1918 SLP218 T00281067<br><br>
KBUF 221722Z 2218/2318 24020G30KT P6SM SCT025 FM222000 24016G24KT P6SM SCT030 FM230100 23014G22KT P6SM SKC FM231200 22014G22KT P6SM SCT200<br><br>
<br><br>
CYYZ 222000Z 24008G15KT 210V270 15SM SCT250 05/M04 A3010 RMK CI4 SLP201<br><br>
TAF CYYZ 222038Z 2221/2324 24012KT P6SM SKC BECMG 2302/2304 23010KT FM230900 23010KT P6SM BKN270 FM231500 22010G20KT P6SM SCT030 BKN180 FM232100 22012G22KT P6SM SCT030 RMK NXT FCST BY 230000Z<br><br>
<br><br>
CYOO 222000Z AUTO 22012KT 9SM CLR 03/M04 A3010 RMK SLP199<br><br>
TAF CYOO 221938Z 2220/2308 25010G20KT P6SM SKC BECMG 2300/2302 23008KT RMK FCST BASED ON AUTO OBS. NXT FCST BY 230200Z<br><br>
<br><br>
CYTR 222000Z 24013G19KT 15SM SCT230 02/M04 A3011 RMK CI4 SLP201<br><br>
TAF CYTR 221730Z 2218/2318 22010KT P6SM FEW250 BECMG 2221/2223 25008KT FM231200 26008KT P6SM SCT020 BKN300 BECMG 2315/2317 24010G20KT RMK NXT FCST BY 230000Z<br><br>
<br><br>
