RETRIEVED AT : Dec 04 2017 22:10 Local <br>
  RETRIEVED AT: Dec 05 2017 03:10 UTC<br><br>
CYSN 050200Z 18013G19KT 15SM BKN130 OVC220 11/01 A2990 RMK AC5CI3 LAST STFD OBS/NEXT 051200 UTC SLP130<br><br>
CYSN has no TAF <br><br>
<br><br>
CYHM 050300Z 20012G17KT 15SM FEW110 OVC140 10/03 A2990 RMK AC2AC6 SLP131<br><br>
CYHM 050200Z 17013KT 15SM SCT110 OVC130 10/02 A2988 RMK AC3AC5 PRESFR SLP126<br><br>
TAF CYHM 042338Z 0500/0524 14010KT P6SM BKN080 OVC120 BECMG 0501/0503 16012KT FM050700 17015G25KT P6SM -SHRA BKN030 OVC080 FM050900 19018G28KT P6SM -RA OVC020 TEMPO 0509/0512 4SM SHRA BR OVC007 FM051200 19020G30KT 4SM -RA BR OVC007 FM051600 23022G40KT P6SM OVC012 BECMG 0516/0518 BKN020 FM052300 24020G30KT P6SM BKN030 RMK NXT FCST BY 050600Z<br><br>
<br><br>
KIAG 050253Z 18013KT 10SM CLR 12/00 A2990 RMK AO2 SLP135 T01170000 58033<br><br>
KIAG 050153Z 18015KT 10SM CLR 12/00 A2994 RMK AO2 SLP146 T01170000<br><br>
KIAG 050307Z 0503/0524 18015G22KT P6SM OVC150 WS020/19040KT FM050900 18019G27KT 5SM -RA OVC035 WS020/20045KT FM051800 20019G27KT P6SM OVC030 FM052300 24019G29KT P6SM OVC035<br><br>
<br><br>
KBUF 050254Z 17015KT 10SM FEW100 FEW130 OVC240 11/00 A2992 RMK AO2 SLP137 60000 T01060000 56036<br><br>
KBUF 050154Z 17017KT 10SM FEW090 FEW140 OVC170 11/00 A2995 RMK AO2 SLP148 T01060000<br><br>
KBUF 050307Z 0503/0524 17014G22KT P6SM OVC200 WS020/19045KT FM050900 18018G27KT 6SM -RA OVC045 WS020/20045KT FM051400 19019G27KT 5SM -RA OVC035 WS020/21045KT FM051700 20018G27KT 6SM -RA OVC030 FM051900 21018G29KT P6SM OVC025<br><br>
<br><br>
CYYZ 050300Z 15010KT 15SM FEW062 BKN110 BKN150 09/02 A2989 RMK SC2AC3AC2 SLP128<br><br>
CYYZ 050200Z 14010KT 15SM BKN130 BKN160 08/02 A2989 RMK AC5AC2 SLP129<br><br>
TAF CYYZ 050238Z 0503/0606 14010KT P6SM SCT080 OVC140 FM050500 16012KT P6SM -SHRA OVC040 TEMPO 0507/0509 OVC020 FM050900 18012G22KT P6SM -RA OVC020 TEMPO 0509/0512 5SM -SHRA BR BKN007 OVC015 FM051200 19015G25KT 5SM -RA BR BKN006 OVC012 FM051600 21020G30KT P6SM BKN015 FM051800 23022G35KT P6SM SCT020 BKN220 BECMG 0520/0522 23020G30KT FM060000 24020G30KT P6SM BKN030 FM060300 25015G25KT P6SM BKN040 RMK NXT FCST BY 050600Z<br><br>
<br><br>
CYOO 050300Z AUTO 13009G15KT 9SM OVC130 09/01 A2991 RMK SLP133<br><br>
CYOO 050200Z AUTO 12011G17KT 9SM BKN150 OVC180 09/01 A2994 RMK SLP145<br><br>
CYOO has no TAF <br><br>
<br><br>
CYTR 050300Z 15006KT 15SM OVC100 09/03 A3000 RMK AC8 SLP161<br><br>
CYTR 050207Z 14012KT 15SM -SHRA OVC100 09/03 A3002 RMK AC8 SLP168<br><br>
CYTR 050200Z CCA 15012G19KT 15SM OVC100 09/02 A3003 RMK AC8 SLP172<br><br>
TAF CYTR 042330Z 0500/0524 14008KT P6SM OVC120 TEMPO 0508/0510 P6SM -SHRA BKN030 OVC100 FM051000 16015KT P6SM -RA SCT015 OVC025 TEMPO 0510/0521 3SM -RA BR SCT008 OVC015 FM052100 24015G25KT P6SM SCT015 BKN025 TEMPO 0521/0524 P6SM -SHRA BKN015 OVC025 RMK NXT FCST BY 050600Z<br><br>
<br><br>
