RETRIEVED AT : Oct 16 2017 07:10 Local <br>
  RETRIEVED AT: Oct 16 2017 11:10 UTC<br><br>
CYSN 161100Z 35007KT 15SM OVC030 08/03 A3014 RMK SC8 SLP208<br><br>
CYSN has no TAF <br><br>
<br><br>
CYHM 161100Z 28005KT 15SM FEW028 FEW035 03/02 A3015 RMK CU1SC1 CU TR SC TR SLP217<br><br>
CYHM 161000Z 30004KT 15SM FEW024 04/02 A3014 RMK SC1 SC TR SLP211<br><br>
TAF CYHM 160538Z 1606/1706 31010G20KT P6SM SCT025 TEMPO 1606/1612 BKN020 BECMG 1606/1608 32010KT FM161600 31010G20KT P6SM FEW030 BECMG 1622/1624 30008KT BECMG 1701/1703 VRB03KT RMK NXT FCST BY 161200Z<br><br>
<br><br>
KIAG 161053Z 36007KT 10SM OVC046 08/02 A3013 RMK AO2 SLP205 T00830022<br><br>
KIAG 160953Z AUTO 36007KT 10SM BKN036 OVC045 09/02 A3011 RMK AO2 SLP200 T00890022<br><br>
KIAG 160901Z 1609/1706 36006KT P6SM OVC030 FM161400 31010KT P6SM BKN035 FM162000 30008KT P6SM SCT040 FM170200 VRB03KT P6SM SKC<br><br>
<br><br>
KBUF 161054Z 34005KT 10SM FEW033 BKN045 07/03 A3012 RMK AO2 SLP203 T00720028 $<br><br>
KBUF 160954Z 34005KT 10SM OVC033 08/03 A3011 RMK AO2 SLP199 T00780033 $<br><br>
KBUF 160947Z 32004KT 10SM OVC031 08/03 A3011 RMK AO2 T00780033 $<br><br>
KBUF 160901Z 1609/1706 34008KT P6SM OVC030 FM161400 32010KT P6SM BKN035 FM162000 30008KT P6SM SCT040 FM170000 VRB03KT P6SM SKC<br><br>
<br><br>
CYYZ 161100Z 33009KT 15SM FEW025 BKN030 05/01 A3015 RMK CU1SC5 SLP213<br><br>
CYYZ 161000Z 32006KT 15SM FEW025 BKN035 05/02 A3013 RMK CU1SC5 CU TR SLP209<br><br>
CYYZ 160924Z 33007KT 15SM FEW034 BKN043 06/02 A3012 RMK CU1SC5 SLP203<br><br>
TAF CYYZ 160838Z 1609/1712 34012KT P6SM BKN030 TEMPO 1609/1616 BKN020 FM161600 33012G22KT P6SM BKN030 FM162200 32010G20KT P6SM FEW040 BECMG 1623/1624 32010KT BECMG 1701/1703 VRB03KT FM170500 25008KT P6SM BKN030 RMK NXT FCST BY 161200Z<br><br>
<br><br>
CYOO 161103Z AUTO 30004KT 9SM SCT023 SCT027 03/01 A3014 RMK SLP210<br><br>
CYOO 161102Z AUTO 30004KT 9SM BKN023 04/01 A3014 RMK SLP210<br><br>
CYOO 161101Z AUTO 30004KT 9SM SCT023 BKN027 04/01 A3014 RMK SLP210<br><br>
CYOO 161100Z AUTO 30004KT 9SM BKN023 04/01 A3014 RMK SLP210<br><br>
CYOO 161040Z AUTO 29004KT 9SM BKN023 BKN028 04/02 A3014 RMK SLP209<br><br>
CYOO 161000Z AUTO 28003KT 9SM BKN027 05/02 A3012 RMK SLP203<br><br>
CYOO has no TAF <br><br>
<br><br>
CYTR 161100Z 30003KT 15SM BKN028 BKN047 05/01 A3012 RMK SC5SC2 SLP202<br><br>
CYTR 161000Z 36005KT 15SM OVC028 05/01 A3010 RMK SC8 SLP194<br><br>
TAF CYTR 160530Z 1606/1706 32010G20KT P6SM SCT020 BKN030 TEMPO 1606/1615 BKN020 OVC030 BECMG 1613/1615 32012KT FM162000 32012KT P6SM SCT050 FM170000 30005KT P6SM FEW080 RMK NXT FCST BY 161200Z<br><br>
<br><br>
