RETRIEVED AT : Sep 13 2019 18:16 Local <br>
  RETRIEVED AT: Sep 13 2019 22:16 UTC<br><br>
CYSN 132200Z 17014G20KT 15SM SCT120 OVC190 23/18 A3006 RMK AC3CI5 SLP179 DENSITY ALT 1200FT<br><br>
CYSN 132100Z 16012G22KT 15SM FEW050 SCT075 OVC200 23/18 A3008 RMK SC2AC1CI5 SLP186 DENSITY ALT 1200FT<br><br>
TAF CYSN 131942Z 1320/1401 16012G22KT P6SM FEW040 SCT080 OVC250 PROB40 1400/1401 VRB20G35KT 1SM +TSRA BR BKN008 OVC020CB RMK NXT FCST WILL BE ISSUED AT 141245Z<br><br>
<br><br>
CYHM 132200Z 16016KT 15SM FEW020 BKN250 22/19 A3006 RMK CF1CI5 SLP180 DENSITY ALT 1600FT<br><br>
CYHM 132100Z 15011G20KT 15SM FEW017 FEW041 OVC180 23/20 A3008 RMK CF1SC2AC6 CF TR SLP186 DENSITY ALT 1700FT<br><br>
TAF AMD CYHM 132014Z 1320/1418 14012G22KT P6SM FEW020 SCT040 BKN180 FM140000 16012G22KT P6SM BKN040 BKN090 OVC160 TEMPO 1400/1403 VRB20G35KT 1SM +TSRA BR BKN005 OVC015CB FM140300 22012G25KT P6SM OVC012 TEMPO 1403/1408 BKN005 OVC010 BECMG 1405/1407 25012KT FM140800 25010KT P6SM BKN010 BKN040 FM141000 25010KT P6SM BKN012 FM141500 25015G25KT P6SM BKN020 RMK NXT FCST BY 140000Z<br><br>
<br><br>
KIAG 132153Z 17015G20KT 10SM CLR 22/16 A3009 RMK AO2 SLP189 T02170156<br><br>
KIAG 132053Z 16013KT 10SM FEW050 22/16 A3011 RMK AO2 SLP195 T02220161 56027<br><br>
KIAG 132051Z 1321/1418 15015G23KT P6SM FEW100 BKN250 FM140400 19016G27KT P6SM OVC030 FM140800 22016KT 6SM -SHRA OVC035 FM141100 26013KT P6SM BKN025 FM141400 26013KT P6SM SCT200<br><br>
<br><br>
KBUF 132154Z 15011KT 10SM FEW060 FEW100 SCT200 BKN280 21/15 A3012 RMK AO2 SLP199 T02110150<br><br>
KBUF 132054Z 15017G23KT 10SM FEW025 FEW060 FEW100 SCT180 BKN270 21/15 A3013 RMK AO2 SLP203 T02110150 58023<br><br>
KBUF 132051Z 1321/1418 14016G20KT P6SM SCT060 SCT150 BKN250 FM140800 22015KT 6SM -SHRA OVC035 FM141100 26013KT P6SM OVC020 FM141500 26013G19KT P6SM SCT015<br><br>
<br><br>
CYYZ 132200Z 14012G21KT 15SM FEW025 FEW050 SCT150 OVC200 22/18 A3005 RMK SC1SC1AC1CI5 SLP178 DENSITY ALT 1400FT<br><br>
CYYZ 132100Z 12009G16KT 15SM OVC028 21/18 A3008 RMK SC8 SLP187 DENSITY ALT 1300FT<br><br>
TAF CYYZ 132038Z 1321/1424 12012G22KT P6SM BKN020 OVC040 TEMPO 1321/1324 SCT025 BKN040 OVC200 FM140000 18015G25KT P6SM SCT025 BKN040 OVC140 TEMPO 1400/1403 VRB20G35KT 1SM +TSRA BR BKN005 OVC015CB FM140300 22012G22KT P6SM OVC012 TEMPO 1403/1407 BKN007 OVC010 FM140800 25010KT P6SM BKN015 TEMPO 1408/1411 SCT015 FM141100 26012KT P6SM BKN015 FM141600 26015G25KT P6SM BKN025 FM142300 26012KT P6SM SCT030 RMK NXT FCST BY 140000Z<br><br>
<br><br>
CYOO 132200Z AUTO 11016KT 9SM BKN033 OVC043 19/15 A3009 RMK SLP193 DENSITY ALT 800FT<br><br>
CYOO 132100Z AUTO 11014G21KT 9SM SCT028 OVC039 19/15 A3011 RMK SLP200 DENSITY ALT 800FT<br><br>
TAF CYOO 131939Z 1320/1408 11015G25KT P6SM BKN025 OVC040 TEMPO 1320/1401 P6SM -SHRA OVC020 FM140100 14012G22KT P6SM OVC015 TEMPO 1401/1405 4SM SHRA BR BKN007 OVC015 PROB30 1401/1403 VRB20G35KT 2SM TSRA BR BKN005 OVC015CB FM140500 20012G22KT P6SM OVC012 TEMPO 1405/1408 BKN007 OVC010 RMK FCST BASED ON AUTO OBS. NXT FCST BY 140200Z<br><br>
<br><br>
CYTR 132200Z 15015G21KT 15SM OVC031 20/14 A3017 RMK SC8 SLP219<br><br>
CYTR 132100Z 14011G18KT 15SM OVC031 20/14 A3019 RMK SC8 SLP225<br><br>
TAF CYTR 131730Z 1318/1418 16010G20KT P6SM BKN030 BKN160 OVC230 BECMG 1319/1321 16015G25KT FM132100 16015G25KT P6SM BKN030 OVC050 TEMPO 1321/1402 P6SM -SHRA FM140200 17015G25KT 5SM -SHRA BR SCT008 OVC020 PROB30 1402/1406 VRB20G30KT 2SM TSRA BR BKN008 OVC060CB FM140800 20015KT 4SM -DZ BR BKN010 FM141300 23012KT P6SM SCT015 BKN030 FM141500 24012G22KT P6SM SCT030 RMK NXT FCST BY 140000Z<br><br>
<br><br>
