RETRIEVED AT : Jun 10 2018 07:05 Local <br>
  RETRIEVED AT: Jun 10 2018 11:05 UTC<br><br>
CYSN has no TAF <br><br>
<br><br>
CYHM 101000Z 04012G17KT 15SM SCT120 BKN150 BKN250 15/09 A3004 RMK AC4AC2CI1 SLP175 DENSITY ALT 900FT<br><br>
TAF CYHM 100538Z 1006/1106 05008KT P6SM BKN080 FM101700 05012G22KT P6SM SCT080 BECMG 1100/1102 06012KT RMK NXT FCST BY 101200Z<br><br>
<br><br>
KIAG 100901Z 1009/1106 08007KT P6SM OVC110 FM101500 10010G17KT P6SM BKN200 FM102200 09010KT P6SM SCT200 FM110300 09006KT P6SM FEW250<br><br>
<br><br>
KBUF 100901Z 1009/1106 10007KT P6SM BKN120 FM101600 11010G16KT P6SM BKN130 FM110100 09007KT P6SM SCT250<br><br>
<br><br>
CYYZ 101000Z 08009KT 15SM BKN180 17/10 A3007 RMK AC7 SLP183 DENSITY ALT 800FT<br><br>
TAF CYYZ 100838Z 1009/1112 06008KT P6SM BKN220 FM101200 08010KT P6SM FEW040 BKN220 FM101600 10012G22KT P6SM FEW050 SCT220 FM102200 09012KT P6SM FEW240 BECMG 1023/1101 07008KT RMK NXT FCST BY 101200Z<br><br>
<br><br>
CYOO 101000Z AUTO 08009KT 9SM CLR 16/04 A3009 RMK SLP189<br><br>
CYOO has no TAF <br><br>
<br><br>
CYTR 101000Z 04005KT 15SM FEW050 FEW180 10/07 A3011 RMK SC1AC2 SLP197<br><br>
TAF CYTR 100530Z 1006/1106 VRB03KT P6SM SCT200 BECMG 1010/1012 08010KT BECMG 1022/1024 06005KT RMK NXT FCST BY 101200Z<br><br>
<br><br>
