RETRIEVED AT : Oct 31 2017 08:10 Local <br>
  RETRIEVED AT: Oct 31 2017 12:10 UTC<br><br>
CYSN 311200Z 24011KT 15SM BKN088 06/M01 A2984 RMK AC7 SLP107<br><br>
CYSN 311100Z 25013G19KT 15SM BKN075 06/M02 A2982 RMK AC7 SLP103<br><br>
CYSN has no TAF <br><br>
<br><br>
CYHM 311200Z 25015KT 15SM FEW025 BKN078 05/M01 A2983 RMK SC1AC6 SLP110<br><br>
CYHM 311100Z 24015G27KT 15SM FEW062 BKN072 04/M01 A2981 RMK SC2AC4 SLP103<br><br>
TAF CYHM 311138Z 3112/0112 24015G25KT P6SM BKN030 TEMPO 3112/3116 BKN020 FM311600 25020G30KT P6SM BKN040 BECMG 3120/3121 23015KT BECMG 0100/0102 23008KT FM010600 20007KT P6SM BKN030 OVC150 TEMPO 0106/0112 5SM -SHRASN OVC020 RMK NXT FCST BY 311800Z<br><br>
<br><br>
KIAG 311153Z 25006KT 10SM BKN065 OVC080 06/M02 A2984 RMK AO2 SLP113 70005 T00611017 10067 20056 51016<br><br>
KIAG 311053Z 24009KT 10SM OVC060 06/M01 A2983 RMK AO2 SLP109 T00611011<br><br>
KIAG 311120Z 3112/0112 25015KT P6SM BKN080 FM312200 26013KT P6SM FEW250 FM010100 25008KT P6SM BKN060<br><br>
<br><br>
KBUF 311154Z 20009KT 10SM FEW030 OVC060 04/02 A2986 RMK AO2 SLP118 70091 T00390017 10061 20039 53017<br><br>
KBUF 311054Z 25011KT 10SM FEW030 OVC065 06/M02 A2984 RMK AO2 SLP110 T00561017<br><br>
KBUF 311120Z 3112/0112 25015KT P6SM VCSH BKN025 FM311300 25014KT 4SM RA BKN007 FM311700 25017KT P6SM BKN025 FM311900 25016KT P6SM BKN200 FM010100 25008KT P6SM VCSH OVC040<br><br>
<br><br>
CYYZ 311200Z 25018KT 15SM -RA FEW020 BKN040 05/M00 A2982 RMK SC2SC5 SLP103<br><br>
CYYZ 311100Z 23013KT 15SM FEW028 BKN035 BKN060 05/M00 A2980 RMK CF2SC3SC2 SLP097<br><br>
TAF CYYZ 311138Z 3112/0118 24012G22KT P6SM SCT020 BKN050 TEMPO 3112/3115 P6SM -SHRA BKN020 OVC050 FM311500 26020G30KT P6SM BKN040 BECMG 3120/3122 24012G22KT FM010200 23008KT P6SM SCT030 FM010600 20008KT P6SM BKN030 OVC150 TEMPO 0106/0115 5SM -SHRASN OVC020 RMK NXT FCST BY 311500Z<br><br>
<br><br>
CYOO 311200Z AUTO 24006KT 9SM CLR 04/M00 A2980 RMK SLP097<br><br>
CYOO 311100Z AUTO 23007KT 9SM CLR 04/M00 A2978 RMK SLP091<br><br>
CYOO has no TAF <br><br>
<br><br>
CYTR 311200Z 24012G17KT 15SM BKN077 05/M00 A2979 RMK AC5 SLP091<br><br>
CYTR 311100Z 26012KT 15SM FEW056 05/00 A2976 RMK SC2 SLP079<br><br>
TAF AMD CYTR 311202Z 3112/0112 25015G25KT P6SM FEW060 FM311300 25022G35KT P6SM FEW025 BECMG 3118/3120 25015G25KT FM312100 25012G22KT P6SM BKN050 TEMPO 3121/3123 P6SM -SHRA BKN030 FM312300 26005KT P6SM SCT050 BKN200 BECMG 0100/0102 VRB03KT FM010500 VRB03KT P6SM SCT020 BKN050 TEMPO 0105/0112 5SM -SHRA BR BKN020 OVC050 BECMG 0107/0109 23005KT RMK NXT FCST BY 311800Z<br><br>
<br><br>
