RETRIEVED AT : Oct 22 2017 01:10 Local <br>
  RETRIEVED AT: Oct 22 2017 05:10 UTC<br><br>
CYSN has no TAF <br><br>
<br><br>
CYHM 220500Z 17005KT 15SM BKN230 12/09 A3021 RMK CI5 SLP232<br><br>
CYHM 220400Z 18003KT 15SM BKN250 13/09 A3021 RMK CI5 SLP233<br><br>
TAF CYHM 212338Z 2200/2224 19005KT P6SM FEW150 BKN240 BECMG 2200/2202 16006KT FM220800 20007KT P6SM SCT220 PROB30 2208/2214 3/4SM BR FM221400 20012G22KT P6SM SCT240 RMK NXT FCST BY 220600Z<br><br>
<br><br>
KIAG 220453Z AUTO 00000KT 10SM CLR 14/08 A3022 RMK AO2 SLP235 T01390078 402330078<br><br>
KIAG 220353Z AUTO 15004KT 10SM CLR 15/08 A3022 RMK AO2 SLP234 T01500078<br><br>
KIAG 220230Z 2203/2224 17004KT P6SM BKN250 FM221000 18005KT P6SM SCT250 FM221500 17007KT P6SM BKN250<br><br>
<br><br>
KBUF 220454Z 16004KT 10SM OVC230 14/07 A3023 RMK AO2 SLP237 T01440067 402280078<br><br>
KBUF 220354Z 17004KT 10SM SCT250 15/07 A3024 RMK AO2 SLP239 T01500072<br><br>
KBUF 220230Z 2203/2224 17006KT P6SM BKN250 FM221000 17006KT P6SM SCT250 FM221500 18008KT P6SM BKN250<br><br>
<br><br>
CYYZ 220500Z 06004KT 15SM SKC 13/11 A3021 RMK SLP232<br><br>
CYYZ 220400Z 02002KT 15SM BKN270 14/12 A3022 RMK CI5 SLP234<br><br>
TAF CYYZ 220238Z 2203/2306 11003KT P6SM BKN240 BECMG 2205/2207 SCT240 FM221200 14006KT P6SM SCT240 FM221500 18012G22KT P6SM SCT240 FM230200 19012KT P6SM BKN240 RMK NXT FCST BY 220600Z<br><br>
<br><br>
CYOO 220500Z AUTO 36002KT 9SM SCT220 BKN240 09/08 A3022 RMK SLP238<br><br>
CYOO 220400Z AUTO VRB02KT 9SM SCT220 09/08 A3022 RMK SLP238<br><br>
CYOO has no TAF <br><br>
<br><br>
CYTR 220500Z 06003KT 15SM BKN250 07/07 A3025 RMK CI5 SLP245<br><br>
CYTR 220400Z 00000KT 15SM BKN250 08/07 A3024 RMK CI5 SLP244<br><br>
TAF CYTR 212330Z 2200/2224 VRB03KT P6SM SCT140 OVC250 BECMG 2213/2215 20008KT RMK NXT FCST BY 220600Z<br><br>
<br><br>
