RETRIEVED AT : Oct 27 2018 21:05 Local <br>
  RETRIEVED AT: Oct 28 2018 01:05 UTC<br><br>
CYSN 280000Z 06014G19KT 10SM -RA OVC007 04/04 A2980 RMK SF8 SLP096<br><br>
TAF AMD CYSN 272342Z 2723/2801 06012G22KT 5SM -RA BR OVC007 TEMPO 2723/2801 P6SM -RA OVC012 RMK NXT FCST WILL BE ISSUED AT 281245Z<br><br>
<br><br>
CYHM 280044Z 04017KT 8SM -RA OVC005 02/01 A2980 RMK SC8 SLP101<br><br>
CYHM 280000Z 04018G26KT 8SM OVC006 02/01 A2980 RMK SC8 SLP101<br><br>
TAF AMD CYHM 280049Z 2800/2824 04012G22KT 2SM -RA BR OVC004 TEMPO 2800/2807 6SM -RASN BR OVC006 FM280700 01008KT 5SM -RASN BR OVC008 FM281200 33005KT 6SM -RASN BR SCT008 OVC012 FM281500 23005KT P6SM -RA BKN010 OVC040 FM281900 23005KT P6SM BKN015 OVC040 BECMG 2820/2822 17005KT FM282300 07005KT P6SM -RA OVC015 RMK NXT FCST BY 280600Z<br><br>
<br><br>
KIAG 280053Z 05012KT 7SM -RA OVC008 03/02 A2979 RMK AO2 CIG 006V012 SLP098 P0003 T00330017<br><br>
KIAG 280000Z 04011KT 9SM -RA OVC008 03/02 A2979 RMK AO2 CIG 006V010 P0001 T00330022<br><br>
KIAG 272353Z 05013KT 7SM -RA BKN006 OVC010 03/02 A2979 RMK AO2 SLP099 P0001 60013 T00330022 10050 20033 53003<br><br>
KIAG 272322Z 2800/2824 04014G22KT 6SM -RA BR OVC007 FM280400 02009KT 5SM -RA BR OVC007 FM280900 32004KT 6SM -SHRA BR OVC007 FM281300 VRB03KT P6SM VCSH OVC007 FM281700 25008KT P6SM OVC012 FM282100 22008KT P6SM OVC020<br><br>
<br><br>
KBUF 280054Z 03010KT 7SM -RA OVC006 03/03 A2977 RMK AO2 SLP087 P0004 T00330028<br><br>
KBUF 272354Z 03011KT 7SM -RA OVC007 04/03 A2977 RMK AO2 CIG 004V009 SLP088 P0001 60019 T00390033 10039 20028 53000<br><br>
KBUF 272324Z 04006KT 4SM -RA BR OVC008 04/03 A2977 RMK AO2 CIG 005V013 P0000 T00390033<br><br>
KBUF 272322Z 2800/2824 05012KT 5SM -RA BR OVC007 FM280400 02009KT 5SM -RA BR OVC007 FM280900 32006KT 6SM -SHRA BR OVC007 FM281300 26005KT P6SM VCSH OVC007 FM281800 25009KT P6SM OVC012 FM282000 21009KT P6SM OVC012<br><br>
<br><br>
CYYZ 280021Z 02008KT 5SM -SN OVC009 01/M01 A2984 RMK SF8 CIG VRB 6-12 SLP114<br><br>
CYYZ 280008Z 02009KT 5SM -RASN FEW005 OVC008 01/M01 A2985 RMK SF2SC6 SLP115<br><br>
CYYZ 280000Z 03010KT 6SM -RASN SCT008 OVC012 02/M01 A2984 RMK SF3SC5 SLP113<br><br>
CYYZ 272313Z 05009KT 10SM -RASN OVC016 02/M00 A2984 RMK SC8 SLP112<br><br>
TAF CYYZ 272338Z 2800/2906 05010G20KT P6SM -RASN SCT008 OVC020 TEMPO 2800/2801 2SM -SHSNRAPL BR BKN008 OVC020 FM280100 04010G20KT 6SM -SNRA OVC015 TEMPO 2801/2806 2SM -SN BR BKN008 OVC015 FM280600 02010KT 6SM -SNRA SCT008 OVC015 TEMPO 2806/2812 5SM -SNRA BR BKN008 OVC015 BECMG 2806/2808 35008KT FM281200 33008KT 6SM -SNRA SCT008 OVC015 FM281400 30005KT P6SM -RA SCT008 OVC030 TEMPO 2814/2816 6SM -RASN BKN008 OVC030 FM281600 27007KT P6SM -RA BKN015 OVC050 FM281900 23008KT P6SM BKN020 OVC050 BECMG 2820/2822 VRB03KT FM290000 VRB03KT P6SM BKN020 BKN120 TEMPO 2900/2906 P6SM -SHRA RMK NXT FCST BY 280300Z<br><br>
<br><br>
CYOO 280050Z AUTO 03007KT 9SM -SN -UP OVC025 01/01 A2983 RMK SLP109<br><br>
CYOO 280044Z AUTO 03009KT 9SM -RA -UP OVC025 01/01 A2984 RMK SLP110<br><br>
CYOO 280010Z AUTO 02008KT 9SM -RA OVC025 01/01 A2984 RMK SLP111<br><br>
CYOO 280004Z AUTO 02008KT 9SM -RA -UP OVC025 01/01 A2984 RMK SLP112<br><br>
CYOO 280000Z AUTO 02008KT 9SM -UP OVC025 01/01 A2984 RMK PCPN 1.0MM PAST HR SLP111<br><br>
CYOO 272359Z AUTO 02007KT 9SM -UP OVC025 01/01 A2984 RMK PCPN 1.0MM PAST HR SLP112<br><br>
CYOO 272349Z AUTO 02008KT 350V050 9SM -SN -UP OVC023 01/01 A2984 RMK SLP112<br><br>
CYOO 272346Z AUTO 02008KT 9SM -UP OVC023 01/01 A2984 RMK SLP112<br><br>
CYOO 272340Z AUTO 01008KT 9SM -SN -UP OVC023 01/01 A2984 RMK SLP112<br><br>
CYOO 272326Z AUTO 02007KT 6SM -SN OVC023 01/01 A2984 RMK SLP112<br><br>
CYOO has no TAF <br><br>
<br><br>
CYTR 280051Z CCA 04011KT 3SM -RAPL BR OVC010 01/01 A2985 RMK SF8 SLP111<br><br>
CYTR 280013Z CCA 03011KT 5SM -RA BR BKN010 OVC040 01/00 A2985 RMK SF5SC3 SLP113<br><br>
CYTR 280000Z 04010G16KT 7SM -PL SCT009 OVC040 01/00 A2985 RMK SF4SC4 PCPN VRY LGT SLP113<br><br>
CYTR 272344Z 04011KT 6SM -PL SCT009 OVC020 01/00 A2986 RMK SF4SC4 SLP114<br><br>
CYTR 272328Z 04014KT 6SM -RAPL SCT008 OVC044 01/00 A2985 RMK SF3SC5 SLP113<br><br>
CYTR 272315Z 03011G16KT 6SM -RA SCT015 OVC044 01/00 A2985 RMK SF3SC5 SLP112<br><br>
TAF AMD CYTR 272332Z 2800/2824 03012KT P6SM -RA SCT008 OVC025 TEMPO 2800/2803 2SM -SNRAPL BR OVC008 FM280300 03010KT P6SM -SNRA SCT008 OVC020 TEMPO 2803/2812 2SM -SN BKN008 OVC020 BECMG 2803/2805 03010KT FM281200 34005KT P6SM BKN015 OVC030 BECMG 2816/2818 24005KT RMK NXT FCST BY 280600Z<br><br>
<br><br>
