RETRIEVED AT : Jul 05 2020 12:05 Local <br>
  RETRIEVED AT: Jul 05 2020 16:05 UTC<br><br>
CYSN 051500Z 31005KT 280V360 15SM BKN180 28/17 A2998 RMK AC7 SLP153 DENSITY ALT 1800FT<br><br>
TAF CYSN 051238Z 0513/0601 21006KT P6SM SCT250 BECMG 0514/0516 30008KT BECMG 0523/0601 07006KT RMK NXT FCST BY 052000Z<br><br>
<br><br>
CYHM 051500Z 28007KT 220V310 15SM BKN270 27/14 A3002 RMK CI7 SLP162 DENSITY ALT 2300FT<br><br>
TAF CYHM 051139Z 0512/0612 24007KT P6SM SCT250 BECMG 0517/0519 30007KT FM060000 36007KT P6SM FEW080 FM060300 VRB03KT P6SM SKC BECMG 0608/0610 05005KT RMK NXT FCST BY 051800Z<br><br>
<br><br>
KIAG 051553Z 27008KT 10SM CLR 29/14 A3000 RMK AO2 SLP153 T02890139<br><br>
KIAG 051453Z 23005KT 10SM CLR 27/16 A3000 RMK AO2 SLP153 T02720161 56003<br><br>
KIAG 051404Z 0514/0612 23006KT P6SM BKN250 FM051700 26008KT P6SM SCT250 FM052300 22005KT P6SM SCT250<br><br>
<br><br>
KBUF 051554Z 23005KT 10SM SCT180 BKN220 BKN270 29/12 A3002 RMK AO2 SLP160 T02940122<br><br>
KBUF 051454Z 25007KT 10SM SCT180 BKN230 BKN280 28/13 A3001 RMK AO2 SLP156 T02830133 57005<br><br>
KBUF 051404Z 0514/0612 23006KT P6SM BKN250 FM051700 25010KT P6SM SCT250 FM052300 22005KT P6SM SCT250<br><br>
<br><br>
CYYZ 051500Z 30006KT 240V310 15SM BKN250 29/09 A3000 RMK CI7 SLP156 DENSITY ALT 2300FT<br><br>
TAF CYYZ 051438Z 0515/0618 VRB03KT P6SM BKN250 BECMG 0516/0518 16010KT FM060100 36005KT P6SM SKC BECMG 0609/0611 07005KT BECMG 0615/0617 14010KT RMK NXT FCST BY 051800Z<br><br>
<br><br>
CYOO 051500Z AUTO VRB05KT 9SM CLR 28/13 A2999 RMK SLP154 DENSITY ALT 1900FT<br><br>
TAF CYOO 051338Z 0514/0602 VRB03KT P6SM BKN250 BECMG 0514/0516 32010KT FM060000 36005KT P6SM SKC RMK FCST BASED ON AUTO OBS. NXT FCST BY 052000Z<br><br>
<br><br>
CYTR 051500Z 21008KT 15SM FEW110 OVC250 27/15 A2996 RMK AC2CI6 SLP145<br><br>
TAF CYTR 051131Z 0512/0612 VRB03KT P6SM SCT030 BKN120 TEMPO 0512/0513 P6SM -SHRA FM051300 VRB03KT P6SM SCT200 BECMG 0515/0517 23010KT FM052000 28010G20KT P6SM SCT030 BKN200 FM060300 33008KT P6SM SCT060 BKN150 BECMG 0607/0609 VRB03KT RMK NXT FCST BY 051800Z<br><br>
<br><br>
