RETRIEVED AT : Jun 12 2020 07:05 Local <br>
  RETRIEVED AT: Jun 12 2020 11:05 UTC<br><br>
CYSN has no TAF <br><br>
<br><br>
TAF CYHM 120544Z 1206/1306 26012KT P6SM BKN070 BECMG 1207/1209 29010KT FM120900 29010KT P6SM FEW050 BECMG 1212/1214 30012G22KT FM130100 32008KT P6SM SKC BECMG 1304/1306 VRB03KT RMK NXT FCST BY 121200Z<br><br>
<br><br>
KIAG 120923Z 1209/1306 25009KT P6SM FEW150 FM121500 28012G18KT P6SM SCT060 FM130000 33008KT P6SM FEW250<br><br>
<br><br>
KBUF 120923Z 1209/1306 24008KT P6SM SCT100 FM121200 28009KT P6SM SCT200 FM121500 27011G18KT P6SM SCT060 FM122300 31010KT P6SM FEW250<br><br>
<br><br>
TAF CYYZ 120838Z 1209/1312 30012KT P6SM SCT060 BECMG 1209/1211 31012G22KT FM121900 32015KT P6SM BKN050 FM122300 34012KT P6SM FEW100 BECMG 1300/1302 01010KT RMK NXT FCST BY 121200Z<br><br>
<br><br>
TAF CYOO 120738Z 1208/1220 31008KT P6SM SCT100 BECMG 1210/1212 30012G22KT RMK FCST BASED ON AUTO OBS. NXT FCST BY 121400Z<br><br>
<br><br>
TAF CYTR 120530Z 1206/1306 22008KT P6SM SKC BECMG 1207/1209 28008KT BKN060 FM121300 27012G22KT P6SM SCT030 BECMG 1213/1215 28015G25KT BECMG 1221/1223 30010KT RMK NXT FCST BY 121200Z<br><br>
<br><br>
