RETRIEVED AT : Sep 01 2018 19:05 Local <br>
  RETRIEVED AT: Sep 01 2018 23:05 UTC<br><br>
CYSN 012200Z 20011KT 15SM BKN250 29/20 A3005 RMK CI7 SLP177 DENSITY ALT 1900FT<br><br>
TAF CYSN 011938Z 0120/0201 19012KT P6SM FEW030 FM012300 VRB03KT P6SM SKC RMK NXT FCST WILL BE ISSUED AT 021245Z<br><br>
<br><br>
CYHM 012200Z 20009KT 15SM FEW030 FEW180 BKN250 28/21 A3008 RMK CU1AC1CI5 SLP185 DENSITY ALT 2300FT<br><br>
TAF CYHM 011743Z 0118/0218 20010G20KT P6SM SCT030 BECMG 0122/0124 20007KT FM020600 20010KT P6SM -SHRA BKN050 PROB30 0207/0209 2SM +TSRA BR BKN020 BKN050CB FM020900 23010KT P6SM SCT010 BKN030 FM021500 22010G20KT P6SM -SHRA BKN025 RMK NXT FCST BY 020000Z<br><br>
<br><br>
KIAG 012253Z 20007KT 10SM CLR 28/18 A3008 RMK AO2 SLP183 T02830183<br><br>
KIAG 012153Z 19007KT 10SM CLR 29/19 A3008 RMK AO2 SLP182 T02890189<br><br>
KIAG 012106Z 0121/0218 20010KT P6SM FEW040 BKN250 FM020000 18005KT P6SM BKN250 FM020300 19008KT P6SM BKN060 FM021400 22015G21KT P6SM BKN060 FM021700 22017G23KT P6SM SCT060 BKN150<br><br>
<br><br>
KBUF 012254Z 19007KT 10SM CLR 28/18 A3009 RMK AO2 SLP185 T02830183<br><br>
KBUF 012154Z 19008KT 10SM FEW043 BKN230 29/17 A3009 RMK AO2 SLP185 T02940167<br><br>
KBUF 012106Z 0121/0218 21010KT P6SM FEW040 BKN250 FM020000 18006KT P6SM BKN250 FM020300 19010KT P6SM BKN060 FM021400 23015G21KT P6SM BKN060 FM021700 23017G23KT P6SM SCT060 BKN150<br><br>
<br><br>
CYYZ 012200Z 14010KT 15SM FEW040 BKN200 26/21 A3006 RMK CU1CI7 CU TR SLP180 DENSITY ALT 1800FT<br><br>
TAF CYYZ 012038Z 0121/0224 16010KT P6SM FEW040 BECMG 0201/0203 20008KT FM020600 22008KT P6SM -SHRA BKN040 PROB30 0207/0209 VRB15G25KT 2SM +TSRA BR BKN020CB FM020900 23008KT P6SM SCT010 BKN025 FM021200 23010KT P6SM -SHRA BKN015 FM021400 23012KT P6SM SCT015 BKN025 FM021700 23012G22KT P6SM -SHRA BKN030 PROB30 0217/0219 VRB15G25KT 1SM +TSRA BR BKN015 OVC030CB FM021900 26010G20KT P6SM BKN040 BECMG 0222/0224 26008KT RMK NXT FCST BY 020000Z<br><br>
<br><br>
CYOO 012200Z AUTO 12007KT 9SM CLR 25/21 A3007 RMK SLP185 DENSITY ALT 1500FT<br><br>
CYOO has no TAF <br><br>
<br><br>
CYTR 012200Z 15006KT 15SM FEW030 FEW100 BKN240 26/21 A3009 RMK SC1AC1CI6 SLP188<br><br>
TAF CYTR 011730Z 0118/0218 20008KT P6SM FEW030 SCT080 BKN240 BECMG 0122/0124 18005KT FM020900 18005KT P6SM BKN030 OVC080 TEMPO 0209/0218 P6SM -SHRA BKN020 OVC030 BECMG 0214/0216 22010G20KT RMK NXT FCST BY 020000Z<br><br>
<br><br>
