RETRIEVED AT : Oct 28 2018 12:05 Local <br>
  RETRIEVED AT: Oct 28 2018 16:05 UTC<br><br>
CYSN 281500Z 25007KT 6SM BR OVC007 03/03 A2974 RMK SC8 SLP075<br><br>
TAF AMD CYSN 281324Z 2813/2901 27005KT 5SM -RA -DZ BR OVC006 TEMPO 2813/2817 P6SM NSW OVC010 FM281700 26007KT 11/2SM -RA -DZ BR OVC005 TEMPO 2817/2819 6SM -RA BR OVC010 FM281900 24008KT P6SM -RA BKN015 BKN050 TEMPO 2819/2822 P6SM NSW SCT012 BKN050 FM282200 22008KT P6SM OVC015 TEMPO 2823/2824 P6SM -SHRA FM290000 VRB03KT P6SM -SHRA OVC015 RMK NXT FCST BY 282000Z<br><br>
<br><br>
CYHM 281500Z 24008KT 6SM -DZ BR BKN007 OVC035 03/02 A2972 RMK SF6SC2 SLP075<br><br>
CYHM 281422Z 24007KT 4SM -DZ BR BKN005 OVC035 02/02 A2974 RMK SF5SC3 SLP080<br><br>
TAF CYHM 281145Z 2812/2912 33005KT 1SM -SNRA BR BKN004 OVC012 TEMPO 2812/2815 3SM BR SCT004 OVC015 FM281500 23005KT P6SM -RA -DZ BKN008 OVC025 TEMPO 2815/2819 P6SM NSW SCT010 OVC025 FM281900 23005KT P6SM BKN012 OVC040 TEMPO 2819/2821 SCT012 OVC040 FM282100 VRB03KT P6SM -SHRA OVC015 FM290300 35008KT P6SM OVC025 FM290500 31008KT P6SM SCT020 BKN050 BECMG 2907/2909 27010KT RMK NXT FCST BY 281800Z<br><br>
<br><br>
KIAG 281553Z 27009KT 9SM OVC008 03/02 A2972 RMK AO2 CIG 007V012 SLP077 T00330017<br><br>
KIAG 281509Z 26008KT 7SM OVC007 03/02 A2973 RMK AO2 CIG 004V010 T00330017<br><br>
KIAG 281453Z 27005KT 6SM BR OVC005 03/02 A2973 RMK AO2 SLP079 T00330022 55005<br><br>
KIAG 281502Z 2815/2912 27005KT 6SM -RA BR OVC005 FM281600 27004KT P6SM VCSH OVC007 FM281800 24009KT P6SM VCSH OVC012 FM290100 00000KT 6SM -SHRA OVC012 FM291000 29009KT P6SM VCSH OVC020<br><br>
<br><br>
KBUF 281554Z 26008KT 8SM -DZ BKN005 OVC012 03/03 A2972 RMK AO2 RAE22DZB22 SLP072 P0000 T00330028<br><br>
KBUF 281454Z 24004KT 9SM -RA BKN006 OVC011 03/03 A2973 RMK AO2 DZB25E43RAB43 SLP075 P0001 60001 T00330028 58005<br><br>
KBUF 281502Z 2815/2912 24004KT P6SM -RA BKN006 OVC011 FM281600 25008KT P6SM VCSH OVC012 FM290000 00000KT P6SM VCSH OVC007 FM290100 00000KT 6SM -SHRA OVC007 FM291100 28008KT P6SM VCSH OVC020<br><br>
<br><br>
CYYZ 281603Z 26008KT 10SM -RA OVC012 04/02 A2971 RMK SC8 SLP067<br><br>
CYYZ 281544Z 24004KT 10SM BKN011 OVC042 03/02 A2971 RMK SC6SC2 SLP068<br><br>
CYYZ 281500Z 23006KT 10SM -DZ SCT007 OVC011 03/01 A2973 RMK SC3SC5 SLP073<br><br>
TAF CYYZ 281439Z 2815/2918 26005KT P6SM BKN007 OVC060 TEMPO 2815/2816 SCT007 BKN010 OVC060 FM281545 26007KT P6SM SCT005 OVC012 TEMPO 2815/2818 21/2SM -RA -DZ BR OVC005 FM281800 24005KT P6SM SCT007 BKN012 OVC050 TEMPO 2818/2823 BKN025 OVC050 FM282300 VRB03KT P6SM OVC012 TEMPO 2823/2904 5SM -SHRA BR FM290400 29006KT P6SM SCT020 OVC050 BECMG 2907/2909 27010KT FM291400 29010G20KT P6SM -SHRA OVC025 FM291700 29015G25KT P6SM SCT030 BKN100 RMK NXT FCST BY 281800Z<br><br>
<br><br>
CYOO 281500Z AUTO 22004KT 9SM BKN011 OVC070 03/02 A2972 RMK SLP070<br><br>
CYOO 281441Z AUTO 23004KT 9SM BKN011 OVC070 02/02 A2972 RMK SLP072<br><br>
CYOO 281434Z AUTO 26003KT 9SM BKN009 OVC070 02/02 A2972 RMK SLP072<br><br>
CYOO has no TAF <br><br>
<br><br>
CYTR 281552Z 29002KT 15SM -RASN BKN010 OVC050 03/01 A2972 RMK SF6SC2 SLP067<br><br>
CYTR 281500Z 30003KT 15SM BKN007 BKN027 OVC082 02/01 A2972 RMK SF6SC1AC1 SLP068<br><br>
CYTR 281434Z 30003KT 15SM BKN005 BKN020 OVC095 02/01 A2972 RMK SF5SC2AC1 SLP070<br><br>
CYTR 281408Z 31004KT 15SM -SN BKN021 BKN040 OVC095 02/01 A2973 RMK SC5SC2AC1 PCPN VRY LGT SLP071<br><br>
TAF AMD CYTR 281449Z 2814/2912 VRB03KT P6SM BKN005 OVC020 TEMPO 2814/2816 P6SM -RASN SCT005 OVC020 FM281600 VRB03KT P6SM SCT007 BKN012 OVC025 TEMPO 2816/2821 SCT012 OVC025 BECMG 2816/2818 24005KT FM282100 24005KT P6SM SCT015 OVC025 TEMPO 2821/2903 6SM -RA BR OVC015 FM290300 VRB03KT P6SM SCT020 BKN060 RMK NXT FCST BY 281800Z<br><br>
<br><br>
