RETRIEVED AT : Jul 01 2018 05:06 Local <br>
  RETRIEVED AT: Jul 01 2018 09:06 UTC<br><br>
CYSN has no TAF <br><br>
<br><br>
CYHM 010800Z 23005KT 15SM FEW250 22/21 A3002 RMK CI2 SLP161 DENSITY ALT 1700FT<br><br>
TAF CYHM 010538Z 0106/0206 22008KT P6SM FEW240 BECMG 0114/0116 22015KT BECMG 0200/0202 19008KT RMK NXT FCST BY 011200Z<br><br>
<br><br>
KIAG 010859Z 0109/0206 16004KT P6SM SKC FM011400 22010KT P6SM SCT250 FM020100 20005KT P6SM SCT250<br><br>
<br><br>
KBUF 010854Z 18005KT 10SM CLR 22/21 A3004 RMK AO2 SLP168 T02220206 51009<br><br>
KBUF 010754Z 00000KT 10SM CLR 24/21 A3004 RMK AO2 SLP168 T02390206<br><br>
KBUF 010859Z 0109/0206 19006KT P6SM SKC FM011400 23010KT P6SM SCT250 FM020100 20006KT P6SM SCT250<br><br>
<br><br>
CYYZ 010800Z 19004KT 15SM SKC 26/21 A3000 RMK SLP155 DENSITY ALT 1900FT<br><br>
TAF CYYZ 010839Z 0109/0212 20008KT P6SM FEW240 BECMG 0114/0116 21015KT BECMG 0200/0202 22008KT RMK NXT FCST BY 011200Z<br><br>
<br><br>
CYOO 010800Z AUTO 00000KT 9SM CLR 22/20 A2999 RMK SLP153 DENSITY ALT 1300FT<br><br>
CYOO has no TAF <br><br>
<br><br>
CYTR 010800Z 21006KT 15SM SKC 24/20 A2996 RMK SLP146<br><br>
TAF CYTR 010530Z 0106/0206 22008KT P6SM FEW020 FM011600 24012KT P6SM FEW040 BECMG 0200/0202 VRB03KT RMK NXT FCST BY 011200Z<br><br>
<br><br>
