RETRIEVED AT : May 17 2020 03:05 Local <br>
  RETRIEVED AT: May 17 2020 07:05 UTC<br><br>
CYSN has no TAF <br><br>
<br><br>
CYHM 170600Z 03006KT 15SM BKN220 07/06 A3020 RMK CS5 SLP232<br><br>
TAF CYHM 170538Z 1706/1806 03008KT P6SM SCT200 FM171000 06012KT P6SM SCT040 BKN200 FM171600 05015G25KT P6SM SCT040 BKN120 OVC200 FM172000 05015G25KT P6SM -RA SCT020 BKN040 OVC080 TEMPO 1720/1721 5SM -RA BR BKN020 OVC040 FM180000 06015G25KT 2SM -RA BR OVC006 RMK NXT FCST BY 171200Z<br><br>
<br><br>
KIAG 170653Z AUTO 05004KT 10SM CLR 08/05 A3021 RMK AO2 SLP233 T00780050 $<br><br>
KIAG 170553Z AUTO 08004KT 8SM CLR 08/05 A3020 RMK AO2 SLP232 T00830050 10156 20083 55002 $<br><br>
KIAG 170544Z 1706/1806 09006KT P6SM OVC250 FM171500 08012G20KT P6SM BKN100 FM172000 07012G20KT 6SM -SHRA BKN040 FM172300 08012G20KT 4SM RA BR SCT025 OVC035 FM180300 08012KT 4SM RA OVC015 FM180500 07012KT 2SM RA BR OVC007<br><br>
<br><br>
KBUF 170654Z 06004KT 10SM FEW200 SCT290 09/06 A3020 RMK AO2 SLP228 T00890056<br><br>
KBUF 170554Z 08004KT 10SM FEW200 BKN280 10/06 A3020 RMK AO2 SLP229 T01000056 10167 20100 56003<br><br>
KBUF 170544Z 1706/1806 09006KT P6SM OVC250 FM171500 08012G18KT P6SM OVC100 FM171900 07012G18KT 6SM -SHRA SCT025 BKN035 FM172300 08012KT 4SM RA BR OVC025 FM180200 08010KT 4SM RA BR OVC015<br><br>
<br><br>
CYYZ 170600Z 05002KT 15SM BKN240 10/06 A3022 RMK CI7 SLP237<br><br>
TAF CYYZ 170538Z 1706/1812 04005KT P6SM BKN250 FM170900 08008KT P6SM SCT150 BKN220 FM171200 09012KT P6SM SCT050 BKN150 OVC200 BECMG 1717/1719 09015G25KT FM172100 09015G25KT P6SM -RA BKN030 OVC070 TEMPO 1721/1803 3SM -RA BR BKN012 OVC030 FM180300 08012KT 2SM -RA BR OVC008 RMK NXT FCST BY 170900Z<br><br>
<br><br>
CYOO 170600Z AUTO 36004KT 9SM FEW250 05/05 A3023 RMK SLP241<br><br>
TAF CYOO 170138Z 1702/1714 09005KT P6SM FEW050 BKN240 FM170800 06007KT P6SM BKN240 TEMPO 1708/1712 2SM BR RMK FCST BASED ON AUTO OBS. NXT FCST BY 170800Z<br><br>
<br><br>
CYTR 170600Z 00000KT 15SM SCT250 06/03 A3024 RMK CI4 SLP244<br><br>
TAF CYTR 170530Z 1706/1806 VRB03KT P6SM SCT250 PROB30 1706/1710 1SM BR FM171200 05010KT P6SM BKN200 BECMG 1716/1718 09010KT OVC150 FM172200 06008KT P6SM SCT060 OVC100 TEMPO 1722/1802 P6SM -RA BKN060 OVC100 FM180200 05005KT P6SM -RA SCT030 OVC050 TEMPO 1802/1806 5SM -RA BR BKN030 OVC050 RMK NXT FCST BY 171200Z<br><br>
<br><br>
