RETRIEVED AT : Oct 28 2018 15:05 Local <br>
  RETRIEVED AT: Oct 28 2018 19:05 UTC<br><br>
CYSN 281800Z 28005KT 15SM BKN014 OVC040 05/03 A2969 RMK SC6SC2 SLP058<br><br>
TAF AMD CYSN 281324Z 2813/2901 27005KT 5SM -RA -DZ BR OVC006 TEMPO 2813/2817 P6SM NSW OVC010 FM281700 26007KT 11/2SM -RA -DZ BR OVC005 TEMPO 2817/2819 6SM -RA BR OVC010 FM281900 24008KT P6SM -RA BKN015 BKN050 TEMPO 2819/2822 P6SM NSW SCT012 BKN050 FM282200 22008KT P6SM OVC015 TEMPO 2823/2824 P6SM -SHRA FM290000 VRB03KT P6SM -SHRA OVC015 RMK NXT FCST BY 282000Z<br><br>
<br><br>
CYHM 281800Z 24006KT 15SM BKN013 OVC040 05/04 A2967 RMK SC7SC1 SLP056<br><br>
TAF CYHM 281739Z 2818/2918 25008KT P6SM SCT007 BKN015 OVC070 TEMPO 2818/2821 SCT015 OVC070 FM282100 25007KT P6SM -SHRA BKN015 OVC050 TEMPO 2821/2824 P6SM NSW SCT015 OVC050 FM290000 35005KT P6SM -SHRA BKN015 OVC025 FM290300 35008KT P6SM OVC025 FM290500 31008KT P6SM SCT010 BKN050 FM291100 27010KT P6SM -SHRA SCT020 BKN030 BECMG 2915/2917 27015G25KT FM291700 27015G25KT P6SM BKN025 RMK NXT FCST BY 290000Z<br><br>
<br><br>
KIAG 281853Z 22006KT 4SM BR OVC011 04/03 A2967 RMK AO2 RAB01E11B24E45 SLP058 P0001 T00440028<br><br>
KIAG 281813Z 23005KT 9SM BKN012 OVC018 04/02 A2968 RMK AO2 RAB01E11 P0000 T00440022<br><br>
KIAG 281753Z 25004KT 10SM SCT012 BKN018 OVC036 05/03 A2969 RMK AO2 RAE16 SLP065 P0000 60000 T00500028 10050 20022 58014<br><br>
KIAG 281729Z 2818/2918 25008KT P6SM -RA OVC011 FM282100 21004KT P6SM OVC020 FM290300 VRB03KT 5SM -SHRA OVC012 FM291000 30007KT P6SM OVC020 FM291400 27012G20KT P6SM OVC015 FM291700 26015G25KT P6SM OVC020<br><br>
<br><br>
KBUF 281854Z 26008KT 5SM -RA BR FEW017 OVC023 05/03 A2967 RMK AO2 RAB03 SLP053 P0000 T00500033<br><br>
KBUF 281754Z 25008KT 10SM FEW013 OVC024 05/03 A2969 RMK AO2 RAE49 SLP060 P0000 60001 T00500033 10050 20022 58013<br><br>
KBUF 281729Z 2818/2918 26010KT P6SM -RA BKN010 OVC014 FM282200 VRB03KT P6SM OVC012 FM290100 VRB03KT P6SM OVC007 FM290300 00000KT 5SM -SHRA OVC012 FM291100 28007KT P6SM OVC012 FM291700 26014G24KT P6SM OVC020<br><br>
<br><br>
CYYZ 281836Z 24008KT 15SM SCT013 BKN044 OVC085 06/03 A2965 RMK SC4SC2AC2 SLP048<br><br>
CYYZ 281800Z 24006KT 10SM BKN013 OVC085 05/03 A2967 RMK SC7AC1 SLP055<br><br>
TAF CYYZ 281739Z 2818/2924 23010KT P6SM -RA OVC012 FM281820 23010KT P6SM OVC012 TEMPO 2818/2821 BKN025 OVC050 FM282100 24008KT P6SM BKN025 OVC050 TEMPO 2821/2823 BKN020 OVC050 FM282300 VRB03KT P6SM OVC012 TEMPO 2823/2904 P6SM -SHRA FM290400 VRB03KT P6SM SCT020 OVC050 BECMG 2905/2907 30007KT FM291100 24008KT P6SM -SHRASN BKN015 OVC050 FM291400 29010G20KT P6SM -SHRA BKN015 OVC030 FM291700 29015G25KT P6SM BKN030 FM291900 29015G25KT P6SM SCT030 BKN100 RMK NXT FCST BY 282100Z<br><br>
<br><br>
CYOO 281857Z AUTO 22006KT 170V240 9SM FEW007 BKN012 OVC018 04/03 A2966 RMK SLP050<br><br>
CYOO 281852Z AUTO 19005KT 170V240 9SM -RA FEW007 BKN012 OVC018 04/03 A2966 RMK SLP051<br><br>
CYOO 281851Z AUTO 19005KT 180V240 9SM -RA BKN009 OVC018 04/03 A2966 RMK SLP050<br><br>
CYOO 281844Z AUTO 21004KT 160V240 9SM -RA SCT009 OVC013 04/04 A2966 RMK SLP051<br><br>
CYOO 281842Z AUTO 20004KT 160V220 9SM SCT009 OVC013 04/04 A2966 RMK SLP051<br><br>
CYOO 281840Z AUTO 18004KT 9SM BKN009 OVC016 04/03 A2966 RMK SLP051<br><br>
CYOO 281800Z AUTO 25006KT 9SM BKN016 OVC020 04/03 A2968 RMK SLP057<br><br>
CYOO has no TAF <br><br>
<br><br>
CYTR 281836Z 00000KT 12SM -RA BKN011 OVC031 04/02 A2968 RMK SF6SC2 SLP055<br><br>
CYTR 281800Z 00000KT 15SM BKN013 OVC037 04/02 A2969 RMK SF6SC2 SLP058<br><br>
CYTR 281722Z 00000KT 15SM SCT013 OVC044 04/01 A2970 RMK SF3SC5 SLP061<br><br>
TAF CYTR 281730Z 2818/2918 25005KT P6SM SCT012 OVC040 TEMPO 2818/2821 P6SM -RA BKN012 OVC040 FM282100 24005KT 6SM -RA BR OVC015 TEMPO 2821/2903 P6SM NSW SCT015 OVC025 FM290300 VRB03KT P6SM SCT020 BKN050 TEMPO 2903/2914 P6SM -RA OVC020 FM291400 27005KT 6SM -RASN BR BKN006 OVC020 FM291700 29010KT P6SM -RASN BKN015 OVC040 RMK NXT FCST BY 290000Z<br><br>
<br><br>
