RETRIEVED AT : Nov 05 2018 06:01 Local <br>
  RETRIEVED AT: Nov 05 2018 11:01 UTC<br><br>
CYSN has no TAF <br><br>
<br><br>
CYHM 051000Z CCA 07005KT 15SM -RA FEW044 BKN056 OVC076 05/04 A3009 RMK SC2SC4AC2 SLP200<br><br>
TAF CYHM 050540Z 0506/0606 06010KT P6SM BKN180 FM050800 09010G20KT 6SM -RA BR OVC025 TEMPO 0508/0511 4SM -RA BR OVC012 FM051100 16012G22KT 3SM -RA BR OVC007 TEMPO 0511/0517 6SM -RA BR OVC010 FM051700 20015G25KT P6SM -SHRA OVC012 BECMG 0519/0520 19012KT FM052300 15008KT P6SM OVC020 FM060300 09007KT 3SM BR SCT003 BKN120 RMK NXT FCST BY 051200Z<br><br>
<br><br>
KIAG 051053Z AUTO 16004KT 10SM -RA BKN060 OVC080 08/03 A3012 RMK AO2 RAB30 SLP207 P0000 T00830033<br><br>
KIAG 050953Z AUTO 15006KT 10SM BKN060 OVC120 08/02 A3012 RMK AO2 SLP207 T00830022<br><br>
KIAG 050903Z 0509/0606 16010KT P6SM VCSH SCT050 BKN100 TEMPO 0511/0514 BKN035 FM051400 17012G20KT P6SM VCSH BKN035 FM051700 18012G20KT P6SM BKN035 FM052000 17008KT P6SM BKN040<br><br>
<br><br>
KBUF 051054Z 17013KT 10SM -RA BKN060 BKN080 OVC090 09/04 A3012 RMK AO2 RAB37 SLP205 P0000 T00940039 $<br><br>
KBUF 050954Z COR 15008KT 10SM FEW060 BKN090 OVC170 09/03 A3013 RMK AO2 SLP206 T00940028 $<br><br>
KBUF 050902Z 0509/0606 14008KT P6SM BKN130 OVC200 FM051030 17010G18KT P6SM VCSH BKN050 TEMPO 0511/0514 4SM -RA BKN025 FM051400 17012G20KT P6SM VCSH BKN035 FM051700 18012G20KT P6SM BKN035 FM052000 17008KT P6SM BKN040<br><br>
<br><br>
CYYZ 051000Z 12006KT 15SM -RA OVC048 07/04 A3012 RMK SC8 SLP204<br><br>
CYYZ 050924Z 11006KT 15SM -RA OVC058 07/03 A3012 RMK SC8 SLP205<br><br>
TAF CYYZ 050857Z 0509/0612 12007KT P6SM SCT030 OVC100 TEMPO 0509/0511 5SM -RA BR BKN015 OVC030 FM051100 15010G20KT 6SM -RA BR SCT008 OVC015 TEMPO 0511/0513 3SM -RA BR BKN008 OVC015 FM051300 16012G22KT 3SM -RA BR OVC008 TEMPO 0513/0517 6SM -DZ BR OVC012 PROB30 0513/0517 OVC004 FM051700 19015G25KT 6SM BR OVC012 FM051900 20015G25KT P6SM -SHRA BKN020 BECMG 0522/0523 18010KT FM060200 15007KT 6SM BR FEW004 BKN015 FM060600 11006KT 2SM BR SCT004 BKN030 BECMG 0610/0612 11012KT RMK NXT FCST BY 051200Z<br><br>
<br><br>
CYOO 051058Z AUTO 11007KT 9SM -RA OVC040 08/05 A3013 RMK SLP209<br><br>
CYOO 051052Z AUTO 11006KT 9SM BKN040 OVC050 08/05 A3014 RMK SLP210<br><br>
CYOO 051033Z AUTO 10008KT 9SM -RA BKN042 OVC055 08/05 A3014 RMK SLP210<br><br>
CYOO 051030Z AUTO 10008KT 9SM BKN042 OVC055 08/05 A3014 RMK SLP211<br><br>
CYOO 051000Z AUTO 12007KT 9SM -RA OVC048 08/04 A3014 RMK SLP213<br><br>
CYOO 050942Z AUTO 11011KT 9SM -RA SCT050 BKN060 BKN071 OVC095 08/04 A3015 RMK SLP215<br><br>
CYOO has no TAF <br><br>
<br><br>
CYTR 051000Z 10004KT 15SM BKN140 OVC200 06/03 A3023 RMK AC7CI1 SLP239<br><br>
TAF CYTR 050530Z 0506/0606 07005KT P6SM SCT140 OVC200 BECMG 0506/0508 14012KT SCT020 OVC100 FM051000 14012KT P6SM SCT010 OVC040 TEMPO 0510/0512 P6SM -SHRA FM051200 16012G22KT P6SM -SHRA SCT005 OVC015 TEMPO 0512/0517 4SM SHRA BR BKN005 OVC015 FM051700 16012G22KT P6SM -SHRA SCT015 OVC030 FM060100 16012G22KT 6SM -SHRA BR BKN015 OVC025 BECMG 0603/0605 16010KT RMK NXT FCST BY 051200Z<br><br>
<br><br>
