RETRIEVED AT : May 30 2020 14:05 Local <br>
  RETRIEVED AT: May 30 2020 18:05 UTC<br><br>
CYSN 301700Z 28012G19KT 15SM FEW025 BKN054 BKN080 17/13 A2992 RMK SC2SC3AC2 SLP133 DENSITY ALT 700FT<br><br>
TAF AMD CYSN 301405Z 3014/3101 21010KT P6SM SCT020 BKN090 TEMPO 3014/3017 4SM -SHRA BR BKN020 BECMG 3015/3017 30015G25KT FM301700 30015G25KT P6SM SCT040 TEMPO 3017/3101 BKN040 RMK NXT FCST BY 302000Z<br><br>
<br><br>
CYHM 301700Z 29014G23KT 240V310 15SM BKN024 BKN033 15/10 A2996 RMK SC5SC2 SLP150 DENSITY ALT 1000FT<br><br>
TAF CYHM 301738Z 3018/3118 28015G25KT P6SM SCT020 BKN040 TEMPO 3018/3020 BKN020 FM310100 32010KT P6SM FEW040 FM311200 35008KT P6SM SCT020 RMK NXT FCST BY 310000Z<br><br>
<br><br>
KIAG 301800Z 27019G25KT 10SM BKN034 BKN050 OVC065 18/11 A2993 RMK AO2 T01780111<br><br>
KIAG 301753Z 29012G19KT 10SM BKN029 BKN038 OVC050 17/12 A2993 RMK AO2 SLP137 60016 T01720117 10189 20139 55004<br><br>
KIAG 301714Z 28013G21KT 10SM BKN029 BKN036 OVC090 18/13 A2992 RMK AO2 T01830128<br><br>
KIAG 301653Z 27012G19KT 10SM FEW022 BKN042 OVC080 18/13 A2992 RMK AO2 SLP132 T01780128<br><br>
KIAG 301629Z 24009G17KT 10SM FEW010 SCT017 BKN090 18/14 A2992 RMK AO2 T01780144<br><br>
KIAG 301720Z 3018/3118 27014G22KT P6SM BKN040 FM302300 31010KT P6SM SCT050 FM310400 33005KT P6SM SCT040 FM311400 34010G16KT P6SM SKC<br><br>
<br><br>
KBUF 301754Z 23020G26KT 10SM FEW011 SCT013 BKN085 14/12 A2995 RMK AO2 PK WND 24026/1737 SLP142 60000 T01390117 10161 20117 53001 $<br><br>
KBUF 301738Z 24021G26KT 10SM SCT008 BKN013 BKN080 14/12 A2995 RMK AO2 PK WND 24026/1737 T01440122 $<br><br>
KBUF 301709Z 24018G24KT 10SM BKN008 OVC019 14/13 A2995 RMK AO2 T01390128 $<br><br>
KBUF 301654Z 23017G22KT 10SM BKN010 BKN019 BKN065 14/13 A2994 RMK AO2 PK WND 24027/1613 SLP141 T01390128 $<br><br>
KBUF 301623Z 23015KT 10SM SCT010 BKN015 BKN065 16/13 A2994 RMK AO2 PK WND 24027/1613 T01560133 $<br><br>
KBUF 301720Z 3018/3118 23018G26KT P6SM VCSH BKN015 FM301900 26014G22KT P6SM BKN050 FM302300 30010KT P6SM SCT050 FM310400 32005KT P6SM SCT040 FM311500 34010G16KT P6SM SKC<br><br>
<br><br>
CYYZ 301700Z 29017G23KT 15SM SCT028 BKN048 BKN080 18/11 A2993 RMK CU3SC2AC2 SLP137 DENSITY ALT 1100FT<br><br>
TAF CYYZ 301738Z 3018/3124 30015G25KT P6SM SCT030 BKN050 FM310200 34012KT P6SM SCT040 BECMG 3102/3104 34006KT FM310700 34010KT P6SM BKN030 FM311100 34012KT P6SM FEW030 FM311900 31015KT P6SM BKN060 RMK NXT FCST BY 302100Z<br><br>
<br><br>
CYOO 301745Z AUTO 24006KT 9SM SCT021 BKN029 BKN037 OVC065 16/14 A2990 RMK SLP128 DENSITY ALT 600FT<br><br>
CYOO 301727Z AUTO 25008G15KT 170V290 9SM RA SCT025 BKN037 BKN095 16/13 A2991 RMK PRESRR SLP129 DENSITY ALT 600FT<br><br>
CYOO 301724Z AUTO 26011KT 160V290 9SM +RA SCT022 SCT027 BKN037 OVC095 16/13 A2991 RMK PRESRR SLP129 DENSITY ALT 700FT<br><br>
CYOO 301720Z AUTO 26009KT 160V280 9SM -RA SCT026 SCT037 BKN095 17/13 A2990 RMK SLP128 DENSITY ALT 700FT<br><br>
CYOO 301700Z AUTO 20007KT 180V270 9SM SCT037 SCT075 BKN094 17/12 A2989 RMK SLP125 DENSITY ALT 800FT<br><br>
CYOO 301615Z AUTO 21005KT 180V240 9SM FEW055 BKN079 OVC100 15/13 A2991 RMK SLP129 DENSITY ALT 500FT<br><br>
TAF CYOO 301338Z 3014/3102 25010KT P6SM SCT015 BKN060 TEMPO 3014/3017 BKN015 FM301700 28012G22KT P6SM BKN030 BECMG 3018/3020 31015G25KT RMK FCST BASED ON AUTO OBS. NXT FCST BY 302000Z<br><br>
<br><br>
CYTR 301700Z 21009KT 15SM FEW040 BKN075 BKN120 17/12 A2989 RMK SC2AC2AC2 SLP121<br><br>
TAF CYTR 301730Z 3018/3118 21010KT P6SM FEW020 SCT040 OVC070 TEMPO 3018/3021 5SM -SHRA BR BKN020 OVC040 BECMG 3019/3021 26012G22KT FM302100 26012G22KT P6SM SCT025 BKN050 BECMG 3100/3102 33008KT FEW050 FM310600 VRB03KT P6SM FEW020 SCT070 FM311200 34008KT P6SM SKC FM311600 30010KT P6SM FEW070 RMK NXT FCST BY 310000Z<br><br>
<br><br>
