RETRIEVED AT : Nov 03 2018 12:15 Local <br>
  RETRIEVED AT: Nov 03 2018 16:15 UTC<br><br>
CYSN 031600Z 27012G19KT 15SM FEW020 OVC070 06/02 A2992 RMK SC2AC6 SLP137<br><br>
CYSN 031500Z 27014KT 15SM SCT020 SCT100 BKN250 07/03 A2989 RMK SC3AC1CI3 SLP125<br><br>
TAF CYSN 031238Z 0313/0401 29012G22KT 5SM -RA BR OVC015 TEMPO 0313/0314 P6SM NSW SCT015 OVC040 FM031400 28012G22KT P6SM BKN015 TEMPO 0314/0318 BKN030 FM031800 28015G25KT P6SM BKN030 RMK NXT FCST BY 032000Z<br><br>
<br><br>
CYHM 031600Z 28011G18KT 15SM FEW018 SCT030 BKN055 05/01 A2994 RMK CU2SC2SC3 SLP147<br><br>
CYHM 031500Z 27008G15KT 15SM FEW018 SCT050 BKN060 BKN070 04/02 A2991 RMK CF2SC2SC3AC1 AC TR SLP138<br><br>
TAF CYHM 031139Z 0312/0412 28006KT P6SM FEW015 BKN040 TEMPO 0312/0313 BKN015 OVC030 PROB30 0312/0313 1SM -DZ -RA BR BKN003 OVC015 FM031300 27010KT P6SM BKN025 TEMPO 0313/0318 BKN015 BECMG 0314/0316 28012G22KT FM031800 28015G25KT P6SM -SHRA BKN025 FM032100 28015G25KT P6SM BKN030 BECMG 0323/0401 27008KT FM040500 VRB03KT P6SM SCT030 RMK NXT FCST BY 031800Z<br><br>
<br><br>
KIAG 031553Z 28014KT 10SM BKN015 OVC026 06/02 A2991 RMK AO2 SLP139 T00560022<br><br>
KIAG 031453Z 29013KT 10SM SCT011 BKN017 OVC023 05/03 A2988 RMK AO2 RAE11B16E25 SLP128 P0000 60003 T00500028 51029<br><br>
KIAG 031446Z 29012KT 10SM SCT011 BKN020 OVC060 05/03 A2987 RMK AO2 RAE11B16E25 P0000 T00500033<br><br>
KIAG 031430Z 27012KT 10SM BKN012 BKN018 OVC060 04/03 A2987 RMK AO2 RAE11B16E25 P0000 T00440028<br><br>
KIAG 031457Z 0315/0412 28012G22KT P6SM BKN025 FM031800 28016G29KT P6SM BKN035 FM032200 28012G19KT P6SM SCT040 FM040100 28008KT P6SM SCT040 FM040600 VRB03KT P6SM FEW250<br><br>
<br><br>
KBUF 031611Z 28013KT 10SM FEW017 BKN022 BKN070 06/02 A2992 RMK AO2 T00560017<br><br>
KBUF 031554Z 28013G21KT 10SM FEW017 SCT022 BKN070 06/02 A2991 RMK AO2 SLP134 T00560022<br><br>
KBUF 031525Z 28012KT 10SM BKN015 BKN020 BKN028 BKN130 05/02 A2989 RMK AO2 T00500022<br><br>
KBUF 031454Z 27013G18KT 10SM BKN012 BKN020 BKN050 04/03 A2988 RMK AO2 SLP123 60005 T00440028 51029<br><br>
KBUF 031457Z 0315/0412 28012G23KT P6SM VCSH BKN025 FM031800 27017G28KT P6SM BKN035 FM032200 27012G22KT P6SM SCT040 FM040100 27008KT P6SM SCT040 FM040600 VRB03KT P6SM FEW035<br><br>
<br><br>
CYYZ 031600Z 30015KT 15SM FEW025 BKN065 06/00 A2991 RMK CU2SC5 SLP134<br><br>
CYYZ 031500Z 31015G22KT 15SM FEW020 SCT065 BKN140 BKN210 06/02 A2988 RMK CU1SC2AC2CI2 SLP124<br><br>
TAF CYYZ 031438Z 0315/0418 31012KT P6SM FEW020 BKN090 TEMPO 0315/0317 BKN020 BECMG 0315/0317 29018G28KT FM031700 29018G28KT P6SM BKN030 BECMG 0322/0324 29015KT FM040200 29012KT P6SM SCT025 BECMG 0404/0406 28006KT FM041200 VRB03KT P6SM FEW030 BKN240 BECMG 0416/0418 11010KT RMK NXT FCST BY 031800Z<br><br>
<br><br>
CYOO 031600Z AUTO 30017G23KT 9SM BKN025 BKN030 BKN035 OVC060 06/02 A2987 RMK SLP120<br><br>
CYOO 031532Z AUTO 31013KT 9SM SCT022 BKN027 BKN033 OVC065 05/03 A2986 RMK SLP116<br><br>
CYOO 031514Z AUTO 27010KT 9SM BKN021 BKN031 BKN065 05/04 A2985 RMK SLP113<br><br>
CYOO 031510Z AUTO 29010KT 9SM SCT021 BKN026 BKN065 BKN150 05/04 A2985 RMK SLP113<br><br>
CYOO 031501Z AUTO 29008KT 9SM SCT017 BKN021 BKN065 05/04 A2984 RMK SLP110<br><br>
CYOO 031500Z AUTO 29008KT 9SM SCT017 SCT021 BKN065 04/04 A2984 RMK SLP110<br><br>
CYOO 031454Z AUTO 30008KT 9SM SCT015 BKN065 04/04 A2984 RMK SLP109<br><br>
CYOO 031435Z AUTO 30007KT 9SM BKN015 BKN055 OVC070 04/04 A2983 RMK SLP108<br><br>
CYOO 031419Z AUTO 30008KT 9SM FEW015 SCT041 BKN055 OVC071 03/03 A2982 RMK SLP105<br><br>
CYOO has no TAF <br><br>
<br><br>
CYTR 031600Z 29011KT 12SM -SHRA OVC009 04/03 A2981 RMK SF8 SLP098<br><br>
CYTR 031500Z 29010KT 6SM -SHRA BR OVC008 03/02 A2979 RMK SF8 SLP093<br><br>
TAF AMD CYTR 031614Z 0316/0412 29012KT 3SM -SHRA BR BKN008 OVC025 TEMPO 0316/0318 6SM -SHRA BR SCT008 OVC030 BECMG 0316/0318 29015G25KT FM031800 30015G25KT P6SM SCT015 BKN030 TEMPO 0318/0320 5SM -SHRA BR BKN015 BECMG 0318/0320 30018G28KT FM040000 28015KT P6SM SCT030 BECMG 0404/0406 27006KT SCT020 RMK NXT FCST BY 031800Z<br><br>
<br><br>
