RETRIEVED AT : Jun 06 2018 21:05 Local <br>
  RETRIEVED AT: Jun 07 2018 01:05 UTC<br><br>
CYSN 070000Z 20004KT 160V250 12SM BKN031 14/08 A2997 RMK SC7 SLP151<br><br>
TAF CYSN 061938Z 0620/0701 28006KT P6SM OVC030 BECMG 0622/0624 21008KT RMK NXT FCST WILL BE ISSUED AT 071245Z<br><br>
<br><br>
TAF CYHM 062338Z 0700/0724 20005KT P6SM BKN030 FM070100 23006KT P6SM FEW030 FM070500 23008KT P6SM BKN100 FM070900 23008KT P6SM BKN080 FM071400 24015KT P6SM BKN050 RMK NXT FCST BY 070600Z<br><br>
<br><br>
KIAG 070053Z 24006KT 10SM CLR 13/08 A2999 RMK AO2 SLP159 T01280078<br><br>
KIAG 062353Z 22006KT 10SM CLR 15/08 A2997 RMK AO2 SLP151 T01500078 10161 20144 58002<br><br>
KIAG 062325Z 0700/0724 VRB04KT P6SM SCT035 SCT250 FM070300 21004KT P6SM SCT250 FM071200 21006KT P6SM SCT080 FM071500 23012G18KT P6SM SCT050 FM072100 23010KT P6SM SCT035<br><br>
<br><br>
KBUF 070054Z 24005KT 10SM SCT150 SCT220 BKN270 12/08 A2999 RMK AO2 SLP157 T01220083<br><br>
KBUF 062354Z 23006KT 10SM FEW030 FEW050 FEW210 SCT270 14/08 A2998 RMK AO2 SLP155 T01390083 10161 20133 50003<br><br>
KBUF 062325Z 0700/0724 24006KT P6SM FEW035 SCT250 FM070300 20006KT P6SM SCT250 FM071200 22006KT P6SM SCT080 FM071500 24012G18KT P6SM SCT060 FM072100 24010KT P6SM SCT045<br><br>
<br><br>
CYYZ 070000Z 16007KT 15SM FEW040 BKN230 14/08 A2996 RMK SC1CI5 SLP148 DENSITY ALT 600FT<br><br>
TAF CYYZ 062338Z 0700/0806 14012KT P6SM FEW040 SCT240 BECMG 0700/0702 20008KT BECMG 0703/0705 25008KT FM070500 25008KT P6SM BKN120 FM071000 26008KT P6SM BKN060 FM071500 26012G22KT P6SM BKN040 FM072100 27015KT P6SM BKN080 FM080100 34008KT P6SM SCT100 RMK NXT FCST BY 070300Z<br><br>
<br><br>
CYOO 070000Z AUTO 21006KT 9SM FEW038 13/07 A2997 RMK SLP152<br><br>
CYOO has no TAF <br><br>
<br><br>
CYTR 070000Z 22007KT 15SM FEW030 BKN230 14/09 A2996 RMK SC1CI6 SLP145<br><br>
TAF CYTR 062330Z 0700/0724 22012KT P6SM FEW030 BKN220 BECMG 0700/0702 21005KT FM070800 21005KT P6SM BKN100 BECMG 0713/0715 23012G22KT FM071500 23012G22KT P6SM BKN040 FM072100 23010G20KT P6SM SCT040 RMK NXT FCST BY 070600Z<br><br>
<br><br>
