RETRIEVED AT : Apr 27 2018 04:36 Local <br>
  RETRIEVED AT: Apr 27 2018 08:36 UTC<br><br>
CYSN has no TAF <br><br>
<br><br>
CYHM 270800Z 23002KT 15SM BKN250 03/02 A2979 RMK CI7 SLP092<br><br>
CYHM 270700Z 24004KT 15SM BKN250 03/02 A2980 RMK CI6 SLP097<br><br>
TAF CYHM 270538Z 2706/2806 VRB03KT P6SM FEW240 FM271600 21006KT P6SM SCT180 FM280300 VRB03KT P6SM -SHRA OVC025 RMK NXT FCST BY 271200Z<br><br>
<br><br>
KIAG 270753Z AUTO 00000KT 10SM CLR 03/00 A2981 RMK AO2 SLP100 T00330000<br><br>
KIAG 270653Z AUTO 00000KT 10SM CLR 04/01 A2981 RMK AO2 SLP102 T00440006<br><br>
KIAG 270534Z 2706/2806 20004KT P6SM BKN250 FM271500 24004KT P6SM BKN200 FM280100 17004KT P6SM BKN110 FM280500 22004KT P6SM BKN130<br><br>
<br><br>
KBUF 270754Z COR 00000KT 10SM BKN250 04/00 A2981 RMK AO2 SLP098 T00390000<br><br>
KBUF 270654Z 16003KT 10SM BKN250 04/01 A2981 RMK AO2 SLP100 T00390006<br><br>
KBUF 270534Z 2706/2806 21005KT P6SM BKN250 FM271400 23005KT P6SM BKN200 FM272000 27007KT P6SM BKN130 FM280300 16004KT P6SM BKN070<br><br>
<br><br>
CYYZ 270800Z 01004KT 15SM SCT260 04/M01 A2979 RMK CI3 SLP092<br><br>
CYYZ 270700Z 31004KT 15SM FEW260 06/01 A2980 RMK CI2 SLP095<br><br>
TAF CYYZ 270538Z 2706/2812 VRB03KT P6SM FEW240 FM271700 14010KT P6SM SCT150 FM272300 10005KT P6SM FEW040 BKN140 FM280100 34010KT P6SM -SHRA BKN025 OVC060 FM281000 34012KT P6SM OVC012 RMK NXT FCST BY 270900Z<br><br>
<br><br>
CYOO 270800Z AUTO 00000KT 9SM CLR 02/M01 A2980 RMK SLP096<br><br>
CYOO 270700Z AUTO 05002KT 9SM CLR 03/M01 A2980 RMK SLP096<br><br>
CYOO has no TAF <br><br>
<br><br>
CYTR 270800Z 00000KT 15SM OVC180 01/00 A2981 RMK AS8 SLP096<br><br>
CYTR 270700Z 00000KT 15SM FEW030 BKN240 02/01 A2981 RMK SC2CI6 SLP099<br><br>
TAF CYTR 270530Z 2706/2806 VRB03KT P6SM FEW240 PROB30 2706/2712 1/2SM FG VV002 FM271500 15005KT P6SM BKN200 FM280200 VRB03KT P6SM BKN140 RMK NXT FCST BY 271200Z<br><br>
<br><br>
