RETRIEVED AT : Mar 14 2020 09:05 Local <br>
  RETRIEVED AT: Mar 14 2020 13:05 UTC<br><br>
CYSN 141200Z 30009KT 15SM BKN026 01/M04 A3037 RMK SC7 SLP288<br><br>
TAF CYSN 141238Z 1413/1501 30010KT P6SM BKN025 TEMPO 1413/1418 BKN020 FM141800 28008KT P6SM SCT025 BKN240 BECMG 1419/1421 FEW030 OVC140 FM150000 02008KT P6SM FEW040 OVC120 RMK NXT FCST BY 142000Z<br><br>
<br><br>
CYHM 141200Z 31010KT 15SM BKN021 BKN220 M01/M05 A3036 RMK SC7CI1 CI TR SLP291<br><br>
TAF CYHM 141138Z 1412/1512 31010KT P6SM SCT020 TEMPO 1412/1415 BKN020 FM141500 30012KT P6SM BKN030 FM142300 34008KT P6SM SCT030 BKN120 FM150300 03010KT P6SM BKN030 OVC120 FM150600 03010KT P6SM SCT030 BKN120 FM150900 03012KT P6SM SKC RMK NXT FCST BY 141800Z<br><br>
<br><br>
KIAG 141253Z 31008KT 10SM OVC024 01/M04 A3039 RMK AO2 SLP304 T00061039<br><br>
KIAG 141153Z 30009KT 10SM BKN026 00/M05 A3035 RMK AO2 SLP293 T00001050 10011 21006 51013<br><br>
KIAG 141151Z 31011KT 10SM BKN026 00/M05 A3035 RMK AO2<br><br>
KIAG 141159Z 1412/1512 30010KT P6SM BKN025 FM141800 31006KT P6SM BKN150 FM150700 03006KT P6SM SCT150<br><br>
<br><br>
KBUF 141254Z 30009KT 10SM BKN026 01/M05 A3039 RMK AO2 SLP298 T00061050<br><br>
KBUF 141154Z 29006KT 10SM BKN026 00/M04 A3036 RMK AO2 SLP289 T00001044 10022 21006 51015<br><br>
KBUF 141137Z 28004KT 10SM BKN026 M01/M05 A3035 RMK AO2 T10061050<br><br>
KBUF 141159Z 1412/1512 29008KT P6SM BKN025 FM141800 25010KT P6SM BKN150 FM150100 36003KT P6SM OVC150 FM150700 03006KT P6SM SCT150<br><br>
<br><br>
CYYZ 141200Z 31015KT 15SM BKN025 01/M05 A3035 RMK SC7 SLP287<br><br>
TAF CYYZ 141138Z 1412/1518 31012G22KT P6SM BKN030 TEMPO 1412/1415 BKN020 FM141500 31012KT P6SM SCT030 FM142100 36008KT P6SM FEW030 BKN140 FM150000 36012KT P6SM BKN150 FM150800 02012KT P6SM SKC BECMG 1514/1516 08010KT RMK NXT FCST BY 141500Z<br><br>
<br><br>
CYOO 141200Z AUTO 32015G24KT 9SM OVC025 01/M04 A3032 RMK SLP275<br><br>
TAF CYOO 140738Z 1408/1420 27010G20KT P6SM SCT040 TEMPO 1408/1410 BKN040 FM141000 29010KT P6SM BKN030 TEMPO 1410/1415 BKN020 FM141600 30012KT P6SM FEW030 SCT180 RMK FCST BASED ON AUTO OBS. NXT FCST BY 141400Z<br><br>
<br><br>
CYTR 141233Z 31012KT 15SM SCT030 01/M05 A3031 RMK SC4 SLP267<br><br>
CYTR 141200Z 31012KT 15SM BKN028 01/M05 A3030 RMK SC6 SLP264<br><br>
TAF CYTR 141130Z 1412/1512 29015G25KT P6SM BKN030 BECMG 1412/1414 29010KT SCT030 FM150000 31010KT P6SM FEW040 BKN160 BECMG 1502/1504 02010KT RMK NXT FCST BY 141800Z<br><br>
<br><br>
