RETRIEVED AT : Apr 04 2020 10:05 Local <br>
  RETRIEVED AT: Apr 04 2020 14:05 UTC<br><br>
CYSN 041300Z 30006KT 2 1/2SM BR OVC002 06/06 A3006 RMK SF8 SLP183<br><br>
TAF CYSN 041238Z 0413/0501 28005KT 2SM -DZ BR OVC002 TEMPO 0413/0415 P6SM NSW SCT002 OVC010 FM041500 30008KT P6SM BKN020 TEMPO 0415/0418 BKN025 FM041800 33008KT P6SM BKN025 TEMPO 0418/0501 BKN020 RMK NXT FCST BY 042000Z<br><br>
<br><br>
CYHM 041300Z 35004KT 330V040 10SM SCT007 OVC012 07/05 A3006 RMK SC4SC4 SLP186<br><br>
TAF CYHM 041139Z 0412/0512 VRB03KT P6SM FEW006 BKN010 OVC050 TEMPO 0412/0414 4SM -DZ BR OVC006 FM041400 VRB03KT P6SM BKN015 BKN050 TEMPO 0414/0417 SCT015 BKN050 FM041700 07006KT P6SM BKN025 FM042200 VRB03KT P6SM BKN030 BKN080 FM050300 22007KT P6SM -SHRA BKN030 OVC050 FM050700 25007KT P6SM BKN025 OVC050 FM051000 29008KT P6SM BKN010 OVC030 RMK NXT FCST BY 041800Z<br><br>
<br><br>
KIAG 041353Z 29004KT 4SM BR OVC004 06/06 A3007 RMK AO2 SLP191 T00610061<br><br>
KIAG 041319Z 31004KT 2SM BR OVC002 06/06 A3006 RMK AO2 T00610056<br><br>
KIAG 041306Z 30005KT 4SM BR OVC002 06/05 A3006 RMK AO2 T00610050<br><br>
KIAG 041253Z 31005KT 2SM BR OVC002 06/06 A3005 RMK AO2 SLP187 T00560056<br><br>
KIAG 041250Z 30005KT 1 3/4SM BR OVC002 06/06 A3005 RMK AO2<br><br>
KIAG 041216Z 29003KT 1 1/4SM BR OVC002 06/05 A3004 RMK AO2 T00560050<br><br>
KIAG 041120Z 0412/0512 30005KT 2SM BR OVC003 FM041400 24005KT 6SM BR OVC007 FM041600 24005KT P6SM OVC012 FM042100 VRB03KT P6SM BKN035 FM050900 28005KT P6SM VCSH OVC030<br><br>
<br><br>
KBUF 041354Z 23004KT 1SM R23/4000VP6000FT -DZ BR OVC003 07/06 A3007 RMK AO2 DZB01 SLP188 P0000 T00670056<br><br>
KBUF 041321Z 25005KT 3/4SM R23/4000FT -DZ BR OVC003 07/06 A3006 RMK AO2 DZB01 P0000 T00670056<br><br>
KBUF 041301Z 27004KT 1 1/2SM R23/5500VP6000FT -DZ BR OVC003 06/05 A3006 RMK AO2 DZB01 P0000 T00610050<br><br>
KBUF 041254Z 27003KT 5SM BR OVC003 06/05 A3005 RMK AO2 SLP182 T00610050<br><br>
KBUF 041120Z 0412/0512 22003KT 2SM -DZ BR OVC003 FM041500 22006KT P6SM OVC007 FM041700 24007KT P6SM BKN012 FM042300 VRB03KT P6SM SCT030 FM050200 VRB03KT P6SM BKN060<br><br>
<br><br>
CYYZ 041300Z 34003KT 15SM SCT006 BKN018 07/06 A3006 RMK SF3SC4 SLP184<br><br>
CYYZ 041248Z VRB02KT 15SM FEW007 BKN019 07/06 A3006 RMK SF2SC5 SLP185<br><br>
TAF CYYZ 041139Z 0412/0518 33008KT P6SM FEW007 SCT015 OVC060 TEMPO 0412/0415 5SM BR BKN007 OVC015 FM041500 11008KT P6SM BKN015 OVC040 TEMPO 0415/0420 BKN025 OVC040 FM042000 14008KT P6SM BKN025 FM050000 13008KT P6SM BKN030 BKN100 FM050300 15008KT P6SM -SHRA BKN030 OVC080 FM050700 VRB03KT 4SM BR SCT006 OVC015 PROB40 0507/0509 2SM BR OVC006 FM050900 35008KT P6SM SCT008 BKN012 OVC040 PROB30 0509/0513 OVC008 FM051500 34015KT P6SM SCT015 RMK NXT FCST BY 041500Z<br><br>
<br><br>
CYOO 041323Z AUTO VRB02KT 9SM BKN014 OVC029 07/06 A3006 RMK SLP185<br><br>
CYOO 041300Z AUTO 00000KT 9SM OVC029 07/06 A3006 RMK SLP184<br><br>
TAF CYOO 041338Z 0414/0502 VRB03KT P6SM BKN015 OVC030 TEMPO 0414/0416 SCT015 OVC030 FM041600 18007KT P6SM BKN030 RMK FCST BASED ON AUTO OBS. NXT FCST BY 042000Z<br><br>
<br><br>
CYTR 041300Z 06005KT 15SM BKN030 07/04 A3006 RMK SC7 SLP182<br><br>
TAF CYTR 041130Z 0412/0512 VRB03KT P6SM FEW015 BKN030 OVC100 TEMPO 0412/0419 BKN015 OVC030 BECMG 0417/0419 20008KT FM041900 20008KT P6SM SCT040 BECMG 0500/0502 VRB03KT FM050700 VRB03KT P6SM SCT040 OVC070 TEMPO 0507/0512 P6SM -SHRA OVC040 RMK NXT FCST BY 041800Z<br><br>
<br><br>
