RETRIEVED AT : Dec 04 2017 15:10 Local <br>
  RETRIEVED AT: Dec 04 2017 20:10 UTC<br><br>
CYSN 042000Z 14006KT 15SM BKN110 OVC220 10/01 A3006 RMK AC6CI2 SLP183<br><br>
CYSN 041900Z 16010KT 15SM BKN180 OVC220 11/00 A3009 RMK AC6CI2 SLP195<br><br>
TAF CYSN 041938Z 0420/0502 16012KT P6SM BKN160 OVC220 RMK NXT FCST WILL BE ISSUED AT 051345Z<br><br>
<br><br>
CYHM 042000Z 13009KT 15SM BKN098 OVC240 09/02 A3004 RMK AC6CS2 SUN DMLY VSBL SLP182<br><br>
CYHM 041900Z 14010KT 12SM SCT110 BKN120 BKN230 10/02 A3006 RMK AC3AS2CI1 SLP190<br><br>
TAF CYHM 041740Z 0418/0518 13010KT P6SM SCT150 OVC230 FM042100 14012KT P6SM BKN100 OVC150 BECMG 0501/0503 18015KT FM050700 18018G28KT P6SM -SHRA BKN030 OVC080 FM050900 19018G28KT P6SM -RA OVC020 FM051200 19022G32KT 4SM -RA BR OVC007 FM051600 23022G40KT P6SM OVC012 BECMG 0516/0518 BKN020 RMK NXT FCST BY 050000Z<br><br>
<br><br>
KIAG 041953Z 16006KT 10SM CLR 12/M01 A3008 RMK AO2 SLP197 T01171011<br><br>
KIAG 041853Z 16010KT 10SM CLR 12/M02 A3011 RMK AO2 SLP205 T01171017<br><br>
KIAG 041739Z 0418/0518 15005KT P6SM SKC FM050200 17016G22KT P6SM OVC100 FM050900 18020G26KT 6SM -RA OVC080 WS020/19050KT FM051100 19021G28KT 6SM -RA OVC045 WS020/19050KT FM051300 19020G28KT 6SM -RA OVC025<br><br>
<br><br>
KBUF 041954Z 14006KT 10SM FEW120 BKN170 BKN240 10/00 A3009 RMK AO2 SLP196 VIRGA DSNT NW T01000000<br><br>
KBUF 041854Z 15008KT 10SM FEW120 BKN170 BKN240 10/M01 A3011 RMK AO2 SLP202 VIRGA DSNT NW T01001006<br><br>
KBUF 041739Z 0418/0518 14010KT P6SM BKN170 BKN250 FM050200 17017G25KT P6SM OVC100 WS020/19045KT FM050900 18020G29KT 6SM -RA OVC060 WS020/19050KT FM051300 19020G29KT 6SM -RA OVC035<br><br>
<br><br>
CYYZ 042000Z 11007KT 12SM OVC110 07/01 A3007 RMK AC8 SLP190<br><br>
CYYZ 041900Z 12012KT 12SM SCT110 OVC130 06/01 A3009 RMK AC3AC5 SLP196<br><br>
TAF CYYZ 041740Z 0418/0524 13010KT P6SM SCT150 OVC200 TEMPO 0418/0419 5SM BR FM042200 13010KT P6SM BKN120 OVC150 FM050500 17012KT P6SM -SHRA OVC040 FM050900 18012G22KT P6SM -RA OVC020 FM051200 18015G25KT 5SM -RA BR OVC012 FM051600 21020G30KT P6SM BKN007 OVC015 FM051800 23022G40KT P6SM BKN020 BECMG 0519/0521 23020G30KT RMK NXT FCST BY 042100Z<br><br>
<br><br>
CYOO 042000Z AUTO 10011G17KT 6SM BR BKN120 BKN140 06/04 A3011 RMK SLP204<br><br>
CYOO 041900Z AUTO 11012G19KT 7SM SCT190 BKN220 06/04 A3013 RMK SLP209<br><br>
CYOO 041838Z AUTO 10016KT 6SM BR FEW210 SCT230 06/04 A3014 RMK PRESFR SLP212<br><br>
CYOO 041816Z AUTO 11015G20KT 5SM BR SCT200 06/04 A3015 RMK PRESFR SLP216<br><br>
CYOO has no TAF <br><br>
<br><br>
CYTR 042000Z 12008KT 7SM FEW150 OVC220 07/04 A3018 RMK AS2CI6 HAZY SLP224<br><br>
CYTR 041929Z 13007KT 6SM BR BKN200 08/04 A3019 RMK CI6 VIS VRB 4-8 SLP227<br><br>
CYTR 041900Z 11008KT 7SM FEW020 OVC200 08/04 A3020 RMK SC1CI8 HAZY SLP231<br><br>
CYTR 041838Z 12005KT 5SM BR SCT016 BKN200 08/04 A3022 RMK SC3CI4 SLP237<br><br>
TAF CYTR 041730Z 0418/0518 14008KT P6SM SCT010 BKN200 TEMPO 0418/0420 4SM BR BKN010 OVC200 FM042200 16012KT P6SM OVC100 TEMPO 0508/0510 P6SM -SHRA BKN030 OVC100 FM051000 16015KT P6SM -RA SCT015 OVC025 TEMPO 0510/0518 3SM -RA BR SCT008 OVC015 RMK NXT FCST BY 050000Z<br><br>
<br><br>
