RETRIEVED AT : Oct 09 2017 13:10 Local <br>
  RETRIEVED AT: Oct 09 2017 17:10 UTC<br><br>
CYSN 091700Z 01011KT 15SM OVC008 17/16 A2983 RMK SF8 SLP102 DENSITY ALT 800FT<br><br>
CYSN 091600Z 03011KT 15SM OVC008 17/16 A2980 RMK SF8 SLP094 DENSITY ALT 800FT<br><br>
TAF CYSN 091238Z 0913/1001 04013G23KT 6SM -RA BR OVC010 TEMPO 0913/0916 2SM RA OVC004 FM091600 36012G22KT P6SM -RA OVC025 TEMPO 0916/0918 21/2SM -RA BR BKN006 OVC015 FM091800 34010G20KT P6SM OVC030 TEMPO 0918/0920 3SM -SHRA BR OVC012 FM092100 30008KT P6SM BKN030 BKN080 FM092300 22007KT P6SM SCT040 RMK NXT FCST BY 092000Z<br><br>
<br><br>
CYHM 091700Z 02007KT 360V060 15SM FEW014 SCT020 BKN032 19/15 A2984 RMK CU2SC1SC3 SLP106 DENSITY ALT 1600FT<br><br>
CYHM 091600Z 03008KT 10SM SCT012 OVC020 17/15 A2984 RMK SC3SC5 SLP108 DENSITY ALT 1400FT<br><br>
TAF AMD CYHM 091706Z 0917/1012 03010KT P6SM BKN030 TEMPO 0917/0919 OVC008 FM092100 26008KT P6SM BKN025 TEMPO 0921/0923 BKN020 FM100100 26005KT P6SM FEW030 RMK NXT FCST BY 091800Z<br><br>
<br><br>
KIAG 091653Z 02010KT 3SM BR OVC005 19/17 A2981 RMK AO2 RAE12 SLP094 P0000 T01890167<br><br>
KIAG 091643Z 02008KT 3SM BR OVC005 19/17 A2981 RMK AO2 RAE12 P0000 T01890167<br><br>
KIAG 091617Z 01008KT 3SM BR OVC004 18/16 A2981 RMK AO2 RAE12 P0000 T01830161<br><br>
KIAG 091602Z 36009KT 3SM -RA BR OVC005 18/16 A2981 RMK AO2 CIG 003V008 P0000 T01830161<br><br>
KIAG 091553Z 35010KT 4SM -RA BR OVC006 18/16 A2980 RMK AO2 RAB47 CIG 003V008 SLP092 P0000 T01830161<br><br>
KIAG 091550Z 35008KT 5SM -RA BR OVC006 18/16 A2980 RMK AO2 RAB47 CIG 003V008 P0000<br><br>
KIAG 091504Z 0915/1012 04012KT P6SM BKN008 FM091800 01007KT P6SM BKN007 FM092000 32007KT P6SM BKN007 FM100000 24005KT P6SM BKN020 FM101000 24004KT 2SM BR FEW250<br><br>
<br><br>
KBUF 091654Z 01007KT 2 1/2SM -DZ OVC006 18/17 A2981 RMK AO2 RAB06E36DZB36 SLP093 P0000 T01830172 $<br><br>
KBUF 091652Z 36007KT 3SM -DZ OVC005 18/17 A2981 RMK AO2 RAB06E36DZB36 P0000 $<br><br>
KBUF 091636Z 01008KT 2SM R23/6000VP6000FT -DZ OVC006 18/17 A2980 RMK AO2 RAB06E36DZB36 CIG 004V008 P0000 T01780172 $<br><br>
KBUF 091607Z 02007KT 1 3/4SM -RA BR OVC007 18/17 A2979 RMK AO2 RAB06 P0000 T01830172 $<br><br>
KBUF 091554Z 01004KT 9SM BKN008 OVC030 18/17 A2979 RMK AO2 SLP086 T01830172 $<br><br>
KBUF 091504Z 0915/1012 03011KT P6SM BKN008 FM092000 32007KT P6SM BKN007 FM092300 28006KT P6SM BKN012 FM100200 24006KT P6SM BKN020 FM100800 25006KT 2SM BR FEW250<br><br>
<br><br>
CYYZ 091700Z 04003KT 010V090 15SM FEW025 BKN030 20/15 A2983 RMK CU2SC5 SLP102 DENSITY ALT 1400FT<br><br>
CYYZ 091600Z 33005KT 310V020 15SM FEW025 BKN030 19/15 A2983 RMK CF2SC5 SLP102 DENSITY ALT 1300FT<br><br>
TAF CYYZ 091445Z 0915/1018 03008KT P6SM BKN030 TEMPO 0915/0918 BKN020 FM091800 33010KT P6SM BKN030 FM100100 30006KT P6SM FEW030 FM101500 34010KT P6SM FEW050 RMK NXT FCST BY 091800Z<br><br>
<br><br>
CYOO 091700Z AUTO 02007KT 330V050 9SM SCT028 BKN036 OVC049 20/14 A2982 RMK SLP099 DENSITY ALT 1200FT<br><br>
CYOO 091600Z AUTO 04005KT 360V060 9SM OVC026 19/15 A2981 RMK SLP096 DENSITY ALT 1100FT<br><br>
CYOO 091553Z AUTO 02006KT 9SM OVC026 18/15 A2981 RMK SLP097 DENSITY ALT 1000FT<br><br>
CYOO has no TAF <br><br>
<br><br>
CYTR 091700Z 03011KT 15SM BKN011 BKN058 OVC080 17/16 A2980 RMK SF5SC2AC1 SLP091<br><br>
CYTR 091600Z 04011KT 15SM BKN010 BKN028 OVC041 16/15 A2979 RMK SF5SC2SC1 SLP090<br><br>
CYTR 091532Z 05010G16KT 7SM -RA BKN008 OVC022 16/15 A2978 RMK SF6SC2 SLP085<br><br>
TAF CYTR 091130Z 0912/1012 VRB03KT 2SM RA BR OVC002 TEMPO 0912/0914 4SM -RA BR SCT002 OVC015 BECMG 0912/0913 12008KT FM091400 09010KT 6SM -RA BR SCT005 OVC020 TEMPO 0914/0916 4SM -RA BR OVC005 FM091600 03012KT P6SM SCT010 OVC020 TEMPO 0916/0920 5SM -RA BR OVC010 BECMG 0918/0920 34010KT FM092000 34010KT P6SM BKN020 TEMPO 0922/0924 SCT020 FM100000 34008KT P6SM SCT020 BECMG 1000/1002 VRB03KT FM100400 VRB03KT P6SM FEW020 PROB40 1006/1012 2SM BR RMK NXT FCST BY 091800Z<br><br>
<br><br>
