RETRIEVED AT : May 06 2018 09:05 Local <br>
  RETRIEVED AT: May 06 2018 13:05 UTC<br><br>
CYSN 061200Z 12005KT 15SM FEW120 SCT220 OVC250 14/08 A2998 RMK AC2CI2CI4 SLP153<br><br>
TAF CYSN 061238Z 0613/0701 12005KT P6SM FEW120 OVC240 BECMG 0613/0615 VRB03KT FM061700 03012KT P6SM FEW050 BKN200 RMK NXT FCST BY 062000Z<br><br>
<br><br>
CYHM 061200Z 00000KT 15SM FEW100 BKN230 13/08 A2997 RMK AC2CI4 SLP152<br><br>
TAF CYHM 061138Z 0612/0712 20005KT P6SM FEW080 BKN220 BECMG 0612/0614 04008KT FM061800 04012KT P6SM BKN080 TEMPO 0618/0621 P6SM -SHRA FM062100 04012KT P6SM OVC060 TEMPO 0621/0624 5SM -SHRA BR BKN020 OVC060 PROB30 0621/0624 VRB15G25KT 2SM TSRA BR BKN008 OVC060CB FM070000 03010G20KT 6SM -SHRA BR SCT008 BKN040 OVC100 FM070700 04008KT P6SM BKN040 RMK NXT FCST BY 061800Z<br><br>
<br><br>
KIAG 061253Z 00000KT 10SM CLR 17/08 A2998 RMK AO2 SLP150 T01720078<br><br>
KIAG 061153Z 00000KT 10SM CLR 15/06 A2999 RMK AO2 SLP155 T01500056 10150 20117 53004<br><br>
KIAG 061120Z 0612/0712 VRB03KT P6SM SCT110 BKN250 FM061500 05005KT P6SM BKN100 FM062200 03009KT P6SM VCSH BKN040 FM070500 03008KT P6SM BKN045 FM070900 03006KT P6SM SCT060<br><br>
<br><br>
KBUF 061254Z 00000KT 10SM FEW080 BKN110 BKN140 BKN190 BKN240 17/07 A2998 RMK AO2 SLP153 T01670072<br><br>
KBUF 061154Z 23004KT 10SM FEW095 FEW130 SCT190 BKN300 15/07 A2999 RMK AO2 SLP156 T01500072 10150 20122 50004<br><br>
KBUF 061120Z 0612/0712 VRB03KT P6SM SCT110 BKN250 FM061500 03005KT P6SM BKN110 FM062100 03009KT P6SM VCSH BKN040 FM070500 04007KT P6SM OVC040 FM070900 03007KT P6SM SCT060<br><br>
<br><br>
CYYZ 061200Z 04006KT 15SM FEW030 SCT100 SCT130 BKN250 13/05 A2998 RMK CU1AC2AC1CS3 SH DIST N SLP153<br><br>
TAF CYYZ 061138Z 0612/0718 01005KT P6SM FEW030 SCT100 OVC260 TEMPO 0612/0615 P6SM -SHRA BKN030 BECMG 0613/0615 08008KT FM061800 08010KT P6SM BKN070 TEMPO 0618/0621 P6SM -SHRA FM062100 01010G20KT P6SM -SHRA BKN040 OVC070 FM070100 01010G20KT P6SM BKN040 BKN100 FM070600 03010KT P6SM BKN040 FM071000 01008KT P6SM FEW040 BECMG 0713/0715 08008KT RMK NXT FCST BY 061500Z<br><br>
<br><br>
CYOO 061200Z AUTO 08005KT 9SM BKN100 OVC120 13/03 A2998 RMK SLP154<br><br>
CYOO has no TAF <br><br>
<br><br>
CYTR 061200Z 06010KT 15SM SCT093 BKN250 12/05 A3001 RMK AC3CI3 SLP163<br><br>
TAF CYTR 061130Z 0612/0712 05007KT P6SM BKN090 OVC250 FM061400 05008KT P6SM FEW090 SCT250 FM061900 05010KT P6SM SCT050 BKN100 FM070400 04012KT P6SM SCT050 FM070800 04008KT P6SM SKC RMK NXT FCST BY 061800Z<br><br>
<br><br>
