RETRIEVED AT : Mar 14 2020 23:05 Local <br>
  RETRIEVED AT: Mar 15 2020 03:05 UTC<br><br>
CYSN has no TAF <br><br>
<br><br>
CYHM 150200Z 33005KT 15SM FEW030 OVC100 M00/M03 A3046 RMK SC1AC8 SC TR SLP328<br><br>
TAF CYHM 142338Z 1500/1524 32007KT P6SM BKN020 OVC130 TEMPO 1500/1506 SCT020 OVC130 FM150600 03010KT P6SM SCT040 BKN120 FM151200 03015KT P6SM FEW030 SCT120 FM151500 04015KT P6SM FEW040 FM152100 09010KT P6SM FEW030 RMK NXT FCST BY 150600Z<br><br>
<br><br>
KIAG 150253Z 01006KT 10SM OVC026 01/M03 A3047 RMK AO2 SLP332 T00061028 52003<br><br>
KIAG 150153Z 02010KT 10SM BKN024 OVC032 01/M03 A3046 RMK AO2 SLP330 T00111028<br><br>
KIAG 150149Z 01009KT 10SM BKN024 OVC032 01/M03 A3046 RMK AO2<br><br>
KIAG 150300Z 1503/1524 36006KT P6SM SCT025 BKN100 TEMPO 1503/1505 BKN025 FM150800 36006KT P6SM SCT100 BKN250 FM151200 04008KT P6SM SKC<br><br>
<br><br>
KBUF 150254Z 33006KT 10SM BKN019 OVC110 02/M02 A3047 RMK AO2 SLP326 T00171022 51007<br><br>
KBUF 150154Z 26003KT 10SM OVC140 01/M02 A3046 RMK AO2 SLP323 T00111022<br><br>
KBUF 150118Z 26005KT 10SM FEW026 BKN120 01/M03 A3046 RMK AO2 T00111028<br><br>
KBUF 150300Z 1503/1524 34006KT P6SM BKN100 TEMPO 1503/1505 BKN015 FM150900 02006KT P6SM SCT100 BKN250 FM151400 04008KT P6SM SKC<br><br>
<br><br>
CYYZ 150200Z 03008KT 15SM OVC110 M00/M05 A3047 RMK AS8 SLP329<br><br>
TAF CYYZ 150238Z 1503/1606 03008KT P6SM FEW030 OVC110 FM151200 02012KT P6SM FEW030 BECMG 1518/1520 04010KT FM152100 09011KT P6SM FEW030 BECMG 1522/1524 14008KT BECMG 1602/1604 04008KT RMK NXT FCST BY 150600Z<br><br>
<br><br>
CYOO 150200Z AUTO 34010G15KT 9SM OVC130 00/M04 A3047 RMK SLP325<br><br>
TAF CYOO 150139Z 1502/1514 33007KT P6SM OVC150 BECMG 1505/1507 02009KT FM151200 05006KT P6SM SKC RMK FCST BASED ON AUTO OBS. NXT FCST BY 150800Z<br><br>
<br><br>
CYTR 150200Z 32007KT 15SM OVC170 02/M04 A3044 RMK AC8 SLP313<br><br>
TAF CYTR 142330Z 1500/1524 30010KT P6SM BKN160 OVC250 BECMG 1502/1504 02008KT FM151300 03008KT P6SM SKC RMK NXT FCST BY 150600Z<br><br>
<br><br>
