RETRIEVED AT : Apr 03 2020 11:05 Local <br>
  RETRIEVED AT: Apr 03 2020 15:05 UTC<br><br>
CYSN 031400Z 33011G18KT 15SM SCT030 OVC250 05/01 A2999 RMK SC4CI4 SLP161<br><br>
TAF CYSN 031238Z 0313/0401 33010G20KT P6SM FEW250 FM031400 34010G20KT P6SM SCT020 BKN070 TEMPO 0314/0315 BKN020 BKN070 FM031500 34010G20KT P6SM BKN025 BKN070 TEMPO 0315/0318 BKN020 OVC070 FM031800 34008KT P6SM OVC025 TEMPO 0318/0401 P6SM -RA OVC020 RMK NXT FCST BY 032000Z<br><br>
<br><br>
CYHM 031400Z 34013G18KT 15SM FEW025 FEW250 06/M01 A3000 RMK CF1CI1 CF TR SLP167<br><br>
TAF CYHM 031138Z 0312/0412 32008KT P6SM SKC FM031500 36008KT P6SM FEW025 FM031800 04008KT P6SM BKN030 FM040600 VRB03KT P6SM BKN020 BKN040 RMK NXT FCST BY 031800Z<br><br>
<br><br>
KIAG 031453Z 32013G16KT 10SM OVC021 04/M01 A2999 RMK AO2 SLP166 T00441006 53009<br><br>
KIAG 031353Z 34014KT 10SM BKN023 04/M01 A2998 RMK AO2 SLP162 T00391006<br><br>
KIAG 031340Z 32013KT 10SM BKN023 04/M01 A2998 RMK AO2 T00441006<br><br>
KIAG 031447Z 0315/0412 33012KT P6SM OVC025 FM031700 34009KT P6SM VCSH OVC012 FM040000 32004KT 4SM BR OVC007<br><br>
<br><br>
KBUF 031454Z 33007KT 290V350 10SM FEW009 BKN022 BKN250 05/00 A2999 RMK AO2 SLP160 CIG HYR S-W T00500000 53007<br><br>
KBUF 031447Z 35006KT 10SM FEW009 BKN022 BKN250 05/00 A2998 RMK AO2 CIG HYR S-W T00500000<br><br>
KBUF 031354Z 31011KT 10SM BKN022 BKN060 BKN250 05/M01 A2997 RMK AO2 SLP155 T00501006<br><br>
KBUF 031343Z 33010KT 10SM BKN022 BKN060 BKN250 05/M01 A2997 RMK AO2 T00501006<br><br>
KBUF 031447Z 0315/0412 31012KT P6SM OVC025 FM031600 32012KT P6SM VCSH OVC012 FM032300 VRB03KT 4SM BR OVC007 FM040300 VRB03KT 1SM BR OVC004<br><br>
<br><br>
CYYZ 031400Z 35008G17KT 330V040 15SM FEW020 FEW070 FEW260 06/M00 A3000 RMK CF1AC1CI1 CF TR AC TR SLP163<br><br>
TAF CYYZ 031438Z 0315/0418 36012KT P6SM FEW020 SCT070 TEMPO 0315/0317 BKN020 BKN070 FM031700 36012KT P6SM BKN030 BKN070 TEMPO 0322/0403 P6SM -RA FM040300 36010KT P6SM SCT015 OVC040 TEMPO 0403/0408 BKN015 OVC040 PROB30 0406/0408 6SM -DZ BR BKN008 OVC020 FM040800 36008KT P6SM SCT006 BKN012 OVC030 PROB30 0408/0413 4SM -DZ BR OVC006 FM041500 08008KT P6SM BKN015 OVC030 BECMG 0417/0418 13008KT RMK NXT FCST BY 031800Z<br><br>
<br><br>
CYOO 031400Z AUTO 35016G21KT 9SM OVC045 06/01 A2996 RMK SLP151<br><br>
TAF CYOO 031338Z 0314/0402 35012G22KT P6SM SCT030 BKN070 TEMPO 0314/0317 BKN020 BKN070 FM031700 35010KT P6SM BKN030 BKN070 TEMPO 0317/0401 P6SM -RA OVC020 FM040100 35005KT P6SM SCT012 BKN030 TEMPO 0401/0402 5SM -DZ BR BKN012 OVC030 RMK FCST BASED ON AUTO OBS. NXT FCST BY 032000Z<br><br>
<br><br>
CYTR 031400Z 02011G17KT 15SM BKN022 BKN035 08/03 A2993 RMK SC5SC2 SLP139<br><br>
CYTR 031314Z 35012KT 15SM BKN022 OVC035 07/02 A2992 RMK SC6SC2 SLP136<br><br>
TAF CYTR 031130Z 0312/0412 35008KT P6SM SCT015 OVC030 TEMPO 0312/0314 BKN015 OVC030 FM031400 01010KT P6SM -RA SCT012 OVC025 TEMPO 0314/0322 OVC012 FM032200 02008KT P6SM -RA OVC012 FM040300 02005KT P6SM BKN008 OVC020 TEMPO 0403/0412 5SM -RA BR RMK NXT FCST BY 031800Z<br><br>
<br><br>
