RETRIEVED AT : May 29 2018 06:07 Local <br>
  RETRIEVED AT: May 29 2018 10:07 UTC<br><br>
CYSN has no TAF <br><br>
<br><br>
CYHM 290900Z 06004KT 15SM SCT250 18/15 A3000 RMK CI3 SLP156 DENSITY ALT 1300FT<br><br>
TAF CYHM 290538Z 2906/3006 04005KT P6SM SCT250 BECMG 2912/2914 05015KT RMK NXT FCST BY 291200Z<br><br>
<br><br>
KIAG 290953Z AUTO 00000KT 4SM HZ CLR 18/14 A2999 RMK AO2 SLP151 T01780139<br><br>
KIAG 290853Z AUTO 00000KT 10SM CLR 19/14 A2999 RMK AO2 SLP148 T01890139 53007<br><br>
KIAG 290901Z 2909/3006 00000KT P6SM SKC FM291100 04005KT P6SM SKC FM291400 06012KT P6SM SKC FM300000 08008KT P6SM SKC<br><br>
<br><br>
KBUF 290901Z 2909/3006 00000KT P6SM SKC FM291200 04005KT P6SM SKC FM291500 06012KT P6SM SKC FM300000 07008KT P6SM SKC<br><br>
<br><br>
CYYZ 290900Z 35006KT 15SM SKC 19/16 A3000 RMK SLP157 DENSITY ALT 1200FT<br><br>
TAF CYYZ 290838Z 2909/3012 35006KT P6SM SKC FM291100 05010KT P6SM FEW030 BECMG 2913/2915 09010G20KT BECMG 2922/2924 08008KT RMK NXT FCST BY 291200Z<br><br>
<br><br>
CYOO 290900Z AUTO 01006KT 9SM CLR 19/15 A2998 RMK SLP152 DENSITY ALT 900FT<br><br>
CYOO has no TAF <br><br>
<br><br>
CYTR 290900Z 03005KT 15SM FEW250 19/15 A2997 RMK CI1 SLP150<br><br>
TAF CYTR 290530Z 2906/3006 VRB03KT 6SM BR FEW060 SCT150 TEMPO 2906/2908 2SM BR BECMG 2906/2908 35006KT FM290800 35006KT P6SM FEW060 BECMG 2910/2912 04010KT RMK NXT FCST BY 291200Z<br><br>
<br><br>
