RETRIEVED AT : Mar 28 2020 21:05 Local <br>
  RETRIEVED AT: Mar 29 2020 01:05 UTC<br><br>
CYSN 290000Z 04007KT 15SM OVC017 06/06 A2988 RMK SC8 SLP122<br><br>
TAF AMD CYSN 282001Z 2820/2901 07010KT 2SM -DZ BR OVC002 TEMPO 2820/2901 6SM BR SCT005 OVC015 RMK NXT FCST WILL BE ISSUED AT 291245Z<br><br>
<br><br>
CYHM 290027Z 04014KT 3/8SM R12/3500VP6000FT/D -DZ FG VV002 04/03 A2988 RMK FG8 PRESRR SLP127<br><br>
CYHM 290016Z 04017KT 3/4SM R12/P6000FT/D -DZ BR OVC002 04/03 A2987 RMK FG5ST3 SLP123<br><br>
CYHM 290000Z 03013G23KT 1SM R12/P6000FT/N BR OVC002 04/03 A2988 RMK FG3ST5 SLP127<br><br>
CYHM 282350Z 04017KT 5/8SM R12/P6000FT/D BR OVC002 04/03 A2987 RMK FG5ST3 PRESFR SLP123<br><br>
CYHM 282323Z 02015KT 1 1/4SM BR OVC002 04/03 A2988 RMK FG3ST5 PRESRR SLP128<br><br>
TAF CYHM 282338Z 2900/2924 04015G25KT 1SM -DZ BR OVC002 FM290600 05015G25KT 3/4SM -RA BR OVC002 TEMPO 2906/2912 3SM SHRA BR OVC005 BECMG 2909/2911 05012KT FM291200 05008KT 1/4SM -RA FG VV001 PROB30 2913/2916 1SM +TSRA BR OVC002CB FM291600 22012KT 5SM -SHRA BR OVC008 BECMG 2916/2918 23018G28KT FM291800 23018G28KT P6SM BKN015 BKN040 BECMG 2918/2920 24020G38KT FM292200 23020G38KT P6SM -SHRA BKN015 BKN040 RMK NXT FCST BY 290600Z<br><br>
<br><br>
KIAG 290053Z 07012KT 10SM BKN007 OVC016 08/07 A2986 RMK AO2 SLP121 T00830067<br><br>
KIAG 290000Z 06008KT 10SM OVC008 08/07 A2988 RMK AO2 T00830072<br><br>
KIAG 282353Z 07008KT 10SM OVC016 09/07 A2988 RMK AO2 SLP125 60000 T00890067 10100 20089 53021<br><br>
KIAG 282344Z 2900/2924 09008KT P6SM -RA OVC015 TEMPO 2901/2905 4SM -RA BR OVC004 FM290900 11006KT 4SM -SHRA OVC003 FM291200 14009KT 4SM RA OVC015 WS020/23045KT FM291400 17012G21KT P6SM -SHRA OVC020 WS020/23045KT FM291700 22015G24KT P6SM BKN035 WS020/23045KT<br><br>
<br><br>
KBUF 290054Z 05008KT 7SM -DZ OVC015 09/07 A2987 RMK AO2 DZE00B52RAB00E52 SLP118 P0001 T00890072<br><br>
KBUF 282354Z 05007KT 10SM -DZ OVC016 09/07 A2987 RMK AO2 DZB29 SLP120 P0000 60000 T00940072 10106 20089 51022<br><br>
KBUF 282332Z 06008KT 10SM -DZ OVC013 09/07 A2986 RMK AO2 DZB29 P0000 T00940072<br><br>
KBUF 282344Z 2900/2924 08007KT P6SM -RA OVC015 TEMPO 2901/2905 4SM -RA BR OVC005 FM290900 15007KT 4SM -SHRA OVC007 FM291200 15009KT 4SM RA OVC015 WS020/23045KT FM291500 19014G25KT P6SM VCSH OVC025 WS020/23045KT FM292000 24019G32KT P6SM BKN040<br><br>
<br><br>
CYYZ 290033Z 08024G32KT 5SM -DZ BR OVC006 06/05 A2991 RMK ST8 SLP134<br><br>
CYYZ 290000Z 09018G24KT 10SM OVC008 06/05 A2992 RMK SC8 SLP138<br><br>
TAF AMD CYYZ 290045Z 2900/3006 08018G28KT 4SM -DZ BR OVC006 TEMPO 2900/2903 P6SM NSW OVC010 FM290300 08018G28KT 6SM BR OVC005 TEMPO 2903/2907 2SM -DZ BR OVC003 FM290700 08015G25KT 11/2SM -RA BR OVC003 TEMPO 2907/2914 5SM SHRA BR OVC006 FM291400 09012KT 1SM -RA BR OVC002 PROB30 2914/2916 1SM +TSRA BR OVC002CB FM291700 23015KT 5SM -SHRA BR BKN008 OVC015 BECMG 2917/2919 24020G35KT FM291900 23020G35KT P6SM -SHRA BKN020 BKN040 FM300200 23015G25KT P6SM -SHRA OVC015 RMK NXT FCST BY 290300Z<br><br>
<br><br>
CYOO 290016Z AUTO 08011G18KT 5SM BR OVC010 06/05 A2995 RMK SLP147<br><br>
CYOO 290000Z AUTO 07014KT 9SM OVC012 07/04 A2996 RMK SLP150<br><br>
TAF CYOO 281938Z 2820/2908 08012KT P6SM BKN015 OVC050 FM282300 08012G22KT P6SM OVC015 TEMPO 2823/2905 4SM -DZ BR BKN007 OVC012 FM290500 08015G25KT 5SM -DZ BR OVC006 TEMPO 2905/2908 P6SM NSW OVC010 RMK FCST BASED ON AUTO OBS. NXT FCST BY 290200Z<br><br>
<br><br>
CYTR 290037Z 10005KT 6SM -DZ BR OVC020 07/03 A3001 RMK SC8 SLP165<br><br>
CYTR 290000Z CCA 12007KT 10SM -DZ OVC020 07/03 A2998 RMK SC8 SLP157<br><br>
TAF CYTR 282330Z 2900/2924 10008KT P6SM BKN020 OVC070 TEMPO 2900/2904 5SM -DZ BR OVC010 FM290400 10012KT P6SM OVC012 TEMPO 2904/2909 3SM -RA -DZ BR BKN005 OVC012 FM290900 10012G22KT 3SM -RA BR OVC008 TEMPO 2909/2917 1SM -SHRA BR OVC003 PROB30 2912/2917 1SM TSRA BR OVC003CB FM291700 13012G22KT 3SM -SHRA BR BKN010 OVC015 PROB30 2917/2921 VRB15G25KT 1SM +TSRA BKN010 OVC015CB FM292100 24012G22KT 6SM -SHRA BR BKN012 OVC025 RMK NXT FCST BY 290600Z<br><br>
<br><br>
