RETRIEVED AT : May 17 2020 22:05 Local <br>
  RETRIEVED AT: May 18 2020 02:05 UTC<br><br>
CYSN 180100Z 08008KT 10SM OVC074 13/10 A3007 RMK AC8 LAST STFD OBS/NEXT 181100Z SLP186<br><br>
CYSN has no TAF <br><br>
<br><br>
CYHM 180100Z 06018KT 12SM -RA OVC015 11/09 A3006 RMK SC8 SLP185<br><br>
CYHM 180017Z 07016G23KT 12SM -RA SCT017 OVC041 11/09 A3006 RMK SC4SC4 SLP185<br><br>
TAF CYHM 172343Z 1800/1824 05015G25KT P6SM BKN025 OVC050 TEMPO 1800/1804 4SM -RA BR BKN020 OVC040 FM180400 05020G30KT 11/2SM -RA BR OVC005 TEMPO 1804/1823 6SM -RA BR OVC010 FM182300 05015G25KT 6SM -RA BR BKN010 OVC025 RMK NXT FCST BY 180600Z<br><br>
<br><br>
KIAG 180153Z 08010KT 10SM BKN060 OVC095 13/09 A3008 RMK AO2 RAB06E28 SLP187 P0000 T01330094 /<br><br>
KIAG 180053Z 08010KT 10SM OVC075 13/09 A3008 RMK AO2 SLP189 T01280089 $<br><br>
KIAG 172327Z 1800/1824 08012KT 6SM -RA OVC025 FM180300 08012KT 3SM RA BR OVC008 FM181500 09014KT 4SM -RA OVC012 FM182100 07014KT P6SM OVC015<br><br>
<br><br>
KBUF 180154Z 07012KT 10SM OVC050 14/12 A3007 RMK AO2 RAE24 SLP184 P0000 T01390117 $<br><br>
KBUF 180054Z 07010KT 10SM -RA BKN050 OVC070 13/11 A3008 RMK AO2 SLP187 P0003 T01280106 $<br><br>
KBUF 172327Z 1800/1824 07012KT 6SM -RA OVC040 FM180300 08010KT 5SM RA OVC012 FM180700 08012KT 3SM RA BR OVC008 FM181500 10014KT 4SM -RA OVC015 FM182100 08014KT P6SM OVC025<br><br>
<br><br>
CYYZ 180134Z 08011KT 15SM -RA BKN036 OVC090 15/07 A3012 RMK SC6AC2 SLP202<br><br>
CYYZ 180100Z 09011KT 15SM BKN038 OVC095 14/07 A3011 RMK SC5AC3 SLP198<br><br>
CYYZ 180043Z 08009KT 15SM SCT045 BKN090 OVC120 14/08 A3010 RMK SC3AC2AC3 SLP198<br><br>
TAF CYYZ 172343Z 1800/1906 09010KT P6SM BKN040 OVC090 TEMPO 1800/1805 4SM -SHRA BR OVC030 FM180500 08012KT 6SM -RA BR BKN012 OVC025 TEMPO 1805/1815 11/2SM -RA BR BKN006 OVC012 BECMG 1812/1814 09018G28KT FM181900 08015G25KT P6SM -SHRA SCT008 OVC020 FM190100 09015KT P6SM OVC030 RMK NXT FCST BY 180300Z<br><br>
<br><br>
CYOO 180146Z AUTO 09007KT 9SM -RA OVC050 16/08 A3013 RMK SLP207<br><br>
CYOO 180109Z AUTO 04005KT 9SM OVC055 16/08 A3014 RMK SLP208<br><br>
CYOO 180100Z AUTO 05006KT 010V070 9SM -RA OVC055 16/08 A3014 RMK SLP208<br><br>
CYOO 180045Z AUTO 08004KT 9SM -RA OVC055 16/08 A3013 RMK SLP207<br><br>
TAF CYOO 180139Z 1802/1814 06007KT P6SM BKN060 OVC100 TEMPO 1802/1808 P6SM -RA OVC050 BECMG 1804/1806 07012KT FM180800 07012G22KT P6SM BKN040 OVC080 TEMPO 1808/1814 5SM -RA BR OVC030 RMK FCST BASED ON AUTO OBS. NXT FCST BY 180800Z<br><br>
<br><br>
CYTR 180127Z 06005KT 15SM SCT039 OVC055 16/06 A3016 RMK SC4SC4 SLP215<br><br>
CYTR 180100Z 06005KT 15SM -RA BKN031 OVC055 16/07 A3015 RMK SC5SC3 SLP212<br><br>
CYTR 180044Z 05006KT 15SM -RA BKN031 OVC055 16/07 A3015 RMK SC5SC3 SLP211<br><br>
TAF CYTR 172330Z 1800/1824 06008KT P6SM FEW050 OVC120 TEMPO 1800/1803 P6SM -RA BKN050 OVC120 FM180300 05005KT P6SM -RA SCT030 OVC050 TEMPO 1803/1809 5SM -RA BR BKN030 OVC050 FM180900 05010G20KT P6SM -RA FEW008 SCT015 OVC050 TEMPO 1809/1814 5SM -RA BR FEW008 BKN015 OVC050 FM181400 06012G22KT P6SM FEW015 BKN030 OVC050 FM182000 06012G22KT P6SM SCT030 OVC150 RMK NXT FCST BY 180600Z<br><br>
<br><br>
