RETRIEVED AT : Jun 28 2020 00:05 Local <br>
  RETRIEVED AT: Jun 28 2020 04:05 UTC<br><br>
CYSN has no TAF <br><br>
<br><br>
CYHM 280300Z 21005KT 15SM FEW035TCU FEW090 SCT180 21/20 A2971 RMK TCU1AC1AC1 FREQ LTGIC N SLP061 DENSITY ALT 1900FT<br><br>
TAF CYHM 272339Z 2800/2824 25008KT P6SM FEW025 SCT080 FM280800 26006KT P6SM SCT070 FM281100 30006KT P6SM SKC FM281700 05006KT P6SM BKN040 BECMG 2820/2822 12008KT RMK NXT FCST BY 280600Z<br><br>
<br><br>
KIAG 280353Z AUTO 20006KT 9SM SCT060 BKN080 OVC110 21/19 A2971 RMK AO2 LTG DSNT W-N SLP058 T02060189<br><br>
KIAG 280253Z 23008KT 10SM SCT095 21/19 A2972 RMK AO2 SLP061 T02060189 53004<br><br>
KIAG 280357Z 2804/2824 23007KT P6SM VCTS SCT050CB BKN200 TEMPO 2804/2806 6SM -SHRA OVC040 FM280700 23004KT P6SM BKN050 FM281000 28005KT P6SM BKN040 FM281500 31007KT P6SM SCT050 SCT250<br><br>
<br><br>
KBUF 280354Z 23010KT 10SM FEW055 BKN075 19/19 A2973 RMK AO2 SLP064 T01940189<br><br>
KBUF 280345Z 22008KT 10SM FEW007 SCT055 BKN075 19/19 A2973 RMK AO2 T01940189<br><br>
KBUF 280254Z 21009KT 10SM SCT050 BKN090 19/19 A2974 RMK AO2 SLP069 T01940189 53004<br><br>
KBUF 280257Z 2803/2824 23008KT P6SM VCSH SCT050 BKN200 TEMPO 2805/2807 6SM -SHRA OVC040 FM280800 26004KT P6SM BKN012 FM281300 26008KT P6SM BKN040<br><br>
<br><br>
CYYZ 280334Z 36009KT 15SM BKN080 21/19 A2970 RMK AC5 SLP057 DENSITY ALT 1700FT<br><br>
CYYZ 280300Z 30007KT 12SM -SHRA OVC070 21/20 A2972 RMK AC8 CVCTV CLD EMBD SLP063 DENSITY ALT 1600FT<br><br>
CYYZ 280236Z 32014G24KT 12SM -SHRA FEW040 OVC060 21/19 A2971 RMK CF1SC8 CF TR CVCTV CLD EMBD SLP060 DENSITY ALT 1700FT<br><br>
CYYZ 280232Z 31018G24KT 12SM SHRA BKN060 22/19 A2971 RMK SC7 CVCTV CLD EMBD PRESRR SLP060 DENSITY ALT 1800FT<br><br>
CYYZ 280226Z 32019KT 15SM OVC060 24/18 A2971 RMK SC8 WSHFT 0216 PRESRR SLP058 DENSITY ALT 2100FT<br><br>
TAF AMD CYYZ 280340Z 2803/2906 36008KT P6SM SCT080 TEMPO 2803/2806 P6SM VCTS FEW040CB BKN080 FM280600 34006KT P6SM FEW080 BECMG 2810/2812 34012KT FM281700 35012KT P6SM SCT050 TEMPO 2817/2824 BKN050 FM290000 01010KT P6SM FEW050 RMK NXT FCST BY 280600Z<br><br>
<br><br>
CYOO 280403Z AUTO 07003KT 9SM FEW044 OVC095 20/20 A2970 RMK LTNG DIST SE SLP056 DENSITY ALT 1300FT<br><br>
CYOO 280349Z AUTO 04004KT 340V140 6SM -RA BR SCT046 SCT070 OVC091 20/20 A2970 RMK LTNG DIST SE SLP058 DENSITY ALT 1400FT<br><br>
CYOO 280337Z AUTO VRB02KT 5SM -RA BR FEW041 BKN049 OVC070 20/20 A2970 RMK LTNG DIST SE SLP058 DENSITY ALT 1400FT<br><br>
CYOO 280327Z AUTO 16003KT 090V190 9SM BKN050 OVC070 20/20 A2971 RMK LTNG DIST SE SLP060 DENSITY ALT 1400FT<br><br>
CYOO 280308Z AUTO 18004KT 140V220 6SM -RA BR FEW017 SCT046 BKN060 OVC077 20/20 A2971 RMK SLP060 DENSITY ALT 1400FT<br><br>
CYOO 280300Z AUTO 19003KT 110V220 4SM RA BR FEW017 SCT040 OVC065 20/20 A2971 RMK SLP060 DENSITY ALT 1400FT<br><br>
CYOO 280249Z AUTO 22007KT 150V240 3SM RA BR SCT017 SCT024 BKN035 OVC060 20/20 A2972 RMK SLP063 DENSITY ALT 1400FT<br><br>
CYOO 280246Z AUTO 22008KT 150V240 2SM RA BR FEW017 SCT027 BKN037 OVC060 21/20 A2972 RMK VIS VRB 1 1/4-3 SLP065 DENSITY ALT 1400FT<br><br>
CYOO 280238Z AUTO 21007G15KT 200V280 2 1/4SM +RA BR FEW017 SCT023 BKN034 OVC075 20/20 A2971 RMK PRESRR SLP063 DENSITY ALT 1400FT<br><br>
CYOO 280235Z AUTO 23009G15KT 210V310 3SM +RA BR SCT020 BKN034 BKN048 OVC075 21/19 A2971 RMK PRESRR SLP063 DENSITY ALT 1400FT<br><br>
CYOO 280234Z AUTO 24010G15KT 230V330 3SM +RA BR BKN022 BKN037 BKN048 OVC075 21/19 A2972 RMK PRESRR SLP063 DENSITY ALT 1400FT<br><br>
CYOO 280231Z AUTO 27010G15KT 260V010 4SM +RA BR SCT022 BKN034 BKN048 OVC075 21/19 A2972 RMK PRESRR SLP063 DENSITY ALT 1400FT<br><br>
CYOO 280229Z AUTO 27009KT 260V030 5SM RA BR SCT029 BKN048 OVC075 21/18 A2971 RMK PRESRR SLP062 DENSITY ALT 1400FT<br><br>
CYOO 280224Z AUTO VRB02KT 5SM +RA SCT038 BKN048 BKN075 OVC100 21/18 A2970 RMK SLP056 DENSITY ALT 1400FT<br><br>
CYOO 280222Z AUTO VRB04KT 6SM +RA FEW040 SCT048 BKN075 OVC110 21/18 A2969 RMK SLP055 DENSITY ALT 1500FT<br><br>
CYOO 280214Z AUTO VRB02KT 9SM -RA FEW048 BKN075 OVC100 22/17 A2969 RMK SLP053 DENSITY ALT 1600FT<br><br>
TAF AMD CYOO 280229Z 2802/2814 35005KT P6SM FEW040 SCT100 TEMPO 2802/2804 VRB15G25KT 21/2SM +SHRA VCTS SCT020CB BKN040 OVC090 FM280500 VRB03KT P6SM SKC TEMPO 2807/2812 5SM BR PROB30 2808/2812 1/2SM FG FEW002 FM281200 34007KT P6SM SKC RMK FCST BASED ON AUTO OBS. NXT FCST BY 280800Z<br><br>
<br><br>
CYTR 280300Z 21005KT 15SM FEW050 FEW095 FEW250 21/19 A2968 RMK SC1AC2CI1 SLP052<br><br>
TAF CYTR 272330Z 2800/2824 25010G20KT P6SM SCT050 BKN250 BECMG 2800/2802 23005KT FM280800 VRB03KT P6SM SCT020 BKN050 PROB30 2808/2812 1SM BR OVC005 FM281600 VRB03KT P6SM -SHRA BKN050 RMK NXT FCST BY 280600Z<br><br>
<br><br>
