RETRIEVED AT : Mar 20 2020 19:05 Local <br>
  RETRIEVED AT: Mar 20 2020 23:05 UTC<br><br>
CYSN 202200Z 28020G28KT 15SM OVC031 05/01 A2998 RMK SC8 SLP157<br><br>
TAF CYSN 201938Z 2020/2101 30020G30KT P6SM SCT030 TEMPO 2020/2101 BKN030 BECMG 2022/2024 29015G25KT RMK NXT FCST WILL BE ISSUED AT 211245Z<br><br>
<br><br>
CYHM 202200Z 29018G24KT 15SM OVC019 03/M01 A3001 RMK SC8 SLP168<br><br>
TAF CYHM 201739Z 2018/2118 28025G40KT P6SM OVC015 TEMPO 2018/2021 SCT015 OVC025 FM202100 29022G32KT P6SM BKN030 TEMPO 2021/2024 BKN020 BECMG 2022/2024 30015G25KT FM210000 30015G25KT P6SM SCT030 BECMG 2104/2106 36008KT FM211000 03010KT P6SM SCT020 FM211200 04010KT P6SM SKC RMK NXT FCST BY 210000Z<br><br>
<br><br>
KIAG 202253Z 29019KT 10SM BKN025 OVC030 04/M01 A3005 RMK AO2 PK WND 28028/2237 SLP182 T00391006<br><br>
KIAG 202153Z 30021G27KT 10SM BKN025 OVC030 05/01 A2997 RMK AO2 PK WND 29028/2130 SLP155 T00500006<br><br>
KIAG 202115Z 30017G26KT 10SM BKN028 OVC033 06/02 A2994 RMK AO2 PK WND 29026/2104 T00610017<br><br>
KIAG 202105Z 2021/2118 29020G27KT P6SM OVC030 FM210300 31016G24KT P6SM BKN035 FM210900 34010G16KT P6SM BKN080<br><br>
<br><br>
KBUF 202254Z 28015KT 10SM OVC023 06/01 A3004 RMK AO2 SLP176 T00560006<br><br>
KBUF 202154Z 29013G22KT 10SM OVC025 07/02 A2997 RMK AO2 SLP150 OCNL BINOVC T00670017<br><br>
KBUF 202122Z 31017G24KT 10SM BKN026 OVC035 08/02 A2994 RMK AO2 OCNL BINOVC T00780017<br><br>
KBUF 202105Z 2021/2118 30015G25KT P6SM SCT029 OVC035 FM210200 30016G24KT P6SM BKN025 FM210400 31013G21KT P6SM BKN035 FM211600 36007KT P6SM FEW250<br><br>
<br><br>
CYYZ 202200Z 29022G33KT 15SM BKN020 02/M02 A2999 RMK SC7 PRESRR SLP160<br><br>
TAF CYYZ 202038Z 2021/2124 30025G35KT P6SM SCT020 BKN100 TEMPO 2021/2102 BKN020 OVC100 BECMG 2022/2024 31018G28KT FM210200 33015G25KT P6SM BKN025 FM210600 35015G25KT P6SM SCT025 FM210900 01012G22KT P6SM SKC BECMG 2112/2114 01012KT FM211800 01012KT P6SM SCT200 RMK NXT FCST BY 210000Z<br><br>
<br><br>
CYOO 202219Z AUTO 29017G28KT 9SM BKN023 OVC030 02/M01 A2997 RMK PRESRR SLP154<br><br>
CYOO 202200Z AUTO 31017G25KT 9SM FEW018 BKN025 BKN030 OVC036 03/M00 A2994 RMK PRESRR SLP144<br><br>
CYOO 202154Z AUTO 30019G25KT 9SM SCT020 OVC025 04/00 A2994 RMK PRESRR SLP142<br><br>
CYOO 202137Z AUTO 31017G23KT 9SM BKN020 OVC025 04/01 A2991 RMK PRESRR SLP134<br><br>
CYOO 202125Z AUTO 29015G24KT 9SM -RA BKN022 OVC029 05/01 A2990 RMK PRESRR SLP130<br><br>
CYOO 202108Z AUTO 32014G20KT 9SM BKN022 OVC034 05/02 A2988 RMK PRESRR SLP123<br><br>
CYOO 202107Z AUTO 32016G21KT 9SM SCT022 BKN028 OVC034 05/02 A2988 RMK PRESRR SLP122<br><br>
TAF AMD CYOO 202119Z 2021/2108 32015G25KT P6SM SCT020 BKN030 TEMPO 2021/2024 BKN020 OVC030 FM210000 30012G22KT P6SM BKN025 FM210400 34012KT P6SM FEW030 RMK FCST BASED ON AUTO OBS. NXT FCST BY 210200Z<br><br>
<br><br>
CYTR 202200Z 29017G29KT 15SM BKN025 06/00 A2986 RMK SC5 PRESRR SLP115<br><br>
TAF CYTR 201730Z 2018/2118 24018G28KT P6SM SCT012 OVC025 TEMPO 2018/2019 VRB20G35KT 2SM TSRA BR BKN012 OVC025CB FM201830 28020G35KT P6SM FEW012 OVC025 TEMPO 2018/2020 3SM -SHRA BR BKN012 OVC025 PROB30 2018/2019 VRB20G35KT 2SM TSRA BR BKN012 OVC025CB FM202000 28020G35KT P6SM BKN025 TEMPO 2020/2022 5SM -SHRA BR BKN020 FM210200 30015G25KT P6SM SCT025 BECMG 2102/2104 34010G20KT FM210800 35008KT P6SM SKC FM211700 35008KT P6SM SCT210 RMK NXT FCST BY 210000Z<br><br>
<br><br>
