RETRIEVED AT : Mar 21 2020 08:05 Local <br>
  RETRIEVED AT: Mar 21 2020 12:05 UTC<br><br>
CYSN 211100Z 36009KT 15SM BKN025 M04/M09 A3046 RMK SC7 SLP321<br><br>
CYSN has no TAF <br><br>
<br><br>
CYHM 211100Z 01010KT 15SM FEW028 M06/M10 A3045 RMK SC2 SLP324<br><br>
TAF CYHM 211138Z 2112/2212 01010KT P6SM FEW030 FM211400 03012KT P6SM SKC FM220200 02008KT P6SM SKC BECMG 2210/2212 06012KT RMK NXT FCST BY 211800Z<br><br>
<br><br>
KIAG 211153Z 02010KT 10SM OVC024 M05/M09 A3047 RMK AO2 SLP334 70003 T10501094 11022 21050 53027<br><br>
KIAG 211053Z 36012KT 10SM OVC018 M04/M08 A3043 RMK AO2 SLP321 T10441083<br><br>
KIAG 211120Z 2112/2212 36010KT P6SM OVC020 FM211500 36009KT P6SM SCT035 FM211700 36009KT P6SM SKC FM220000 03005KT P6SM SKC<br><br>
<br><br>
KBUF 211154Z 35008KT 10SM OVC018 M04/M08 A3045 RMK AO2 SLP320 70006 T10391083 11017 21039 53024<br><br>
KBUF 211054Z 02006KT 10SM BKN018 OVC030 M03/M08 A3042 RMK AO2 SLP310 T10331078<br><br>
KBUF 211120Z 2112/2212 36008KT P6SM OVC015 FM211600 36008KT P6SM SCT025 FM211900 35008KT P6SM SKC FM220000 03005KT P6SM SKC<br><br>
<br><br>
CYYZ 211100Z 35007KT 330V040 15SM SKC M08/M13 A3048 RMK SLP332<br><br>
TAF CYYZ 211138Z 2112/2218 35010G20KT P6SM SKC BECMG 2114/2116 01012KT FM220100 02008KT P6SM SKC FM221400 08012KT P6SM BKN020 BECMG 2215/2217 09015G25KT RMK NXT FCST BY 211500Z<br><br>
<br><br>
CYOO 211100Z AUTO 35012KT 9SM CLR M08/M11 A3047 RMK SLP327<br><br>
TAF CYOO 210738Z 2108/2120 34010G20KT P6SM SKC BECMG 2110/2112 35010KT RMK FCST BASED ON AUTO OBS. NXT FCST BY 211400Z<br><br>
<br><br>
CYTR 211100Z 01004KT 15SM SKC M08/M13 A3046 RMK SLP321<br><br>
TAF CYTR 211130Z 2112/2212 35008KT P6SM SKC FM211700 35008KT P6SM SCT200 BECMG 2204/2206 03005KT RMK NXT FCST BY 211800Z<br><br>
<br><br>
