RETRIEVED AT : Oct 16 2017 00:10 Local <br>
  RETRIEVED AT: Oct 16 2017 04:10 UTC<br><br>
CYSN has no TAF <br><br>
<br><br>
CYHM 160400Z 32012KT 15SM BKN024 08/04 A3002 RMK SC7 SLP168<br><br>
CYHM 160300Z 31012G23KT 15SM BKN024 08/03 A3000 RMK SC7 SLP160<br><br>
TAF CYHM 152338Z 1600/1624 29022G32KT P6SM BKN025 TEMPO 1600/1605 OVC020 BECMG 1601/1603 31015G25KT FM160500 31010KT P6SM SCT030 BECMG 1614/1616 31010G20KT BECMG 1622/1624 29008KT RMK NXT FCST BY 160600Z<br><br>
<br><br>
KIAG 160353Z AUTO 34016G24KT 10SM FEW024 OVC034 11/04 A2998 RMK AO2 PK WND 32026/0327 SLP153 T01110044<br><br>
KIAG 160304Z AUTO 32013KT 10SM SCT029 BKN036 OVC045 12/05 A2996 RMK AO2 T01170050<br><br>
KIAG 160253Z 33014G23KT 10SM BKN029 OVC037 12/05 A2995 RMK AO2 PK WND 31026/0154 SLP143 T01220050 51046<br><br>
KIAG 160301Z 1603/1624 33015G25KT P6SM BKN025 FM160800 32012G19KT P6SM BKN025 FM161400 30010G20KT P6SM SCT035 FM162300 29005KT P6SM FEW250<br><br>
<br><br>
KBUF 160401Z 31010G19KT 10SM SCT028 BKN035 OVC044 11/06 A2998 RMK AO2 T01060056 $<br><br>
KBUF 160354Z 32013G21KT 10SM BKN028 OVC035 11/06 A2997 RMK AO2 SLP148 T01060056 $<br><br>
KBUF 160328Z 31011KT 10SM BKN028 BKN035 11/06 A2996 RMK AO2 T01060056 $<br><br>
KBUF 160254Z 30012G17KT 10SM BKN036 11/06 A2995 RMK AO2 PK WND 30026/0218 SLP139 T01110056 51048 $<br><br>
KBUF 160301Z 1603/1624 30018G24KT P6SM BKN035 FM160600 32010G16KT P6SM BKN025 FM161400 30010G18KT P6SM SCT035 FM162200 30008KT P6SM FEW250<br><br>
<br><br>
CYYZ 160400Z 34021G26KT 15SM BKN026 09/04 A2999 RMK SC7 SLP158<br><br>
CYYZ 160300Z 33017G26KT 15SM BKN029 09/04 A2997 RMK SC6 PRESRR SLP150<br><br>
TAF CYYZ 160238Z 1603/1706 30020G30KT P6SM BKN030 BECMG 1604/1606 34010G20KT FM160800 34012KT P6SM BKN020 TEMPO 1608/1614 P6SM -SHRA FM161500 33010G20KT P6SM BKN020 FM161700 33012G22KT P6SM BKN030 FM162100 32012G22KT P6SM FEW040 BECMG 1622/1624 32010KT BECMG 1701/1703 VRB03KT RMK NXT FCST BY 160600Z<br><br>
<br><br>
CYOO 160400Z AUTO 33016G23KT 9SM OVC024 08/03 A2997 RMK PRESRR SLP153<br><br>
CYOO 160339Z AUTO 31019G26KT 9SM OVC024 08/03 A2995 RMK SLP146<br><br>
CYOO 160324Z AUTO 33019G30KT 9SM BKN026 OVC031 08/03 A2994 RMK SLP142<br><br>
CYOO 160319Z AUTO 32023G30KT 9SM BKN024 OVC031 08/03 A2994 RMK SLP140<br><br>
CYOO 160317Z AUTO 32024G30KT 300V360 9SM BKN026 OVC031 08/03 A2993 RMK SLP139<br><br>
CYOO 160300Z AUTO 32013G23KT 9SM OVC031 08/03 A2993 RMK SLP137<br><br>
CYOO has no TAF <br><br>
<br><br>
CYTR 160400Z 32009G15KT 15SM OVC026 09/04 A2991 RMK SC8 SLP129<br><br>
CYTR 160300Z 31014KT 15SM OVC025 10/05 A2987 RMK SC8 PRESRR SLP116<br><br>
TAF AMD CYTR 160208Z 1602/1624 30015G25KT P6SM SCT020 BKN030 TEMPO 1602/1608 BKN020 OVC030 BECMG 1606/1608 32012KT FM162200 32012KT P6SM SCT030 RMK NXT FCST BY 160600Z<br><br>
<br><br>
