RETRIEVED AT : May 05 2018 09:05 Local <br>
  RETRIEVED AT: May 05 2018 13:05 UTC<br><br>
CYSN 051200Z 21012KT 15SM BKN070 13/08 A3003 RMK AC5 SLP173<br><br>
TAF CYSN 051238Z 0513/0601 21012KT P6SM BKN070 BECMG 0514/0516 24015KT FM052200 24012KT P6SM BKN080 TEMPO 0522/0601 P6SM -SHRA RMK NXT FCST BY 052000Z<br><br>
<br><br>
CYHM 051200Z 22011KT 15SM SCT063TCU 11/08 A3004 RMK TCU3 SLP177<br><br>
TAF CYHM 051138Z 0512/0612 22006KT P6SM SCT060 TEMPO 0512/0518 BKN060 BECMG 0513/0515 23012G22KT FM051800 24010G20KT P6SM BKN070 TEMPO 0519/0524 P6SM -SHRA PROB30 0520/0524 3SM TSRA BR BKN030 OVC070CB FM060000 23012KT P6SM SCT040 BKN080 BECMG 0604/0606 VRB03KT FM060900 VRB03KT P6SM FEW050 SCT100 RMK NXT FCST BY 051800Z<br><br>
<br><br>
KIAG 051253Z 22014KT 10SM OVC070 14/07 A3005 RMK AO2 SLP181 T01440072<br><br>
KIAG 051153Z 21008KT 10SM SCT065 12/06 A3004 RMK AO2 SLP178 T01220061 10122 20083 53007<br><br>
KIAG 051120Z 0512/0612 22011KT P6SM SCT070 FM051400 22014G22KT P6SM SCT080 FM051600 23020G33KT P6SM SCT080 FM052100 24015G23KT P6SM SCT090 FM052300 23010KT P6SM SCT090 FM060300 20005KT P6SM SCT090<br><br>
<br><br>
KBUF 051254Z 22011KT 10SM SCT070 15/08 A3007 RMK AO2 SLP182 T01500078<br><br>
KBUF 051154Z 21007KT 10SM FEW070 12/08 A3006 RMK AO2 SLP180 T01170078 10117 20072 53007<br><br>
KBUF 051120Z 0512/0612 21009KT P6SM SCT070 FM051400 23013G22KT P6SM SCT080 FM051700 24020G33KT P6SM SCT080 FM052000 24017G26KT P6SM SCT090 FM052300 23010KT P6SM SCT090 FM060300 19005KT P6SM SCT090<br><br>
<br><br>
CYYZ 051200Z 25009KT 15SM FEW065 SCT100 BKN250 12/08 A3001 RMK CU1AC3CI1 SLP168<br><br>
TAF CYYZ 051138Z 0512/0618 24005KT P6SM FEW060 SCT100 TEMPO 0512/0520 BKN060 FM052000 25015KT P6SM FEW040 BKN070 TEMPO 0520/0605 P6SM -SHRA BECMG 0603/0605 33010KT FM060500 33010KT P6SM FEW060 SCT120 BECMG 0606/0608 VRB03KT FM061200 01005KT P6SM FEW040 BECMG 0613/0615 09008KT RMK NXT FCST BY 051500Z<br><br>
<br><br>
CYOO 051200Z AUTO 00000KT 9SM FEW240 08/05 A3002 RMK SLP171<br><br>
CYOO has no TAF <br><br>
<br><br>
CYTR 051200Z 21009KT 15SM SKC 11/06 A3001 RMK SLP166<br><br>
TAF CYTR 051130Z 0512/0612 20008KT P6SM SKC FM051500 24012G22KT P6SM FEW060 FM051900 24012G22KT P6SM BKN060 BKN220 BECMG 0521/0523 20008KT FM060200 20005KT P6SM FEW060 BKN250 RMK NXT FCST BY 051800Z<br><br>
<br><br>
