RETRIEVED AT : Nov 06 2017 00:10 Local <br>
  RETRIEVED AT: Nov 06 2017 05:10 UTC<br><br>
CYSN has no TAF <br><br>
<br><br>
CYHM 060500Z 30009G15KT 15SM FEW004 FEW010 OVC015 11/10 A2976 RMK SF1SC1SC6 SLP081 DENSITY ALT 800FT<br><br>
CYHM 060454Z 31011G17KT 15SM FEW004 FEW010 OVC015 12/10 A2976 RMK SF1SC1SC6 SLP080 DENSITY ALT 800FT<br><br>
CYHM 060400Z 22010KT 4SM -RA BR OVC004 14/14 A2972 RMK SF8 SLP068 DENSITY ALT 1200FT<br><br>
TAF AMD CYHM 060419Z 0604/0624 21010KT 4SM -DZ BR BKN004 OVC012 TEMPO 0604/0610 6SM -RA BR SCT004 OVC012 BECMG 0604/0605 30010G20KT FM061000 31008KT P6SM SCT008 OVC015 TEMPO 0610/0613 5SM BR BKN008 OVC015 FM061300 31010KT P6SM BKN020 TEMPO 0613/0617 SCT020 FM061700 33010KT P6SM FEW025 FM062100 34007KT P6SM FEW140 RMK NXT FCST BY 060600Z<br><br>
<br><br>
KIAG 060453Z 21012KT 10SM OVC024 17/13 A2974 RMK AO2 RAE04 SLP071 P0000 T01670133 401670067<br><br>
KIAG 060353Z 19009KT 10SM -RA BKN027 BKN039 OVC070 16/13 A2973 RMK AO2 RAB18E27B52 SLP070 P0000 T01610133<br><br>
KIAG 060306Z 0603/0624 20015KT 6SM -SHRA OVC035 FM060600 29010KT P6SM OVC012 FM062000 33011KT P6SM FEW025 BKN250<br><br>
<br><br>
KBUF 060454Z 19010KT 10SM -RA OVC032 15/14 A2974 RMK AO2 SLP072 RAB0356 P0004 T01500139 401610061 $<br><br>
KBUF 060354Z 17011KT 10SM BKN034 OVC047 15/13 A2975 RMK AO2 RAB00E10 SLP076 P0000 T01500133 $<br><br>
KBUF 060306Z 0603/0624 20011KT 6SM -SHRA BKN035 FM060600 30012KT P6SM OVC015 FM062100 33010KT P6SM FEW025 BKN250<br><br>
<br><br>
CYYZ 060500Z 31012G18KT 15SM OVC018 12/10 A2975 RMK SC8 PRESRR SLP077 DENSITY ALT 600FT<br><br>
CYYZ 060437Z 32018KT 10SM FEW006 OVC017 12/11 A2973 RMK SF2SC6 SLP071 DENSITY ALT 700FT<br><br>
CYYZ 060422Z 31018G31KT 200V340 5SM -RA BR BKN004 OVC014 14/13 A2972 RMK SF6SC2 WSHFT 0419 SLP066 DENSITY ALT 800FT<br><br>
CYYZ 060400Z 21006KT 5SM -RA BR BKN006 OVC018 15/14 A2970 RMK SF5SC3 SLP062 DENSITY ALT 1000FT<br><br>
CYYZ 060332Z 22012KT 6SM -RA OVC018 15/14 A2970 RMK SC8 SLP062 DENSITY ALT 1000FT<br><br>
TAF AMD CYYZ 060438Z 0604/0706 32012G22KT 5SM -DZ BR BKN005 OVC020 TEMPO 0604/0613 P6SM -RA SCT005 OVC025 FM061300 32012KT P6SM BKN025 TEMPO 0613/0616 OVC020 FM061800 33015KT P6SM SCT030 BECMG 0701/0702 34010KT RMK NXT FCST BY 060600Z<br><br>
<br><br>
CYOO 060500Z AUTO 24006KT 3SM -RA BR OVC002 14/13 A2971 RMK SLP062 DENSITY ALT 700FT<br><br>
CYOO 060431Z AUTO 22009KT 5SM -RA BR OVC002 14/13 A2971 RMK SLP063 DENSITY ALT 600FT<br><br>
CYOO 060430Z AUTO 22008KT 5SM BR OVC002 14/13 A2971 RMK SLP063 DENSITY ALT 600FT<br><br>
CYOO 060409Z AUTO 20009KT 6SM BR OVC002 14/13 A2970 RMK SLP060 DENSITY ALT 600FT<br><br>
CYOO 060404Z AUTO 20008KT 3SM BR OVC002 13/12 A2971 RMK SLP063 DENSITY ALT 600FT<br><br>
CYOO 060400Z AUTO 21005KT 1 3/4SM BR OVC002 13/12 A2971 RMK SLP063 DENSITY ALT 500FT<br><br>
CYOO 060352Z AUTO 20004KT 2 1/2SM BR OVC002 13/12 A2971 RMK SLP063 DENSITY ALT 500FT<br><br>
CYOO 060317Z AUTO 19004KT 5SM BR BKN002 BKN008 OVC012 13/12 A2971 RMK SLP063 DENSITY ALT 500FT<br><br>
CYOO has no TAF <br><br>
<br><br>
CYTR 060500Z 21008KT 4SM -RA BR OVC004 13/12 A2972 RMK SF8 VIS VRB 3-5 SLP065<br><br>
CYTR 060450Z 21008KT 4SM -RA BR OVC004 13/12 A2972 RMK SF8 VIS VRB 3-5 SLP066<br><br>
CYTR 060424Z 23007KT 6SM -DZ BR BKN007 OVC020 13/12 A2972 RMK SF6SC2 SLP068<br><br>
CYTR 060400Z 23007KT 15SM -DZ BKN007 OVC024 13/13 A2972 RMK SF7SC1 PCPN VRY LGT SLP067<br><br>
