RETRIEVED AT : Jun 09 2019 03:05 Local <br>
  RETRIEVED AT: Jun 09 2019 07:05 UTC<br><br>
CYSN has no TAF <br><br>
<br><br>
CYHM 090600Z 04008KT 15SM BKN230 14/07 A3016 RMK CI6 SLP217<br><br>
TAF CYHM 090538Z 0906/1006 04007KT P6SM BKN240 FM091400 09010G20KT P6SM BKN180 BECMG 1001/1003 13010KT FM100500 13010KT P6SM SCT070 BKN150 RMK NXT FCST BY 091200Z<br><br>
<br><br>
KIAG 090653Z AUTO 08004KT 10SM CLR 13/07 A3017 RMK AO2 SLP215 T01280067<br><br>
KIAG 090553Z AUTO 09004KT 10SM CLR 15/06 A3017 RMK AO2 SLP214 T01500056 10217 20150 50003<br><br>
KIAG 090530Z 0906/1006 10006KT P6SM SCT250 FM091500 13010G16KT P6SM BKN250 FM092200 14008KT P6SM BKN060<br><br>
<br><br>
KBUF 090654Z COR 11006KT 10SM BKN280 16/07 A3018 RMK AO2 SLP216 T01560072<br><br>
KBUF 090554Z 11007KT 10SM BKN280 17/06 A3018 RMK AO2 SLP217 T01670061 10228 20161 50005<br><br>
KBUF 090530Z 0906/1006 11006KT P6SM SCT250 FM091500 13010G16KT P6SM BKN250 FM092200 14008KT P6SM BKN060<br><br>
<br><br>
CYYZ 090600Z 08009KT 15SM BKN250 17/02 A3019 RMK CI6 SLP223 DENSITY ALT 600FT<br><br>
TAF CYYZ 090538Z 0906/1012 09007KT P6SM SCT240 BECMG 0913/0915 11010G20KT FM100200 11010KT P6SM SCT070 BKN150 FM100800 13012KT P6SM BKN100 FM101100 12015KT 6SM -SHRA BR OVC025 RMK NXT FCST BY 090900Z<br><br>
<br><br>
CYOO 090600Z AUTO 28002KT 9SM CLR 12/08 A3019 RMK SLP225<br><br>
TAF CYOO 090139Z 0902/0914 09007KT P6SM SKC BECMG 0911/0913 09010G20KT RMK FCST BASED ON AUTO OBS. NXT FCST BY 090800Z<br><br>
<br><br>
CYTR 090600Z 03005KT 15SM SKC 12/08 A3020 RMK SLP228<br><br>
TAF CYTR 090530Z 0906/1006 05005KT P6SM FEW220 FM091200 10005KT P6SM FEW220 BECMG 0915/0917 13008KT RMK NXT FCST BY 091200Z<br><br>
<br><br>
