RETRIEVED AT : Sep 03 2018 07:05 Local <br>
  RETRIEVED AT: Sep 03 2018 11:05 UTC<br><br>
CYSN has no TAF <br><br>
<br><br>
CYHM 031000Z 22006KT 15SM BKN250 22/21 A3016 RMK CI5 SLP209 DENSITY ALT 1600FT<br><br>
TAF CYHM 030538Z 0306/0406 22006KT P6SM SKC PROB30 0307/0311 3/4SM BR FM031400 24010KT P6SM SCT050 BKN250 BECMG 0315/0317 24010G20KT FM031700 24010G20KT P6SM -SHRA BKN040 BKN250 PROB30 0317/0321 2SM TSRA BR OVC030CB FM032300 28008KT P6SM SCT040 FM040200 VRB03KT P6SM FEW040 RMK NXT FCST BY 031200Z<br><br>
<br><br>
KIAG 031053Z 22008KT 10SM CLR 23/21 A3017 RMK AO2 SLP211 T02330211<br><br>
KIAG 030953Z AUTO 21008KT 10SM CLR 23/21 A3016 RMK AO2 SLP206 T02330211<br><br>
KIAG 030831Z 0309/0406 20008KT P6SM SKC FM031100 22010KT P6SM BKN150 FM031500 24014G22KT P6SM SCT050 FM031800 24016G24KT P6SM VCTS BKN035CB FM032200 24010KT P6SM BKN040 FM040200 VRB05KT P6SM BKN040<br><br>
<br><br>
KBUF 031054Z 21007KT 10SM FEW200 FEW270 23/21 A3019 RMK AO2 SLP219 T02330206<br><br>
KBUF 030954Z 21006KT 10SM CLR 24/21 A3018 RMK AO2 SLP214 T02390206<br><br>
KBUF 030831Z 0309/0406 20006KT P6SM SCT150 FM031100 22010KT P6SM BKN150 FM031500 24016G24KT P6SM SCT150 FM032000 24014G22KT P6SM BKN050 FM040000 24008KT P6SM SCT150 FM040300 VRB05KT P6SM BKN040<br><br>
<br><br>
CYYZ 031000Z 23003KT 15SM SCT280 23/21 A3012 RMK CI3 SLP199 DENSITY ALT 1500FT<br><br>
TAF CYYZ 030838Z 0309/0412 23006KT P6SM SCT280 BECMG 0314/0316 26010G20KT FM031700 27012G22KT P6SM -SHRA BKN040 BKN250 PROB30 0317/0322 2SM TSRA BR OVC030CB FM040000 34008KT P6SM FEW050 FM040300 34005KT P6SM FEW030 RMK NXT FCST BY 031200Z<br><br>
<br><br>
CYOO 031000Z AUTO 18004KT 9SM CLR 22/22 A3012 RMK SLP199 DENSITY ALT 1100FT<br><br>
CYOO 030929Z AUTO 17003KT 6SM BR CLR 22/22 A3012 RMK SLP198 DENSITY ALT 1000FT<br><br>
CYOO 030916Z AUTO VRB02KT 5SM BR CLR 21/21 A3011 RMK SLP197 DENSITY ALT 1000FT<br><br>
CYOO has no TAF <br><br>
<br><br>
CYTR 031000Z 20008KT 15SM FEW050TCU FEW067 FEW280 24/22 A3012 RMK TCU1AC2CI1 TCU OVR LKS S DIST LTNG NE SLP198<br><br>
TAF CYTR 030530Z 0306/0406 23006KT P6SM SKC BECMG 0307/0309 SCT030 BKN080 BECMG 0311/0313 24012G22KT FM031300 25012G22KT P6SM BKN030 OVC060 FM031800 25010G20KT 6SM -SHRA BR OVC030 PROB30 0318/0324 VRB15G25KT 3SM TSRA BR OVC020CB FM040300 VRB03KT P6SM BKN030 OVC080 BECMG 0403/0405 FEW030 SCT080 RMK NXT FCST BY 031200Z<br><br>
<br><br>
