RETRIEVED AT : May 11 2018 10:05 Local <br>
  RETRIEVED AT: May 11 2018 14:05 UTC<br><br>
CYSN 111300Z 05010KT 15SM SCT042 BKN250 08/M03 A3016 RMK SC3CI2 SLP216<br><br>
TAF CYSN 111238Z 1113/1201 03012KT P6SM BKN030 BECMG 1114/1116 SCT030 FM112000 04006KT P6SM BKN180 RMK NXT FCST BY 112000Z<br><br>
<br><br>
CYHM 111300Z 07010KT 15SM FEW035 SCT170 07/M02 A3016 RMK SC1AC2 SLP218<br><br>
TAF CYHM 111138Z 1112/1212 03010KT P6SM BKN030 BKN180 FM111500 05010KT P6SM FEW030 SCT180 FM112000 06010KT P6SM BKN150 FM120500 06008KT P6SM -SHRA OVC050 FM120800 05010KT P6SM -RA OVC030 FM121100 04012KT 11/2SM -RA BR SCT004 OVC008 RMK NXT FCST BY 111800Z<br><br>
<br><br>
KIAG 111353Z 05007KT 10SM CLR 10/M02 A3016 RMK AO2 SLP218 T01001022<br><br>
KIAG 111253Z 05010KT 10SM BKN032 09/M02 A3016 RMK AO2 SLP217 T00891017<br><br>
