RETRIEVED AT : Oct 21 2017 15:10 Local <br>
  RETRIEVED AT: Oct 21 2017 19:10 UTC<br><br>
CYSN 211900Z 19009KT 15SM OVC250 22/10 A3023 RMK CI8 SLP237 DENSITY ALT 900FT<br><br>
CYSN 211800Z 21010KT 15SM BKN250 23/10 A3023 RMK CI7 SLP239 DENSITY ALT 1000FT<br><br>
TAF CYSN 211238Z 2113/2201 20010KT P6SM BKN240 BECMG 2123/2124 18007KT RMK NXT FCST BY 212000Z<br><br>
<br><br>
CYHM 211900Z 18009KT 15SM FEW140 BKN250 21/11 A3023 RMK AC1CI6 SLP240 DENSITY ALT 1400FT<br><br>
CYHM 211800Z 21012KT 15SM FEW140 SCT160 BKN220 21/10 A3024 RMK AC1AS2CI4 SLP242 DENSITY ALT 1400FT<br><br>
