RETRIEVED AT : Sep 01 2017 14:51 Local <br>
  RETRIEVED AT: Sep 01 2017 18:51 UTC<br><br>
CYSN 011800Z 36005KT 330V030 15SM BKN250 15/05 A3024 RMK CI7 SLP243<br><br>
CYSN 011700Z 01009KT 15SM BKN250 16/06 A3024 RMK CI7 SLP244<br><br>
TAF CYSN 011244Z 0113/0201 00000KT P6SM FEW030 OVC250 BECMG 0113/0115 01010KT BECMG 0122/0124 09005KT RMK NXT FCST BY 012000Z<br><br>
<br><br>
CYHM 011800Z 04003KT 15SM FEW190 BKN250 15/05 A3024 RMK AC1CI6 SLP244<br><br>
CYHM 011700Z 07005KT 15SM FEW040 BKN250 14/05 A3024 RMK CU1CI7 CU TR SLP245<br><br>
TAF CYHM 011738Z 0118/0218 06007KT P6SM FEW040 BKN320 BECMG 0213/0215 11015KT RMK NXT FCST BY 020000Z<br><br>
<br><br>
KIAG 011753Z 34006G15KT 10SM CLR 16/04 A3024 RMK AO2 SLP242 T01610044 10167 20106 55007<br><br>
KIAG 011653Z 35004KT 10SM FEW050 17/04 A3023 RMK AO2 SLP241 T01670044<br><br>
KIAG 011733Z 0118/0218 01007KT P6SM BKN250 FM020200 12004KT P6SM SCT045 BKN200 FM021400 11008KT P6SM BKN150<br><br>
<br><br>
KBUF 011754Z 01007KT 10SM FEW200 BKN250 16/04 A3022 RMK AO2 SLP236 T01610044 10167 20100 58009<br><br>
KBUF 011654Z 34009KT 10SM FEW180 BKN250 16/05 A3023 RMK AO2 SLP238 T01610050<br><br>
KBUF 011733Z 0118/0218 36007KT P6SM BKN250 FM020200 11004KT P6SM SCT200 FM021400 12008KT P6SM BKN150<br><br>
<br><br>
CYYZ 011800Z 03007KT 320V050 15SM SCT260 17/04 A3023 RMK CI4 SLP240 DENSITY ALT 600FT<br><br>
CYYZ 011700Z VRB05KT 15SM SCT240 15/04 A3024 RMK CI3 SLP243<br><br>
TAF CYYZ 011738Z 0118/0224 03007KT P6SM FEW040 BKN320 BECMG 0200/0202 33005KT BECMG 0213/0215 12015KT FM022300 16010KT P6SM -SHRA BKN030 OVC100 RMK NXT FCST BY 012100Z<br><br>
<br><br>
CYOO 011800Z AUTO 33008KT 270V360 9SM CLR 17/04 A3022 RMK SLP237<br><br>
CYOO 011700Z AUTO 01009KT 280V050 9SM CLR 16/04 A3023 RMK SLP240<br><br>
CYOO has no TAF <br><br>
<br><br>
CYTR 011800Z 27002KT 15SM FEW250 17/03 A3020 RMK CI2 SLP228<br><br>
CYTR 011700Z 34009KT 15SM FEW250 16/05 A3020 RMK CI2 SLP229<br><br>
TAF CYTR 011730Z 0118/0218 34008KT P6SM FEW250 BECMG 0121/0123 VRB03KT BECMG 0216/0218 14008KT RMK NXT FCST BY 020000Z<br><br>
<br><br>
