RETRIEVED AT : May 23 2020 03:05 Local <br>
  RETRIEVED AT: May 23 2020 07:05 UTC<br><br>
CYSN has no TAF <br><br>
<br><br>
CYHM 230600Z CCA 00000KT 15SM MIFG FEW005 BKN090 16/16 A3000 RMK ST1AS6 SLP158 DENSITY ALT 1000FT<br><br>
TAF CYHM 230538Z 2306/2406 28005KT P6SM SCT012 OVC050 TEMPO 2306/2312 P6SM -SHRA SCT005 OVC012 BECMG 2307/2309 25005KT FM231200 28006KT P6SM FEW025 SCT080 FM231500 29006KT P6SM BKN060 BECMG 2316/2318 09006KT FM240000 12005KT P6SM SCT020 OVC040 FM240400 06005KT P6SM -SHRA SCT008 OVC012 RMK NXT FCST BY 231200Z<br><br>
<br><br>
KIAG 230653Z AUTO 00000KT 7SM -RA OVC100 17/16 A3000 RMK AO2 SLP156 P0003 T01670161<br><br>
KIAG 230553Z AUTO 00000KT 4SM RA BR FEW075 OVC095 17/16 A3000 RMK AO2 SLP155 P0010 60010 T01670156 10211 20167 56003<br><br>
KIAG 230531Z 2306/2406 VRB03KT P6SM -SHRA OVC050 FM230700 VRB03KT 6SM BR FEW005 OVC040 FM231300 00000KT P6SM BKN035 FM231600 00000KT P6SM BKN045<br><br>
<br><br>
KBUF 230654Z 00000KT 5SM -RA BR BKN003 BKN065 OVC100 17/16 A3000 RMK AO2 SLP157 P0003 T01670161<br><br>
KBUF 230646Z 19003KT 8SM -RA FEW003 BKN065 OVC100 17/16 A3000 RMK AO2 P0003 T01720161<br><br>
KBUF 230554Z 27003KT 4SM RA BR SCT018 BKN085 OVC100 17/16 A3000 RMK AO2 SLP157 P0016 60088 T01720161 10206 20172 58001<br><br>
KBUF 230528Z 29004KT 5SM -RA BR FEW004 SCT055 OVC070 17/16 A3000 RMK AO2 P0012 T01720161<br><br>
KBUF 230516Z 26003KT 2 1/2SM +RA BR FEW004 SCT055 OVC070 17/16 A3000 RMK AO2 P0007 T01720161<br><br>
KBUF 230531Z 2306/2406 VRB03KT 3SM +RA BR FEW005 BKN050 FM230700 VRB03KT 6SM -SHRA BR BKN050 FM230900 VRB03KT P6SM BKN040 FM231200 VRB03KT P6SM BKN050 FM231700 06006KT P6SM SCT070<br><br>
<br><br>
CYYZ 230600Z 32006KT 15SM SCT220 17/14 A2999 RMK CI3 SLP157 DENSITY ALT 900FT<br><br>
TAF CYYZ 230538Z 2306/2412 29005KT P6SM FEW210 BECMG 2310/2312 35006KT FM231800 14008KT P6SM SKC FM240000 11008KT P6SM SCT040 BKN100 FM240300 12006KT P6SM SCT020 OVC040 FM240600 08006KT 6SM -RA OVC008 PROB40 2410/2412 11/2SM -DZ BR OVC004 RMK NXT FCST BY 230900Z<br><br>
<br><br>
CYOO 230600Z AUTO 00000KT 9SM OVC230 12/09 A2999 RMK SLP156<br><br>
TAF CYOO 230142Z 2302/2314 VRB03KT P6SM FEW250 BECMG 2312/2314 15006KT RMK FCST BASED ON AUTO OBS. NXT FCST BY 230800Z<br><br>
<br><br>
CYTR 230600Z 24002KT 15SM SCT230 15/09 A2999 RMK CI4 SLP156<br><br>
TAF CYTR 230530Z 2306/2406 VRB03KT P6SM FEW230 FM231300 VRB03KT P6SM SKC BECMG 2315/2317 20010KT BECMG 2402/2404 VRB03KT RMK NXT FCST BY 231200Z<br><br>
<br><br>
