RETRIEVED AT : Jun 06 2018 17:06 Local <br>
  RETRIEVED AT: Jun 06 2018 21:06 UTC<br><br>
CYSN 062000Z 30007KT 270V340 15SM BKN036 15/08 A2997 RMK SC7 SLP152 DENSITY ALT 400FT<br><br>
TAF CYSN 061938Z 0620/0701 28006KT P6SM OVC030 BECMG 0622/0624 21008KT RMK NXT FCST WILL BE ISSUED AT 071245Z<br><br>
<br><br>
CYHM 062000Z 25003KT 220V280 15SM BKN032 14/08 A2997 RMK SC7 SLP152 DENSITY ALT 900FT<br><br>
TAF CYHM 061738Z 0618/0718 30006KT P6SM OVC030 TEMPO 0618/0620 OVC020 BECMG 0618/0620 23006KT FM070500 23008KT P6SM BKN100 FM070900 23008KT P6SM BKN080 FM071400 24015KT P6SM BKN050 RMK NXT FCST BY 070000Z<br><br>
<br><br>
KIAG 062053Z 30004KT 10SM OVC034 16/07 A2998 RMK AO2 SLP153 T01560072 55002<br><br>
KIAG 061953Z 32008KT 10SM OVC031 16/07 A2997 RMK AO2 SLP151 T01610072<br><br>
KIAG 061734Z 0618/0718 33008KT P6SM BKN025 FM062300 24005KT P6SM SCT030 FM070200 22006KT P6SM FEW250 FM071600 23011KT P6SM SCT070<br><br>
<br><br>
KBUF 062054Z 31005KT 10SM FEW026 BKN033 BKN040 BKN250 15/08 A2998 RMK AO2 SLP153 T01500078 55002<br><br>
KBUF 061954Z 28005KT 10SM SCT026 BKN033 BKN270 14/08 A2997 RMK AO2 SLP151 T01440083<br><br>
KBUF 061942Z 25006KT 10SM SCT026 BKN033 BKN270 14/08 A2997 RMK AO2 T01390083<br><br>
KBUF 061734Z 0618/0718 28006KT P6SM BKN025 FM062200 26005KT P6SM SCT030 FM070200 25005KT P6SM SCT250 FM070300 21005KT P6SM FEW200 FM071400 23009KT P6SM SCT090<br><br>
<br><br>
CYYZ 062000Z 14008KT 080V250 15SM BKN038 16/08 A2995 RMK SC7 SLP147 DENSITY ALT 800FT<br><br>
TAF CYYZ 062038Z 0621/0724 19010KT P6SM BKN030 FM070300 25008KT P6SM SCT040 FM070500 25008KT P6SM BKN120 FM071000 26008KT P6SM BKN060 FM071500 26012G22KT P6SM BKN040 FM072100 27015KT P6SM BKN080 RMK NXT FCST BY 070000Z<br><br>
<br><br>
CYOO has no TAF <br><br>
<br><br>
CYTR 062000Z 22010KT 15SM SCT040 BKN250 16/11 A2994 RMK SC3CI4 SLP139<br><br>
TAF CYTR 061731Z 0618/0718 28005KT P6SM BKN025 TEMPO 0618/0620 BKN020 BECMG 0618/0620 20008KT FM062200 22008KT P6SM SCT040 FM070800 21005KT P6SM BKN100 FM071400 23012G22KT P6SM BKN040 RMK NXT FCST BY 070000Z<br><br>
<br><br>
