RETRIEVED AT : May 15 2020 13:06 Local <br>
  RETRIEVED AT: May 15 2020 17:06 UTC<br><br>
CYSN 151600Z 21019G31KT 15SM FEW020 BKN250 22/17 A2975 RMK CU1CI5 CU TR SLP077 DENSITY ALT 1500FT<br><br>
TAF CYSN 151238Z 1513/1601 21012KT P6SM -RA OVC030 TEMPO 1513/1515 5SM SHRA BR OVC015 FM151500 22012G22KT P6SM BKN030 TEMPO 1515/1517 5SM -SHRA BR OVC015 FM151700 23015G25KT P6SM -SHRA OVC025 TEMPO 1517/1522 4SM SHRA BR OVC015 PROB30 1517/1521 VRB25G35KT 2SM TSRA BR BKN008 OVC015CB FM152200 30010G20KT P6SM BKN015 OVC025 FM160000 33008KT P6SM SCT025 RMK NXT FCST BY 152000Z<br><br>
<br><br>
CYHM 151600Z 22017G22KT 15SM BKN019 OVC033 19/16 A2978 RMK CU7SC1 SLP088 DENSITY ALT 1700FT<br><br>
CYHM 151548Z 22021G26KT 15SM OVC017 19/16 A2978 RMK CU8 PRESRR SLP088 DENSITY ALT 1700FT<br><br>
CYHM 151510Z 19013G20KT 15SM BKN011 BKN100 BKN250 19/16 A2978 RMK CU5AC2CI1 CI TR SLP089 DENSITY ALT 1600FT<br><br>
TAF AMD CYHM 151405Z 1514/1612 20010G20KT P6SM SCT004 BKN040 TEMPO 1514/1516 4SM -SHRA BR BKN004 OVC030 FM151600 22015G25KT P6SM SCT020 BKN030 TEMPO 1516/1518 BKN020 OVC030 FM151800 22018G28KT P6SM SCT015 BKN040 TEMPO 1518/1521 3SM -SHRA BR BKN015 OVC040 FM152100 30010KT P6SM BKN030 TEMPO 1521/1524 BKN020 FM160000 35008KT P6SM SKC BECMG 1601/1603 VRB03KT FM160700 VRB03KT P6SM SKC PROB30 1607/1612 1SM BR BKN003 RMK NXT FCST BY 151800Z<br><br>
<br><br>
KIAG 151653Z 24022G34KT 10SM BKN036 22/15 A2978 RMK AO2 PK WND 22034/1651 SLP085 T02220150<br><br>
KIAG 151553Z 20021G27KT 10SM CLR 21/16 A2978 RMK AO2 PK WND 20027/1536 SLP085 T02110161<br><br>
KIAG 151501Z 1515/1612 21013G22KT P6SM SCT040 BKN120 FM151900 24014G24KT 4SM -SHRA OVC025 FM152200 27006KT P6SM VCSH BKN007 FM160300 VRB03KT P6SM BKN015<br><br>
<br><br>
KBUF 151654Z 23022G32KT 10SM BKN036 BKN110 BKN190 BKN240 23/15 A2980 RMK AO2 PK WND 21034/1623 SLP088 P0000 T02330150<br><br>
KBUF 151554Z COR 22017G26KT 10SM FEW025 SCT042 SCT085 SCT140 SCT190 BKN240 22/16 A2981 RMK AO2 PK WND 23026/1553 SLP090 T02220156<br><br>
KBUF 151501Z 1515/1612 22013G22KT P6SM SCT040 BKN120 FM151900 24014G24KT 4SM -SHRA OVC025 FM152200 27010KT P6SM VCSH OVC007 FM160100 VRB03KT P6SM BKN007<br><br>
<br><br>
CYYZ 151620Z VRB02KT 5SM BR SCT005 OVC018 16/15 A2977 RMK SF3ST5 SLP084 DENSITY ALT 1000FT<br><br>
CYYZ 151600Z 18003KT 150V270 5SM BR OVC005 15/14 A2977 RMK ST8 SLP085 DENSITY ALT 1000FT<br><br>
CYYZ 151551Z VRB02KT 3SM BR OVC004 15/14 A2978 RMK ST8 PRESRR SLP088 DENSITY ALT 900FT<br><br>
CYYZ 151519Z 14003KT 080V160 1SM R33R/P6000FT/U R06L/P6000FT/N R05/P6000FT/N BR OVC002 12/12 A2978 RMK FG4ST4 PRESFR SLP088 DENSITY ALT 600FT<br><br>
TAF CYYZ 151448Z 1515/1618 16006KT 1/2SM FG VV001 TEMPO 1515/1517 6SM -SHRA BR BKN004 OVC030 FM151700 20012G22KT P6SM SCT008 BKN025 TEMPO 1517/1521 5SM -SHRA BR BKN008 OVC025 BECMG 1519/1521 30012G22KT FM152100 35012KT P6SM BKN015 OVC025 FM160000 02012KT P6SM FEW030 FM160800 36006KT P6SM SKC BECMG 1613/1615 03010KT RMK NXT FCST BY 151800Z<br><br>
<br><br>
CYOO 151600Z AUTO 10005KT 1/4SM FG VV002 11/11 A2978 RMK SLP087<br><br>
CYOO 151525Z AUTO 00000KT 1 1/4SM BR OVC002 11/11 A2980 RMK SLP095<br><br>
TAF AMD CYOO 151520Z 1515/1602 VRB03KT 1SM BR OVC002 TEMPO 1515/1517 3SM -SHRA BR OVC008 FM151700 21010G20KT 2SM BR OVC004 TEMPO 1517/1519 6SM -SHRA BR SCT004 OVC010 FM151900 23012G22KT 3SM -SHRA BR OVC007 TEMPO 1519/1521 P6SM -SHRA OVC015 FM152100 32010G20KT P6SM BKN012 OVC030 FM160100 33008KT P6SM SCT020 RMK FCST BASED ON AUTO OBS. NXT FCST BY 152000Z<br><br>
<br><br>
CYTR 151600Z 28002KT 2SM -DZ BR OVC008 12/11 A2980 RMK ST8 VIS VRB 1 1/2-2 1/2 SLP095<br><br>
TAF CYTR 151130Z 1512/1612 21005KT 6SM BR FEW012 BKN025 OVC070 TEMPO 1512/1515 4SM -SHRA BR BKN012 OVC020 PROB30 1512/1515 2SM -SHRA BR OVC008 FM151500 20005KT 4SM BR SCT005 OVC015 TEMPO 1515/1521 11/2SM -SHRA BR OVC005 PROB30 1517/1521 VRB15G25KT 3/4SM TSRA BR BKN005 OVC030CB FM152100 25012KT P6SM -SHRA SCT006 BKN012 OVC040 FM152300 32007KT P6SM SCT025 RMK NXT FCST BY 151800Z<br><br>
<br><br>
