RETRIEVED AT : May 22 2020 18:05 Local <br>
  RETRIEVED AT: May 22 2020 22:05 UTC<br><br>
CYSN 222100Z 05008KT 15SM SCT120 BKN230 22/13 A2999 RMK AC3CI3 SLP158 DENSITY ALT 1100FT<br><br>
TAF CYSN 221940Z 2220/2301 01008KT P6SM SCT080 BKN220 FM222200 VRB03KT P6SM SCT050 BKN080 TEMPO 2222/2301 P6SM -SHRA BKN050 RMK NXT FCST WILL BE ISSUED AT 231245Z<br><br>
<br><br>
CYHM 222100Z 07006KT 15SM BKN040 OVC090 21/13 A3001 RMK SC7AC1 SLP164 DENSITY ALT 1600FT<br><br>
TAF CYHM 221751Z 2218/2318 08005KT P6SM BKN230 FM222000 20010KT P6SM SCT060 BKN120 TEMPO 2220/2224 P6SM -SHRA SCT020 OVC060 FM230000 20008KT P6SM -SHRA FEW008 SCT015 OVC030 TEMPO 2300/2309 4SM -SHRA BR BKN015 OVC030 FM230900 28005KT P6SM SCT015 BKN030 TEMPO 2309/2313 BKN015 FM231600 10007KT P6SM BKN050 RMK NXT FCST BY 230000Z<br><br>
<br><br>
KIAG 222153Z 05007KT 10SM BKN060 OVC085 23/13 A2999 RMK AO2 SLP154 T02330128<br><br>
KIAG 222053Z 03009KT 10SM FEW085 23/12 A3000 RMK AO2 SLP159 T02330122 56012<br><br>
KIAG 222100Z 2221/2318 04008KT P6SM BKN080 FM230200 00000KT P6SM VCSH OVC025 FM230800 00000KT P6SM OVC012 FM231700 00000KT P6SM SCT025<br><br>
<br><br>
KBUF 222154Z 21007KT 10SM BKN050 BKN085 BKN250 23/13 A2999 RMK AO2 SLP153 T02280128<br><br>
KBUF 222054Z 22009KT 10SM BKN050 BKN130 BKN230 24/13 A2999 RMK AO2 SLP155 T02440133 56014<br><br>
KBUF 222100Z 2221/2318 23008KT P6SM BKN050 FM230200 VRB03KT 6SM -SHRA OVC025 FM230400 00000KT 4SM -SHRA BR OVC015 FM230900 VRB03KT P6SM OVC007 FM231700 VRB03KT P6SM BKN025<br><br>
<br><br>
CYYZ 222100Z 16006KT 140V200 15SM SCT060 BKN220 23/10 A3000 RMK SC3CC3 SLP162 DENSITY ALT 1600FT<br><br>
TAF CYYZ 222038Z 2221/2324 17008KT P6SM SCT090 BKN230 BECMG 2303/2305 10005KT FM231100 02008KT P6SM SKC FM231600 15010KT P6SM FEW050 RMK NXT FCST BY 230000Z<br><br>
<br><br>
CYOO 222100Z AUTO 16006KT 110V190 9SM BKN240 23/07 A3000 RMK SLP163 DENSITY ALT 1400FT<br><br>
TAF CYOO 221940Z 2220/2308 18007KT P6SM FEW090 BKN200 BECMG 2223/2301 VRB03KT RMK FCST BASED ON AUTO OBS. NXT FCST BY 230200Z<br><br>
<br><br>
CYTR 222100Z 22005KT 15SM FEW180 23/10 A3000 RMK AC2 SLP162<br><br>
TAF CYTR 221730Z 2218/2318 22008KT P6SM SKC BECMG 2222/2224 VRB03KT FM230000 VRB03KT P6SM BKN220 FM231200 VRB03KT P6SM SKC BECMG 2315/2317 20010KT RMK NXT FCST BY 230000Z<br><br>
<br><br>
