RETRIEVED AT : Apr 04 2020 19:05 Local <br>
  RETRIEVED AT: Apr 04 2020 23:05 UTC<br><br>
CYSN 042200Z 35004KT 15SM SCT032 SCT250 12/07 A2999 RMK SC3CI1 SLP160<br><br>
TAF CYSN 041938Z 0420/0501 VRB03KT P6SM BKN025 TEMPO 0420/0501 BKN020 RMK NXT FCST WILL BE ISSUED AT 051245Z<br><br>
<br><br>
CYHM 042200Z 24004KT 15SM BKN036 13/05 A2998 RMK SC7 SLP158<br><br>
TAF CYHM 041740Z 0418/0518 VRB03KT P6SM BKN025 TEMPO 0418/0420 BKN020 FM042200 VRB03KT P6SM BKN030 BKN080 FM050500 22007KT P6SM -SHRA BKN030 OVC050 FM050700 25007KT P6SM BKN025 OVC050 FM051000 29008KT P6SM BKN010 OVC030 FM051400 32010KT P6SM SCT015 RMK NXT FCST BY 050000Z<br><br>
<br><br>
KIAG 042253Z 00000KT 10SM CLR 11/05 A3000 RMK AO2 SLP167 T01110050<br><br>
KIAG 042153Z 01006KT 10SM FEW027 12/05 A2999 RMK AO2 SLP165 T01170050<br><br>
KIAG 042150Z 36005KT 10SM FEW027 11/05 A2999 RMK AO2<br><br>
KIAG 042111Z 0421/0518 VRB04KT P6SM SCT025 BKN040 TEMPO 0421/0423 BKN025 FM050200 18004KT P6SM BKN050 FM050800 24006KT P6SM BKN040 FM051200 30006KT P6SM OVC025<br><br>
<br><br>
KBUF 042254Z 00000KT 10SM FEW035 FEW060 FEW250 13/06 A3000 RMK AO2 SLP162 T01280056<br><br>
KBUF 042154Z 32005KT 10SM SCT032 SCT060 13/05 A3000 RMK AO2 SLP161 T01330050<br><br>
KBUF 042107Z 0421/0518 VRB04KT P6SM SCT035 BKN060 FM050200 18004KT P6SM BKN050 FM051300 28006KT P6SM OVC035<br><br>
<br><br>
CYYZ 042200Z 13007G15KT 15SM BKN038 10/04 A3000 RMK SC7 SLP163<br><br>
TAF CYYZ 042041Z 0421/0524 15007G17KT P6SM BKN030 FM050000 13008KT P6SM BKN030 BKN100 FM050300 15008KT P6SM -SHRA BKN030 OVC080 FM050700 VRB03KT 4SM BR BKN006 OVC015 PROB40 0507/0509 2SM BR OVC006 FM050900 35008KT P6SM SCT008 BKN012 OVC040 PROB30 0509/0513 OVC008 FM051500 34015KT P6SM SCT015 FM052100 36012KT P6SM SKC RMK NXT FCST BY 050000Z<br><br>
<br><br>
CYOO 042200Z AUTO VRB02KT 9SM OVC030 08/06 A3001 RMK SLP166<br><br>
TAF CYOO 041939Z 0420/0508 15007KT P6SM OVC020 TEMPO 0420/0504 OVC030 FM050400 VRB03KT 4SM -RA BR BKN008 OVC030 PROB30 0504/0508 3SM -RA BR OVC006 RMK FCST BASED ON AUTO OBS. NXT FCST BY 050200Z<br><br>
<br><br>
CYTR 042200Z 21010KT 15SM FEW030 SCT120 09/05 A3001 RMK SC1AC2 SLP165<br><br>
TAF CYTR 041730Z 0418/0518 20008KT P6SM FEW030 BKN080 BECMG 0500/0502 VRB03KT FM050900 VRB03KT 5SM -SHRA BR BKN020 OVC060 FM051100 VRB03KT 2SM -DZ BR OVC008 FM051400 31005KT P6SM OVC015 FM051700 32010KT P6SM SCT025 RMK NXT FCST BY 050000Z<br><br>
<br><br>
