RETRIEVED AT : Jun 05 2020 10:05 Local <br>
  RETRIEVED AT: Jun 05 2020 14:05 UTC<br><br>
TAF CYSN 051238Z 0513/0601 22012KT P6SM FEW250 RMK NXT FCST BY 052000Z<br><br>
<br><br>
TAF CYHM 051140Z 0512/0612 20007KT 1/8SM FG VV002 TEMPO 0512/0514 2SM BR OVC006 FM051400 23010KT 2SM BR BKN006 BECMG 0514/0515 P6SM NSW SKC FM051700 20012KT P6SM -SHRA BKN060 PROB30 0518/0522 VRB15G25KT 2SM TSRA BR BKN020 OVC050CB FM060000 24010G20KT P6SM BKN070 FM060500 30010G20KT P6SM FEW050 RMK NXT FCST BY 051800Z<br><br>
<br><br>
KIAG 051120Z 0512/0612 23006KT 6SM BR SKC FM051230 22007KT P6SM FEW250 FM052200 22012G19KT P6SM SCT250 FM060400 23010G18KT P6SM BKN100 FM060700 27007KT P6SM SCT080<br><br>
<br><br>
KBUF 051120Z 0512/0612 21005KT P6SM SCT250 FM051600 24007KT P6SM FEW250 FM060000 22009KT P6SM SCT250 FM060200 22010G18KT P6SM SCT200 FM060400 23010G18KT P6SM BKN120 FM060700 27009KT P6SM BKN050<br><br>
<br><br>
TAF CYYZ 051140Z 0512/0618 VRB03KT P6SM SCT080 BECMG 0513/0515 24007KT FM051700 22010KT P6SM -SHRA BKN070 PROB30 0518/0521 VRB15G25KT 2SM TSRA BR BKN020 OVC050CB FM052300 24010G20KT P6SM BKN070 FM060600 31010G20KT P6SM FEW070 FM061700 32010G20KT P6SM -SHRA BKN070 RMK NXT FCST BY 051500Z<br><br>
<br><br>
TAF CYOO 051338Z 0514/0602 18007KT P6SM FEW060 FM051700 20010KT P6SM -SHRA BKN070 PROB30 0518/0524 VRB15G25KT 2SM TSRA BR BKN020 OVC050CB RMK FCST BASED ON AUTO OBS. NXT FCST BY 052000Z<br><br>
<br><br>
TAF CYTR 051130Z 0512/0612 VRB03KT P6SM FEW070 FEW250 FM051500 20010KT P6SM SCT060 FM051800 21012G22KT P6SM BKN080 TEMPO 0518/0602 5SM -SHRA BR SCT020 BKN050 PROB30 0519/0602 VRB15G25KT 2SM TSRA BR BKN020 OVC030CB FM060200 22005KT P6SM FEW010 BKN080 FM060800 31008KT P6SM BKN060 BECMG 0608/0610 31010G20KT RMK NXT FCST BY 051800Z<br><br>
<br><br>
