RETRIEVED AT : Jun 08 2020 06:05 Local <br>
  RETRIEVED AT: Jun 08 2020 10:05 UTC<br><br>
CYSN has no TAF <br><br>
<br><br>
TAF CYHM 080538Z 0806/0906 04007KT P6SM SCT120 TEMPO 0806/0808 BKN120 BECMG 0814/0816 06012KT FM090000 20006KT P6SM SKC RMK NXT FCST BY 081200Z<br><br>
<br><br>
KIAG 080908Z 0809/0906 35003KT P6SM SKC FM082000 32005KT P6SM FEW250 FM082300 VRB03KT P6SM FEW250<br><br>
<br><br>
KBUF 080908Z 0809/0906 00000KT P6SM SKC FM081900 31004KT P6SM FEW250 FM090000 00000KT P6SM FEW250 FM090500 16004KT P6SM FEW250<br><br>
<br><br>
TAF CYYZ 080838Z 0809/0912 35008KT P6SM SCT140 FM081600 15008KT P6SM FEW070 BECMG 0818/0820 16008G18KT FM090100 16008KT P6SM SKC RMK NXT FCST BY 081200Z<br><br>
<br><br>
TAF CYOO 080738Z 0808/0820 36010KT P6SM FEW120 BECMG 0812/0814 33005KT FM081600 20010KT P6SM FEW070 RMK FCST BASED ON AUTO OBS. NXT FCST BY 081400Z<br><br>
<br><br>
TAF CYTR 080530Z 0806/0906 33005KT P6SM FEW070 SCT250 BECMG 0816/0818 22008KT BECMG 0901/0903 VRB03KT RMK NXT FCST BY 081200Z<br><br>
<br><br>
