RETRIEVED AT : Sep 25 2017 19:10 Local <br>
  RETRIEVED AT: Sep 25 2017 23:10 UTC<br><br>
CYSN 252300Z 06002KT 10SM BKN250 25/20 A2999 RMK CI6 SLP157 DENSITY ALT 1600FT<br><br>
CYSN 252200Z 07006KT 10SM BKN250 28/20 A3000 RMK CI6 SLP159 DENSITY ALT 1800FT<br><br>
TAF CYSN 251938Z 2520/2601 36006KT P6SM BKN290 RMK NXT FCST WILL BE ISSUED AT 261245Z<br><br>
<br><br>
CYHM 252300Z VRB02KT 15SM BKN250 26/18 A3003 RMK CI7 SLP166 DENSITY ALT 2100FT<br><br>
CYHM 252200Z 14006KT 15SM FEW100 BKN250 29/17 A3002 RMK AC2CI5 SLP165 DENSITY ALT 2400FT<br><br>
TAF CYHM 251738Z 2518/2618 VRB03KT P6SM SCT300 PROB30 2609/2613 3/4SM BR RMK NXT FCST BY 260000Z<br><br>
<br><br>
KIAG 252253Z 05004KT 8SM CLR 28/21 A3001 RMK AO2 SLP158 T02780206<br><br>
KIAG 252153Z 04006KT 9SM CLR 30/20 A3001 RMK AO2 SLP158 T03000200<br><br>
KIAG 252049Z 2521/2618 05007KT P6SM FEW250 FM252300 08005KT P6SM FEW250 FM260200 VRB03KT P6SM FEW250 FM260700 VRB03KT 4SM BR SCT250 TEMPO 2610/2612 2SM BR FM261300 21005KT P6SM FEW250<br><br>
<br><br>
KBUF 252254Z 05007KT 10SM FEW200 BKN300 28/21 A3002 RMK AO2 SLP161 T02830211<br><br>
KBUF 252154Z 05007KT 10SM FEW200 BKN300 31/19 A3002 RMK AO2 SLP160 T03060194<br><br>
KBUF 252049Z 2521/2618 05007KT P6SM FEW050 FM252300 08005KT P6SM FEW250 FM260300 13004KT P6SM FEW250 FM260700 16004KT 4SM BR SCT250 FM261300 22006KT P6SM SCT250<br><br>
<br><br>
CYYZ 252300Z 14005KT 15SM FEW150 SCT220 BKN250 28/18 A3001 RMK AC2CI2CC2 SLP160 DENSITY ALT 2100FT<br><br>
CYYZ 252200Z 14004KT 100V170 15SM FEW170 SCT220 BKN270 29/19 A3001 RMK AC2CI2CC2 SLP161 DENSITY ALT 2300FT<br><br>
TAF CYYZ 252038Z 2521/2624 16008KT P6SM SCT300 BECMG 2522/2524 VRB03KT BECMG 2614/2616 16008KT RMK NXT FCST BY 260000Z<br><br>
<br><br>
CYOO 252300Z AUTO 11003KT 9SM CLR 26/18 A3001 RMK SLP163 DENSITY ALT 1700FT<br><br>
CYOO 252248Z AUTO 12004KT 8SM CLR 27/18 A3001 RMK SLP162 DENSITY ALT 1800FT<br><br>
CYOO 252245Z AUTO 12004KT 3SM HZ CLR 27/18 A3001 RMK SLP163 DENSITY ALT 1800FT<br><br>
CYOO 252233Z AUTO 11004KT 2 1/2SM HZ CLR 28/18 A3001 RMK VIS VRB 3/4-3 SLP162 DENSITY ALT 1900FT<br><br>
CYOO 252230Z AUTO 11003KT 4SM HZ CLR 28/18 A3001 RMK SLP163 DENSITY ALT 1900FT<br><br>
CYOO 252200Z AUTO 12004KT 9SM CLR 29/17 A3002 RMK SLP164 DENSITY ALT 2000FT<br><br>
CYOO has no TAF <br><br>
<br><br>
CYTR 252300Z 19003KT 10SM FEW160 SCT250 25/20 A3001 RMK AC1CI4 SLP164<br><br>
CYTR 252200Z 22004KT 6SM HZ FEW160 SCT250 28/19 A3002 RMK AC1CI4 SLP165<br><br>
TAF CYTR 251730Z 2518/2618 21009KT P6SM SCT250 BECMG 2522/2524 VRB03KT FM260300 VRB03KT P6SM BKN250 TEMPO 2603/2612 3SM BR BECMG 2616/2618 20009KT RMK NXT FCST BY 260000Z<br><br>
<br><br>
