RETRIEVED AT : Oct 19 2018 07:05 Local <br>
  RETRIEVED AT: Oct 19 2018 11:05 UTC<br><br>
CYSN has no TAF <br><br>
<br><br>
CYHM 191000Z 23011KT 15SM FEW250 06/M00 A3016 RMK CI1 SLP219<br><br>
TAF CYHM 190539Z 1906/2006 22012KT P6SM SKC BECMG 1906/1908 24012G22KT FM191500 24015G25KT P6SM FEW150 SCT200 BECMG 1917/1919 24020G30KT FM192300 24015G25KT P6SM SCT080 BKN150 FM200200 24015G30KT P6SM -RA OVC040 FM200500 24015G25KT 3SM -RA BR OVC015 RMK NXT FCST BY 191200Z<br><br>
<br><br>
KIAG 191053Z 22013G20KT 10SM CLR 09/02 A3015 RMK AO2 SLP219 T00940017<br><br>
KIAG 190953Z AUTO 24015KT 10SM CLR 10/01 A3018 RMK AO2 SLP227 T01000011<br><br>
KIAG 190920Z 1909/2006 24013G23KT P6SM FEW250 FM192300 22014G25KT P6SM OVC110 FM200200 22017G30KT P6SM OVC070 FM200400 22020G33KT P6SM OVC035<br><br>
<br><br>
KBUF 191054Z 20012KT 10SM BKN022 07/03 A3018 RMK AO2 SLP226 T00670033<br><br>
KBUF 190954Z 21013KT 10SM BKN022 07/03 A3020 RMK AO2 SLP231 T00720028<br><br>
KBUF 190920Z 1909/2006 23012G22KT P6SM BKN020 FM191100 23013G21KT P6SM FEW250 FM192300 22013G21KT P6SM OVC110 FM200200 22017G25KT P6SM OVC070 FM200500 23021G31KT P6SM OVC035<br><br>
<br><br>
CYYZ 191000Z 23012KT 15SM FEW230 06/M01 A3013 RMK CI1 SLP209<br><br>
TAF CYYZ 190838Z 1909/2012 24012G22KT P6SM SKC FM191600 25015G25KT P6SM BKN200 BECMG 1916/1918 25018G30KT FM192300 24015G25KT P6SM BKN080 OVC150 FM200100 23018G30KT P6SM -RA OVC040 FM200500 23015G25KT P6SM -RA OVC020 FM200800 28013G23KT P6SM SCT030 RMK NXT FCST BY 191200Z<br><br>
<br><br>
CYOO 191000Z AUTO VRB02KT 9SM CLR M02/M02 A3012 RMK SLP208<br><br>
CYOO has no TAF <br><br>
<br><br>
CYTR 191000Z 23007KT 15SM FEW240 06/01 A3011 RMK CI2 SLP201<br><br>
TAF CYTR 190530Z 1906/2006 25010G20KT P6SM SKC FM191400 24018G28KT P6SM BKN250 FM191900 24018G28KT P6SM SCT030 BKN180 FM200300 22018G28KT P6SM -SHRA OVC025 RMK NXT FCST BY 191200Z<br><br>
<br><br>
