RETRIEVED AT : Oct 19 2018 14:05 Local <br>
  RETRIEVED AT: Oct 19 2018 18:05 UTC<br><br>
CYSN 191700Z 22020G29KT 15SM FEW025 SCT150 BKN230 14/08 A3000 RMK CF1AC2CI4 SLP163<br><br>
TAF CYSN 191238Z 1913/2001 23015G25KT P6SM SCT250 BECMG 1917/1919 23020G30KT FM192300 23015G25KT P6SM SCT090 BKN220 RMK NXT FCST BY 192000Z<br><br>
<br><br>
CYHM 191700Z 22016G24KT 15SM FEW160 BKN240 15/07 A3000 RMK AC2CI4 PRESFR SLP163 DENSITY ALT 900FT<br><br>
TAF CYHM 191740Z 1918/2018 23018G28KT P6SM FEW150 BKN220 FM192300 23015G25KT P6SM BKN080 OVC150 FM200200 23015G30KT P6SM -RA OVC040 FM200400 24015G25KT P6SM -RA OVC015 TEMPO 2004/2009 OVC025 FM200900 25012G22KT P6SM BKN020 OVC040 FM201700 27015G25KT P6SM -SHRA BKN030 BKN050 RMK NXT FCST BY 200000Z<br><br>
<br><br>
KIAG 191753Z 22019G31KT 10SM CLR 14/06 A2998 RMK AO2 PK WND 23033/1742 SLP156 T01390061 10144 20094 58034<br><br>
KIAG 191653Z 22021G30KT 10SM CLR 12/06 A3002 RMK AO2 PK WND 22033/1621 SLP172 T01220061<br><br>
KIAG 191720Z 1918/2018 22019G29KT P6SM FEW200 FM200200 22017G30KT P6SM BKN060 FM200600 23021G32KT P6SM OVC015 FM201100 26015G25KT P6SM BKN035<br><br>
<br><br>
KBUF 191754Z 24017G25KT 10SM FEW035 FEW140 BKN180 BKN250 14/04 A2999 RMK AO2 PK WND 24028/1742 SLP159 T01390039 10139 20067 58035<br><br>
KBUF 191654Z 23020G26KT 10SM FEW031 FEW140 BKN180 BKN250 12/04 A3003 RMK AO2 PK WND 22032/1629 SLP171 T01220039<br><br>
KBUF 191720Z 1918/2018 23016G28KT P6SM SCT200 FM200000 22013G20KT P6SM BKN110 FM200200 22017G26KT P6SM BKN060 FM200700 23020G31KT P6SM OVC015 FM201100 26015G25KT 6SM BR VCSH BKN025 FM201300 26015G21KT P6SM VCSH BKN035<br><br>
<br><br>
CYYZ 191700Z 24013KT 15SM FEW160 BKN220 14/04 A2997 RMK AC1CC7 AC TR SLP154 DENSITY ALT 600FT<br><br>
TAF CYYZ 191740Z 1918/2024 23015G30KT P6SM BKN230 FM192300 23015G25KT P6SM BKN080 OVC150 FM200200 23018G28KT P6SM -RA OVC040 FM200500 23015G25KT P6SM -RA OVC020 TEMPO 2005/2008 OVC025 FM200800 28012G25KT P6SM BKN030 BKN050 FM201700 28015G28KT P6SM -SHRA BKN030 BKN050 FM202200 33015KT P6SM SCT030 BKN050 RMK NXT FCST BY 192100Z<br><br>
<br><br>
CYOO 191700Z AUTO 25009G17KT 9SM SCT240 13/03 A2997 RMK SLP152<br><br>
CYOO has no TAF <br><br>
<br><br>
CYTR 191700Z 23013G19KT 15SM FEW150 BKN220 13/07 A2995 RMK AC1CI5 CC ASOCTD SLP145<br><br>
TAF CYTR 191730Z 1918/2018 23018G28KT P6SM SCT150 BKN220 FM192200 24018G28KT P6SM SCT030 BKN150 FM200300 22018G28KT P6SM -SHRA OVC025 FM200600 24020G30KT 4SM -SHRA BR OVC015 FM201000 26015G25KT P6SM SCT015 BKN030 RMK NXT FCST BY 200000Z<br><br>
<br><br>
