RETRIEVED AT : Jul 04 2020 13:05 Local <br>
  RETRIEVED AT: Jul 04 2020 17:05 UTC<br><br>
CYSN 041600Z 36009KT 340V050 15SM SCT250 26/15 A3001 RMK CI3 SLP161 DENSITY ALT 1700FT<br><br>
TAF CYSN 041238Z 0413/0501 02008KT P6SM FEW250 BECMG 0422/0424 VRB03KT RMK NXT FCST BY 042000Z<br><br>
<br><br>
CYHM 041600Z 03009KT 010V070 15SM BKN250 28/12 A3003 RMK CI5 SLP166 DENSITY ALT 2400FT<br><br>
TAF CYHM 041138Z 0412/0512 02008KT P6SM FEW020 FEW250 BECMG 0414/0416 04012KT BECMG 0422/0424 VRB03KT RMK NXT FCST BY 041800Z<br><br>
<br><br>
KIAG 041653Z 01008KT 10SM CLR 28/14 A3000 RMK AO2 SLP154 T02830144<br><br>
KIAG 041553Z 00000KT 10SM CLR 28/14 A3001 RMK AO2 SLP156 T02780144<br><br>
KIAG 041515Z 0415/0512 34006KT P6SM FEW050 FM042100 36006KT P6SM SCT250 FM042300 00000KT P6SM FEW250 FM050800 22004KT P6SM FEW250<br><br>
<br><br>
KBUF 041654Z 03010KT 10SM FEW065 FEW250 31/14 A3001 RMK AO2 SLP155 T03060139<br><br>
KBUF 041554Z 03008KT 10SM FEW250 29/15 A3001 RMK AO2 SLP157 T02890150<br><br>
KBUF 041515Z 0415/0512 35009KT P6SM FEW070 FM042100 35007KT P6SM SCT250 FM042300 02004KT P6SM FEW250 FM050800 20004KT P6SM FEW250<br><br>
<br><br>
CYYZ 041600Z 02010KT 330V070 15SM FEW250 30/11 A3001 RMK CI2 SLP160 DENSITY ALT 2300FT<br><br>
TAF CYYZ 041439Z 0415/0518 36008KT P6SM FEW250 BECMG 0417/0419 17010KT BECMG 0423/0501 36008KT FM051500 30010KT P6SM SCT100 RMK NXT FCST BY 041800Z<br><br>
<br><br>
CYOO 041600Z AUTO 34006KT 330V120 9SM CLR 29/11 A3000 RMK SLP159 DENSITY ALT 2000FT<br><br>
TAF CYOO 041338Z 0414/0502 02010KT P6SM FEW250 BECMG 0415/0417 18010KT BECMG 0423/0501 35005KT RMK FCST BASED ON AUTO OBS. NXT FCST BY 042000Z<br><br>
<br><br>
CYTR 041600Z 05005KT 15SM FEW250 29/12 A2998 RMK CI1 SLP153<br><br>
TAF CYTR 041136Z 0412/0512 01005KT P6SM FEW080 BECMG 0417/0419 20008KT BECMG 0501/0503 VRB03KT RMK NXT FCST BY 041800Z<br><br>
<br><br>
