RETRIEVED AT : Mar 01 2020 02:05 Local <br>
  RETRIEVED AT: Mar 01 2020 07:05 UTC<br><br>
CYSN has no TAF <br><br>
<br><br>
CYHM 010600Z 26005KT 15SM SKC M10/M13 A3007 RMK SLP200<br><br>
TAF CYHM 010538Z 0106/0206 25006KT P6SM SKC FM011500 23008KT P6SM SCT090 FM011800 20012KT P6SM BKN100 BKN170 BECMG 0118/0120 19012G22KT FM020000 19010KT P6SM BKN120 BKN200 RMK NXT FCST BY 011200Z<br><br>
<br><br>
KIAG 010653Z AUTO 00000KT 9SM CLR M14/M17 A3009 RMK AO2 SLP215 I1000 T11441167<br><br>
KIAG 010553Z AUTO 00000KT 10SM CLR M13/M15 A3009 RMK AO2 SLP214 T11331150 11056 21139 51002<br><br>
KIAG 010539Z 0106/0206 25005KT P6SM SCT080 FM011400 22006KT P6SM FEW250 FM012000 19009KT P6SM SCT150 FM020000 16009KT P6SM OVC080 FM020400 19011KT P6SM OVC090 WS020/23040KT<br><br>
<br><br>
KBUF 010654Z 00000KT 10SM FEW045 M09/M12 A3009 RMK AO2 SLP202 T10891122 $<br><br>
KBUF 010554Z 28003KT 10SM FEW045 M06/M12 A3009 RMK AO2 SLP200 4/004 60000 T10561117 11044 21061 58000 $<br><br>
KBUF 010539Z 0106/0206 26006KT P6SM SCT050 FM011600 23009KT P6SM FEW250 FM012000 19007KT P6SM SCT150 FM020000 16009KT P6SM OVC080 FM020400 20013KT P6SM OVC060 WS020/23040KT<br><br>
<br><br>
CYYZ 010600Z 20006KT 15SM FEW030 M09/M12 A3007 RMK SC1 SLP196<br><br>
TAF CYYZ 010538Z 0106/0212 23006KT P6SM SKC FM011500 22008KT P6SM SCT090 BECMG 0116/0118 18010KT FM012000 17010G20KT P6SM BKN090 BECMG 0123/0201 16008KT FM020500 17008KT P6SM FEW040 BKN200 FM021000 20010KT P6SM OVC015 RMK NXT FCST BY 010900Z<br><br>
<br><br>
CYOO 010600Z AUTO 00000KT 9SM BKN043 M15/M17 A3008 RMK SLP199<br><br>
TAF CYOO 010138Z 0102/0114 32005KT P6SM FEW030 RMK FCST BASED ON AUTO OBS. NXT FCST BY 010800Z<br><br>
<br><br>
CYTR 010600Z 24004KT 15SM FEW160 M12/M15 A3010 RMK AC1 FROIN SLP198<br><br>
TAF CYTR 010530Z 0106/0206 VRB03KT P6SM FEW120 FM011600 25008KT P6SM FEW040 FM012100 23008KT P6SM SCT060 BKN080 BECMG 0123/0201 16007KT RMK NXT FCST BY 011200Z<br><br>
<br><br>
