RETRIEVED AT : Sep 07 2019 20:06 Local <br>
  RETRIEVED AT: Sep 08 2019 00:06 UTC<br><br>
CYSN 072300Z 28008KT 15SM FEW055 BKN090 21/12 A2987 RMK CU2AC5 SLP117 DENSITY ALT 1200FT<br><br>
TAF CYSN 071938Z 0720/0801 29010KT P6SM SCT040 BKN080 TEMPO 0720/0723 BKN040 RMK NXT FCST WILL BE ISSUED AT 081245Z<br><br>
<br><br>
CYHM 072300Z 27009KT 15SM SCT067 BKN260 19/12 A2992 RMK AC3CS4 SLP133 DENSITY ALT 1500FT<br><br>
TAF CYHM 072338Z 0800/0824 29008KT P6SM SCT040 BKN080 FM080500 30007KT 6SM BR FEW015 SCT240 PROB30 0808/0813 1SM BR FM081300 04006KT P6SM SCT030 FM081600 04006KT P6SM BKN040 FM082300 06006KT P6SM FEW040 BKN160 RMK NXT FCST BY 080600Z<br><br>
<br><br>
KIAG 072353Z 24006KT 10SM SCT055 BKN080 OVC100 19/13 A2989 RMK AO2 SLP124 T01890133 10217 20189 53006<br><br>
KIAG 072253Z 27007KT 10SM SCT060 SCT085 19/12 A2989 RMK AO2 SLP123 T01940117<br><br>
KIAG 072333Z 0800/0824 28007KT P6SM BKN080 TEMPO 0800/0802 P6SM -SHRA BKN040 BKN080 FM080200 30006KT P6SM SCT080 FM081000 36005KT P6SM BKN025 FM081400 02006KT P6SM BKN050 FM081800 01006KT P6SM BKN080 FM082000 01006KT P6SM BKN120<br><br>
<br><br>
KBUF 072354Z 25013KT 10SM FEW027 SCT075 BKN090 20/14 A2990 RMK AO2 SLP125 60000 T02000144 10211 20183 53006<br><br>
KBUF 072254Z 25006KT 10SM FEW035 SCT090 SCT300 19/14 A2990 RMK AO2 SLP124 T01940139<br><br>
KBUF 072333Z 0800/0824 27008KT P6SM BKN080 TEMPO 0800/0802 P6SM -SHRA BKN040 BKN080 FM080200 28005KT P6SM SCT080 FM081100 VRB04KT P6SM BKN025 FM081600 VRB04KT P6SM BKN035 FM081900 01005KT P6SM BKN060 FM082100 02005KT P6SM BKN120<br><br>
<br><br>
CYYZ 072332Z 33012G21KT 15SM BKN065 20/12 A2991 RMK SC7 SLP130 DENSITY ALT 1300FT<br><br>
CYYZ 072309Z 31014G19KT 15SM -SHRA BKN065 21/11 A2990 RMK SC7 CVCTV CLD EMBD SLP126 DENSITY ALT 1400FT<br><br>
CYYZ 072300Z 30016KT 15SM FEW040 BKN060 21/11 A2989 RMK SC2SC5 SLP125 DENSITY ALT 1400FT<br><br>
CYYZ 072241Z 30011G16KT 15SM -SHRA FEW045 BKN065 21/11 A2988 RMK SC2SC5 CVCTV CLD EMBD SLP122 DENSITY ALT 1500FT<br><br>
TAF CYYZ 072338Z 0800/0906 31012G22KT P6SM BKN050 TEMPO 0800/0801 P6SM -SHRA BKN030 FM080200 31010KT P6SM SCT040 BECMG 0803/0805 34008KT FM080700 34007KT P6SM SCT015 TEMPO 0807/0813 4SM BR BKN010 FM081300 35010KT P6SM SCT300 FM082100 36008KT P6SM FEW050 BKN200 RMK NXT FCST BY 080300Z<br><br>
<br><br>
CYOO 072353Z AUTO 29008G15KT 9SM SCT080 OVC099 18/13 A2990 RMK SLP126 DENSITY ALT 800FT<br><br>
CYOO 072321Z AUTO 31010G17KT 9SM -RA SCT080 OVC095 19/13 A2989 RMK SLP123 DENSITY ALT 1000FT<br><br>
CYOO 072300Z AUTO 33012KT 9SM FEW065 SCT082 OVC100 19/12 A2988 RMK SLP119 DENSITY ALT 1100FT<br><br>
TAF CYOO 071938Z 0720/0808 26010G20KT P6SM BKN030 OVC050 TEMPO 0720/0721 P6SM -SHRA BKN020 OVC050 FM072100 28010G20KT P6SM BKN040 TEMPO 0721/0803 SCT040 BECMG 0723/0801 30007KT FM080300 30006KT P6SM SCT025 RMK FCST BASED ON AUTO OBS. NXT FCST BY 080200Z<br><br>
<br><br>
CYTR 072300Z 00000KT 15SM SCT031 SCT074 18/16 A2984 RMK SC4AC1 DIST LTGCCCG E MDT CU EMBD ALQDS SLP107<br><br>
TAF AMD CYTR 080003Z 0800/0824 VRB03KT P6SM SCT030 SCT080 TEMPO 0800/0802 P6SM -SHRA BKN030 OVC080 FM080200 VRB03KT P6SM SCT030 FM080300 VRB03KT P6SM SCT015 TEMPO 0803/0813 BKN015 PROB30 0808/0812 2SM BR FM081300 33005KT P6SM SCT025 BECMG 0818/0820 27008KT BECMG 0822/0824 VRB03KT RMK NXT FCST BY 080600Z<br><br>
<br><br>
