RETRIEVED AT : Oct 08 2017 08:10 Local <br>
  RETRIEVED AT: Oct 08 2017 12:10 UTC<br><br>
CYSN 081200Z 23012G19KT 15SM FEW050 19/14 A2975 RMK SC1 SLP074 DENSITY ALT 1100FT<br><br>
CYSN 081100Z 24016G24KT 15SM FEW050 19/14 A2973 RMK SC2 SLP067 DENSITY ALT 1100FT<br><br>
