RETRIEVED AT : Mar 07 2020 06:05 Local <br>
  RETRIEVED AT: Mar 07 2020 11:05 UTC<br><br>
CYSN has no TAF <br><br>
<br><br>
CYHM 071000Z 33008KT 15SM FEW037 M07/M10 A3039 RMK SC1 SC TR SLP306<br><br>
TAF CYHM 070538Z 0706/0806 01010KT P6SM SCT030 FM071200 32006KT P6SM SKC FM071800 25009KT P6SM FEW120 BECMG 0722/0724 23012KT RMK NXT FCST BY 071200Z<br><br>
<br><br>
KIAG 071053Z AUTO 34006KT 10SM CLR M04/M09 A3040 RMK AO2 SLP310 T10441089<br><br>
KIAG 070953Z AUTO 35007KT 10SM CLR M04/M08 A3037 RMK AO2 SLP300 T10391083<br><br>
KIAG 070911Z 0709/0806 36010KT P6SM SCT035 FM071400 32006KT P6SM FEW200 FM072000 24009KT P6SM FEW250 FM072300 22010G17KT P6SM SCT250<br><br>
<br><br>
KBUF 071054Z 33006KT 10SM FEW040 M04/M08 A3038 RMK AO2 SLP298 T10391078<br><br>
KBUF 070954Z 34007KT 10SM SCT036 SCT050 M03/M08 A3035 RMK AO2 SLP288 T10281078<br><br>
KBUF 070911Z 0709/0806 35011KT P6SM BKN035 OVC045 FM071300 33005KT P6SM SCT200 FM071600 30007KT P6SM FEW200 FM071800 26008KT P6SM FEW250 FM072300 23010G18KT P6SM SCT250<br><br>
<br><br>
CYYZ 071000Z 32008KT 300V030 15SM SKC M06/M11 A3041 RMK SLP307<br><br>
TAF CYYZ 070839Z 0709/0812 34006KT P6SM SKC FM071500 30006KT P6SM FEW120 BECMG 0715/0717 24009KT RMK NXT FCST BY 071200Z<br><br>
<br><br>
CYOO 071000Z AUTO 34010KT 9SM CLR M06/M11 A3040 RMK SLP303<br><br>
TAF CYOO 070738Z 0708/0720 34005KT P6SM SKC FM071500 30006KT P6SM FEW120 BECMG 0715/0717 24009KT RMK FCST BASED ON AUTO OBS. NXT FCST BY 071400Z<br><br>
<br><br>
CYTR 071000Z 35007KT 15SM SKC M06/M12 A3037 RMK SLP288<br><br>
TAF CYTR 070530Z 0706/0806 01010G20KT P6SM SKC BECMG 0707/0709 36008KT BECMG 0716/0718 26008KT FM072100 25008KT P6SM FEW110 BKN210 FM080100 25008KT P6SM BKN100 RMK NXT FCST BY 071200Z<br><br>
<br><br>
