RETRIEVED AT : May 13 2018 18:05 Local <br>
  RETRIEVED AT: May 13 2018 22:05 UTC<br><br>
CYSN 132100Z 35006KT 15SM FEW039 BKN240 16/09 A2996 RMK SC1CI4 SLP149 DENSITY ALT 500FT<br><br>
TAF CYSN 131938Z 1320/1401 03010KT P6SM FEW040 FM140000 VRB03KT P6SM FEW020 RMK NXT FCST WILL BE ISSUED AT 141245Z<br><br>
<br><br>
CYHM 132100Z 00000KT 15SM FEW035 FEW150 FEW250 16/08 A2999 RMK CU1AC1CI2 CU TR AC TR SLP159 DENSITY ALT 1000FT<br><br>
TAF CYHM 131738Z 1318/1418 06010KT P6SM FEW030 FEW120 FM140300 VRB03KT P6SM FEW060 BECMG 1407/1408 21006KT FM141500 22010KT P6SM BKN020 BECMG 1416/1418 22010G20KT RMK NXT FCST BY 140000Z<br><br>
<br><br>
KIAG 132153Z 33007KT 10SM OVC039 21/09 A2996 RMK AO2 SLP149 T02060089<br><br>
KIAG 132053Z 35008KT 10SM CLR 21/10 A2995 RMK AO2 SLP145 T02110100 56016<br><br>
KIAG 132104Z 1321/1418 35008KT P6SM SKC FM140000 VRB04KT P6SM SCT250 FM141100 22004KT P6SM SCT150 FM141700 22010KT P6SM BKN100<br><br>
<br><br>
KBUF 132154Z 22009KT 10SM SCT048 BKN220 22/12 A2996 RMK AO2 SLP146 T02170117<br><br>
KBUF 132054Z 21009KT 10SM SCT045 BKN220 23/12 A2995 RMK AO2 SLP143 T02280117 56018<br><br>
KBUF 132104Z 1321/1418 21009KT P6SM SCT045 FM140000 21005KT P6SM SCT250 FM141100 21005KT P6SM SCT150 FM141600 24011KT P6SM BKN100<br><br>
<br><br>
CYYZ 132100Z 17007KT 15SM FEW150 FEW250 17/07 A2997 RMK AC1CI1 AC TR SLP151 DENSITY ALT 900FT<br><br>
TAF CYYZ 132038Z 1321/1424 15008KT P6SM SKC FM132300 18007KT P6SM FEW070 BECMG 1400/1402 22005KT BECMG 1410/1412 VRB03KT FM141600 22012KT P6SM BKN030 FM142200 24012KT P6SM SCT030 BKN080 RMK NXT FCST BY 140000Z<br><br>
<br><br>
CYOO 132100Z AUTO 12005KT 050V170 9SM CLR 18/02 A2996 RMK SLP149 DENSITY ALT 800FT<br><br>
CYOO has no TAF <br><br>
<br><br>
CYTR 132100Z 19009KT 15SM FEW072 SCT240 19/08 A2996 RMK AC1CI3 SLP149<br><br>
TAF CYTR 131730Z 1318/1418 13012KT P6SM FEW240 BECMG 1318/1320 24008KT FM140200 VRB03KT P6SM FEW030 BECMG 1413/1415 22010KT RMK NXT FCST BY 140000Z<br><br>
<br><br>
