RETRIEVED AT : May 05 2018 18:05 Local <br>
  RETRIEVED AT: May 05 2018 22:05 UTC<br><br>
CYSN 052100Z 23015G24KT 15SM BKN100 23/07 A2995 RMK AC5 SLP145 DENSITY ALT 1400FT<br><br>
TAF CYSN 051938Z 0520/0601 23015G25KT P6SM FEW050 SCT240 FM052200 24012G22KT P6SM FEW040 BKN080 TEMPO 0522/0601 P6SM -SHRA BECMG 0522/0524 26012KT RMK NXT FCST WILL BE ISSUED AT 061245Z<br><br>
<br><br>
CYHM 052100Z 22015G22KT 15SM FEW060 FEW090 SCT110 BKN240 23/09 A2997 RMK CU1AC1AC2CI2 SLP151 DENSITY ALT 1900FT<br><br>
TAF CYHM 051738Z 0518/0618 24015G25KT P6SM FEW060 BKN220 TEMPO 0519/0524 P6SM -SHRA BKN060 PROB30 0520/0524 3SM TSRA BR BKN030 OVC060CB FM060000 23012KT P6SM SCT040 BKN080 BECMG 0606/0608 VRB03KT FM060900 22005KT P6SM FEW050 SCT100 FM061600 24008KT P6SM -SHRA SCT030 OVC100 RMK NXT FCST BY 060000Z<br><br>
<br><br>
KIAG 052153Z 24018KT 10SM BKN100 23/03 A2998 RMK AO2 SLP154 T02280028<br><br>
KIAG 052053Z 23013G21KT 10SM FEW100 24/05 A2998 RMK AO2 PK WND 23027/1959 SLP153 T02390050 58007<br><br>
KIAG 052030Z 0521/0618 23018G27KT P6SM VCSH SCT100 FM052300 22009KT P6SM BKN100 FM060200 21005KT P6SM BKN100 FM060900 VRB03KT P6SM BKN090 FM061600 04005KT P6SM BKN080<br><br>
<br><br>
KBUF 052154Z 22008KT 10SM FEW070 SCT180 BKN230 18/07 A3001 RMK AO2 SLP164 T01830072<br><br>
KBUF 052054Z 22012KT 10SM FEW070 SCT230 19/07 A3001 RMK AO2 SLP164 T01890072 58003<br><br>
KBUF 052038Z 0521/0618 23018G25KT P6SM FEW100 SCT200 FM052300 22009KT P6SM BKN250 FM060200 20005KT P6SM BKN250 FM060900 VRB03KT P6SM BKN090 FM061600 06005KT P6SM BKN090<br><br>
<br><br>
CYYZ 052144Z 28012KT 15SM -SHRA SCT070 BKN100 23/09 A2994 RMK CU3AC4 SLP142 DENSITY ALT 1600FT<br><br>
CYYZ 052100Z 27010G18KT 15SM SCT070 BKN120 24/10 A2993 RMK CU3AC4 SLP138 DENSITY ALT 1700FT<br><br>
TAF CYYZ 052038Z 0521/0624 27015G25KT P6SM SCT070 BKN110 TEMPO 0521/0524 P6SM -SHRA BKN070 BECMG 0522/0524 25015KT FM060500 33006KT P6SM FEW060 SCT120 FM061200 01005KT P6SM SCT040 BECMG 0613/0615 09008KT FM061900 10010KT P6SM -SHRA SCT050 BKN080 FM062200 34012G22KT P6SM -SHRA SCT015 OVC040 RMK NXT FCST BY 060000Z<br><br>
<br><br>
CYOO 052100Z AUTO 19003KT 9SM BKN100 OVC120 21/09 A2994 RMK SLP140 DENSITY ALT 1200FT<br><br>
CYOO has no TAF <br><br>
<br><br>
CYTR 052100Z 21008G15KT 15SM BKN091 BKN250 16/09 A2995 RMK AC5CI2 SLP144<br><br>
TAF AMD CYTR 052114Z 0521/0618 22010KT P6SM BKN090 BKN250 FM060200 20005KT P6SM FEW060 BKN250 FM061200 04008KT P6SM FEW050 SCT250 RMK NXT FCST BY 060000Z<br><br>
<br><br>
