RETRIEVED AT : May 29 2020 07:05 Local <br>
  RETRIEVED AT: May 29 2020 11:05 UTC<br><br>
CYSN has no TAF <br><br>
<br><br>
TAF CYHM 290539Z 2906/3006 19012KT P6SM SCT090 FM291600 22015KT P6SM -SHRA OVC025 TEMPO 2916/2923 4SM SHRA BR OVC015 PROB30 2917/2921 2SM TSRA BR BKN020CB FM292300 28015KT P6SM BKN020 FM300100 29010KT P6SM BKN070 FM300500 26006KT P6SM FEW030 RMK NXT FCST BY 291200Z<br><br>
<br><br>
KIAG 290859Z 2909/3006 20006KT P6SM SCT060 BKN250 FM291400 22013G21KT P6SM VCSH BKN060 FM291800 23015G25KT P6SM VCSH BKN050 FM292100 25015G25KT P6SM -SHRA BKN025 FM300100 26014G22KT P6SM BKN050<br><br>
<br><br>
KBUF 290859Z 2909/3006 19007KT P6SM SCT060 BKN250 FM291300 22013G21KT P6SM VCSH BKN060 FM291700 23015G25KT 6SM -SHRA VCTS BKN040CB FM292200 24015G25KT P6SM -SHRA BKN025 FM300100 25014G22KT P6SM BKN050<br><br>
<br><br>
TAF CYYZ 290838Z 2909/3012 23008KT P6SM SCT250 FM291400 20012G22KT P6SM BKN030 FM291700 24012G22KT P6SM -SHRA OVC030 TEMPO 2917/2923 4SM SHRA BR OVC020 PROB30 2917/2921 VRB15G25KT 2SM TSRA BR BKN020CB FM292300 34015KT P6SM BKN010 FM300200 28010KT P6SM BKN080 FM300800 28010KT P6SM FEW080 BECMG 3010/3012 27010G20KT RMK NXT FCST BY 291200Z<br><br>
<br><br>
TAF CYOO 290738Z 2908/2920 19005KT P6SM SCT004 TEMPO 2908/2909 BKN004 FM290900 22008KT P6SM SKC FM291200 21012KT P6SM BKN040 BECMG 2913/2915 20012G22KT FM291900 22012G22KT P6SM -RA OVC025 TEMPO 2919/2920 4SM SHRA BR OVC015 PROB30 2919/2920 VRB15G25KT 2SM TSRA BR BKN008 OVC015CB RMK FCST BASED ON AUTO OBS. NXT FCST BY 291400Z<br><br>
<br><br>
TAF AMD CYTR 290636Z 2906/3006 19005KT 6SM BR SCT003 OVC030 TEMPO 2906/2910 1SM BR OVC003 FM291000 22008KT P6SM SCT006 BKN025 OVC150 TEMPO 2910/2912 5SM BR BKN006 OVC025 FM291200 24008KT P6SM FEW006 SCT025 BKN150 BECMG 2913/2915 24010G20KT FM291500 23010G20KT P6SM FEW020 SCT040 BKN080 TEMPO 2919/2922 5SM -SHRA BR BKN020 OVC040 FM292200 23012KT P6SM -SHRA SCT015 OVC040 PROB30 2922/3001 VRB15G25KT 2SM TSRA BR BKN015 OVC040CB FM300100 28012KT P6SM BKN012 OVC040 RMK NXT FCST BY 291200Z<br><br>
<br><br>
