RETRIEVED AT : Oct 29 2017 04:10 Local <br>
  RETRIEVED AT: Oct 29 2017 08:10 UTC<br><br>
CYSN has no TAF <br><br>
<br><br>
CYHM 290800Z 20005KT 15SM OVC038 04/02 A2984 RMK SC8 SLP111<br><br>
CYHM 290700Z 35003KT 15SM OVC039 04/01 A2983 RMK SC8 SLP108<br><br>
TAF CYHM 290538Z 2906/3006 24005KT P6SM BKN040 BECMG 2906/2908 VRB03KT FM290900 VRB03KT P6SM BKN040 PROB30 2909/2913 1SM BR BKN004 FM291300 VRB03KT P6SM BKN030 TEMPO 2913/2918 BKN020 FM291800 35008KT P6SM BKN030 RMK NXT FCST BY 291200Z<br><br>
<br><br>
KIAG 290753Z AUTO 00000KT 10SM OVC040 07/02 A2984 RMK AO2 RAB29E41 SLP112 P0000 T00670022<br><br>
KIAG 290653Z AUTO 00000KT 10SM OVC036 07/02 A2985 RMK AO2 SLP115 T00670022<br><br>
KIAG 290534Z 2906/3006 VRB03KT P6SM OVC025 FM290900 00000KT P6SM OVC035 FM291000 00000KT 6SM -RA OVC025 FM291300 00000KT P6SM OVC015 FM291900 36007KT P6SM OVC007 FM300100 34012G18KT P6SM OVC012<br><br>
<br><br>
KBUF 290754Z 00000KT 10SM OVC031 06/04 A2984 RMK AO2 SLP109 T00560044<br><br>
KBUF 290654Z 00000KT 10SM OVC031 06/03 A2985 RMK AO2 SLP112 T00610028<br><br>
KBUF 290534Z 2906/3006 00000KT P6SM VCSH OVC025 FM291200 VRB03KT 5SM -RA OVC007 FM291700 35005KT P6SM OVC007 FM292200 35009KT P6SM OVC007 FM292300 34011KT 6SM -RA OVC007<br><br>
<br><br>
CYYZ 290800Z 31004KT 15SM FEW046 OVC210 04/01 A2983 RMK SC1CI7 SLP109<br><br>
CYYZ 290700Z 31005KT 15SM BKN046 OVC230 04/01 A2984 RMK SC5CI3 SLP111<br><br>
TAF CYYZ 290538Z 2906/3012 28007KT P6SM BKN040 BECMG 2908/2910 VRB03KT FM291400 35008KT P6SM BKN030 BECMG 3003/3005 30015G25KT RMK NXT FCST BY 290900Z<br><br>
<br><br>
CYOO 290800Z AUTO 35003KT 9SM BKN170 OVC190 03/02 A2983 RMK SLP108<br><br>
CYOO 290700Z AUTO 00000KT 9SM OVC190 04/01 A2985 RMK PRESFR SLP113<br><br>
CYOO has no TAF <br><br>
<br><br>
CYTR 290800Z 02002KT 10SM -SHRA SCT061 OVC080 06/06 A2986 RMK SC3AC5 PCPN VRY LGT SLP114<br><br>
CYTR 290700Z 00000KT 10SM -SHRA SCT032 OVC080 06/06 A2987 RMK SC4AC4 PCPN VRY LGT SLP119<br><br>
TAF CYTR 290530Z 2906/3006 22005KT P6SM -SHRA BKN020 OVC060 TEMPO 2906/2915 P6SM NSW BKN030 OVC060 BECMG 2907/2909 02005KT FM291700 02010KT P6SM -SHRA SCT012 BKN020 OVC060 TEMPO 2917/2924 4SM -SHRA BR BKN012 OVC020 BECMG 2922/2924 34012G22KT FM300000 34012G22KT 4SM -SHRA BR SCT008 BKN012 RMK NXT FCST BY 291200Z<br><br>
<br><br>
