RETRIEVED AT : Nov 05 2017 07:10 Local <br>
  RETRIEVED AT: Nov 05 2017 12:10 UTC<br><br>
CYSN 051200Z 17014KT 15SM OVC026 12/10 A2988 RMK SC8 SLP121<br><br>
CYSN has no TAF <br><br>
<br><br>
CYHM 051200Z 16006KT 5SM -RA BR FEW002 OVC011 11/11 A2988 RMK SF1SC7 SLP123<br><br>
CYHM 051150Z 16007KT 5SM -RA BR FEW003 OVC014 11/11 A2987 RMK SF1SC7 SLP122<br><br>
CYHM 051135Z 16006KT 5SM -RA BR BKN003 OVC010 10/10 A2988 RMK SF5SC3 SLP124<br><br>
CYHM 051100Z 08004KT 2 1/4SM -RA BR BKN002 OVC009 09/09 A2989 RMK SF6SC2 SLP129<br><br>
CYHM 051036Z 09006KT 3SM -RA BR SCT002 OVC015 08/08 A2990 RMK SF3SC5 VIS VRB 2 - 4 PRESFR SLP131<br><br>
TAF CYHM 051141Z 0512/0612 15005KT WS005/18020KT 2SM -DZ BR BKN003 OVC012 TEMPO 0512/0513 6SM -SHRA BR SCT003 OVC012 FM051300 18012KT 6SM -SHRA BR SCT005 OVC012 TEMPO 0513/0521 21/2SM -DZ BR OVC005 BECMG 0514/0515 20015G25KT FM052100 21012G22KT 3SM -SHRA BR BKN006 OVC015 PROB40 0521/0524 VRB20G35KT 1SM +TSRA BR BKN004 OVC020CB FM060000 23010KT 4SM -DZ BR OVC006 FM060400 30010KT 6SM BR SCT006 OVC010 FM061000 31007KT P6SM FEW008 BKN015 RMK NXT FCST BY 051800Z<br><br>
<br><br>
KIAG 051153Z 17009KT 10SM BKN026 OVC032 12/09 A2991 RMK AO2 RAE06B24E51 SLP134 P0001 60014 70045 T01220089 10122 20072 58014<br><br>
KIAG 051053Z AUTO 17008KT 6SM -RA BKN024 OVC034 12/09 A2993 RMK AO2 RAE0959B52 SLP141 P0001 T01220089<br><br>
KIAG 051134Z 0512/0612 17008KT 6SM -RA BKN024 OVC035 WS020/19045KT FM051500 18015G22KT 4SM RA OVC025 FM051700 19017G23KT P6SM OVC025 TEMPO 0517/0521 4SM -SHRA OVC015 FM060000 18013G20KT 2SM +SHRA OVC020 FM060800 26009KT 2SM +SHRA OVC020 FM061000 28008KT 6SM -SHRA OVC020<br><br>
<br><br>
KBUF 051154Z 16011KT 10SM BKN032 BKN050 OVC100 11/09 A2993 RMK AO2 RAE17 SLP138 P0003 60030 70052 T01110094 10111 20078 57015 $<br><br>
KBUF 051143Z 16009KT 10SM BKN030 BKN050 OVC100 11/09 A2993 RMK AO2 RAE17 P0003 T01110094 $<br><br>
KBUF 051054Z 17009KT 6SM -RA BR BKN026 BKN032 OVC050 11/09 A2995 RMK AO2 LTG DSNT E RAB0958E09B34 SLP145 P0000 T01110094 $<br><br>
KBUF 051134Z 0512/0612 17009KT 6SM -RA BR BKN026 OVC050 WS020/19045KT FM051500 17016G24KT 4SM RA OVC025 TEMPO 0516/0517 2SM -SHRA OVC015 FM051700 19017G25KT P6SM OVC025 TEMPO 0517/0521 4SM -SHRA OVC015 FM060000 18014G22KT 2SM +SHRA OVC020 FM060800 24009KT 2SM +SHRA OVC015 FM061100 31008KT 6SM -SHRA OVC020<br><br>
<br><br>
CYYZ 051200Z 12007KT 5SM -DZ BKN003 OVC007 09/09 A2988 RMK SF6ST2 SLP124<br><br>
CYYZ 051135Z 11008KT 6SM -DZ BKN003 OVC008 09/08 A2989 RMK SF6SF2 SLP128<br><br>
CYYZ 051100Z 14007KT 6SM -DZ BR OVC005 09/08 A2991 RMK ST8 SLP136<br><br>
CYYZ 051030Z 12009KT 6SM -DZ BR FEW006 OVC009 09/08 A2991 RMK SF1ST7 SLP136<br><br>
TAF CYYZ 051141Z 0512/0618 13007KT 6SM -SHRA BR SCT003 OVC010 TEMPO 0512/0513 3SM -DZ BR BKN003 OVC010 FM051300 18010KT P6SM -SHRA SCT008 OVC015 TEMPO 0513/0522 3SM -DZ BR BKN008 OVC015 BECMG 0515/0517 20015G25KT FM052200 21010G20KT 6SM -SHRA BR SCT010 OVC025 PROB30 0523/0602 VRB20G35KT 11/2SM +TSRA BR BKN006 OVC030CB FM060200 25008KT 6SM -DZ BR BKN008 OVC020 FM060600 31010KT P6SM SCT012 BKN025 RMK NXT FCST BY 051500Z<br><br>
<br><br>
CYOO 051200Z AUTO 11008KT 4SM -RA BR SCT003 OVC009 09/08 A2991 RMK SLP135<br><br>
CYOO 051156Z AUTO 10006KT 4SM -RA BR SCT003 OVC009 09/08 A2992 RMK SLP136<br><br>
CYOO 051124Z AUTO 10009KT 3SM BR BKN003 OVC013 09/08 A2992 RMK SLP138<br><br>
CYOO 051100Z AUTO 11010KT 2 1/2SM BR OVC003 08/07 A2994 RMK SLP142<br><br>
CYOO 051020Z AUTO 10008KT 2 1/2SM BR OVC003 08/07 A2995 RMK SLP148<br><br>
CYOO has no TAF <br><br>
<br><br>
CYTR 051200Z 18008KT 4SM -RA BR OVC006 10/09 A2999 RMK SF8 SLP158<br><br>
CYTR 051100Z 18008KT 2SM -RA BR OVC006 10/09 A3000 RMK SF8 VIS VRB 1 1/2-2 1/2 SLP163<br><br>
TAF CYTR 051130Z 0512/0612 16008KT 4SM -RA BR OVC010 TEMPO 0512/0515 2SM -RA BR OVC006 FM051500 17012KT 6SM -RA OVC020 TEMPO 0515/0523 2SM -RA BR OVC006 FM052300 19012G22KT 3SM -SHRA BR BKN006 OVC020 TEMPO 0523/0604 1SM +SHRA BR FM060400 20012KT 2SM BR BKN004 OVC010 FM060800 28010G20KT P6SM SCT006 BKN030 RMK NXT FCST BY 051800Z<br><br>
<br><br>
