RETRIEVED AT : May 31 2020 17:05 Local <br>
  RETRIEVED AT: May 31 2020 21:05 UTC<br><br>
CYSN 312000Z 32004KT 260V020 15SM FEW060 15/03 A3023 RMK SC2 SLP240<br><br>
TAF AMD CYSN 311302Z 3113/0101 33008KT P6SM FEW015 BKN040 TEMPO 3113/3118 BKN015 FM311800 30010KT P6SM SCT040 TEMPO 3118/0101 BKN040 RMK NXT FCST BY 312000Z<br><br>
<br><br>
CYHM 312000Z 29009G15KT 260V350 15SM BKN052 15/03 A3023 RMK CU5 SLP244<br><br>
TAF CYHM 311738Z 3118/0118 32012KT P6SM BKN050 TEMPO 3118/0103 SCT050 FM010300 24007KT P6SM SCT060 BECMG 0113/0115 25015KT RMK NXT FCST BY 010000Z<br><br>
<br><br>
KIAG 312053Z 31009KT 10SM CLR 14/01 A3022 RMK AO2 SLP239 T01440011 58009<br><br>
KIAG 311953Z 30007KT 10SM CLR 14/01 A3024 RMK AO2 SLP245 T01390006<br><br>
KIAG 312029Z 3120/0118 30010KT P6SM SCT050 FM312200 25007KT P6SM BKN070 FM010800 28006KT P6SM SCT100 FM011600 24012G20KT P6SM BKN150<br><br>
<br><br>
KBUF 312054Z 23013G20KT 10SM FEW040 SCT050 SCT060 SCT200 11/05 A3023 RMK AO2 SLP241 T01110050 56006 $<br><br>
KBUF 311954Z 32013G19KT 10SM SCT060 SCT080 13/01 A3023 RMK AO2 SLP241 T01330011 $<br><br>
KBUF 312029Z 3120/0118 32013G20KT P6SM SCT050 FM312200 25007KT P6SM BKN070 FM010800 28005KT P6SM SCT100 FM011600 25014G22KT P6SM BKN150<br><br>
<br><br>
CYYZ 312000Z 27010G17KT 250V330 15SM SCT062 SCT085 BKN120 15/01 A3022 RMK CF3AC1AC1 SLP237<br><br>
TAF CYYZ 312038Z 3121/0124 29010G20KT P6SM SCT060 TEMPO 3121/0104 BKN060 FM010400 VRB03KT P6SM SCT060 BECMG 0104/0106 22008KT FM011500 27015G25KT P6SM SCT070 RMK NXT FCST BY 010000Z<br><br>
<br><br>
CYOO 312000Z AUTO 32015G24KT 260V340 9SM SCT140 14/00 A3021 RMK SLP235<br><br>
TAF CYOO 311938Z 3120/0108 32015G25KT P6SM SCT060 TEMPO 3120/3122 BKN060 FM312200 32015G25KT P6SM BKN060 TEMPO 3122/0104 P6SM -SHRA FM010400 29006KT P6SM SCT040 RMK FCST BASED ON AUTO OBS. NXT FCST BY 010200Z<br><br>
<br><br>
CYTR 312000Z 28010G18KT 15SM BKN060 BKN080 15/02 A3016 RMK SC5AC1 SLP216<br><br>
TAF CYTR 311731Z 3118/0118 30010G20KT P6SM BKN060 TEMPO 3118/0101 SCT060 FM010200 29007KT P6SM FEW100 BECMG 0108/0110 24005KT FM011300 24005KT P6SM BKN080 BECMG 0114/0116 24010G20KT RMK NXT FCST BY 010000Z<br><br>
<br><br>
