RETRIEVED AT : Jun 04 2018 03:03 Local <br>
  RETRIEVED AT: Jun 04 2018 07:03 UTC<br><br>
CYSN has no TAF <br><br>
<br><br>
TAF CYHM 040539Z 0406/0506 26012KT P6SM FEW020 SCT060 TEMPO 0406/0409 BKN020 BKN060 FM040900 27008KT P6SM SCT010 BKN050 TEMPO 0409/0414 5SM -DZ -RA BR BKN010 OVC050 BECMG 0410/0412 27012G22KT FM041400 27015G25KT P6SM BKN020 BKN050 FM041600 27018G28KT P6SM BKN030 TEMPO 0416/0420 P6SM -SHRA FM042200 27018G28KT P6SM SCT040 BECMG 0422/0424 27012G22KT FM050300 24008KT P6SM BKN060 FM050500 26008KT P6SM -SHRA BKN050 PROB30 0505/0506 VRB15G30KT 2SM TSRA BR BKN020 OVC050CB RMK NXT FCST BY 041200Z<br><br>
<br><br>
KIAG 040653Z 25012KT 8SM FEW065 BKN095 18/14 A2969 RMK AO2 RAE40 SLP049 P0003 T01830144<br><br>
KIAG 040553Z 24011KT 3SM -RA SCT007 BKN044 OVC070 19/16 A2968 RMK AO2 RAB45 SLP048 P0000 60000 T01890161 10211 20183 58007<br><br>
KIAG 040537Z 23009KT 4SM BR OVC007 18/16 A2968 RMK AO2 CIG 005V009 T01830161<br><br>
KIAG 040530Z 0406/0506 23008KT 4SM BR OVC005 FM041100 25013G20KT P6SM BKN015 FM041300 26014G21KT P6SM BKN020 FM041900 27017KT P6SM BKN035 FM042100 27016G23KT P6SM BKN040 FM042300 28015G24KT P6SM SCT045<br><br>
<br><br>
KBUF 040654Z 23008KT 6SM BR FEW007 BKN055 OVC075 16/16 A2970 RMK AO2 RAB02E26 SLP056 P0002 T01610156<br><br>
KBUF 040621Z 24009KT 6SM -RA BR SCT008 OVC046 17/16 A2970 RMK AO2 RAB02 P0002 T01670161<br><br>
KBUF 040554Z 24013G24KT 7SM OVC005 17/16 A2969 RMK AO2 SLP052 60000 T01720156 10189 20167 58011<br><br>
KBUF 040547Z 24018G24KT 6SM BR OVC005 17/16 A2969 RMK AO2 T01720161<br><br>
KBUF 040524Z 24014G21KT 5SM BR OVC004 17/16 A2970 RMK AO2 T01670161<br><br>
KBUF 040530Z 0406/0506 24014G21KT 5SM BR OVC004 FM040900 24012G19KT P6SM BKN012 FM041500 26014KT P6SM OVC020 FM042000 26016G23KT P6SM BKN035 FM050000 27014G22KT P6SM SCT040 FM050200 24008KT P6SM SCT050<br><br>
<br><br>
TAF CYYZ 040539Z 0406/0512 26008KT P6SM FEW020 BKN080 TEMPO 0406/0409 BKN020 BKN080 FM040900 29010KT P6SM SCT015 BKN060 TEMPO 0409/0414 P6SM -SHRA BKN015 OVC060 BECMG 0410/0412 29012G22KT FM041400 28018G28KT P6SM BKN020 BKN050 FM041600 28018G28KT P6SM BKN030 TEMPO 0416/0421 P6SM -SHRA FM042100 29020G30KT P6SM BKN030 FM042300 28015G25KT P6SM FEW040 FM050200 28012KT P6SM BKN060 FM050400 27012KT P6SM BKN050 TEMPO 0504/0507 P6SM -SHRA FM050700 27008KT P6SM FEW015 BECMG 0510/0512 29012G22KT RMK NXT FCST BY 040900Z<br><br>
<br><br>
CYOO 040649Z AUTO 20003KT 5SM BR OVC004 15/14 A2965 RMK SLP040 DENSITY ALT 900FT<br><br>
CYOO 040600Z AUTO 27002KT 8SM OVC004 15/14 A2964 RMK SLP039 DENSITY ALT 900FT<br><br>
CYOO has no TAF <br><br>
<br><br>
CYTR 040618Z 00000KT 8SM OVC006 15/13 A2963 RMK SF8 SLP037<br><br>
CYTR 040600Z 17003KT 4SM -SHRA BR OVC006 15/13 A2964 RMK SF8 PCPN VRY LGT SLP039<br><br>
TAF CYTR 040533Z 0406/0506 16008G18KT 2SM -SHRA BR BKN006 OVC020 BECMG 0406/0408 20010KT P6SM NSW SCT006 OVC025 FM040800 20010KT P6SM SCT008 OVC025 TEMPO 0408/0412 3SM -DZ BR BKN006 OVC015 FM041200 25010G20KT P6SM SCT015 BKN025 TEMPO 0412/0417 5SM -SHRA BR BKN012 OVC020 BECMG 0415/0417 27012G22KT FM041700 27012G22KT P6SM BKN030 TEMPO 0417/0422 P6SM -SHRA BKN025 FM042200 28012G22KT P6SM BKN040 BECMG 0502/0504 27010KT RMK NXT FCST BY 041200Z<br><br>
<br><br>
