RETRIEVED AT : Oct 08 2017 10:10 Local <br>
  RETRIEVED AT: Oct 08 2017 14:10 UTC<br><br>
CYSN 081400Z 25016G22KT 15SM BKN038 20/13 A2981 RMK SC7 SLP094 DENSITY ALT 1200FT<br><br>
CYSN 081300Z 24017G25KT 15SM BKN040 20/14 A2979 RMK SC6 SLP088 DENSITY ALT 1200FT<br><br>
TAF CYSN 081238Z 0813/0901 23015G25KT P6SM FEW050 BECMG 0818/0820 22010G20KT RMK NXT FCST BY 082000Z<br><br>
<br><br>
CYHM 081400Z 24019G25KT 15SM FEW025 BKN030 19/14 A2982 RMK CU2SC4 SLP097 DENSITY ALT 1600FT<br><br>
CYHM 081300Z 23013G20KT 15SM FEW025 BKN030 18/14 A2980 RMK CU1SC6 SLP092 DENSITY ALT 1400FT<br><br>
TAF CYHM 081138Z 0812/0912 23015G25KT P6SM BKN025 TEMPO 0812/0819 BKN020 BECMG 0815/0817 23010G20KT FM081900 22010KT P6SM SKC BECMG 0821/0823 20007KT FM090400 09008KT P6SM BKN050 OVC160 FM090700 05012KT 6SM -RA SCT006 OVC025 FM090900 05012KT 3SM RA BR BKN005 OVC010 RMK NXT FCST BY 081800Z<br><br>
<br><br>
KIAG 081353Z 25019G28KT 10SM BKN040 21/13 A2982 RMK AO2 PK WND 25029/1258 SLP094 T02110128<br><br>
KIAG 081253Z 25016G25KT 10SM SCT043 21/13 A2979 RMK AO2 SLP085 T02060133<br><br>
KIAG 081236Z 0813/0912 25015G25KT P6SM FEW025 BKN045 FM081700 25015G21KT P6SM SCT045 FM082200 22008KT P6SM SCT250 FM090100 18005KT P6SM SCT250 FM090500 14005KT 6SM -RA OVC060 FM091100 15006KT 4SM RA OVC012<br><br>
<br><br>
KBUF 081354Z 25017G27KT 10SM FEW015 BKN027 BKN042 19/14 A2983 RMK AO2 PK WND 24030/1322 SLP099 T01940144<br><br>
KBUF 081332Z 25014G24KT 10SM SCT024 BKN029 BKN045 19/15 A2982 RMK AO2 PK WND 24030/1322 T01940150<br><br>
KBUF 081254Z 24019G29KT 10SM FEW012 SCT020 BKN046 BKN130 19/15 A2980 RMK AO2 PK WND 24032/1221 SLP087 T01940150<br><br>
KBUF 081231Z 0813/0912 24021G33KT P6SM SCT025 BKN045 FM081700 25016G24KT P6SM SCT045 FM082000 24012KT P6SM SCT200 FM090100 VRB03KT P6SM SCT250 FM090500 13005KT 6SM -RA OVC080 FM091100 16012KT 4SM RA OVC012<br><br>
<br><br>
CYYZ 081400Z 25013G20KT 15SM FEW025 BKN032 19/14 A2979 RMK CF1SC7 CF TR SLP088 DENSITY ALT 1300FT<br><br>
CYYZ 081300Z 24014G19KT 15SM FEW030 BKN038 18/14 A2975 RMK CF1SC7 CF TR SLP076 DENSITY ALT 1300FT<br><br>
TAF AMD CYYZ 081210Z 0812/0918 24015G25KT P6SM BKN040 TEMPO 0812/0816 BKN020 FM081600 27012G22KT P6SM BKN040 TEMPO 0816/0819 BKN020 FM081900 26010G20KT P6SM SKC BECMG 0821/0823 20008KT FM090200 VRB03KT P6SM SCT220 FM090600 VRB03KT P6SM BKN080 FM090800 08008KT 6SM -RA BR SCT008 OVC025 FM091000 08010KT 2SM RA BR OVC006 PROB30 0910/0914 OVC003 FM091400 04008KT 5SM -RA BR BKN008 OVC020 FM091600 04008KT P6SM OVC012 RMK NXT FCST BY 081500Z<br><br>
<br><br>
CYOO 081400Z AUTO 24009G17KT 9SM OVC038 19/13 A2977 RMK SLP082 DENSITY ALT 1200FT<br><br>
CYOO 081300Z AUTO 24012G17KT 9SM SCT032 OVC042 19/13 A2974 RMK PRESRR SLP073 DENSITY ALT 1200FT<br><br>
CYOO has no TAF <br><br>
<br><br>
CYTR 081400Z 24018G26KT 15SM SCT023 BKN044 19/15 A2975 RMK SC4SC3 SLP075<br><br>
CYTR 081300Z 24017G22KT 15SM FEW029 BKN042 19/15 A2972 RMK SC2SC4 SLP065<br><br>
TAF CYTR 081130Z 0812/0912 23018G28KT P6SM SCT030 TEMPO 0812/0815 BKN020 FM081800 23008G18KT P6SM SCT030 BECMG 0821/0823 VRB03KT FM090200 VRB03KT P6SM SCT020 BKN200 FM090800 15005KT 3SM -SHRA BR SCT008 BKN020 RMK NXT FCST BY 081800Z<br><br>
<br><br>
