RETRIEVED AT : Mar 07 2020 19:05 Local <br>
  RETRIEVED AT: Mar 08 2020 00:05 UTC<br><br>
CYSN 072300Z 20015KT 15SM SKC 01/M04 A3042 RMK SLP307<br><br>
TAF CYSN 071942Z 0720/0802 24007KT P6SM SKC FM080000 22010KT P6SM SCT120 RMK NXT FCST WILL BE ISSUED AT 081345Z<br><br>
<br><br>
CYHM 072300Z 23007KT 15SM FEW160 01/M06 A3039 RMK AC1 AC TR SLP307<br><br>
TAF CYHM 072347Z 0800/0824 23007KT P6SM FEW120 FM081200 22010KT P6SM SKC BECMG 0814/0816 23015G25KT RMK NXT FCST BY 080600Z<br><br>
<br><br>
KIAG 072353Z 21013KT 10SM CLR M02/M06 A3041 RMK AO2 SLP317 T10171056 10017 21017 56007<br><br>
KIAG 072253Z 21013KT 10SM CLR M01/M06 A3042 RMK AO2 SLP319 T10061056<br><br>
KIAG 072326Z 0800/0824 21014KT P6SM SCT250 FM080900 22010G18KT P6SM FEW200 FM081500 23016G35KT P6SM FEW250 FM082300 22015G29KT P6SM FEW250<br><br>
<br><br>
KBUF 072354Z 23010KT 10SM FEW150 FEW250 M01/M06 A3042 RMK AO2 SLP313 T10111056 10011 21011 56008<br><br>
KBUF 072254Z 22013KT 10SM FEW250 M01/M06 A3043 RMK AO2 SLP315 T10061056<br><br>
KBUF 072326Z 0800/0824 22014KT P6SM FEW250 FM080800 22010G20KT P6SM FEW250 FM081500 23016G35KT P6SM FEW250 FM082300 22013G24KT P6SM FEW250<br><br>
<br><br>
CYYZ 072300Z 19007KT 180V250 15SM FEW160 FEW250 01/M09 A3038 RMK AC1CI2 AC TR SLP299<br><br>
TAF CYYZ 072347Z 0800/0906 19010KT P6SM FEW250 FM081200 25010G20KT P6SM SKC FM081800 22012G22KT P6SM SKC RMK NXT FCST BY 080300Z<br><br>
<br><br>
CYOO 072301Z AUTO 21007KT 9SM FEW150 01/M06 A3038 RMK SLP296<br><br>
CYOO 072300Z AUTO 22007KT 9SM -RA FEW150 01/M06 A3038 RMK SLP297<br><br>
CYOO 072251Z AUTO 22005KT 9SM -RA CLR 01/M07 A3038 RMK SLP298<br><br>
TAF CYOO 071943Z 0720/0808 20008KT P6SM SKC FM072100 23010KT P6SM FEW120 FM080000 20010KT P6SM BKN110 FM080600 24008KT P6SM BKN130 RMK FCST BASED ON AUTO OBS. NXT FCST BY 080200Z<br><br>
<br><br>
CYTR 072300Z 22009KT 15SM FEW130 SCT210 M00/M06 A3039 RMK AC1CI2 SLP297<br><br>
TAF CYTR 072330Z 0800/0824 23010KT P6SM FEW130 SCT210 FM080300 26008KT P6SM SCT100 FM080800 26008KT P6SM SCT240 BECMG 0817/0819 24012G22KT SKC RMK NXT FCST BY 080600Z<br><br>
<br><br>
