RETRIEVED AT : Jun 16 2019 08:05 Local <br>
  RETRIEVED AT: Jun 16 2019 12:05 UTC<br><br>
CYSN 161100Z 05007KT 15SM OVC020 13/12 A2983 RMK SC8 SLP103<br><br>
CYSN has no TAF <br><br>
<br><br>
CYHM 161100Z 04010G17KT 15SM SCT022 BKN060 12/10 A2984 RMK SC4SC3 SLP107<br><br>
TAF CYHM 161138Z 1612/1712 05012KT P6SM SCT020 BKN060 TEMPO 1612/1616 BKN020 BKN060 FM161600 05012KT P6SM BKN030 TEMPO 1616/1618 BKN020 FM170300 04008KT P6SM FEW110 RMK NXT FCST BY 161800Z<br><br>
<br><br>
KIAG 161153Z 04008KT 10SM OVC014 13/11 A2983 RMK AO2 SLP104 70023 T01280111 10139 20128 55002<br><br>
KIAG 161053Z 06007KT 10SM OVC014 13/12 A2983 RMK AO2 SLP103 T01280117<br><br>
KIAG 161120Z 1612/1712 05008KT P6SM OVC012 FM161600 05008KT P6SM BKN025 FM161800 05008KT P6SM BKN040 FM170200 VRB03KT P6SM BKN080<br><br>
<br><br>
KBUF 161154Z 04008KT 1 1/2SM -RA BR OVC002 14/13 A2982 RMK AO2 SLP097 P0000 60001 70114 T01390128 10167 20139 56005<br><br>
KBUF 161054Z 05007KT 1 1/2SM -RA BR OVC002 14/13 A2983 RMK AO2 SLP100 P0001 T01390133<br><br>
KBUF 161029Z 04008KT 2SM -RA BR OVC002 14/13 A2983 RMK AO2 P0000 T01390133<br><br>
KBUF 161120Z 1612/1712 04007KT 1SM -RADZ BR OVC002 FM161400 05008KT P6SM OVC007 FM161700 05008KT P6SM BKN015 FM161900 05007KT P6SM SCT025 BKN120 FM170200 VRB03KT P6SM BKN060<br><br>
<br><br>
CYYZ 161100Z 06008KT 15SM FEW040 FEW090 SCT220 12/10 A2986 RMK SC1AC1CI1 SLP115<br><br>
TAF CYYZ 161138Z 1612/1718 06010KT P6SM FEW040 FEW090 SCT220 BECMG 1616/1618 11010KT FM162200 14005KT P6SM FEW050 SCT180 BECMG 1701/1703 32005KT BECMG 1712/1714 04005KT FM171700 15008KT P6SM FEW100 RMK NXT FCST BY 161500Z<br><br>
<br><br>
CYOO 161100Z AUTO 03005KT 9SM CLR 13/10 A2986 RMK SLP115<br><br>
TAF CYOO 160738Z 1608/1620 01005KT P6SM BKN100 FM161500 08010KT P6SM SKC BECMG 1618/1620 16008KT RMK FCST BASED ON AUTO OBS. NXT FCST BY 161400Z<br><br>
<br><br>
CYTR 161100Z 00000KT 15SM FEW120 FEW250 11/10 A2988 RMK AC1CI1 SLP119<br><br>
TAF CYTR 161130Z 1612/1712 VRB03KT P6SM FEW120 SCT250 BECMG 1612/1614 04005KT FM161800 21010KT P6SM SCT030 BKN240 BECMG 1623/1701 VRB03KT RMK NXT FCST BY 161800Z<br><br>
<br><br>
