RETRIEVED AT : Dec 12 2017 01:10 Local <br>
  RETRIEVED AT: Dec 12 2017 06:10 UTC<br><br>
CYSN has no TAF <br><br>
<br><br>
CYHM 120600Z 05006KT 2SM -SN OVC019 M03/M04 A2961 RMK SN6SC2 SLP039<br><br>
CYHM 120500Z 05006KT 2SM -SN OVC022 M04/M04 A2965 RMK SN6SC2 SLP053<br><br>
TAF CYHM 120538Z 1206/1306 05007KT 1SM -SN VV010 TEMPO 1206/1210 3SM -SN OVC020 FM121000 27010KT 2SM -SN OVC020 TEMPO 1210/1214 5SM -SN OVC030 BECMG 1212/1214 30008KT FM121400 29020G35KT P6SM -SN SCT030 OVC050 PROB30 1214/1216 11/2SM -SHSN BLSN VV012 FM121900 30020G30KT P6SM SCT050 BECMG 1220/1222 29015KT RMK NXT FCST BY 121200Z<br><br>
<br><br>
KIAG 120553Z AUTO 09004KT 1SM R28R/P6000FT -SN BR VV012 M02/M04 A2964 RMK AO2 SLP053 P0003 60005 T10221044 11022 21033 58035<br><br>
KIAG 120543Z AUTO 09005KT 1SM R28R/P6000FT -SN BKN014 OVC023 M02/M05 A2965 RMK AO2 P0002 T10221050<br><br>
KIAG 120528Z AUTO 09004KT 1 1/4SM -SN OVC019 M02/M05 A2966 RMK AO2 P0001 T10221050<br><br>
KIAG 120515Z AUTO 08005KT 1 1/2SM -SN BKN018 OVC025 M02/M05 A2967 RMK AO2 P0001 T10221050<br><br>
KIAG 120453Z AUTO 08005KT 1 1/4SM -SN OVC020 M02/M05 A2968 RMK AO2 SLP066 P0001 T10221050 410111039<br><br>
KIAG 120413Z AUTO 11004KT 1 1/2SM -SN OVC018 M02/M06 A2971 RMK AO2 P0001 T10221056<br><br>
KIAG 120532Z 1206/1306 VRB04KT 1SM -SN OVC015 FM121100 27005KT 1SM -SN OVC015 FM121500 32012G20KT 1SM -SN OVC015 FM121800 28015G25KT P6SM VCSH OVC035 FM122300 27017G23KT 1SM -SN OVC015<br><br>
<br><br>
KBUF 120554Z COR 13006KT 1SM R23/6000VP6000FT -SN BR BKN011 OVC016 M02/M03 A2964 RMK AO2 SLP047 P0004 60007 4/002 T10221028 11022 21039 56026 $<br><br>
KBUF 120552Z 13005KT 1SM R23/6000VP6000FT -SN BR FEW007 OVC011 M02/M03 A2964 RMK AO2 P0004 $<br><br>
KBUF 120535Z 13006KT 3/4SM R23/5000VP6000FT -SN BR SCT007 OVC013 M02/M03 A2966 RMK AO2 P0003 T10221028 $<br><br>
KBUF 120520Z 12005KT 1 1/2SM -SN BR SCT007 OVC019 M02/M03 A2966 RMK AO2 P0002 T10221028 $<br><br>
KBUF 120454Z 13004KT 1SM R23/6000VP6000FT -SN BR VV017 M02/M03 A2968 RMK AO2 SLP061 P0002 T10221033 410221044 $<br><br>
KBUF 120532Z 1206/1306 VRB04KT 1SM -SN OVC015 FM121100 25005KT 1SM -SN OVC015 FM121500 29012G20KT 1SM -SN OVC015 FM121800 28013G22KT P6SM VCSH OVC035 FM122200 28015G21KT 4SM -SN OVC025 FM130000 27015G21KT 2SM -SN OVC015<br><br>
<br><br>
CYYZ 120600Z CCA 06005KT 1SM R06L/6000FT/D R05/6000FT/D -SN VV007 M03/M04 A2964 RMK SN8 /S02/ SLP046<br><br>
CYYZ 120554Z 06005KT 1SM R06L/P6000FT/D R05/P6000FT/D -SN VV008 M03/M04 A2964 RMK SN8 SLP048<br><br>
CYYZ 120513Z 09005KT 2SM -SN VV008 M03/M04 A2967 RMK SN8 SLP057<br><br>
CYYZ 120500Z 08004KT 2 1/2SM -SN OVC015 M03/M05 A2968 RMK SN2SC6 SLP061<br><br>
CYYZ 120443Z 09004KT 2 1/2SM -SN OVC015 M03/M05 A2969 RMK SN2SC6 SLP065<br><br>
TAF CYYZ 120538Z 1206/1312 09005KT 11/2SM -SN OVC012 TEMPO 1206/1209 3/4SM -SN VV007 FM120900 05005KT 2SM -SN OVC012 TEMPO 1209/1215 5SM -SN OVC020 PROB30 1209/1210 3/4SM -SN VV007 FM121500 30015G25KT 5SM -SN BLSN BKN030 OVC060 FM121700 29020G30KT P6SM SCT030 FM130200 33015G25KT P6SM -SHSN BKN030 TEMPO 1302/1305 2SM -SHSN BLSN OVC020 BECMG 1305/1307 33015KT RMK NXT FCST BY 120900Z<br><br>
<br><br>
CYOO 120601Z AUTO 08007KT 3SM -SN OVC025 M05/M06 A2966 RMK SLP054<br><br>
CYOO 120600Z AUTO 07007KT 3SM -SN OVC023 M05/M06 A2966 RMK PCPN 0.5MM PAST HR SLP054<br><br>
CYOO 120559Z AUTO 07007KT 3SM -SN OVC023 M05/M06 A2966 RMK PCPN 0.5MM PAST HR SLP054<br><br>
CYOO 120506Z AUTO 07008KT 2SM -SN BKN015 OVC020 M05/M06 A2971 RMK VIS VRB 1 1/4-3 SLP070<br><br>
CYOO 120500Z AUTO 07008KT 4SM -SN BKN015 OVC020 M05/M06 A2971 RMK SLP069<br><br>
CYOO 120450Z AUTO 06009KT 5SM -SN OVC013 M05/M06 A2971 RMK PRESFR SLP070<br><br>
CYOO has no TAF <br><br>
<br><br>
CYTR 120600Z 05006KT 1/2SM SN VV000 M07/M08 A2973 RMK SN8 /S04/ SLP075<br><br>
CYTR 120510Z 05009KT 1/2SM SN VV000 M07/M08 A2976 RMK SN8 SLP085<br><br>
CYTR 120500Z 06010KT 1/2SM SN OVC010 M07/M08 A2977 RMK SN6NS2 /S01/ SLP086<br><br>
TAF CYTR 120530Z 1206/1306 06012KT 1/2SM SN VV001 TEMPO 1206/1207 1SM -SN VV010 FM120700 06012KT 1/2SM SN VV005 TEMPO 1207/1211 1SM -SN VV010 FM121100 06012KT 11/2SM -SN OVC012 FM121600 02010KT 3SM -SN BKN012 OVC030 FM122100 29012G22KT 3SM -SN BLSN BKN020 OVC040 BECMG 1302/1304 33012G22KT RMK NXT FCST BY 121200Z<br><br>
<br><br>
