RETRIEVED AT : Jun 28 2020 08:05 Local <br>
  RETRIEVED AT: Jun 28 2020 12:05 UTC<br><br>
CYSN 281100Z 29007KT 15SM FEW020 FEW250 19/17 A2973 RMK SC1CI1 SC TR CI TR SLP069 DENSITY ALT 1100FT<br><br>
CYSN has no TAF <br><br>
<br><br>
CYHM 281100Z 26007KT 15SM FEW045 17/16 A2977 RMK SC1 SC TR SLP080 DENSITY ALT 1400FT<br><br>
TAF CYHM 281138Z 2812/2912 28007KT P6SM SKC FM281700 05006KT P6SM BKN040 BECMG 2820/2822 12008KT FM290200 02006KT P6SM FEW040 RMK NXT FCST BY 281800Z<br><br>
<br><br>
KIAG 281153Z 30011KT 10SM CLR 19/16 A2976 RMK AO2 SLP074 60000 70041 T01890161 10200 20178 53017<br><br>
KIAG 281053Z 28005KT 10SM CLR 18/17 A2974 RMK AO2 SLP067 T01830172<br><br>
KIAG 281137Z 2812/2912 28005KT P6SM SCT250 FM281400 30005KT P6SM FEW250 FM281700 32007KT P6SM FEW250 FM282300 VRB04KT P6SM FEW250<br><br>
<br><br>
KBUF 281154Z 27007KT 10SM SCT010 SCT090 19/18 A2977 RMK AO2 SLP077 60010 70012 T01940178 10211 20183 53016 $<br><br>
KBUF 281054Z 26005KT 7SM FEW004 FEW009 18/18 A2975 RMK AO2 SLP071 T01830178 $<br><br>
KBUF 281030Z 27008KT 5SM BR SCT004 SCT045 BKN180 18/18 A2974 RMK AO2 T01830178 $<br><br>
KBUF 281015Z 27009KT 4SM BR OVC004 18/18 A2974 RMK AO2 T01830183 $<br><br>
KBUF 281137Z 2812/2912 26005KT P6SM SCT250 FM281500 27006KT P6SM FEW250 FM281800 29007KT P6SM SCT120 FM290000 VRB03KT P6SM FEW250<br><br>
<br><br>
CYYZ 281100Z 32011KT 15SM SKC 18/16 A2974 RMK SLP070 DENSITY ALT 1400FT<br><br>
TAF CYYZ 281138Z 2812/2918 32012KT P6SM SKC BECMG 2812/2814 34012KT FM281700 35012KT P6SM SCT050 TEMPO 2817/2821 BKN050 FM290000 01010KT P6SM FEW050 FM291700 12010KT P6SM SCT050 RMK NXT FCST BY 281500Z<br><br>
<br><br>
CYOO 281100Z AUTO 33006KT 9SM CLR 18/17 A2972 RMK SLP064 DENSITY ALT 1100FT<br><br>
TAF AMD CYOO 280819Z 2808/2820 30003KT P6SM SCT030 TEMPO 2808/2812 2SM BR FEW003 BKN030 PROB30 2808/2812 1/2SM FG BKN002 FM281200 32006KT P6SM SKC FM281700 33008KT P6SM SCT050 TEMPO 2817/2820 BKN050 RMK FCST BASED ON AUTO OBS. NXT FCST BY 281400Z<br><br>
<br><br>
CYTR 281100Z 29002KT 15SM BKN045 BKN070 19/17 A2971 RMK SC6AC1 SLP060<br><br>
TAF CYTR 281130Z 2812/2912 VRB03KT P6SM BKN040 OVC070 FM281400 25008KT P6SM SCT040 TEMPO 2816/2901 6SM -SHRA BR BKN040 PROB30 2818/2823 VRB15G25KT 2SM TSRA BR OVC030CB FM290100 VRB03KT P6SM FEW050 PROB30 2906/2912 2SM BR RMK NXT FCST BY 281800Z<br><br>
<br><br>
