RETRIEVED AT : Sep 23 2017 18:10 Local <br>
  RETRIEVED AT: Sep 23 2017 22:10 UTC<br><br>
CYSN 232200Z 22006KT 15SM FEW250 30/20 A3006 RMK CI2 SLP181 DENSITY ALT 2000FT<br><br>
CYSN 232100Z 31007KT 15SM FEW250 32/19 A3006 RMK CI2 SLP180 DENSITY ALT 2200FT<br><br>
TAF CYSN 231946Z 2320/2401 29007KT P6SM FEW160 BECMG 2323/2401 24005KT RMK NXT FCST WILL BE ISSUED AT 241245Z<br><br>
<br><br>
CYHM 232200Z 33005KT 270V350 15SM FEW160 29/19 A3009 RMK AC1 AC TR SLP190 DENSITY ALT 2500FT<br><br>
CYHM 232100Z 29007KT 15SM FEW160 31/18 A3009 RMK AC1 AC TR SLP190 DENSITY ALT 2600FT<br><br>
TAF CYHM 231740Z 2318/2418 27005KT P6SM FEW070 FM241600 04007KT P6SM FEW050 RMK NXT FCST BY 240000Z<br><br>
<br><br>
KIAG 232153Z 20006KT 10SM CLR 29/18 A3009 RMK AO2 SLP185 T02890178<br><br>
KIAG 232053Z 19007KT 10SM CLR 31/19 A3008 RMK AO2 SLP182 T03110189 56016<br><br>
KIAG 232106Z 2321/2418 25008KT P6SM SKC FM240000 VRB03KT P6SM SKC FM240700 VRB03KT 3SM BR VCFG SKC FM241200 VRB03KT P6SM SKC<br><br>
<br><br>
KBUF 232154Z 23008KT 10SM FEW250 27/14 A3011 RMK AO2 SLP192 T02670144<br><br>
KBUF 232054Z 21009KT 10SM FEW250 27/16 A3010 RMK AO2 SLP190 T02720161 58013<br><br>
KBUF 232106Z 2321/2418 25008KT P6SM SKC FM240200 21004KT P6SM SKC FM240500 VRB03KT P6SM SKC<br><br>
<br><br>
CYYZ 232200Z 15007KT 15SM FEW250 30/18 A3007 RMK CI1 SLP180 DENSITY ALT 2300FT<br><br>
CYYZ 232100Z 17006KT 110V220 15SM FEW070 FEW250 31/18 A3007 RMK CU1CI1 CU TR SLP180 DENSITY ALT 2500FT<br><br>
TAF CYYZ 232038Z 2321/2424 32005KT P6SM FEW060 FM240200 VRB03KT P6SM SKC FM241500 21008KT P6SM FEW050 RMK NXT FCST BY 240000Z<br><br>
<br><br>
CYOO 232200Z AUTO 21005KT 9SM CLR 29/15 A3007 RMK SLP182 DENSITY ALT 1900FT<br><br>
CYOO 232100Z AUTO 21006KT 9SM CLR 29/15 A3006 RMK SLP181 DENSITY ALT 2000FT<br><br>
CYOO has no TAF <br><br>
<br><br>
CYTR 232200Z 21006KT 15SM SKC 28/21 A3003 RMK SLP170<br><br>
CYTR 232100Z 20006KT 15SM SKC 29/21 A3003 RMK SLP171<br><br>
TAF CYTR 231730Z 2318/2418 20008KT P6SM SKC BECMG 2400/2402 VRB03KT BECMG 2414/2416 20008KT RMK NXT FCST BY 240000Z<br><br>
<br><br>
