RETRIEVED AT : Jun 17 2018 13:05 Local <br>
  RETRIEVED AT: Jun 17 2018 17:05 UTC<br><br>
CYSN 171600Z 24008KT 160V250 15SM BKN250 30/17 A3004 RMK CI7 SLP174 DENSITY ALT 2000FT<br><br>
TAF CYSN 171238Z 1713/1801 21005KT P6SM SCT250 FM171700 21010KT P6SM SCT040 FM172100 22010G20KT P6SM SCT040 TEMPO 1721/1801 P6SM VCTS BKN040CB RMK NXT FCST BY 172000Z<br><br>
<br><br>
CYHM 171600Z 24009G15KT 160V260 15SM BKN250 28/19 A3007 RMK CI6 SLP181 DENSITY ALT 2300FT<br><br>
TAF CYHM 171138Z 1712/1812 22005KT P6SM FEW250 FM171700 22012KT P6SM SCT040 FM172100 22010G20KT P6SM SCT040 TEMPO 1721/1801 P6SM VCTS BKN040CB FM180100 22010KT P6SM FEW040 RMK NXT FCST BY 171800Z<br><br>
<br><br>
KIAG 171653Z 22008KT 10SM CLR 30/17 A3006 RMK AO2 SLP171 T03000167<br><br>
KIAG 171553Z 23008KT 10SM CLR 29/17 A3007 RMK AO2 SLP175 T02890172 $<br><br>
KIAG 171432Z 1715/1812 20005KT P6SM SCT250 FM171600 22010KT P6SM SCT250 FM180200 21007KT P6SM SCT200 FM180800 23010KT P6SM SCT100 BKN200<br><br>
<br><br>
KBUF 171654Z 24008KT 10SM FEW040 BKN180 BKN220 BKN270 28/18 A3007 RMK AO2 SLP178 T02830178<br><br>
KBUF 171554Z 25006KT 10SM FEW035 SCT190 BKN230 BKN270 28/17 A3007 RMK AO2 SLP178 T02780172<br><br>
KBUF 171432Z 1715/1812 23008KT P6SM SCT250 FM171800 24012KT P6SM SCT250 FM172300 21007KT P6SM SCT200<br><br>
<br><br>
TAF CYYZ 171440Z 1715/1818 15008KT P6SM BKN260 FM171800 22010G20KT P6SM SCT040 TEMPO 1720/1724 P6SM VCTS SCT030CB FM180000 23012KT P6SM FEW050 BECMG 1812/1814 27015G25KT FM181700 26015G25KT P6SM BKN050 PROB30 1817/1818 VRB20G30KT 1SM +TSRA BR BKN020 OVC050CB RMK NXT FCST BY 171800Z<br><br>
<br><br>
CYOO 171600Z AUTO 18007KT 160V220 9SM CLR 25/14 A3005 RMK SLP175 DENSITY ALT 1500FT<br><br>
CYOO has no TAF <br><br>
<br><br>
CYTR 171600Z 21007KT 15SM OVC250 26/17 A3004 RMK CI8 SLP173<br><br>
TAF CYTR 171130Z 1712/1812 VRB03KT P6SM SCT250 BECMG 1714/1716 22010KT FM180000 22010KT P6SM FEW050 BKN160 BECMG 1801/1803 22006KT FM181000 24012KT P6SM BKN050 BKN120 RMK NXT FCST BY 171800Z<br><br>
<br><br>
