RETRIEVED AT : Apr 03 2020 10:05 Local <br>
  RETRIEVED AT: Apr 03 2020 14:05 UTC<br><br>
CYSN 031300Z 31014G20KT 15SM FEW030 FEW250 05/01 A2998 RMK SC1CI1 SC TR SLP157<br><br>
TAF CYSN 031238Z 0313/0401 33010G20KT P6SM FEW250 FM031400 34010G20KT P6SM SCT020 BKN070 TEMPO 0314/0315 BKN020 BKN070 FM031500 34010G20KT P6SM BKN025 BKN070 TEMPO 0315/0318 BKN020 OVC070 FM031800 34008KT P6SM OVC025 TEMPO 0318/0401 P6SM -RA OVC020 RMK NXT FCST BY 032000Z<br><br>
<br><br>
CYHM 031300Z 35010G15KT 15SM FEW240 04/M01 A3000 RMK CI1 SLP165<br><br>
TAF CYHM 031138Z 0312/0412 32008KT P6SM SKC FM031500 36008KT P6SM FEW025 FM031800 04008KT P6SM BKN030 FM040600 VRB03KT P6SM BKN020 BKN040 RMK NXT FCST BY 031800Z<br><br>
<br><br>
KIAG 031353Z 34014KT 10SM BKN023 04/M01 A2998 RMK AO2 SLP162 T00391006<br><br>
KIAG 031340Z 32013KT 10SM BKN023 04/M01 A2998 RMK AO2 T00441006<br><br>
KIAG 031253Z 34012KT 10SM CLR 04/M01 A2997 RMK AO2 SLP158 T00391006<br><br>
KIAG 031310Z 0313/0412 32008KT P6SM BKN250 FM031500 32012KT P6SM BKN015 FM031700 34009KT P6SM VCSH OVC015 FM040000 32004KT 6SM BR OVC012<br><br>
<br><br>
KBUF 031354Z 31011KT 10SM BKN022 BKN060 BKN250 05/M01 A2997 RMK AO2 SLP155 T00501006<br><br>
KBUF 031343Z 33010KT 10SM BKN022 BKN060 BKN250 05/M01 A2997 RMK AO2 T00501006<br><br>
KBUF 031254Z 33011KT 10SM FEW022 FEW030 FEW065 FEW250 04/M01 A2996 RMK AO2 SLP152 T00441011<br><br>
KBUF 031310Z 0313/0412 32008KT P6SM SCT250 FM031500 32012KT P6SM VCSH OVC012 FM032300 VRB03KT 4SM BR OVC007<br><br>
<br><br>
CYYZ 031300Z 36009G18KT 330V030 15SM FEW020 FEW260 04/M01 A3000 RMK CF1CI1 CF TR SLP165<br><br>
TAF CYYZ 031138Z 0312/0418 35010G20KT P6SM SKC FM031500 36010G20KT P6SM FEW020 FM031700 36012KT P6SM BKN030 FM032300 36012KT P6SM OVC030 TEMPO 0323/0401 P6SM -RA FM040300 36010KT P6SM SCT015 OVC040 FM040800 36008KT P6SM SCT008 BKN015 OVC030 PROB30 0408/0413 4SM -DZ BR OVC006 FM041500 08008KT P6SM OVC015 BECMG 0417/0418 13008KT RMK NXT FCST BY 031500Z<br><br>
<br><br>
CYOO 031300Z AUTO 35019G25KT 9SM CLR 05/M00 A2995 RMK SLP147<br><br>
TAF CYOO 031338Z 0314/0402 35012G22KT P6SM SCT030 BKN070 TEMPO 0314/0317 BKN020 BKN070 FM031700 35010KT P6SM BKN030 BKN070 TEMPO 0317/0401 P6SM -RA OVC020 FM040100 35005KT P6SM SCT012 BKN030 TEMPO 0401/0402 5SM -DZ BR BKN012 OVC030 RMK FCST BASED ON AUTO OBS. NXT FCST BY 032000Z<br><br>
<br><br>
CYTR 031314Z 35012KT 15SM BKN022 OVC035 07/02 A2992 RMK SC6SC2 SLP136<br><br>
CYTR 031300Z 35012KT 15SM BKN035 BKN045 07/02 A2992 RMK SC6SC2 SLP136<br><br>
TAF CYTR 031130Z 0312/0412 35008KT P6SM SCT015 OVC030 TEMPO 0312/0314 BKN015 OVC030 FM031400 01010KT P6SM -RA SCT012 OVC025 TEMPO 0314/0322 OVC012 FM032200 02008KT P6SM -RA OVC012 FM040300 02005KT P6SM BKN008 OVC020 TEMPO 0403/0412 5SM -RA BR RMK NXT FCST BY 031800Z<br><br>
<br><br>
