RETRIEVED AT : Nov 13 2017 16:10 Local <br>
  RETRIEVED AT: Nov 13 2017 21:10 UTC<br><br>
CYSN 132100Z 28007KT 8SM OVC045 05/02 A3037 RMK SC8 SLP288<br><br>
CYSN 132000Z 27003KT 8SM FEW015 OVC036 05/02 A3036 RMK SC2SC6 SLP284<br><br>
CYSN 131955Z 28004KT 8SM SCT016 BKN036 OVC080 05/02 A3036 RMK SC3SC3AC2 SLP284<br><br>
TAF CYSN 131939Z 1320/1402 30005KT P6SM BKN012 OVC030 TEMPO 1320/1402 SCT015 OVC030 RMK NXT FCST WILL BE ISSUED AT 141345Z<br><br>
<br><br>
CYHM 132100Z 29005KT 12SM OVC042 05/02 A3036 RMK SC8 SLP290<br><br>
CYHM 132000Z 27008KT 12SM FEW015 FEW024 OVC041 05/01 A3035 RMK SF1SC1SC6 SLP286<br><br>
TAF CYHM 131738Z 1318/1418 30005KT P6SM FEW012 OVC030 TEMPO 1318/1403 5SM BR BKN012 OVC030 FM140300 VRB03KT 4SM BR OVC015 TEMPO 1403/1416 P6SM NSW OVC025 FM141600 26006KT P6SM BKN025 RMK NXT FCST BY 140000Z<br><br>
<br><br>
KIAG 132053Z 00000KT 7SM OVC048 06/02 A3036 RMK AO2 SLP293 T00560022 51004<br><br>
KIAG 131953Z VRB04KT 6SM HZ OVC009 05/02 A3035 RMK AO2 SLP291 T00500017<br><br>
KIAG 131723Z 1318/1418 30004KT P6SM BKN007 FM132000 30004KT P6SM BKN020 FM132300 VRB03KT P6SM OVC030 FM141300 28004KT P6SM OVC035 FM141700 VRB03KT P6SM BKN040<br><br>
<br><br>
KBUF 132054Z 32005KT 7SM -RA BKN011 OVC026 04/02 A3036 RMK AO2 RAB33 SLP287 P0000 60000 T00390022 52005<br><br>
KBUF 131954Z 29004KT 10SM BKN013 OVC026 04/02 A3035 RMK AO2 SLP286 T00440022<br><br>
KBUF 132109Z 1321/1418 30004KT P6SM BKN015 OVC025 FM140200 VRB03KT P6SM OVC025 FM141500 VRB03KT P6SM BKN035<br><br>
<br><br>
CYYZ 132100Z 22002KT 12SM BKN023 OVC050 05/01 A3035 RMK SC5SC3 SLP286<br><br>
CYYZ 132000Z 00000KT 10SM OVC050 05/01 A3034 RMK SC8 SLP283<br><br>
TAF CYYZ 132038Z 1321/1424 VRB03KT P6SM FEW020 OVC040 TEMPO 1321/1403 P6SM -DZ BKN015 OVC030 FM140300 VRB03KT 4SM BR OVC015 TEMPO 1403/1417 P6SM NSW OVC025 FM141700 15006KT P6SM BKN025 RMK NXT FCST BY 140000Z<br><br>
<br><br>
CYOO 132100Z AUTO 18003KT 9SM BKN015 OVC021 04/02 A3036 RMK SLP287<br><br>
CYOO 132020Z AUTO 20004KT 9SM BKN017 OVC050 05/02 A3035 RMK SLP285<br><br>
CYOO 132008Z AUTO VRB02KT 9SM SCT017 OVC050 05/02 A3035 RMK SLP283<br><br>
CYOO 132006Z AUTO VRB02KT 9SM BKN017 OVC050 05/02 A3035 RMK SLP282<br><br>
CYOO 132005Z AUTO VRB02KT 9SM SCT017 OVC050 05/02 A3035 RMK SLP282<br><br>
CYOO 132000Z AUTO 00000KT 9SM BKN017 OVC050 05/01 A3034 RMK SLP281<br><br>
CYOO has no TAF <br><br>
<br><br>
CYTR 132100Z 31002KT 15SM OVC033 04/01 A3037 RMK SC8 SLP289<br><br>
CYTR 132000Z 00000KT 15SM OVC031 04/M00 A3036 RMK SC8 SLP285<br><br>
TAF CYTR 131730Z 1318/1418 03005KT P6SM FEW009 BKN025 TEMPO 1318/1320 BKN009 OVC020 FM140600 02004KT P6SM SCT010 BKN025 TEMPO 1406/1415 BKN010 OVC025 RMK NXT FCST BY 140000Z<br><br>
<br><br>
