RETRIEVED AT : Oct 31 2017 06:10 Local <br>
  RETRIEVED AT: Oct 31 2017 10:10 UTC<br><br>
CYSN has no TAF <br><br>
<br><br>
CYHM 311000Z 24015G25KT 15SM BKN067 04/M01 A2979 RMK AC7 SLP096<br><br>
CYHM 310900Z 24015G22KT 15SM BKN070 04/M01 A2978 RMK AC7 SLP091<br><br>
TAF CYHM 310540Z 3106/0106 25013G23KT P6SM BKN090 FM310800 24013G23KT P6SM BKN030 TEMPO 3108/3116 BKN020 FM311600 25018G28KT P6SM BKN040 BECMG 3120/3122 23010KT RMK NXT FCST BY 311200Z<br><br>
<br><br>
KIAG 310953Z AUTO 24008KT 10SM OVC060 06/M01 A2981 RMK AO2 SLP102 T00611011<br><br>
KIAG 310853Z AUTO 25011KT 10SM OVC070 06/M01 A2979 RMK AO2 SLP097 T00611011 51019<br><br>
KIAG 310917Z 3109/0106 25015KT P6SM BKN080 FM312200 26013KT P6SM FEW250 FM010100 25008KT P6SM BKN060<br><br>
<br><br>
KBUF 310954Z 25008KT 10SM OVC065 06/M02 A2982 RMK AO2 SLP103 T00561017<br><br>
KBUF 310854Z 23008KT 10SM OVC065 06/M02 A2981 RMK AO2 SLP099 T00561017 53020<br><br>
KBUF 310917Z 3109/0106 25012KT P6SM BKN080 FM311000 25015KT P6SM VCSH BKN025 FM311300 25014KT 4SM RA BKN007 FM311700 25017KT P6SM BKN025 FM311900 25016KT P6SM BKN200 FM010100 25008KT P6SM VCSH OVC040<br><br>
<br><br>
CYYZ 311000Z 24011G18KT 15SM FEW030 BKN070 05/M00 A2977 RMK SC1AC4 SLP088<br><br>
CYYZ 310900Z 23012G19KT 15SM FEW025 SCT060 05/M00 A2975 RMK CF1SC4 CF TR SLP081<br><br>
TAF CYYZ 310838Z 3109/0112 24012G22KT P6SM SCT020 BKN090 TEMPO 3109/3110 BKN020 FM311000 24013G23KT P6SM BKN025 TEMPO 3110/3115 BKN020 FM311500 26018G30KT P6SM BKN030 BECMG 3120/3122 24012G22KT FM010200 23008KT P6SM SCT030 FM010600 20008KT P6SM BKN030 OVC150 TEMPO 0106/0112 5SM -SHRASN OVC020 RMK NXT FCST BY 311200Z<br><br>
<br><br>
CYOO 311000Z AUTO 23009KT 9SM CLR 04/M00 A2976 RMK SLP083<br><br>
CYOO 310900Z AUTO 24010G15KT 9SM CLR 05/M00 A2974 RMK SLP075<br><br>
CYOO has no TAF <br><br>
<br><br>
CYTR 311000Z CCA 25011G19KT 15SM SKC 05/04 A2974 RMK SLP075<br><br>
CYTR 310900Z 24012KT 15SM SKC 06/03 A2973 RMK SLP069<br><br>
TAF AMD CYTR 310954Z 3109/0106 25015G25KT P6SM FEW030 FM311300 35022G35KT P6SM FEW040 BECMG 3118/3120 25015G25KT FM312100 25012G22KT P6SM SCT040 BECMG 0100/0102 VRB03KT RMK NXT FCST BY 311200Z<br><br>
<br><br>
