RETRIEVED AT : Feb 22 2020 20:05 Local <br>
  RETRIEVED AT: Feb 23 2020 01:05 UTC<br><br>
CYSN 230000Z 23015G20KT 15SM FEW250 03/M05 A3014 RMK CI1 SLP211<br><br>
TAF CYSN 221938Z 2220/2302 24015G25KT P6SM FEW030 BECMG 2300/2302 24010G20KT RMK NXT FCST WILL BE ISSUED AT 231345Z<br><br>
<br><br>
CYHM 230000Z 23011G17KT 15SM SKC 01/M05 A3013 RMK SLP213<br><br>
TAF CYHM 222338Z 2300/2324 24010G20KT P6SM SKC BECMG 2305/2307 24010KT FM230900 24010KT P6SM BKN220 FM231500 23010G20KT P6SM SCT030 BKN180 RMK NXT FCST BY 230600Z<br><br>
<br><br>
KIAG 230053Z 24012KT 10SM CLR 02/M05 A3014 RMK AO2 SLP221 T00171050<br><br>
KIAG 222353Z 24016KT 10SM CLR 02/M06 A3014 RMK AO2 SLP222 T00221056 10028 20017 53001<br><br>
KIAG 222336Z 2300/2324 23014G20KT P6SM FEW250 FM231300 22013G19KT P6SM SCT150 FM232300 20010KT P6SM SCT250<br><br>
<br><br>
KBUF 230054Z 24010KT 10SM CLR 03/M04 A3015 RMK AO2 SLP219 T00281039<br><br>
KBUF 222354Z 24011G21KT 10SM FEW250 02/M04 A3015 RMK AO2 SLP219 T00221039 10033 20011 53004<br><br>
KBUF 222336Z 2300/2324 24013G19KT P6SM SKC FM230100 24013KT P6SM FEW200 FM231200 22011G17KT P6SM SCT150<br><br>
<br><br>
CYYZ 230000Z 19009G15KT 15SM FEW250 02/M04 A3010 RMK CI1 CI TR SLP202<br><br>
CYYZ 222339Z 19010G17KT 15SM FEW250 02/M04 A3010 RMK CI1 CI TR SLP202<br><br>
TAF CYYZ 222338Z 2300/2406 24010G20KT P6SM SKC BECMG 2302/2304 23010KT FM230900 23010KT P6SM BKN270 FM231500 22010G20KT P6SM SCT030 BKN180 FM232100 22012G22KT P6SM SCT030 RMK NXT FCST BY 230300Z<br><br>
<br><br>
CYOO 230000Z AUTO 22006KT 9SM CLR 02/M01 A3010 RMK SLP201<br><br>
TAF CYOO 221938Z 2220/2308 25010G20KT P6SM SKC BECMG 2300/2302 23008KT RMK FCST BASED ON AUTO OBS. NXT FCST BY 230200Z<br><br>
<br><br>
CYTR 230000Z 24008KT 15SM FEW250 01/M02 A3012 RMK CI2 SLP203<br><br>
TAF CYTR 222330Z 2300/2324 25010KT P6SM FEW230 FM231200 26008KT P6SM SCT020 BKN300 BECMG 2315/2317 24010G20KT BECMG 2322/2324 24005KT RMK NXT FCST BY 230600Z<br><br>
<br><br>
