RETRIEVED AT : May 31 2020 11:05 Local <br>
  RETRIEVED AT: May 31 2020 15:05 UTC<br><br>
CYSN 311400Z 33006KT 290V360 15SM FEW020 BKN060 12/06 A3024 RMK CU2SC3 SLP243<br><br>
TAF AMD CYSN 311302Z 3113/0101 33008KT P6SM FEW015 BKN040 TEMPO 3113/3118 BKN015 FM311800 30010KT P6SM SCT040 TEMPO 3118/0101 BKN040 RMK NXT FCST BY 312000Z<br><br>
<br><br>
CYHM 311400Z 36009KT 310V030 15SM FEW041 FEW250 12/01 A3025 RMK CU1CI1 CI TR SLP249<br><br>
TAF CYHM 311141Z 3112/0112 30005KT P6SM FEW030 BECMG 3116/3118 31012KT RMK NXT FCST BY 311800Z<br><br>
<br><br>
KIAG 311453Z 35008KT 10SM FEW037 12/01 A3024 RMK AO2 SLP244 T01170006 50012<br><br>
KIAG 311400Z 36008KT 10SM OVC060 11/04 A3024 RMK AO2 T01060039<br><br>
KIAG 311353Z 34009KT 10SM BKN022 OVC050 11/04 A3024 RMK AO2 SLP245 T01060039<br><br>
KIAG 311423Z 3114/0112 34012KT P6SM SCT050 FM312000 30010KT P6SM SCT050 FM312300 26007KT P6SM SCT070<br><br>
<br><br>
KBUF 311454Z 32006KT 10SM SCT035 BKN060 BKN180 10/02 A3023 RMK AO2 SLP241 T01000022 50012 $<br><br>
KBUF 311354Z COR 32009KT 10SM FEW029 FEW033 BKN055 09/04 A3023 RMK AO2 SLP241 T00940039 $<br><br>
KBUF 311331Z 33009KT 10SM FEW018 SCT024 BKN050 09/04 A3023 RMK AO2 T00940039 $<br><br>
KBUF 311423Z 3114/0112 32008KT P6SM BKN050 FM311600 34012KT P6SM SCT050 FM312000 30012KT P6SM SCT050 FM312300 26008KT P6SM SCT070<br><br>
<br><br>
CYYZ 311400Z 35015KT 15SM FEW030 12/M00 A3024 RMK CF2 SLP244<br><br>
TAF CYYZ 311438Z 3115/0118 35015KT P6SM FEW030 FM311900 32015KT P6SM SCT060 TEMPO 3119/0101 BKN060 BECMG 3123/0101 33010KT FM010200 VRB03KT P6SM FEW060 BECMG 0107/0109 26012KT FM011600 27015G25KT P6SM SCT070 RMK NXT FCST BY 311800Z<br><br>
<br><br>
CYOO 311400Z AUTO 32011G20KT 9SM CLR 12/M00 A3022 RMK SLP237<br><br>
TAF CYOO 311338Z 3114/0102 35010G20KT P6SM FEW060 BECMG 3115/3117 30015KT RMK FCST BASED ON AUTO OBS. NXT FCST BY 312000Z<br><br>
<br><br>
CYTR 311400Z 35004KT 15SM FEW030 FEW085 12/03 A3018 RMK SC2AC1 AC TR SLP222<br><br>
TAF CYTR 311130Z 3112/0112 29005KT P6SM SCT030 BKN060 TEMPO 3112/3114 P6SM -SHRA FEW020 OVC030 FM311600 30010KT P6SM SCT060 TEMPO 3116/0101 BKN060 BECMG 3117/3119 30010G20KT FM010100 29007KT P6SM SKC FM010800 24005KT P6SM BKN070 RMK NXT FCST BY 311800Z<br><br>
<br><br>
