RETRIEVED AT : Jul 03 2020 18:05 Local <br>
  RETRIEVED AT: Jul 03 2020 22:05 UTC<br><br>
CYSN 032100Z 34007KT 310V020 15SM FEW050 FEW160 BKN250 31/19 A2989 RMK CU1AC1CI3 SLP122 DENSITY ALT 2300FT<br><br>
TAF CYSN 031938Z 0320/0401 34010KT P6SM SCT050 RMK NXT FCST WILL BE ISSUED AT 041245Z<br><br>
<br><br>
CYHM 032100Z 32011KT 15SM FEW054 SCT260 31/20 A2993 RMK CU2CI2 SLP131 DENSITY ALT 2800FT<br><br>
TAF CYHM 031738Z 0318/0418 32007KT P6SM BKN050 FM032000 34010KT P6SM BKN060 PROB30 0320/0323 VRB15G25KT 2SM TSRA BR BKN020 OVC050CB FM040000 36010KT P6SM FEW060 BECMG 0414/0416 04005KT RMK NXT FCST BY 040000Z<br><br>
<br><br>
KIAG 032153Z 32007KT 10SM CLR 30/18 A2990 RMK AO2 SLP121 T03000183<br><br>
KIAG 032053Z 30006KT 10SM CLR 31/19 A2991 RMK AO2 SLP122 T03060189 56012<br><br>
KIAG 032117Z 0321/0418 32006KT P6SM FEW050 BKN250 FM041200 36006KT P6SM SCT250<br><br>
<br><br>
KBUF 032154Z 23009KT 10SM SCT055 BKN280 28/19 A2992 RMK AO2 SLP125 T02830189<br><br>
KBUF 032054Z 33005KT 10SM SCT055 SCT070 BKN250 31/18 A2992 RMK AO2 SLP126 T03110183 56011<br><br>
KBUF 032114Z 0321/0418 33008KT P6SM SCT060 BKN250 FM040000 33005KT P6SM SCT250 FM040900 VRB03KT P6SM SCT250 FM041600 35008KT P6SM SCT050<br><br>
<br><br>
CYYZ 032100Z 33012KT 15SM FEW055 SCT270 32/18 A2991 RMK CU1CI3 SLP125 DENSITY ALT 2700FT<br><br>
TAF CYYZ 032038Z 0321/0424 33012G22KT P6SM SCT050 FM040000 35012KT P6SM FEW050 FM041600 36007KT P6SM SKC RMK NXT FCST BY 040000Z<br><br>
<br><br>
CYOO 032100Z AUTO 33009KT 9SM CLR 32/19 A2988 RMK SLP118 DENSITY ALT 2500FT<br><br>
TAF CYOO 031938Z 0320/0408 34012KT P6SM SCT050 RMK FCST BASED ON AUTO OBS. NXT FCST BY 040200Z<br><br>
<br><br>
CYTR 032100Z 21010KT 15SM FEW035 FEW100 BKN250 26/20 A2989 RMK CU1AC2CI4 SLP122<br><br>
TAF CYTR 031730Z 0318/0418 24008KT P6SM SCT030 BKN080 TEMPO 0318/0402 5SM -SHRA BR BKN030 BKN080 PROB40 0318/0401 VRB15G30KT 2SM TSRA BR SCT015 OVC030CB FM040200 VRB03KT P6SM BKN060 BECMG 0406/0408 01005KT FM041300 02008KT P6SM FEW070 RMK FCST BASED ON AUTO OBS 040200-041000Z. NXT FCST BY 040000Z<br><br>
<br><br>
