RETRIEVED AT : Dec 11 2017 00:10 Local <br>
  RETRIEVED AT: Dec 11 2017 05:10 UTC<br><br>
CYSN has no TAF <br><br>
<br><br>
CYHM 110500Z 25010KT 15SM -SHSN OVC028 M03/M06 A2986 RMK SC8 CVCTV CLD EMBD SLP125<br><br>
CYHM 110400Z 25009KT 15SM OVC021 M03/M06 A2987 RMK SC8 SLP126<br><br>
CYHM 110338Z 25009G17KT 15SM FEW019 OVC029 M04/M06 A2987 RMK SC1SC7 SLP127<br><br>
TAF CYHM 102338Z 1100/1124 26010G20KT P6SM -SN SCT030 OVC060 TEMPO 1100/1106 21/2SM -SN OVC030 PROB30 1104/1106 11/2SM -SHSN VV008 FM110600 33008KT P6SM SCT030 BECMG 1110/1112 02005KT FM111500 02005KT P6SM SCT020 BKN180 FM111900 06008KT 3SM -SN BKN020 OVC060 RMK NXT FCST BY 110600Z<br><br>
<br><br>
KIAG 110453Z AUTO 26009KT 9SM -SN OVC065 M01/M07 A2987 RMK AO2 SLP128 P0000 T10111067 400001017<br><br>
KIAG 110353Z 26012KT 9SM -SN OVC070 M01/M07 A2987 RMK AO2 SLP128 P0000 T10111072<br><br>
KIAG 110310Z 1103/1124 26011KT P6SM VCSH OVC050 FM110600 29011G18KT P6SM VCSH OVC030 FM110800 32009KT P6SM BKN035 FM111700 25004KT P6SM BKN040 FM112000 16004KT P6SM VCSH OVC040<br><br>
<br><br>
KBUF 110454Z 22006KT 9SM -SN BKN047 OVC060 M02/M06 A2987 RMK AO2 SLP125 P0000 T10221061 410171028 $<br><br>
KBUF 110354Z 25012KT 9SM -SN BKN050 OVC065 M02/M06 A2987 RMK AO2 SLP126 P0000 T10221061 $<br><br>
KBUF 110310Z 1103/1124 26011KT P6SM VCSH OVC035 FM110800 31009KT P6SM BKN035 FM111700 25005KT P6SM BKN035 FM112100 18004KT P6SM VCSH OVC035<br><br>
<br><br>
CYYZ 110500Z 29007KT 15SM FEW031 OVC043 M03/M06 A2987 RMK CU2SC6 SLP123<br><br>
CYYZ 110440Z 27008KT 15SM SCT032 OVC042 M03/M06 A2986 RMK SC3SC5 SLP123<br><br>
CYYZ 110400Z 26010KT 5SM -SHSN BKN032 OVC042 M03/M06 A2986 RMK SC5SC3 CVCTV CLD EMBD SLP122<br><br>
CYYZ 110349Z 27011KT 5SM -SHSN FEW015 OVC034 M04/M06 A2986 RMK SC2SC6 CVCTV CLD EMBD SLP122<br><br>
CYYZ 110341Z CCA 27012KT 1 1/4SM -SHSN BKN006 OVC014 M03/M06 A2986 RMK SN2SF3SC3 CVCTV CLD EMBD SLP122<br><br>
CYYZ 110333Z 28012G17KT 2 1/2SM -SHSN SCT011 OVC038 M03/M07 A2986 RMK SF3SC5 CVCTV CLD EMBD SLP122<br><br>
CYYZ 110315Z 29012G19KT 240V310 8SM -SHSN BKN017 OVC038 M03/M07 A2986 RMK SC5SC3 CVCTV CLD EMBD PRESRR SLP123<br><br>
TAF CYYZ 110238Z 1103/1206 25010G20KT 6SM -SN OVC030 TEMPO 1103/1105 11/4SM -SN OVC015 BECMG 1103/1105 35012KT FM110500 35012KT P6SM -SHSN BKN030 FM110600 35010KT P6SM SCT030 FM111500 VRB03KT P6SM BKN180 FM111900 08008KT 4SM -SN BKN020 OVC080 PROB30 1121/1203 2SM -SN OVC020 FM120300 06006KT 11/2SM -SN SCT008 OVC012 RMK NXT FCST BY 110600Z<br><br>
<br><br>
CYOO has no TAF <br><br>
<br><br>
CYTR 110500Z 32009KT 15SM OVC038 M03/M10 A2988 RMK SC8 SLP122<br><br>
CYTR 110400Z 33012KT 15SM BKN023 OVC085 M02/M09 A2986 RMK SC6AC2 SLP118<br><br>
CYTR 110344Z 32008KT 15SM BKN023 OVC085 M02/M07 A2986 RMK SC6AC2 SLP115<br><br>
TAF AMD CYTR 110421Z 1104/1124 33012KT P6SM SCT020 BKN080 TEMPO 1104/1106 OVC020 FM110800 33008KT P6SM SKC FM111600 02005KT P6SM BKN200 FM112100 07005KT P6SM OVC100 RMK NXT FCST BY 110600Z<br><br>
<br><br>
