RETRIEVED AT : Jun 26 2020 09:05 Local <br>
  RETRIEVED AT: Jun 26 2020 13:05 UTC<br><br>
CYSN 261200Z 24008KT 15SM FEW100 21/15 A2995 RMK AC1 SLP142 DENSITY ALT 1100FT<br><br>
TAF CYSN 261238Z 2613/2701 24008KT P6SM FEW100 FM261800 29010KT P6SM SCT070 BECMG 2620/2622 23010G20KT RMK NXT FCST BY 262000Z<br><br>
<br><br>
CYHM 261200Z 27008KT 15SM FEW060 FEW180 18/14 A2997 RMK SC1AC1 AC TR SLP148 DENSITY ALT 1300FT<br><br>
TAF CYHM 261139Z 2612/2712 25006KT P6SM FEW070 FM261700 22012KT P6SM SCT070 FM270800 24010G20KT 6SM BR OVC007 FM270900 24010G20KT 6SM -SHRA BR OVC007 FM271000 24010G20KT 4SM -SHRA BR OVC007 PROB30 2710/2712 VRB15G30KT 1SM +TSRA BR BKN005 OVC015CB RMK NXT FCST BY 261800Z<br><br>
<br><br>
KIAG 261253Z 23010KT 10SM BKN095 22/14 A2996 RMK AO2 SLP143 T02220144<br><br>
KIAG 261153Z 24009KT 10SM FEW095 20/16 A2996 RMK AO2 SLP143 T02000156 10200 20167 53005<br><br>
KIAG 261120Z 2612/2712 22010KT P6SM SCT050 FM261500 23014G22KT P6SM FEW050 FM270000 20008KT P6SM BKN150 FM270800 21008KT 4SM SHRA VCTS OVC015CB<br><br>
<br><br>
KBUF 261254Z 23008KT 10SM FEW050 FEW085 FEW110 20/15 A2998 RMK AO2 SLP151 T02000150 $<br><br>
KBUF 261154Z 23014KT 10SM FEW050 FEW070 SCT095 19/14 A2998 RMK AO2 SLP149 T01940139 10194 20156 53004 $<br><br>
KBUF 261120Z 2612/2712 22010KT P6SM VCSH SCT050 FM261400 23014G22KT P6SM FEW050 FM270000 20008KT P6SM BKN150 FM270800 21008KT 4SM SHRA VCTS OVC015CB<br><br>
<br><br>
CYYZ 261200Z 28006KT 15SM FEW060 FEW100 SCT150 21/12 A2994 RMK CU1AC1AC2 CU TR SLP137 DENSITY ALT 1400FT<br><br>
TAF CYYZ 261139Z 2612/2718 28005KT P6SM FEW060 SCT100 FM261700 25010KT P6SM SCT070 FM270900 22010G20KT P6SM -RA SCT015 BKN070 OVC120 FM271100 22010G20KT P6SM -SHRA SCT015 BKN030 OVC060 FM271400 25010G20KT 5SM -SHRA BR OVC015 PROB30 2716/2718 VRB15G25KT 1SM +TSRA BR BKN007 OVC020CB RMK NXT FCST BY 261500Z<br><br>
<br><br>
CYOO 261200Z AUTO 26003KT 9SM CLR 18/12 A2994 RMK SLP138 DENSITY ALT 900FT<br><br>
TAF CYOO 260738Z 2608/2620 VRB03KT P6SM BKN090 FM261000 27005KT P6SM SCT090 BECMG 2612/2614 25012KT RMK FCST BASED ON AUTO OBS. NXT FCST BY 261400Z<br><br>
<br><br>
CYTR 261200Z 22004KT 15SM FEW080 SCT220 20/16 A2992 RMK AC1CI3 SLP131<br><br>
TAF CYTR 261130Z 2612/2712 22005KT P6SM FEW080 SCT220 FM261500 24010KT P6SM SCT060 FM270200 23005KT P6SM FEW080 SCT120 FM271000 23012KT P6SM BKN012 OVC080 RMK NXT FCST BY 261800Z<br><br>
<br><br>
