RETRIEVED AT : Oct 26 2018 07:05 Local <br>
  RETRIEVED AT: Oct 26 2018 11:05 UTC<br><br>
CYSN has no TAF <br><br>
<br><br>
CYHM 261000Z 21002KT 15SM BKN140 OVC220 02/02 A3003 RMK AC6CS2 SLP178<br><br>
TAF CYHM 260538Z 2606/2706 VRB03KT P6SM OVC120 FM261500 06007KT P6SM SCT025 OVC100 TEMPO 2616/2620 BKN025 OVC100 BECMG 2616/2617 08012G22KT FM270500 07010G20KT P6SM -SHRA SCT012 OVC025 RMK NXT FCST BY 261200Z<br><br>
<br><br>
KIAG 261053Z 11003KT 10SM SCT034 02/M01 A3005 RMK AO2 SLP188 T00221006<br><br>
KIAG 260953Z AUTO 08003KT 10SM CLR 02/M01 A3005 RMK AO2 SLP186 T00221006<br><br>
KIAG 260929Z 2609/2706 14004KT P6SM BKN060 FM261600 10009KT P6SM BKN070 FM262300 08014KT P6SM OVC080<br><br>
<br><br>
KBUF 261054Z 13006KT 10SM FEW100 OVC240 02/M01 A3006 RMK AO2 SLP184 T00221006<br><br>
KBUF 260954Z 11005KT 10SM FEW100 OVC240 02/00 A3005 RMK AO2 SLP182 T00220000<br><br>
KBUF 260929Z 2609/2706 14005KT P6SM BKN090 FM261500 12008KT P6SM BKN070 FM262000 09012KT P6SM OVC070<br><br>
<br><br>
CYYZ 261000Z 06003KT 15SM SCT065 BKN110 OVC180 05/01 A3004 RMK SC4AC3AC1 SLP179<br><br>
TAF CYYZ 260840Z 2609/2712 VRB03KT P6SM SCT030 OVC060 FM261100 04005KT P6SM SCT012 OVC030 TEMPO 2611/2617 6SM -SHRA BR OVC012 BECMG 2616/2617 13010KT FM261900 10010G20KT P6SM -SHRA BKN025 OVC090 FM270800 09012G22KT 6SM -RA BR BKN012 OVC025 FM271000 08012G22KT 3SM RA BR SCT006 OVC012 RMK NXT FCST BY 261200Z<br><br>
<br><br>
CYOO 261051Z AUTO 09007KT 9SM BKN023 OVC065 04/M00 A3006 RMK SLP186<br><br>
CYOO 261000Z AUTO 08007KT 9SM BKN026 OVC070 04/00 A3006 RMK SLP187<br><br>
CYOO has no TAF <br><br>
<br><br>
CYTR 261000Z 03003KT 15SM OVC035 02/00 A3012 RMK SC8 SLP202<br><br>
TAF CYTR 260530Z 2606/2706 VRB03KT P6SM FEW040 OVC100 FM261000 06006KT P6SM FEW030 BKN080 BECMG 2613/2615 08010KT FM261800 11012KT P6SM BKN030 OVC080 TEMPO 2618/2702 P6SM -SHRA BECMG 2702/2704 07012KT RMK NXT FCST BY 261200Z<br><br>
<br><br>
