RETRIEVED AT : Oct 02 2017 12:10 Local <br>
  RETRIEVED AT: Oct 02 2017 16:10 UTC<br><br>
CYSN 021600Z 08004KT 060V160 15SM BKN250 20/07 A3039 RMK CI6 SLP293 DENSITY ALT 500FT<br><br>
CYSN 021500Z VRB02KT 15SM BKN250 19/08 A3040 RMK CI6 SLP295<br><br>
TAF CYSN 021240Z 0213/0301 11005KT P6SM SCT190 BECMG 0215/0217 06008KT RMK NXT FCST BY 022000Z<br><br>
<br><br>
CYHM 021600Z 05007KT 020V110 15SM SCT240 18/08 A3040 RMK CI3 SLP298 DENSITY ALT 900FT<br><br>
CYHM 021500Z 06006KT 15SM FEW240 17/09 A3040 RMK CI2 SLP299<br><br>
TAF CYHM 021138Z 0212/0312 VRB03KT P6SM FEW240 BECMG 0215/0217 06007KT BECMG 0304/0306 14006KT RMK NXT FCST BY 021800Z<br><br>
<br><br>
KIAG 021553Z 00000KT 10SM CLR 20/06 A3040 RMK AO2 SLP297 T02000061<br><br>
KIAG 021453Z 17004KT 10SM CLR 18/05 A3040 RMK AO2 SLP298 T01780050 53008<br><br>
KIAG 021515Z 0215/0312 14005KT P6SM FEW250 FM022000 08006KT P6SM FEW200 FM030200 12004KT P6SM FEW200 FM030600 17005KT P6SM SKC<br><br>
<br><br>
KBUF 021554Z 00000KT 10SM FEW270 SCT320 19/04 A3040 RMK AO2 SLP297 T01890044<br><br>
KBUF 021454Z 00000KT 10SM FEW270 17/05 A3040 RMK AO2 SLP297 T01670050 51008<br><br>
KBUF 021515Z 0215/0312 10005KT P6SM FEW250 FM022000 08005KT P6SM FEW200 FM030200 12005KT P6SM FEW200 FM030600 16006KT P6SM SKC<br><br>
<br><br>
CYYZ 021600Z 14009KT 080V150 15SM FEW180 SCT240 18/07 A3041 RMK AC1CI3 CONTRAILS SLP301<br><br>
CYYZ 021500Z 12011KT 15SM SCT240 17/08 A3041 RMK CS4 SLP301<br><br>
TAF CYYZ 021438Z 0215/0318 12012KT P6SM FEW180 BECMG 0300/0302 VRB03KT RMK NXT FCST BY 021800Z<br><br>
<br><br>
CYOO 021600Z AUTO 15008G15KT 9SM SCT022 17/10 A3043 RMK SLP307<br><br>
CYOO 021551Z AUTO 12012KT 070V160 9SM SCT022 17/10 A3043 RMK SLP308<br><br>
CYOO 021518Z AUTO 12007KT 100V180 9SM BKN022 17/10 A3042 RMK SLP306<br><br>
CYOO 021500Z AUTO 11009KT 090V170 9SM FEW022 16/10 A3043 RMK SLP307<br><br>
CYOO has no TAF <br><br>
<br><br>
CYTR 021600Z 12003KT 15SM FEW030 FEW250 18/10 A3043 RMK SC1CI2 SLP308<br><br>
CYTR 021500Z 14002KT 15SM FEW250 17/09 A3044 RMK CI2 SLP310<br><br>
TAF CYTR 021130Z 0212/0312 VRB03KT P6SM FEW250 TEMPO 0212/0213 5SM BR FM021600 14008KT P6SM SCT250 BECMG 0300/0302 VRB03KT FM031000 18005KT 6SM BR FEW005 PROB30 0310/0312 3/4SM BR OVC005 RMK NXT FCST BY 021800Z<br><br>
<br><br>
