RETRIEVED AT : Mar 06 2020 20:05 Local <br>
  RETRIEVED AT: Mar 07 2020 01:05 UTC<br><br>
CYSN 070000Z 01018G26KT 6SM -SN OVC033 01/M01 A3015 RMK SC8 SLP214<br><br>
CYSN 062322Z 36016G22KT 6SM -SN SCT015 OVC033 02/M01 A3012 RMK SC3SC5 SLP204<br><br>
TAF AMD CYSN 062306Z 0623/0702 01015G25KT P6SM SCT015 OVC030 TEMPO 0623/0702 4SM -SN OVC015 BECMG 0700/0702 01015G25KT RMK NXT FCST WILL BE ISSUED AT 071345Z<br><br>
<br><br>
CYHM 070045Z 36013G20KT 15SM -SN BKN012 BKN018 M00/M02 A3019 RMK CF5SC2 PCPN VRY LGT SLP233<br><br>
CYHM 070017Z 01010KT 12SM -SN BKN008 BKN012 OVC018 M00/M01 A3017 RMK CF5SC1SC1 SLP227<br><br>
CYHM 070000Z 36012KT 1 1/2SM -SN BKN011 OVC038 00/M01 A3016 RMK SN3SC4SC1 SLP224<br><br>
CYHM 062349Z 01013KT 1 1/2SM -SN BKN012 OVC038 00/M02 A3015 RMK SN3SC3SC2 SLP221<br><br>
TAF AMD CYHM 070008Z 0700/0724 01012G22KT 6SM -SN OVC030 TEMPO 0700/0701 11/2SM -SN OVC012 FM070600 01010KT P6SM SCT020 FM071200 36006KT P6SM SKC FM071800 25009KT P6SM FEW120 BECMG 0722/0724 21009KT RMK NXT FCST BY 070600Z<br><br>
<br><br>
KIAG 070053Z 02016KT 8SM -SN FEW024 OVC033 00/M02 A3016 RMK AO2 UPB46E51SNE46B51 SLP228 P0000 T00001022<br><br>
KIAG 062353Z 01008KT 5SM -SN BR FEW011 OVC028 01/M01 A3012 RMK AO2 SLP215 P0001 60004 T00061006 10017 20000 51041<br><br>
KIAG 070059Z 0701/0724 01014G22KT 6SM -SHSN OVC025 FM070300 01014KT P6SM BKN025 FM070600 01012KT P6SM SCT040 FM071600 29006KT P6SM BKN100<br><br>
<br><br>
KBUF 070054Z 01007KT 5SM -SN BR SCT009 BKN014 OVC033 01/M01 A3014 RMK AO2 SLP216 P0001 T00061011<br><br>
KBUF 070046Z 01007KT 5SM -SN BR BKN009 BKN014 OVC033 01/M01 A3014 RMK AO2 P0001 T00061011<br><br>
KBUF 070018Z 01009KT 2 1/2SM -SN BR BKN009 OVC015 01/M01 A3012 RMK AO2 P0001 T00061011<br><br>
KBUF 070011Z 01008KT 2 1/2SM -SN BR SCT007 OVC012 01/M01 A3012 RMK AO2 P0001 T00061011<br><br>
KBUF 070005Z 02009KT 2 1/2SM -SN BR BKN009 OVC016 01/M01 A3011 RMK AO2 P0001 T00061011<br><br>
KBUF 062354Z 02009KT 1 1/2SM -SN BR BKN007 OVC012 01/M01 A3011 RMK AO2 SLP203 4/001 P0003 60011 T00061011 10022 20006 51042<br><br>
KBUF 062312Z 02009G16KT 1SM R23/5500VP6000FT -SN BR BKN007 OVC012 01/M01 A3008 RMK AO2 P0001 T00061011<br><br>
KBUF 070059Z 0701/0724 01012KT 3SM -SN OVC015 FM070230 01012KT P6SM BKN025 FM070600 36008KT P6SM SCT040 FM071700 25010KT P6SM BKN100<br><br>
<br><br>
CYYZ 070000Z CCA 03012G21KT 15SM FEW018 SCT040 BKN055 00/M03 A3018 RMK CF1SC4SC3 CF TR PRESRR SLP229<br><br>
TAF CYYZ 062338Z 0700/0806 02015G25KT P6SM FEW020 BKN040 OVC250 FM070600 36012G22KT P6SM SCT025 FM070900 36012KT P6SM SKC FM071500 35008KT P6SM FEW120 BECMG 0715/0717 23009KT RMK NXT FCST BY 070300Z<br><br>
<br><br>
CYOO 070000Z AUTO 01017G22KT 9SM OVC034 01/M05 A3015 RMK SLP218<br><br>
TAF CYOO 061938Z 0620/0708 01012G22KT P6SM -RASN OVC030 TEMPO 0620/0624 5SM -SN BR OVC015 FM070000 01015G25KT P6SM OVC030 FM070600 36010KT P6SM FEW030 RMK FCST BASED ON AUTO OBS. NXT FCST BY 070200Z<br><br>
<br><br>
CYTR 070053Z 03019G24KT 15SM SCT024 BKN070 BKN250 00/M06 A3017 RMK SC3AC2CI2 SLP220<br><br>
CYTR 070000Z 03019KT 15SM OVC024 01/M05 A3014 RMK SC8 SLP213<br><br>
TAF CYTR 062330Z 0700/0724 03015G25KT P6SM OVC025 TEMPO 0700/0702 P6SM -SHSN OVC020 BECMG 0702/0704 01015KT FM070500 01012KT P6SM SCT025 FM070800 36008KT P6SM SKC BECMG 0718/0720 26008KT RMK NXT FCST BY 070600Z<br><br>
<br><br>
