RETRIEVED AT : Oct 29 2017 01:10 Local <br>
  RETRIEVED AT: Oct 29 2017 05:10 UTC<br><br>
CYSN has no TAF <br><br>
<br><br>
CYHM 290500Z 26004KT 15SM FEW040 OVC200 02/00 A2986 RMK SC1CI7 SLP121<br><br>
CYHM 290400Z 27007KT 15SM FEW043 BKN210 02/M00 A2987 RMK SC1CI5 SLP123<br><br>
TAF CYHM 282338Z 2900/2924 26010KT P6SM BKN030 TEMPO 2900/2909 BKN020 BECMG 2901/2903 VRB03KT FM290900 04005KT 6SM BR SCT008 BKN200 PROB30 2909/2913 1SM BR BKN004 FM291600 35005KT P6SM SCT030 RMK NXT FCST BY 290600Z<br><br>
<br><br>
KIAG 290453Z AUTO 28003KT 10SM OVC030 06/02 A2987 RMK AO2 SLP122 T00610017 401610061<br><br>
KIAG 290353Z AUTO 26004KT 10SM BKN030 OVC038 07/02 A2987 RMK AO2 SLP123 T00670017<br><br>
KIAG 290258Z 2903/2924 26007KT P6SM OVC040 FM290900 VRB03KT P6SM OVC025 FM291000 00000KT 6SM -RA OVC025 FM291400 00000KT P6SM OVC020 FM291600 36004KT P6SM OVC015 FM292100 35008KT P6SM OVC015<br><br>
<br><br>
KBUF 290454Z 00000KT 10SM OVC024 06/04 A2987 RMK AO2 SLP118 T00610044 401440056<br><br>
KBUF 290354Z 18003KT 10SM OVC023 06/04 A2987 RMK AO2 RAE35 SLP118 P0000 T00560039<br><br>
KBUF 290258Z 2903/2924 29005KT P6SM OVC018 FM290800 00000KT 5SM RA OVC025 FM291400 VRB03KT 5SM -RA OVC015 FM291700 35005KT P6SM OVC015 FM292300 34009KT 6SM -RA OVC007<br><br>
<br><br>
CYYZ 290500Z 26006KT 15SM BKN043 OVC230 04/00 A2986 RMK SC6CI2 SLP117<br><br>
CYYZ 290400Z 27009KT 15SM FEW043 SCT220 BKN250 03/00 A2985 RMK SC2CC2CI2 SLP116<br><br>
TAF CYYZ 290238Z 2903/3006 28007KT P6SM SCT040 BKN240 PROB30 2910/2914 1SM BR FM291400 33008KT P6SM FEW030 SCT140 BKN200 BECMG 2921/2923 34012KT RMK NXT FCST BY 290600Z<br><br>
<br><br>
CYOO 290500Z AUTO 27003KT 9SM BKN210 BKN230 BKN250 04/00 A2986 RMK SLP117<br><br>
CYOO 290400Z AUTO 30005KT 9SM BKN190 BKN220 04/01 A2985 RMK SLP113<br><br>
CYOO has no TAF <br><br>
<br><br>
CYTR 290500Z 22004KT 10SM -SHRA OVC026 06/04 A2988 RMK SC8 SLP122<br><br>
CYTR 290400Z 23005KT 8SM -SHRA OVC026 06/04 A2987 RMK SC8 SLP116<br><br>
TAF CYTR 282330Z 2900/2924 28008KT P6SM -SHRA SCT008 OVC025 TEMPO 2900/2903 4SM -SHRA BR BKN008 OVC025 FM290300 28005KT P6SM -SHRA BKN020 OVC060 TEMPO 2903/2915 P6SM NSW SCT020 BKN060 BECMG 2906/2908 02005KT FM291500 02008KT 4SM -SHRA BR SCT008 OVC020 RMK NXT FCST BY 290600Z<br><br>
<br><br>
