RETRIEVED AT : May 24 2019 22:05 Local <br>
  RETRIEVED AT: May 25 2019 02:05 UTC<br><br>
CYSN 250100Z 18006KT 15SM BKN180 15/12 A3009 RMK AC7 LAST STFD OBS/NEXT 25 1100UTC SLP190<br><br>
CYSN has no TAF <br><br>
<br><br>
CYHM 250100Z 19004KT 15SM BKN110 15/12 A3012 RMK AC7 SLP201<br><br>
TAF CYHM 242338Z 2500/2524 16007KT P6SM SCT040 BKN170 BECMG 2500/2502 VRB03KT FM250500 07005KT P6SM FEW025 BKN040 FM251000 12005KT 6SM -SHRA BR OVC030 TEMPO 2511/2514 5SM -SHRA BR VCTS BKN040CB FM251500 09008KT 1SM -SHRA BR OVC005 BECMG 2515/2517 18012G22KT FM251700 18012G22KT 6SM -SHRA BR OVC025 FM252100 23012G22KT 5SM -SHRA BR BKN025 OVC060 PROB30 2521/2524 1SM TSRA BR BKN030CB RMK NXT FCST BY 250600Z<br><br>
<br><br>
KIAG 250153Z 22007KT 10SM CLR 13/09 A3014 RMK AO2 SLP210 T01280094<br><br>
KIAG 250053Z 19004KT 10SM CLR 14/09 A3010 RMK AO2 SLP196 T01390094<br><br>
KIAG 242339Z 2500/2524 21008KT P6SM FEW250 FM250500 16006KT P6SM BKN250 FM251400 17011G19KT P6SM VCSH OVC070 FM251700 20013G22KT P6SM BKN060 FM252300 24012G29KT 6SM -SHRA VCTS OVC090CB<br><br>
<br><br>
KBUF 250154Z 24009KT 10SM FEW140 BKN180 BKN290 13/09 A3015 RMK AO2 SLP211 T01280094<br><br>
KBUF 250054Z 20004KT 10SM BKN180 BKN290 13/10 A3011 RMK AO2 SLP199 T01330100<br><br>
KBUF 242339Z 2500/2524 22008KT P6SM FEW200 FM250600 14005KT P6SM BKN250 FM251200 17008KT P6SM VCSH OVC080 FM251700 20013G21KT P6SM BKN060 FM252300 22012G28KT 6SM -SHRA VCTS OVC090CB<br><br>
<br><br>
CYYZ 250100Z 16009KT 15SM BKN055 OVC180 17/11 A3010 RMK SC5AC3 PRESRR SLP195 DENSITY ALT 800FT<br><br>
TAF CYYZ 242338Z 2500/2606 16010G20KT P6SM SCT050 BKN150 BECMG 2500/2502 16010KT FM250400 12005KT P6SM SCT020 BKN040 TEMPO 2508/2512 P6SM -SHRA FM251200 12005KT 5SM -SHRA BR BKN012 OVC030 TEMPO 2512/2518 2SM SHRA VCTS BKN005 OVC025CB FM251800 17010G20KT 3SM -SHRA BR BKN006 OVC025 FM252100 21010G20KT 2SM SHRA BR BKN006 OVC025 PROB30 2521/2524 VRB20G30KT 1SM +TSRA BR BKN005 OVC025CB FM260000 27010G20KT P6SM SCT015 RMK NXT FCST BY 250300Z<br><br>
<br><br>
CYOO 250100Z AUTO 24005KT 9SM FEW190 16/11 A3009 RMK SLP192<br><br>
TAF CYOO 250138Z 2502/2514 24005KT P6SM BKN200 FM250500 18005KT P6SM BKN040 FM251000 17007KT 6SM -SHRA OVC030 TEMPO 2510/2512 3SM -SHRA BR OVC020 FM251200 18005KT 11/2SM -SHRA BR OVC005 TEMPO 2512/2514 5SM -SHRA BR OVC010 RMK FCST BASED ON AUTO OBS. NXT FCST BY 250800Z<br><br>
<br><br>
CYTR 250100Z 14004KT 15SM FEW060 FEW180 BKN240 14/11 A3012 RMK SC1AC1CI6 SLP200<br><br>
TAF CYTR 242330Z 2500/2524 21010KT P6SM SCT050 BKN240 TEMPO 2500/2503 BKN050 BKN240 BECMG 2500/2501 VRB03KT FM250300 VRB03KT P6SM SCT030 PROB30 2504/2510 1/2SM FG FM251000 VRB03KT P6SM BKN080 OVC200 BECMG 2512/2514 17008KT FM251400 17008KT P6SM SCT025 OVC060 TEMPO 2514/2517 P6SM -SHRA FM251700 17010KT P6SM -SHRA SCT015 OVC025 TEMPO 2517/2524 4SM SHRA BR SCT008 OVC015 PROB30 2517/2524 VRB15G25KT 2SM TSRA BKN008 OVC025CB RMK NXT FCST BY 250600Z<br><br>
<br><br>
