RETRIEVED AT : Feb 28 2020 09:05 Local <br>
  RETRIEVED AT: Feb 28 2020 14:05 UTC<br><br>
CYSN 281300Z 24020KT 15SM FEW010 BKN045 BKN160 M06/M12 A2973 RMK SC1SC6AC1 SC TR SLP075<br><br>
TAF CYSN 281339Z 2814/2902 24020G30KT P6SM BKN040 FM281600 24020G30KT P6SM SCT020 OVC040 TEMPO 2816/2818 5SM -SHSN OVC020 FM281800 25020G30KT 6SM -SHSN OVC025 TEMPO 2818/2902 21/2SM -SHSN OVC020 PROB30 2818/2902 11/2SM -SHSN VV012 RMK NXT FCST BY 282000Z<br><br>
<br><br>
CYHM 281300Z 24017G26KT 15SM DRSN FEW020 OVC037 M07/M12 A2971 RMK CU1SC8 CU TR SLP076<br><br>
TAF CYHM 281138Z 2812/2912 25020G30KT P6SM -SHSN OVC030 TEMPO 2812/2815 5SM -SHSN BKN020 FM281500 25018G28KT 5SM -SHSN BLSN BKN020 TEMPO 2815/2818 P6SM NSW OVC030 FM281800 25018G28KT 3SM -SHSN BLSN BKN025 BKN070 FM290000 25018G28KT 11/2SM -SHSN BLSN OVC020 PROB30 2900/2903 3/4SM -SHSN BLSN FM290300 30012KT 21/2SM -SHSN SCT020 BKN030 FM290900 32007KT P6SM BKN040 RMK NXT FCST BY 281800Z<br><br>
<br><br>
KIAG 281353Z 25021G27KT 10SM OVC037 M07/M12 A2973 RMK AO2 PK WND 26030/1343 SLP087 T10671122<br><br>
KIAG 281253Z 25018G25KT 10SM OVC037 M07/M12 A2973 RMK AO2 PK WND 25030/1208 SLP085 T10671122<br><br>
KIAG 281143Z 2812/2912 24022G32KT P6SM OVC040 FM281800 25022G32KT 2SM -SN OVC025 FM290200 27018KT 2SM -SN OVC007 FM291100 29010KT 1SM -SN OVC035<br><br>
<br><br>
KBUF 281354Z 26015G33KT 10SM BKN033 M06/M13 A2974 RMK AO2 PK WND 26035/1315 SLP082 SHSN DSNT E-S-SW T10611128<br><br>
KBUF 281254Z 26020G35KT 10SM BKN033 M06/M13 A2973 RMK AO2 PK WND 26038/1204 SLP079 T10611133<br><br>
KBUF 281143Z 2812/2912 25025G37KT P6SM OVC040 FM281700 25022G30KT P6SM VCSH BKN030 FM281900 25022G30KT 2SM -SN SCT007 OVC020 FM290000 25021G29KT 1SM -SN BLSN OVC025 FM290500 27013KT 1 1/2SM -SN OVC035<br><br>
<br><br>
CYYZ 281300Z 25019G29KT 15SM FEW040 SCT190 M06/M11 A2965 RMK SC1AC3 SLP050<br><br>
TAF CYYZ 281138Z 2812/2918 26020G30KT P6SM BKN040 TEMPO 2812/2817 3SM -SHSN BLSN BKN020 BKN040 FM281700 26018G28KT P6SM -SHSN OVC030 TEMPO 2817/2901 11/2SM -SHSN BLSN OVC020 PROB30 2820/2901 1/2SM SHSN BLSN VV005 FM290100 30010G20KT 4SM -SHSN BKN030 OVC060 FM290400 30012KT P6SM SCT030 BKN060 FM290800 31008KT P6SM BKN070 FM291100 02008KT P6SM BKN100 FM291700 31010G20KT P6SM BKN040 RMK NXT FCST BY 281500Z<br><br>
<br><br>
CYOO 281300Z AUTO 25016G23KT 9SM FEW027 SCT032 M06/M10 A2962 RMK SLP040<br><br>
CYOO 281249Z AUTO 25019G25KT 9SM SCT029 BKN035 BKN043 M06/M10 A2962 RMK SLP039<br><br>
CYOO 281206Z AUTO 25017G23KT 9SM -SN OVC034 M06/M10 A2961 RMK SLP036<br><br>
TAF CYOO 281338Z 2814/2902 25018G30KT P6SM -SN BKN030 OVC050 TEMPO 2814/2816 2SM -SHSN BLSN OVC020 FM281600 25018G28KT 11/2SM -SHSN BLSN OVC012 TEMPO 2816/2821 6SM -SHSN OVC030 PROB30 2817/2820 1/2SM SHSN BLSN VV005 FM282100 29012G22KT P6SM -SN OVC030 TEMPO 2821/2823 11/2SM -SHSN BLSN OVC015 FM282300 29010G20KT P6SM BKN030 BKN050 TEMPO 2823/2902 4SM -SHSN BKN020 BKN040 RMK FCST BASED ON AUTO OBS. NXT FCST BY 282000Z<br><br>
<br><br>
CYTR 281353Z 01005KT 3SM -SHSN SCT020 BKN040 OVC120 M09/M11 A2964 RMK SN2SC2SC2AS3 VIS VRB 2 1/4-4 SLP043<br><br>
CYTR 281329Z 34002KT 2SM -SHSN BKN020 OVC032 M09/M11 A2964 RMK SN3SC3SC2 VIS VRB 1 1/2-2 1/2 SLP042<br><br>
CYTR 281300Z 36007KT 3SM -SHSN BKN016 OVC032 M08/M11 A2963 RMK SN2SC4SC2 VIS VRB 2 1/4-4 SLP040<br><br>
TAF CYTR 281130Z 2812/2912 28015G25KT 6SM -SHSN SCT015 BKN030 TEMPO 2812/2816 2SM -SHSN OVC015 PROB30 2814/2816 11/2SM -SHSN FM281600 24015G25KT 3/4SM -SHSN VV008 TEMPO 2816/2822 3SM -SN OVC020 PROB30 2816/2822 1/4SM +SHSN BLSN VV002 FM282200 29010KT P6SM -SHSN BKN030 OVC080 FM290000 29008KT P6SM SCT030 BKN080 RMK NXT FCST BY 281800Z<br><br>
<br><br>
