RETRIEVED AT : May 06 2018 06:05 Local <br>
  RETRIEVED AT: May 06 2018 10:05 UTC<br><br>
CYSN has no TAF <br><br>
<br><br>
CYHM 060900Z 22003KT 15SM FEW100 BKN240 12/07 A2998 RMK AC1CI5 SLP152<br><br>
TAF CYHM 060538Z 0606/0706 18005KT P6SM SCT120 BKN240 BECMG 0612/0614 04008KT FM061800 04012KT P6SM SCT050 BKN080 TEMPO 0618/0621 P6SM -SHRA BKN050 OVC080 FM062100 04012KT P6SM BKN050 BKN080 TEMPO 0621/0624 5SM -SHRA BR BKN020 OVC050 PROB30 0621/0624 VRB15G25KT 2SM TSRA BR BKN008 OVC050CB FM070000 03008KT 5SM -SHRA BR BKN008 BKN040 OVC080 RMK NXT FCST BY 061200Z<br><br>
<br><br>
KIAG 060953Z AUTO 20005KT 10SM CLR 12/05 A2998 RMK AO2 SLP152 T01220050<br><br>
KIAG 060853Z AUTO 00000KT 10SM CLR 13/05 A2998 RMK AO2 SLP150 T01330050 56002<br><br>
KIAG 060902Z 0609/0706 VRB03KT P6SM BKN120 FM061600 05007KT P6SM BKN100 FM062200 03009KT P6SM VCSH BKN040 FM070500 03008KT P6SM BKN045<br><br>
<br><br>
KBUF 060954Z 23003KT 10SM FEW095 SCT140 OVC210 14/05 A2999 RMK AO2 SLP156 T01390050<br><br>
KBUF 060854Z COR 19006KT 10SM FEW085 FEW140 OVC220 13/06 A2998 RMK AO2 SLP153 T01280056 56005<br><br>
KBUF 060902Z 0609/0706 19005KT P6SM BKN120 FM061200 VRB03KT P6SM BKN110 FM061600 04006KT P6SM BKN100 FM062200 03009KT P6SM VCSH BKN040 FM070500 04007KT P6SM OVC035<br><br>
<br><br>
CYYZ 060900Z VRB02KT 15SM SCT095 BKN120 13/07 A2998 RMK AC3AC4 SLP153<br><br>
TAF CYYZ 060840Z 0609/0712 VRB03KT P6SM BKN100 BKN240 BECMG 0613/0615 08008KT FM061800 08010KT P6SM BKN070 TEMPO 0618/0621 P6SM -SHRA FM062100 01010G20KT P6SM -SHRA BKN040 OVC070 FM070100 01010G20KT 6SM -SHRA BR SCT010 OVC030 FM070600 03010KT P6SM BKN040 FM070800 01010KT P6SM FEW040 RMK NXT FCST BY 061200Z<br><br>
<br><br>
CYOO 060900Z AUTO 00000KT 9SM BKN100 BKN120 10/05 A2999 RMK SLP157<br><br>
CYOO has no TAF <br><br>
<br><br>
CYTR 060900Z 00000KT 15SM OVC120 10/07 A3000 RMK AC8 SLP160<br><br>
TAF CYTR 060530Z 0606/0706 20005KT P6SM BKN120 BKN250 FM061200 04008KT P6SM FEW050 SCT250 FM061800 04008KT P6SM BKN050 BKN250 FM070400 04012KT P6SM SCT050 RMK NXT FCST BY 061200Z<br><br>
<br><br>
