RETRIEVED AT : Oct 29 2017 22:10 Local <br>
  RETRIEVED AT: Oct 30 2017 02:10 UTC<br><br>
CYSN 300100Z 34010G19KT 15SM SCT030 OVC058 08/03 A2958 RMK SC3SC5 LAST STFD OBS/NEXT 301100UTC SLP021<br><br>
CYSN has no TAF <br><br>
<br><br>
CYHM 300200Z 31006KT 15SM FEW035 OVC180 05/01 A2959 RMK SC1AC7 SLP027<br><br>
CYHM 300100Z 33007KT 15SM FEW036 SCT140 OVC180 05/02 A2960 RMK SC2AC1AC5 PRESFR SLP031<br><br>
TAF CYHM 292338Z 3000/3024 35005KT P6SM SCT025 BKN050 BECMG 3005/3007 31015G25KT FM301200 27018G28KT P6SM FEW025 BECMG 3014/3016 25020G35KT FM302100 24020G35KT P6SM -SHRA OVC025 BECMG 3022/3024 25018G28KT RMK NXT FCST BY 300600Z<br><br>
<br><br>
KIAG 300153Z 35009KT 10SM OVC045 08/03 A2955 RMK AO2 SLP015 T00780028<br><br>
KIAG 300053Z 35009KT 10SM BKN031 OVC043 08/03 A2958 RMK AO2 SLP023 T00780028<br><br>
KIAG 292330Z 3000/3024 35009KT P6SM OVC020 FM301000 30019G28KT P6SM BKN045 FM301400 27020G32KT P6SM BKN050 FM301900 26023G38KT P6SM BKN060 FM302300 26021G30KT P6SM BKN140<br><br>
<br><br>
KBUF 300154Z 33008KT 10SM BKN023 BKN030 OVC049 07/04 A2953 RMK AO2 SLP004 T00670039<br><br>
KBUF 300054Z 31003KT 10SM OVC022 06/04 A2957 RMK AO2 RAE07 SLP018 P0000 T00610044<br><br>
KBUF 292330Z 3000/3024 34008KT P6SM -RA OVC025 FM300200 34009KT P6SM OVC012 FM300900 29016G26KT P6SM OVC015 FM301400 27021G38KT P6SM SCT100 FM301700 25024G41KT P6SM BKN025 FM301900 25025G42KT 6SM -SHRA OVC025<br><br>
<br><br>
CYYZ 300200Z 33014KT 15SM FEW036 SCT160 OVC200 07/02 A2957 RMK SC1AS3CS4 MOON DIMLY VISBL SLP019<br><br>
CYYZ 300100Z 34012KT 15SM FEW028 FEW038 OVC160 07/01 A2960 RMK SC1SC1AS7 SC TR MOON DIMLY VISBL SLP030<br><br>
TAF CYYZ 292338Z 3000/3106 36008KT P6SM FEW030 BKN060 BECMG 3003/3005 33015G25KT BECMG 3012/3014 33020G35KT FM301600 27020G35KT P6SM BKN030 FM302200 26018G28KT P6SM -SHRA OVC030 BECMG 3100/3102 26015G25KT RMK NXT FCST BY 300300Z<br><br>
<br><br>
CYOO 300200Z AUTO 33008G17KT 9SM FEW140 BKN200 06/03 A2954 RMK SLP009<br><br>
CYOO 300100Z AUTO 36009G16KT 9SM OVC055 07/04 A2958 RMK SLP020<br><br>
CYOO has no TAF <br><br>
<br><br>
CYTR 300200Z 34013KT 6SM -SHRA BR BKN009 OVC047 06/06 A2948 RMK SF6SC2 SLP986<br><br>
CYTR 300100Z 34011KT 6SM -SHRA BR BKN009 OVC047 06/06 A2953 RMK SF6SC2 SLP005<br><br>
CYTR 300022Z 33013KT 4SM SHRA BR BKN009 OVC047 06/06 A2955 RMK SF6SC2 SLP010<br><br>
TAF CYTR 292330Z 3000/3024 34010G20KT 4SM -RA BR BKN005 OVC030 TEMPO 3000/3004 P6SM -SHRA SCT005 BKN020 OVC050 FM300400 33015G25KT 4SM -RA BR BKN005 OVC012 TEMPO 3004/3009 P6SM -RA SCT005 BKN012 PROB30 3004/3008 2SM RA BR BKN002 FM300900 33015G25KT P6SM -RA SCT008 BKN012 OVC020 TEMPO 3009/3012 P6SM NSW SCT012 BKN020 FM301200 28022G32KT P6SM SCT020 BKN040 TEMPO 3012/3014 BKN020 OVC040 FM302100 26015KT P6SM SCT040 RMK NXT FCST BY 300600Z<br><br>
<br><br>
