RETRIEVED AT : Oct 01 2017 16:10 Local <br>
  RETRIEVED AT: Oct 01 2017 20:10 UTC<br><br>
CYSN 012000Z 35008KT 15SM BKN250 18/07 A3032 RMK CI5 SLP270<br><br>
CYSN 011900Z 02007KT 15SM BKN250 18/07 A3033 RMK CI5 SLP274<br><br>
TAF CYSN 011939Z 0120/0201 VRB03KT P6SM FEW030 RMK NXT FCST WILL BE ISSUED AT 021245Z<br><br>
<br><br>
CYHM 012000Z 07005KT 050V120 15SM BKN250 17/06 A3031 RMK CI5 CONTRAILS SLP269 DENSITY ALT 800FT<br><br>
CYHM 011900Z 16006KT 100V180 15SM BKN250 18/06 A3032 RMK CI5 CONTRAILS SLP274 DENSITY ALT 900FT<br><br>
TAF CYHM 011740Z 0118/0218 VRB03KT P6SM FEW030 BECMG 0215/0217 14010KT RMK NXT FCST BY 020000Z<br><br>
<br><br>
KIAG 011953Z 04004KT 10SM CLR 19/04 A3032 RMK AO2 SLP273 T01890039<br><br>
KIAG 011853Z 02004KT 10SM CLR 18/03 A3034 RMK AO2 SLP278 T01830033<br><br>
KIAG 011720Z 0118/0218 06005KT P6SM SKC FM020100 VRB03KT P6SM SKC FM021300 14004KT P6SM SCT200<br><br>
<br><br>
KBUF 011954Z 10007KT 10SM FEW200 SCT250 SCT290 17/03 A3032 RMK AO2 SLP270 T01720028 $<br><br>
KBUF 011854Z 04004KT 10SM SCT230 SCT280 18/02 A3033 RMK AO2 SLP274 T01780022 $<br><br>
KBUF 011720Z 0118/0218 VRB03KT P6SM SKC FM012100 04005KT P6SM SKC FM020200 VRB03KT P6SM SKC FM021300 14004KT P6SM SCT200<br><br>
<br><br>
CYYZ 012000Z VRB02KT 15SM BKN260 17/05 A3031 RMK CI5 SLP270<br><br>
CYYZ 011900Z VRB03KT 15SM SCT260 16/05 A3033 RMK CI3 SLP277<br><br>
TAF CYYZ 011740Z 0118/0224 VRB03KT P6SM FEW040 FM021600 12010KT P6SM SCT180 RMK NXT FCST BY 012100Z<br><br>
<br><br>
CYOO 012000Z AUTO 18004KT 100V250 9SM CLR 16/06 A3032 RMK SLP273<br><br>
CYOO 011900Z AUTO 17004KT 120V240 9SM CLR 16/05 A3034 RMK SLP278<br><br>
CYOO has no TAF <br><br>
<br><br>
CYTR 012000Z 20010KT 15SM SCT250 16/09 A3032 RMK CI3 SLP270<br><br>
CYTR 011900Z 21011KT 15SM FEW050 FEW250 16/07 A3034 RMK SC1CI2 SLP276<br><br>
TAF CYTR 011730Z 0118/0218 28005KT P6SM FEW050 FEW250 BECMG 0118/0120 22008KT BECMG 0123/0201 VRB03KT FM020800 03005KT P6SM SKC TEMPO 0208/0212 4SM BR PROB30 0208/0212 1/2SM FG FM021600 13006KT P6SM SKC RMK NXT FCST BY 020000Z<br><br>
<br><br>
