RETRIEVED AT : May 31 2020 12:05 Local <br>
  RETRIEVED AT: May 31 2020 16:05 UTC<br><br>
CYSN 311500Z 35005KT 260V010 15SM FEW020 SCT060 12/04 A3024 RMK CU1SC2 SLP245<br><br>
TAF AMD CYSN 311302Z 3113/0101 33008KT P6SM FEW015 BKN040 TEMPO 3113/3118 BKN015 FM311800 30010KT P6SM SCT040 TEMPO 3118/0101 BKN040 RMK NXT FCST BY 312000Z<br><br>
<br><br>
CYHM 311500Z 31009G17KT 300V360 15SM BKN050 13/01 A3025 RMK CU6 SLP249<br><br>
TAF CYHM 311141Z 3112/0112 30005KT P6SM FEW030 BECMG 3116/3118 31012KT RMK NXT FCST BY 311800Z<br><br>
<br><br>
KIAG 311553Z 36010KT 10SM FEW050 13/02 A3024 RMK AO2 SLP247 T01280017<br><br>
KIAG 311453Z 35008KT 10SM FEW037 12/01 A3024 RMK AO2 SLP244 T01170006 50012<br><br>
KIAG 311423Z 3114/0112 34012KT P6SM SCT050 FM312000 30010KT P6SM SCT050 FM312300 26007KT P6SM SCT070<br><br>
<br><br>
KBUF 311554Z 33008KT 10SM FEW040 BKN050 BKN065 11/02 A3024 RMK AO2 SLP243 T01110017 $<br><br>
KBUF 311454Z 32006KT 10SM SCT035 BKN060 BKN180 10/02 A3023 RMK AO2 SLP241 T01000022 50012 $<br><br>
KBUF 311423Z 3114/0112 32008KT P6SM BKN050 FM311600 34012KT P6SM SCT050 FM312000 30012KT P6SM SCT050 FM312300 26008KT P6SM SCT070<br><br>
<br><br>
CYYZ 311500Z 32013G23KT 290V360 15SM BKN051 13/M00 A3025 RMK CF5 SLP248<br><br>
TAF CYYZ 311438Z 3115/0118 35015KT P6SM FEW030 FM311900 32015KT P6SM SCT060 TEMPO 3119/0101 BKN060 BECMG 3123/0101 33010KT FM010200 VRB03KT P6SM FEW060 BECMG 0107/0109 26012KT FM011600 27015G25KT P6SM SCT070 RMK NXT FCST BY 311800Z<br><br>
<br><br>
CYOO 311500Z AUTO 32013G23KT 9SM SCT055 13/00 A3023 RMK SLP239<br><br>
TAF CYOO 311338Z 3114/0102 35010G20KT P6SM FEW060 BECMG 3115/3117 30015KT RMK FCST BASED ON AUTO OBS. NXT FCST BY 312000Z<br><br>
<br><br>
CYTR 311500Z 30012KT 15SM BKN050 12/01 A3019 RMK SC7 SLP226<br><br>
TAF CYTR 311130Z 3112/0112 29005KT P6SM SCT030 BKN060 TEMPO 3112/3114 P6SM -SHRA FEW020 OVC030 FM311600 30010KT P6SM SCT060 TEMPO 3116/0101 BKN060 BECMG 3117/3119 30010G20KT FM010100 29007KT P6SM SKC FM010800 24005KT P6SM BKN070 RMK NXT FCST BY 311800Z<br><br>
<br><br>
