RETRIEVED AT : Oct 08 2017 04:10 Local <br>
  RETRIEVED AT: Oct 08 2017 08:10 UTC<br><br>
CYSN has no TAF <br><br>
<br><br>
CYHM 080800Z 22022G28KT 15SM FEW030 BKN053 19/17 A2960 RMK CU2SC5 SLP023 DENSITY ALT 1900FT<br><br>
CYHM 080700Z 22022G37KT 7SM -RA OVC020 21/19 A2960 RMK SC8 PRESRR SLP021 DENSITY ALT 2100FT<br><br>
CYHM 080642Z 21023G30KT 15SM -RA OVC033 22/18 A2958 RMK SC8 SLP015 DENSITY ALT 2200FT<br><br>
TAF CYHM 080541Z 0806/0906 20015G30KT P6SM -SHRA BKN050 TEMPO 0806/0808 4SM SHRA BR BKN020 OVC040 PROB40 0806/0807 VRB25G40KT 2SM +TSRA BKN008 OVC020CB FM080800 23015G25KT P6SM BKN025 TEMPO 0808/0819 BKN020 BECMG 0815/0817 23010G20KT FM081900 22010KT P6SM SKC BECMG 0821/0823 20007KT FM090400 09008KT P6SM BKN050 OVC160 RMK NXT FCST BY 081200Z<br><br>
<br><br>
KIAG 080753Z AUTO 19018G28KT 10SM SCT043 BKN050 OVC060 23/17 A2961 RMK AO2 PK WND 20030/0707 RAB0655E05B32E43 SLP021 P0000 T02330172<br><br>
KIAG 080653Z AUTO 19017G24KT 10SM FEW044 BKN060 BKN080 23/17 A2962 RMK AO2 PK WND 21028/0634 RAB23E47 SLP023 P0002 T02330167<br><br>
KIAG 080541Z 0806/0906 19015G25KT P6SM SHRA OVC060 FM080800 21022G43KT 5SM SHRA OVC025 FM081100 23019G39KT P6SM SCT035 FM082200 22007KT P6SM SCT250 FM090100 18005KT P6SM FEW250<br><br>
<br><br>
KBUF 080754Z 20020G29KT 10SM -RA BKN060 BKN100 OVC140 21/18 A2964 RMK AO2 PK WND 20033/0708 SLP033 P0002 T02110183 $<br><br>
KBUF 080654Z 20020G33KT 9SM -RA SCT060 BKN090 OVC110 22/18 A2966 RMK AO2 PK WND 21034/0644 RAB38 SLP039 P0000 T02220178<br><br>
KBUF 080541Z 0806/0906 19018G30KT P6SM SHRA OVC060 FM080800 20021G39KT 5SM SHRA OVC040 FM081100 24019G43KT P6SM SCT020 FM081300 25018G33KT P6SM SCT020 FM082000 24012KT P6SM SCT200 FM090100 VRB03KT P6SM FEW250<br><br>
<br><br>
CYYZ 080800Z 21011KT 12SM SCT035 BKN050 BKN090 20/19 A2956 RMK SC3SC3AC1 SLP008 DENSITY ALT 1800FT<br><br>
CYYZ 080749Z 21008KT 12SM FEW035 BKN045 OVC080 20/19 A2956 RMK SC2SC3AC3 SLP008 DENSITY ALT 1700FT<br><br>
CYYZ 080722Z 23007KT 7SM -RA BKN040 OVC120 20/18 A2956 RMK SC5AC3 SLP010 DENSITY ALT 1800FT<br><br>
CYYZ 080700Z 19005KT 15SM SCT040 BKN150 20/18 A2956 RMK SC4AC3 SLP008 DENSITY ALT 1800FT<br><br>
CYYZ 080628Z 19006KT 15SM SCT055 OVC130 20/18 A2958 RMK SC4AC4 SLP015 DENSITY ALT 1700FT<br><br>
TAF AMD CYYZ 080713Z 0807/0912 19005KT WS010/18040KT P6SM SCT040 BKN150 TEMPO 0807/0809 P6SM -SHRA SCT020 BKN040 FM080900 24015G30KT P6SM BKN025 TEMPO 0809/0816 BKN020 FM081600 24010G20KT P6SM BKN040 FM081900 24010KT P6SM SKC BECMG 0821/0823 20008KT FM090200 VRB03KT P6SM SCT220 FM090600 VRB03KT P6SM BKN080 FM090800 08008KT 6SM -RA BR SCT008 OVC025 FM091000 08010KT 2SM RA BR OVC006 PROB30 0910/0912 OVC003 RMK NXT FCST BY 080900Z<br><br>
<br><br>
CYOO 080804Z AUTO 21011G18KT 9SM BKN037 OVC050 21/17 A2956 RMK SLP008 DENSITY ALT 1600FT<br><br>
CYOO 080800Z AUTO 20011G18KT 9SM -RA BKN039 BKN050 OVC085 20/17 A2956 RMK SLP010 DENSITY ALT 1600FT<br><br>
CYOO 080751Z AUTO 19010G15KT 9SM -RA SCT039 BKN055 OVC084 20/16 A2956 RMK SLP012 DENSITY ALT 1500FT<br><br>
CYOO 080700Z AUTO 15004KT 130V190 9SM BKN055 OVC069 19/17 A2958 RMK PRESFR SLP016 DENSITY ALT 1400FT<br><br>
CYOO 080635Z AUTO 22004KT 190V250 9SM FEW045 BKN060 BKN076 OVC120 19/17 A2960 RMK PRESFR SLP024 DENSITY ALT 1400FT<br><br>
CYOO 080621Z AUTO 23004KT 150V320 6SM -RA BR FEW043 BKN055 BKN073 OVC120 19/17 A2962 RMK SLP030 DENSITY ALT 1300FT<br><br>
CYOO 080612Z AUTO 00000KT 5SM -RA BR FEW045 BKN055 OVC069 19/17 A2962 RMK SLP032 DENSITY ALT 1300FT<br><br>
CYOO has no TAF <br><br>
<br><br>
CYTR 080800Z 19013G18KT 15SM -SHRA OVC054 22/17 A2958 RMK SC8 PCPN VRY LGT SLP019<br><br>
CYTR 080730Z 17007KT 15SM OVC058 21/17 A2959 RMK SC8 SLP021<br><br>
CYTR 080711Z 17006KT 10SM -SHRA SCT016 OVC060 21/17 A2961 RMK SC3SC5 CB EMBD DIST N MOVG E SLP026<br><br>
CYTR 080700Z 17007G16KT 8SM SCT045 OVC060 21/17 A2961 RMK SC3SC5 CB EMBD DIST N MOVG E SLP029<br><br>
CYTR 080652Z 19012KT 15SM SHRA SCT045 OVC072 22/17 A2963 RMK SC3AC5 CB EMBD DIST N MOVG E SLP033<br><br>
TAF CYTR 080530Z 0806/0906 18012KT WS005/18037KT P6SM FEW020 BKN080 OVC160 TEMPO 0806/0808 5SM -SHRA BR BKN020 OVC080 PROB30 0806/0808 VRB20G35KT 1SM TSRA BR BKN006 OVC020CB FM080800 20015G25KT 3SM -SHRA BR BKN010 OVC025 TEMPO 0808/0811 6SM -SHRA BR SCT010 BKN025 PROB30 0808/0811 VRB20G40KT 1SM TSRA BR BKN008 OVC025CB FM081100 24020G35KT P6SM FEW015 OVC030 TEMPO 0811/0814 5SM -SHRA BR BKN015 OVC030 FM081800 26012G22KT P6SM SCT030 BECMG 0821/0823 24010KT FM090200 24004KT P6SM SCT020 BKN200 RMK NXT FCST BY 081200Z<br><br>
<br><br>
