RETRIEVED AT : Aug 26 2018 21:05 Local <br>
  RETRIEVED AT: Aug 27 2018 01:05 UTC<br><br>
CYSN 270000Z 22008KT 8SM SCT045 SCT230 25/22 A3001 RMK SC3CI1 SLP162 DENSITY ALT 1500FT<br><br>
TAF CYSN 261943Z 2620/2701 28012KT P6SM BKN040 TEMPO 2620/2621 P6SM -SHRA BKN020 FM262100 28012KT P6SM FEW040 BECMG 2623/2624 23005KT SKC RMK NXT FCST WILL BE ISSUED AT 271245Z<br><br>
<br><br>
CYHM 270000Z 29003KT 15SM BKN032 BKN250 24/20 A3003 RMK SC5CI2 SLP168 DENSITY ALT 1900FT<br><br>
TAF CYHM 262338Z 2700/2724 27005KT P6SM BKN250 BECMG 2700/2702 VRB03KT FM270800 18005KT P6SM FEW060 SCT220 PROB30 2708/2711 11/2SM BR BKN006 FM271100 23005KT P6SM -SHRA BKN040 BKN070 FM271400 24010KT P6SM BKN070 FM271700 23015G25KT P6SM FEW040 SCT070 RMK NXT FCST BY 270600Z<br><br>
<br><br>
KIAG 270053Z 22007KT 6SM BR CLR 23/21 A3003 RMK AO2 SLP165 T02280211<br><br>
KIAG 262353Z 22008KT 7SM CLR 24/21 A3002 RMK AO2 SLP162 T02390211 10272 20239 53002<br><br>
KIAG 262338Z 2700/2724 23008KT P6SM FEW035 FM270200 21006KT P6SM FEW250 FM271500 22011G18KT P6SM BKN035 FM271700 22013G23KT P6SM BKN070<br><br>
<br><br>
KBUF 270054Z 22007KT 8SM BKN009 23/22 A3004 RMK AO2 SLP170 T02280217<br><br>
KBUF 270045Z 24007KT 8SM FEW009 23/22 A3005 RMK AO2 T02280217<br><br>
KBUF 262354Z 23010KT 9SM FEW017 FEW250 23/22 A3004 RMK AO2 SLP168 T02330217 10261 20233 55000<br><br>
KBUF 262338Z 2700/2724 23006KT P6SM FEW030 FM270300 22007KT P6SM FEW250 FM271500 23011G17KT P6SM BKN035 FM271700 23013G21KT P6SM BKN070<br><br>
<br><br>
CYYZ 270000Z 29006KT 15SM FEW250 25/18 A3001 RMK CI2 SLP160 DENSITY ALT 1800FT<br><br>
TAF CYYZ 262338Z 2700/2806 29008KT P6SM FEW040 FEW250 BECMG 2700/2702 VRB03KT FM270900 VRB03KT P6SM FEW040 SCT220 FM271200 20005KT P6SM BKN040 BKN200 TEMPO 2712/2715 P6SM -SHRA BKN015 OVC040 PROB30 2713/2715 11/2SM SHRA BKN007 OVC020 FM271500 21010KT P6SM SCT100 BKN200 BECMG 2716/2718 22010G20KT BECMG 2718/2720 23015G25KT RMK NXT FCST BY 270300Z<br><br>
<br><br>
CYOO 270000Z AUTO 35004KT 9SM CLR 24/19 A3001 RMK SLP162 DENSITY ALT 1500FT<br><br>
CYOO has no TAF <br><br>
<br><br>
CYTR 270000Z 29005KT 15SM FEW040 FEW100 FEW200 24/17 A2999 RMK SC1AC1CI2 SLP154<br><br>
TAF CYTR 262330Z 2700/2724 VRB03KT P6SM FEW040 SCT200 PROB30 2707/2711 1SM BR BECMG 2713/2715 20008KT FM271500 20008KT P6SM SCT025 BKN100 BECMG 2717/2719 22010G20KT BECMG 2722/2724 24005KT RMK NXT FCST BY 270600Z<br><br>
<br><br>
