RETRIEVED AT : Oct 16 2017 21:10 Local <br>
  RETRIEVED AT: Oct 17 2017 01:10 UTC<br><br>
CYSN 170100Z 19004KT 15SM FEW140 04/02 A3026 RMK AC1 LAST STFD OBS/NEXT 171100 UTC SLP251<br><br>
CYSN 170000Z 19004KT 15SM SKC 05/02 A3026 RMK SLP250<br><br>
TAF CYSN 161939Z 1620/1701 31008G18KT P6SM BKN040 BECMG 1620/1622 SCT040 FM170000 31011KT P6SM SKC RMK NXT FCST WILL BE ISSUED AT 171245Z<br><br>
<br><br>
CYHM 170100Z 35002KT 15SM FEW050 06/M02 A3025 RMK SC1 SC TR SLP253<br><br>
CYHM 170000Z 31004KT 15SM FEW050 07/M03 A3025 RMK CU1 CU TR SLP254<br><br>
TAF CYHM 162338Z 1700/1724 31005KT P6SM FEW050 FM170300 VRB03KT P6SM SKC BECMG 1708/1710 23008KT FM171200 22008G18KT P6SM SKC BECMG 1713/1715 23015G25KT FM171800 24020G31KT P6SM SCT240 RMK NXT FCST BY 170600Z<br><br>
<br><br>
KIAG 170053Z 00000KT 10SM CLR 05/00 A3026 RMK AO2 SLP255 T00500000 $<br><br>
KIAG 162353Z 00000KT 10SM SCT037 07/01 A3026 RMK AO2 SLP255 T00720006 10106 20067 51010 $<br><br>
KIAG 162339Z 1700/1724 VRB03KT P6SM SKC FM171200 19008KT P6SM SCT035 FM171400 23015G24KT P6SM SCT250<br><br>
<br><br>
KBUF 170054Z 00000KT 10SM CLR 07/00 A3026 RMK AO2 SLP252 T00670000 $<br><br>
KBUF 162354Z 31003KT 10SM FEW045 06/01 A3026 RMK AO2 SLP252 T00610006 10100 20061 53012 $<br><br>
KBUF 162339Z 1700/1724 VRB03KT P6SM SKC FM171100 19009KT P6SM BKN035 FM171400 21012KT P6SM SCT030 FM171700 23017G25KT P6SM FEW250<br><br>
<br><br>
CYYZ 170100Z 04003KT 15SM SKC 06/M01 A3025 RMK SLP251<br><br>
CYYZ 170000Z 04005KT 15SM SKC 06/M02 A3025 RMK SLP252<br><br>
TAF CYYZ 162338Z 1700/1806 36008KT P6SM SKC BECMG 1700/1702 VRB03KT FM170600 22006KT P6SM SKC BECMG 1712/1714 24010G20KT FM171800 24017G27KT P6SM FEW040 SCT210 BECMG 1722/1724 25009G19KT FM180300 25007G17KT P6SM SKC RMK NXT FCST BY 170300Z<br><br>
<br><br>
CYOO 170100Z AUTO 36002KT 9SM CLR 02/M00 A3026 RMK SLP254<br><br>
CYOO 170000Z AUTO VRB02KT 9SM CLR 03/M00 A3026 RMK SLP254<br><br>
CYOO has no TAF <br><br>
<br><br>
CYTR 170100Z 30004KT 15SM SKC 03/M01 A3026 RMK SLP249<br><br>
CYTR 170000Z 28004KT 15SM SKC 04/M01 A3025 RMK SLP248<br><br>
TAF CYTR 162330Z 1700/1724 VRB03KT P6SM SKC FM170900 VRB03KT P6SM SCT020 BKN040 TEMPO 1709/1715 BKN020 OVC040 BECMG 1710/1712 23010KT FM171500 23010G20KT P6SM SCT040 BECMG 1716/1718 23015G25KT RMK NXT FCST BY 170600Z<br><br>
<br><br>
