RETRIEVED AT : Jun 13 2020 22:05 Local <br>
  RETRIEVED AT: Jun 14 2020 02:05 UTC<br><br>
CYSN has no TAF <br><br>
<br><br>
TAF CYHM 132338Z 1400/1424 03006KT P6SM FEW060 FM141200 05010KT P6SM SKC BECMG 1415/1417 06015KT RMK NXT FCST BY 140600Z<br><br>
<br><br>
KIAG 132322Z 1400/1424 05008KT P6SM SKC FM140300 09004KT P6SM SKC FM140600 13004KT P6SM SKC FM141500 07010KT P6SM FEW250<br><br>
<br><br>
KBUF 132322Z 1400/1424 04006KT P6SM SCT250 FM140300 09004KT P6SM SKC FM140600 13004KT P6SM SKC FM141400 06008KT P6SM FEW250<br><br>
<br><br>
TAF CYYZ 132338Z 1400/1506 15008KT P6SM FEW050 BECMG 1400/1402 03008KT BECMG 1412/1414 10010KT FM141500 10012KT P6SM FEW060 FM150000 09008KT P6SM SKC BECMG 1500/1502 VRB03KT RMK NXT FCST BY 140300Z<br><br>
<br><br>
TAF CYOO 140138Z 1402/1414 04005KT P6SM SKC RMK FCST BASED ON AUTO OBS. NXT FCST BY 140800Z<br><br>
<br><br>
TAF CYTR 132330Z 1400/1424 21008KT P6SM FEW060 BECMG 1400/1402 VRB03KT FM141300 07005KT P6SM SCT060 BECMG 1418/1420 21008KT RMK NXT FCST BY 140600Z<br><br>
<br><br>
