RETRIEVED AT : Apr 05 2020 02:05 Local <br>
  RETRIEVED AT: Apr 05 2020 06:05 UTC<br><br>
CYSN has no TAF <br><br>
<br><br>
CYHM 050500Z 23005KT 15SM OVC053 08/05 A3000 RMK SC8 SLP165<br><br>
TAF CYHM 050539Z 0506/0606 23007KT P6SM -SHRA SCT030 OVC050 FM050700 29007KT P6SM SCT008 OVC040 TEMPO 0507/0510 5SM BR BKN008 OVC040 FM051000 29008KT P6SM BKN010 OVC030 TEMPO 0510/0514 SCT010 OVC030 FM051400 33010KT P6SM SCT015 BKN140 FM051800 36005KT P6SM FEW025 SCT120 BECMG 0519/0521 06008KT FM060400 02005KT P6SM SKC RMK NXT FCST BY 051200Z<br><br>
<br><br>
KIAG 050553Z AUTO 21004KT 10SM OVC065 06/03 A3000 RMK AO2 SLP168 T00610033 10100 20039 57001<br><br>
KIAG 050453Z AUTO 20005KT 10SM OVC090 06/03 A3001 RMK AO2 SLP170 T00560033 401170039<br><br>
KIAG 050540Z 0506/0606 20003KT P6SM VCSH OVC060 FM051300 32008KT P6SM OVC025 FM052100 31008KT P6SM BKN150 FM060000 33004KT P6SM SCT250<br><br>
<br><br>
KBUF 050554Z 20004KT 10SM BKN085 07/04 A3001 RMK AO2 SLP165 T00720039 10100 20061 56005<br><br>
KBUF 050454Z 22004KT 10SM BKN090 07/04 A3001 RMK AO2 SLP168 T00720039 401390050<br><br>
KBUF 050540Z 0506/0606 22003KT P6SM VCSH OVC080 FM051400 32006KT P6SM OVC020 FM052000 30008KT P6SM SCT020 BKN150 FM060000 28005KT P6SM SCT250<br><br>
<br><br>
CYYZ 050500Z 16009KT 15SM OVC060 07/05 A3000 RMK SC8 SLP163<br><br>
TAF CYYZ 050539Z 0506/0612 16008KT P6SM -SHRA SCT030 OVC060 FM050700 VRB03KT P6SM SCT006 OVC025 TEMPO 0507/0509 4SM BR BKN006 OVC025 FM050900 35008KT P6SM SCT008 BKN012 OVC040 TEMPO 0509/0515 SCT012 OVC040 PROB30 0509/0513 OVC008 FM051500 34015KT P6SM SCT015 BKN180 FM052100 36008KT P6SM SKC BECMG 0609/0611 33008KT RMK NXT FCST BY 050900Z<br><br>
<br><br>
CYOO 050532Z AUTO 00000KT 8SM FEW043 BKN075 OVC090 06/06 A3000 RMK SLP164<br><br>
CYOO 050515Z AUTO VRB02KT 9SM -RA SCT080 OVC097 06/06 A3000 RMK SLP165<br><br>
CYOO 050500Z AUTO 20004KT 9SM OVC090 06/06 A3000 RMK SLP165<br><br>
TAF CYOO 050138Z 0502/0514 VRB03KT P6SM OVC040 TEMPO 0502/0505 OVC030 FM050500 VRB03KT P6SM SCT008 OVC025 TEMPO 0505/0511 4SM -SHRA BR BKN008 OVC025 PROB40 0506/0511 3SM -DZ BR OVC006 FM051100 32010KT P6SM OVC007 TEMPO 0511/0514 BKN012 OVC030 RMK FCST BASED ON AUTO OBS. NXT FCST BY 050800Z<br><br>
<br><br>
CYTR 050500Z 21005KT 1/8SM FG VV001 04/04 A3001 RMK FG8 VIS VRB 0-1/4 SLP166<br><br>
TAF CYTR 050530Z 0506/0606 21005KT 1/8SM FG VV001 BECMG 0506/0507 P6SM -SHRA SCT015 OVC040 FM050700 VRB03KT P6SM -SHRA SCT015 OVC040 TEMPO 0507/0509 3SM -SHRA BR BKN015 OVC040 PROB40 0507/0509 1/2SM -SHRA FG VV001 FM050900 VRB03KT 6SM -DZ BR OVC008 TEMPO 0509/0513 2SM -DZ BR PROB30 0509/0513 1SM -DZ BR OVC002 FM051300 31005KT P6SM OVC015 FM051700 32010KT P6SM BKN025 FM060000 31008KT P6SM SKC RMK NXT FCST BY 051200Z<br><br>
<br><br>
