RETRIEVED AT : Dec 10 2017 23:10 Local <br>
  RETRIEVED AT: Dec 11 2017 04:10 UTC<br><br>
CYSN has no TAF <br><br>
<br><br>
CYHM 110400Z 25009KT 15SM OVC021 M03/M06 A2987 RMK SC8 SLP126<br><br>
CYHM 110338Z 25009G17KT 15SM FEW019 OVC029 M04/M06 A2987 RMK SC1SC7 SLP127<br><br>
CYHM 110300Z 24012G19KT 15SM -SN BKN020 OVC032 M04/M06 A2987 RMK SC6SC2 SLP128<br><br>
TAF CYHM 102338Z 1100/1124 26010G20KT P6SM -SN SCT030 OVC060 TEMPO 1100/1106 21/2SM -SN OVC030 PROB30 1104/1106 11/2SM -SHSN VV008 FM110600 33008KT P6SM SCT030 BECMG 1110/1112 02005KT FM111500 02005KT P6SM SCT020 BKN180 FM111900 06008KT 3SM -SN BKN020 OVC060 RMK NXT FCST BY 110600Z<br><br>
<br><br>
KIAG 110353Z 26012KT 9SM -SN OVC070 M01/M07 A2987 RMK AO2 SLP128 P0000 T10111072<br><br>
KIAG 110253Z 27013KT 9SM -SN OVC065 M01/M07 A2987 RMK AO2 SLP131 P0000 60000 T10111072 51003<br><br>
KIAG 110310Z 1103/1124 26011KT P6SM VCSH OVC050 FM110600 29011G18KT P6SM VCSH OVC030 FM110800 32009KT P6SM BKN035 FM111700 25004KT P6SM BKN040 FM112000 16004KT P6SM VCSH OVC040<br><br>
<br><br>
KBUF 110310Z 1103/1124 26011KT P6SM VCSH OVC035 FM110800 31009KT P6SM BKN035 FM111700 25005KT P6SM BKN035 FM112100 18004KT P6SM VCSH OVC035<br><br>
<br><br>
TAF CYYZ 110238Z 1103/1206 25010G20KT 6SM -SN OVC030 TEMPO 1103/1105 11/4SM -SN OVC015 BECMG 1103/1105 35012KT FM110500 35012KT P6SM -SHSN BKN030 FM110600 35010KT P6SM SCT030 FM111500 VRB03KT P6SM BKN180 FM111900 08008KT 4SM -SN BKN020 OVC080 PROB30 1121/1203 2SM -SN OVC020 FM120300 06006KT 11/2SM -SN SCT008 OVC012 RMK NXT FCST BY 110600Z<br><br>
<br><br>
CYOO 110400Z AUTO 36007KT 9SM -SN OVC024 M04/M07 A2986 RMK SLP121<br><br>
CYOO 110342Z AUTO 35007KT 6SM -SN BKN022 OVC031 M04/M06 A2986 RMK SLP119<br><br>
CYOO 110328Z AUTO 35008KT 5SM -SN OVC020 M04/M07 A2985 RMK SLP118<br><br>
CYOO 110300Z AUTO 35010G15KT 290V360 9SM -SN BKN018 OVC025 M03/M06 A2985 RMK SLP116<br><br>
CYOO 110244Z AUTO 28006G16KT 9SM -SN BKN020 BKN027 OVC037 M02/M06 A2984 RMK SLP114<br><br>
CYOO 110232Z AUTO 26011G18KT 9SM -SN FEW027 BKN037 OVC055 M02/M06 A2984 RMK SLP113<br><br>
CYOO has no TAF <br><br>
<br><br>
CYTR 110400Z 33012KT 15SM BKN023 OVC085 M02/M09 A2986 RMK SC6AC2 SLP118<br><br>
CYTR 110344Z 32008KT 15SM BKN023 OVC085 M02/M07 A2986 RMK SC6AC2 SLP115<br><br>
CYTR 110300Z 27008KT 15SM SCT028 OVC085 M01/M06 A2983 RMK SC3AC5 SLP106<br><br>
TAF CYTR 102330Z 1100/1124 25015G25KT P6SM SCT030 BKN100 TEMPO 1100/1101 6SM -SHSN BKN030 OVC100 FM110100 26015G25KT P6SM FEW012 BKN030 TEMPO 1101/1104 11/2SM -SHSN BKN012 OVC030 BECMG 1102/1104 30012KT FM110400 30012KT P6SM SCT030 BKN050 FM110800 33008KT P6SM SKC FM111600 02005KT P6SM BKN200 FM112100 07005KT P6SM OVC100 RMK NXT FCST BY 110600Z<br><br>
<br><br>
