RETRIEVED AT : Feb 29 2020 14:05 Local <br>
  RETRIEVED AT: Feb 29 2020 19:05 UTC<br><br>
CYSN 291827Z 29015G22KT 4SM -SHSN VV018 M06/M11 A2999 RMK SN8 VIS VRB 2-6 SLP161<br><br>
CYSN 291800Z 30017G23KT 12SM OVC033 M06/M13 A2998 RMK SC8 SHSN ALQDS SLP158<br><br>
TAF CYSN 291340Z 2914/0102 30008KT P6SM BKN030 BKN180 TEMPO 2914/2918 4SM -SN BKN020 BKN180 BECMG 2916/2918 27012G22KT FM291800 27012G22KT P6SM BKN030 BKN070 TEMPO 2918/0102 4SM -SN BKN020 BKN070 RMK NXT FCST BY 292000Z<br><br>
<br><br>
CYHM 291800Z 28012G18KT 15SM FEW031 BKN095 M06/M13 A2996 RMK CU1AC6 SLP161<br><br>
TAF CYHM 291742Z 2918/0118 27010G20KT P6SM FEW025 SCT090 BKN220 TEMPO 2918/2924 5SM -SHSN BKN020 BKN090 FM010000 27010KT P6SM SCT040 FM011500 23008KT P6SM FEW090 RMK NXT FCST BY 010000Z<br><br>
<br><br>
KIAG 291853Z 29017KT 2 1/2SM -SN FEW026 OVC033 M07/M12 A2998 RMK AO2 PK WND 30028/1821 SLP171 P0000 T10721117<br><br>
KIAG 291826Z 30020G28KT 2 1/2SM -SN BKN031 OVC039 M07/M12 A2997 RMK AO2 PK WND 30028/1821 VIS 1 3/4V5 P0000 T10671117<br><br>
KIAG 291812Z 29017KT 3SM -SN BKN025 OVC034 M07/M11 A2996 RMK AO2 P0000 T10721111<br><br>
KIAG 291756Z 29016KT 1 3/4SM -SN BKN025 OVC033 M07/M12 A2997 RMK AO2 P0000 T10721117<br><br>
KIAG 291753Z 29017G21KT 3SM -SN BKN027 OVC035 M07/M12 A2997 RMK AO2 SLP169 P0000 60000 T10721122 11072 21111 50007<br><br>
KIAG 291736Z 2918/0118 29006KT P6SM -SN BKN030 FM292000 27011KT 6SM -SHSN BKN025 TEMPO 2920/2923 4SM -SHSN OVC018 FM292300 28013G22KT 5SM -SHSN BKN025 TEMPO 2923/2924 3SM -SHSN OVC015 FM010000 28014G24KT P6SM VCSH BKN035 FM010700 25007KT P6SM BKN100<br><br>
<br><br>
KBUF 291854Z 27014KT 5SM -SN BKN033 OVC040 M06/M12 A2997 RMK AO2 SNB00 SLP161 P0000 T10611117 $<br><br>
KBUF 291754Z 29013G19KT 10SM SCT028 BKN034 M07/M13 A2996 RMK AO2 SNE21 SLP159 4/004 933004 P0000 60000 T10671133 11067 21100 51008 $<br><br>
KBUF 291736Z 2918/0118 26013G18KT P6SM -SN BKN025 OVC030 FM292200 27011G20KT 6SM -SHSN OVC025 TEMPO 2922/2924 4SM -SHSN OVC018 FM010000 28014G24KT 6SM -SHSN OVC030 TEMPO 0100/0103 4SM -SHSN OVC015 FM010300 27013KT P6SM BKN035 FM011500 24010KT P6SM BKN200<br><br>
<br><br>
CYYZ 291800Z 29013G19KT 15SM BKN032 BKN075 BKN220 M07/M15 A2996 RMK SC5AC1CI1 SLP157<br><br>
TAF CYYZ 291742Z 2918/0124 32015G25KT P6SM BKN040 BKN210 TEMPO 2918/2924 5SM -SHSN BKN020 OVC040 BECMG 2922/2924 31012KT FM010000 31012KT P6SM SCT030 TEMPO 0100/0108 BKN030 BECMG 0103/0105 32006KT FM010800 31006KT P6SM SCT040 FM011500 24010KT P6SM BKN050 FM011800 20010KT P6SM SCT090 FM012100 17010KT P6SM BKN090 RMK NXT FCST BY 292100Z<br><br>
<br><br>
CYOO 291800Z AUTO 28012KT 9SM CLR M09/M15 A2996 RMK SLP158<br><br>
TAF CYOO 291340Z 2914/0102 30006KT P6SM SCT060 BKN080 TEMPO 2914/2917 P6SM -SN BKN030 BKN080 BECMG 2914/2916 31010G20KT FM291700 30010G20KT P6SM -SHSN BKN030 BKN080 TEMPO 2917/2924 5SM -SHSN BKN020 OVC030 FM010000 31010KT P6SM BKN030 BKN070 RMK FCST BASED ON AUTO OBS. NXT FCST BY 292000Z<br><br>
<br><br>
CYTR 291800Z 30008KT 15SM FEW070 SCT250 M09/M16 A2994 RMK AC1CI2 SLP146<br><br>
TAF CYTR 291730Z 2918/0118 30010KT P6SM FEW070 FEW250 BECMG 0103/0105 VRB03KT RMK NXT FCST BY 010000Z<br><br>
<br><br>
