RETRIEVED AT : May 29 2020 17:05 Local <br>
  RETRIEVED AT: May 29 2020 21:05 UTC<br><br>
CYSN 292023Z 22021G26KT 15SM -SHRA FEW025 OVC090 22/18 A2974 RMK CU2ACC6 SLP071 DENSITY ALT 1400FT<br><br>
CYSN 292000Z 21020G28KT 15SM FEW025 BKN090 BKN190 23/19 A2973 RMK CU2AC4CI1 SLP069 DENSITY ALT 1600FT<br><br>
TAF AMD CYSN 292017Z 2920/3001 22020G30KT P6SM FEW025 BKN090 BKN190 TEMPO 2920/2922 VRB20G30KT 5SM TSRA BR BKN020 BKN040CB FM292200 27015G25KT P6SM -SHRA BKN015 TEMPO 2922/3001 P6SM NSW SCT015 BKN025 BECMG 2922/2924 32012KT RMK NXT FCST BY 301245Z<br><br>
<br><br>
CYHM 292053Z 27009G17KT 10SM -SHRA BKN017 OVC085 17/16 A2979 RMK SC7AC1 CVCTV CLD EMBD SLP090 DENSITY ALT 1400FT<br><br>
CYHM 292024Z 28011G16KT 12SM FEW012 SCT030TCU OVC190 18/17 A2978 RMK SF1TCU2AC5 SLP084 DENSITY ALT 1600FT<br><br>
CYHM 292000Z 27012G26KT 7SM R12/4000VP6000FT/U -SHRA FEW018 BKN030TCU OVC110 19/17 A2977 RMK SF1TCU5AC2 PRESRR SLP081 DENSITY ALT 1600FT<br><br>
CYHM 291953Z 27017G26KT 3SM R12/4500VP6000FT/D -SHRA BR OVC018 20/17 A2976 RMK SC8 CVCTV CLD EMBD WSHFT 1928Z VIS N HIER PRESRR SLP078 DENSITY ALT 1800FT<br><br>
TAF AMD CYHM 292003Z 2920/3018 27015G25KT P6SM -SHRA SCT015 BKN025CB TEMPO 2920/2921 VRB25G35KT 11/2SM +TSRA BR BKN008 BKN015CB FM292200 30012G22KT P6SM -SHRA SCT020 BKN050 TEMPO 2922/2924 6SM -SHRA BR BKN020 FM300100 29015KT P6SM SCT025 BKN050 BECMG 3004/3006 29008KT FM300600 25005KT P6SM FEW050 FM300800 26008KT P6SM FEW008 BKN012 TEMPO 3009/3012 BKN008 FM301500 29015KT P6SM BKN020 BECMG 3015/3017 BKN030 FM301700 30018KT P6SM BKN040 RMK NXT FCST BY 300000Z<br><br>
<br><br>
KIAG 292053Z 23017G24KT 6SM -RA SCT023 BKN070 OVC090 20/17 A2977 RMK AO2 LTG DSNT S AND NW RAB30E42B45 SLP078 P0001 60002 T02000172 55008 $<br><br>
KIAG 292044Z 24016G22KT 10SM SCT021 BKN029 OVC080 21/17 A2977 RMK AO2 LTG DSNT S RAB30E42 P0000 T02060172 $<br><br>
KIAG 291953Z 22014G23KT 10SM SCT024 22/18 A2976 RMK AO2 SLP076 T02170183 $<br><br>
KIAG 291720Z 2918/3018 22015G25KT 5SM -SHRA VCTS BKN050CB FM292100 25015G25KT P6SM -SHRA OVC025 FM300200 27010KT P6SM BKN025 FM300400 26010KT P6SM BKN070 FM301300 24009KT P6SM BKN020<br><br>
<br><br>
KBUF 292054Z 20012KT 7SM -TSRA FEW033CB BKN048 OVC130 21/18 A2976 RMK AO2 LTG DSNT SW RAB51 TSE51B52 SLP076 OCNL LTGCG VC SW RAB51 TSB51 TS VC SW MOV NE P0000 60005 T02110178 56020 $<br><br>
KBUF 292052Z 21014KT 10SM -TSRA FEW033CB BKN048 OVC130 21/18 A2976 RMK AO2 LTG DSNT SW RAB51 TSE51B52 OCNL LTGCG VC SW TS VC SW MOV NE P0000 $<br><br>
KBUF 291954Z 20011KT 10SM SCT009 SCT040 SCT090 BKN130 BKN180 BKN250 21/19 A2978 RMK AO2 RAE15 SLP082 TCU DSNT SW-NW P0001 T02060189 $<br><br>
KBUF 292102Z 2921/3018 23015G25KT 5SM -TSRA BKN035CB TEMPO 2921/2922 1SM +TSRA BR BKN010CB FM292300 24012KT P6SM VCSH OVC025 FM300400 26010KT P6SM BKN060 FM301200 23006KT P6SM BKN020<br><br>
<br><br>
CYYZ 292040Z 30018G24KT 12SM -SHRA FEW018 BKN024 BKN100 19/16 A2976 RMK CU2SC3AC2 SLP078 DENSITY ALT 1400FT<br><br>
CYYZ 292013Z 29018G23KT 15SM SCT021 BKN100 BKN240 20/16 A2974 RMK CF3AC3CI1 SLP071 DENSITY ALT 1500FT<br><br>
CYYZ 292000Z 28017KT 15SM -SHRA FEW035TCU SCT050 BKN100 20/17 A2973 RMK TCU2SC2AC3 TCU E-SE SLP068 DENSITY ALT 1600FT<br><br>
CYYZ 291953Z 29014KT 15SM -SHRA FEW035TCU SCT051 BKN120 20/18 A2973 RMK TCU2SC2AC3 TCU E-SE SLP067 DENSITY ALT 1500FT<br><br>
CYYZ 291941Z 27013G32KT 8SM R24R/4500VP6000FT/D -TSRA FEW035CB BKN051 BKN120 19/17 A2973 RMK CB2SC3AC2 CB E PRESRR SLP067 DENSITY ALT 1400FT<br><br>
CYYZ 291937Z 26016G32KT 1 1/2SM +TSRA SCT014 BKN032CB BKN220 19/17 A2973 RMK RA2SF2CB3CI1 CI TR OCNL LTGIC OVRHD PRESRR SLP069 DENSITY ALT 1400FT<br><br>
CYYZ 291933Z 27024G32KT 200V280 5SM SHRA BR SCT041TCU BKN055 BKN220 21/16 A2973 RMK TCU4SC2CI1 PRESRR SLP068 DENSITY ALT 1700FT<br><br>
CYYZ 291927Z 24019G31KT 190V260 10SM -SHRA SCT041TCU BKN055 BKN220 25/16 A2971 RMK TCU3SC2CI2 TCU OVRHD SLP062 DENSITY ALT 2100FT<br><br>
TAF AMD CYYZ 292053Z 2921/3024 29015G25KT P6SM SCT020 BKN100 TEMPO 2921/2924 P6SM -SHRA BKN020 FM300000 32012G22KT P6SM BKN030 TEMPO 3000/3002 P6SM -SHRA BKN025 FM300200 29010KT P6SM BKN040 FM300500 28008KT P6SM FEW060 FM300900 28010KT P6SM BKN020 BECMG 3011/3013 SCT020 FM301400 29012G22KT P6SM SCT030 BECMG 3016/3018 29015G25KT BKN040 FM302000 32015KT P6SM BKN050 FM302300 35015KT P6SM SCT050 RMK NXT FCST BY 300000Z<br><br>
<br><br>
CYOO 292050Z AUTO 28009G18KT 9SM -RA FEW031 SCT048 OVC065 20/17 A2973 RMK LTNG DIST N NE SLP067 DENSITY ALT 1400FT<br><br>
CYOO 292048Z AUTO 28011G18KT 9SM -RA VCTS FEW031 SCT048 OVC065 21/17 A2973 RMK LTNG DIST N WSHFT AT 2034Z SLP067 DENSITY ALT 1400FT<br><br>
CYOO 292033Z AUTO 21015KT 9SM VCTS SCT034 BKN048 BKN065 BKN120 22/18 A2972 RMK LTNG DIST N NW SLP065 DENSITY ALT 1500FT<br><br>
CYOO 292000Z AUTO 20010G19KT 9SM CLR 22/18 A2971 RMK LTNG DIST W NW SLP062 DENSITY ALT 1600FT<br><br>
TAF AMD CYOO 292027Z 2920/3008 22012G22KT P6SM FEW020 BKN110 TEMPO 2920/2922 VRB20G30KT 3SM TSRA BR SCT008 BKN015CB BECMG 2920/2922 32012G22KT FM292300 32012G22KT P6SM -SHRA SCT015 BKN025 TEMPO 2923/3002 5SM -SHRA BR BKN015 BECMG 3002/3003 P6SM NSW FM300300 29010KT P6SM BKN040 FM300500 28008KT P6SM FEW060 RMK FCST BASED ON AUTO OBS. NXT FCST BY 300200Z<br><br>
<br><br>
CYTR 292000Z 20009KT 15SM SCT045 OVC120 21/19 A2974 RMK SC4AC4 SLP070<br><br>
TAF CYTR 291730Z 2918/3018 22010KT P6SM FEW020 SCT040 BKN080 TEMPO 2918/2922 5SM -SHRA BR SCT020 OVC040 PROB30 2918/2922 VRB15G25KT 11/2SM TSRA BR OVC020CB FM292200 23010G20KT P6SM -SHRA FEW008 SCT012 OVC025 TEMPO 2922/2924 3SM -SHRA BR SCT008 OVC012 PROB30 2922/2924 VRB15G25KT 2SM TSRA BR BKN008 OVC012CB FM300000 28012KT P6SM SCT012 OVC025 TEMPO 3000/3004 P6SM -SHRA BKN012 OVC025 FM300400 29008KT P6SM BKN012 TEMPO 3004/3012 SCT012 FM301200 25008KT P6SM -SHRA FEW012 BKN040 RMK NXT FCST BY 300000Z<br><br>
<br><br>
