RETRIEVED AT : Mar 27 2020 13:05 Local <br>
  RETRIEVED AT: Mar 27 2020 17:05 UTC<br><br>
CYSN 271600Z 36003KT 320V080 15SM OVC015 04/01 A3003 RMK SC8 SLP172<br><br>
TAF CYSN 271238Z 2713/2801 03007KT P6SM OVC015 BECMG 2715/2717 FEW015 FM271800 01008KT P6SM FEW025 BECMG 2723/2724 07005KT RMK NXT FCST BY 272000Z<br><br>
<br><br>
CYHM 271600Z 06005KT 010V090 15SM BKN015 04/01 A3001 RMK SC7 SLP172<br><br>
TAF CYHM 271138Z 2712/2812 03010KT P6SM OVC012 TEMPO 2712/2715 OVC008 FM271500 06008KT P6SM BKN015 BECMG 2715/2717 FEW015 FM280600 04010KT P6SM BKN200 FM281100 05012KT P6SM BKN130 OVC200 RMK NXT FCST BY 271800Z<br><br>
<br><br>
KIAG 271653Z 00000KT 10SM SCT020 07/01 A2999 RMK AO2 SLP166 T00670011<br><br>
KIAG 271553Z 03004KT 10SM OVC018 05/01 A3001 RMK AO2 SLP175 T00500006<br><br>
KIAG 271704Z 2717/2812 35005KT P6SM SCT035 FM280200 08005KT P6SM FEW250 FM280900 09007KT P6SM BKN150<br><br>
<br><br>
KBUF 271654Z 04006KT 10SM FEW021 FEW260 08/01 A3000 RMK AO2 SLP162 T00780011<br><br>
KBUF 271641Z VRB05KT 10SM SCT020 07/01 A3001 RMK AO2 T00720011<br><br>
KBUF 271554Z 13003KT 10SM BKN019 06/01 A3001 RMK AO2 SLP167 T00560006<br><br>
KBUF 271704Z 2717/2812 04005KT P6SM SCT035 FM272100 00000KT P6SM SCT060 FM280200 08005KT P6SM FEW250 FM280500 11005KT P6SM SCT250<br><br>
<br><br>
CYYZ 271600Z VRB06KT 15SM BKN015 05/01 A3002 RMK SC6 SLP173<br><br>
TAF CYYZ 271438Z 2715/2818 05010KT P6SM OVC012 BECMG 2716/2718 15008KT FEW025 FM271800 15008KT P6SM FEW025 BECMG 2800/2802 02007KT FM280800 06008KT P6SM BKN180 FM281200 08012KT P6SM BKN140 BKN180 FM281700 08015KT P6SM -SHRA BKN030 OVC080 RMK NXT FCST BY 271800Z<br><br>
<br><br>
CYOO 271600Z AUTO 36006KT 310V030 9SM CLR 06/01 A3002 RMK SLP171<br><br>
TAF CYOO 271338Z 2714/2802 34008KT P6SM FEW012 TEMPO 2714/2716 BKN012 BECMG 2716/2718 18008KT FEW025 FM280000 VRB03KT P6SM FEW030 RMK FCST BASED ON AUTO OBS. NXT FCST BY 272000Z<br><br>
<br><br>
CYTR 271600Z 17005KT 15SM SCT020 05/M00 A3004 RMK SC3 SLP175<br><br>
CYTR 271545Z 17003KT 15SM SCT020 04/M00 A3004 RMK SC4 SLP176<br><br>
TAF AMD CYTR 271514Z 2715/2812 VRB03KT P6SM BKN015 BECMG 2715/2717 SCT015 FM271900 22005KT P6SM FEW020 BECMG 2722/2724 VRB03KT FM280800 VRB03KT P6SM SCT180 PROB30 2808/2812 2SM BR RMK NXT FCST BY 271800Z<br><br>
<br><br>
