RETRIEVED AT : Mar 07 2020 02:05 Local <br>
  RETRIEVED AT: Mar 07 2020 07:05 UTC<br><br>
CYSN has no TAF <br><br>
<br><br>
CYHM 070600Z 36012KT 15SM OVC037 M02/M07 A3032 RMK SC8 SLP280<br><br>
TAF CYHM 070538Z 0706/0806 01010KT P6SM SCT030 FM071200 32006KT P6SM SKC FM071800 25009KT P6SM FEW120 BECMG 0722/0724 23012KT RMK NXT FCST BY 071200Z<br><br>
<br><br>
KIAG 070653Z AUTO 01013KT 10SM OVC037 M01/M07 A3032 RMK AO2 SLP281 T10111067<br><br>
KIAG 070553Z AUTO 02010KT 10SM BKN037 OVC045 M01/M06 A3029 RMK AO2 SLP273 60000 T10061061 10006 21011 51024<br><br>
KIAG 070533Z 0706/0806 02012KT P6SM OVC035 FM071000 35009KT P6SM SCT035 FM071400 32006KT P6SM FEW200 FM072000 24009KT P6SM FEW250 FM072300 22010G17KT P6SM SCT250<br><br>
<br><br>
KBUF 070654Z 01009KT 10SM BKN038 OVC050 M01/M06 A3030 RMK AO2 SNE17 SLP270 P0000 T10111061<br><br>
KBUF 070554Z 36008KT 9SM -SN OVC036 M01/M06 A3028 RMK AO2 SLP263 4/001 P0000 60002 T10061056 10006 21006 51023<br><br>
KBUF 070533Z 0706/0806 36010KT P6SM -SN BKN028 OVC040 FM070900 35008KT P6SM SCT030 OVC040 FM071300 33005KT P6SM SCT200 FM071600 30007KT P6SM FEW200 FM071800 26008KT P6SM FEW250 FM072300 23010G18KT P6SM SCT250<br><br>
<br><br>
CYYZ 070600Z 01008G16KT 15SM SKC M02/M08 A3034 RMK SLP284<br><br>
TAF CYYZ 070538Z 0706/0812 03012KT P6SM SCT030 BECMG 0708/0710 35010KT FM071500 30006KT P6SM FEW120 BECMG 0715/0717 24009KT RMK NXT FCST BY 070900Z<br><br>
<br><br>
CYOO 070600Z AUTO 36009KT 9SM CLR M03/M09 A3033 RMK SLP278<br><br>
TAF CYOO 070138Z 0702/0714 02010G20KT P6SM OVC030 BECMG 0704/0706 36010KT FM070600 36010KT P6SM FEW030 RMK FCST BASED ON AUTO OBS. NXT FCST BY 070800Z<br><br>
<br><br>
CYTR 070600Z 35010KT 15SM SKC M03/M10 A3030 RMK SLP265<br><br>
TAF CYTR 070530Z 0706/0806 01010G20KT P6SM SKC BECMG 0707/0709 36008KT BECMG 0716/0718 26008KT FM072100 25008KT P6SM FEW110 BKN210 FM080100 25008KT P6SM BKN100 RMK NXT FCST BY 071200Z<br><br>
<br><br>
