RETRIEVED AT : Apr 03 2020 08:05 Local <br>
  RETRIEVED AT: Apr 03 2020 12:05 UTC<br><br>
CYSN has no TAF <br><br>
<br><br>
CYHM 031000Z 32007KT 15SM FEW250 01/M03 A2998 RMK CI1 SLP158<br><br>
TAF CYHM 030538Z 0306/0406 31007KT P6SM SKC FM031200 31006KT P6SM FEW015 FM031500 02008KT P6SM SCT025 FM031800 04008KT P6SM BKN040 BECMG 0322/0324 07005KT FM040300 03006KT P6SM SCT020 OVC040 RMK NXT FCST BY 031200Z<br><br>
<br><br>
KIAG 031053Z 31009KT 10SM CLR 02/M02 A2996 RMK AO2 SLP154 T00221017<br><br>
KIAG 030953Z AUTO 32010KT 10SM CLR 03/M01 A2995 RMK AO2 SLP152 T00281011<br><br>
KIAG 030859Z 0309/0406 32008KT P6SM SCT250 FM031300 32012KT P6SM BKN025 FM031500 32012KT P6SM BKN015 FM031800 34009KT P6SM VCSH OVC015 FM040300 32004KT 6SM BR OVC012<br><br>
<br><br>
KBUF 031054Z 31009KT 10SM SCT250 03/M02 A2995 RMK AO2 SLP149 T00331017<br><br>
KBUF 030954Z 31007KT 10SM FEW250 03/M02 A2995 RMK AO2 SLP146 T00331017<br><br>
KBUF 030859Z 0309/0406 32008KT P6SM SCT250 FM031300 31009KT P6SM BKN025 FM031600 32012KT P6SM VCSH OVC012 FM032200 VRB03KT 6SM BR VCSH OVC012 FM040200 VRB03KT 4SM BR OVC007<br><br>
<br><br>
CYYZ 031018Z 34006G15KT 15SM SCT260 02/M02 A2998 RMK CI3 SLP157<br><br>
CYYZ 031000Z 33011KT 15SM FEW260 03/M02 A2998 RMK CI1 CI TR SLP157<br><br>
TAF CYYZ 030838Z 0309/0412 34010G20KT P6SM SKC TEMPO 0309/0312 04012KT FM031200 33010G20KT P6SM SCT015 TEMPO 0312/0315 04012KT FM031500 35010G20KT P6SM SCT020 TEMPO 0315/0317 04012KT BKN020 FM031700 35012KT P6SM BKN030 TEMPO 0317/0403 04012KT FM040300 35008KT P6SM SCT015 OVC040 FM040800 35008KT P6SM SCT008 BKN015 OVC030 RMK NXT FCST BY 031200Z<br><br>
<br><br>
CYOO 031000Z AUTO 34010G18KT 9SM CLR 02/M02 A2994 RMK SLP144<br><br>
TAF CYOO 030738Z 0308/0320 34005KT P6SM SKC FM031200 35008KT P6SM BKN020 TEMPO 0312/0317 SCT020 FM031700 35008KT P6SM BKN025 RMK FCST BASED ON AUTO OBS. NXT FCST BY 031400Z<br><br>
<br><br>
CYTR 031000Z 35009KT 15SM BKN048 04/M01 A2989 RMK SC6 SLP124<br><br>
TAF AMD CYTR 031104Z 0311/0406 35008KT P6SM SCT015 OVC030 TEMPO 0311/0314 BKN015 OVC030 FM031400 01010KT P6SM -RA SCT012 OVC025 TEMPO 0314/0322 OVC012 FM032200 02008KT P6SM -RA OVC012 FM040300 02005KT P6SM BKN008 OVC020 TEMPO 0403/0406 5SM -RA BR RMK NXT FCST BY 031200Z<br><br>
<br><br>
