RETRIEVED AT : Feb 22 2020 18:05 Local <br>
  RETRIEVED AT: Feb 22 2020 23:05 UTC<br><br>
CYSN 222200Z 23020G28KT 15SM SCT250 03/M05 A3013 RMK CI3 SLP207<br><br>
TAF CYSN 221938Z 2220/2302 24015G25KT P6SM FEW030 BECMG 2300/2302 24010G20KT RMK NXT FCST WILL BE ISSUED AT 231345Z<br><br>
<br><br>
CYHM 222200Z 22016G23KT 15SM FEW250 02/M05 A3011 RMK CI1 SLP208<br><br>
TAF CYHM 221742Z 2218/2318 24012G22KT P6SM SKC BECMG 2305/2307 24010KT FM230900 24010KT P6SM BKN220 FM231500 23010G20KT P6SM SCT030 BKN180 RMK NXT FCST BY 230000Z<br><br>
<br><br>
KIAG 222253Z 24015G23KT 10SM CLR 02/M05 A3014 RMK AO2 PK WND 23030/2154 SLP220 T00171050<br><br>
KIAG 222153Z 23020G29KT 10SM CLR 03/M06 A3013 RMK AO2 PK WND 23031/2120 SLP216 T00281061<br><br>
KIAG 222111Z 2221/2318 23020G30KT P6SM FEW250 FM222300 23014G22KT P6SM SKC FM231200 22014G22KT P6SM SCT200<br><br>
<br><br>
KBUF 222254Z 24014G20KT 10SM FEW250 02/M04 A3014 RMK AO2 SLP215 T00221044<br><br>
KBUF 222154Z 23015G22KT 10SM SCT250 03/M05 A3014 RMK AO2 PK WND 24026/2109 SLP215 T00281050<br><br>
KBUF 222111Z 2221/2318 24016G24KT P6SM FEW250 FM230100 23014G22KT P6SM SKC FM231200 22014G22KT P6SM SCT200<br><br>
<br><br>
CYYZ 222200Z 21011G19KT 15SM SCT250 04/M04 A3009 RMK CI3 SLP198<br><br>
TAF CYYZ 222038Z 2221/2324 24012KT P6SM SKC BECMG 2302/2304 23010KT FM230900 23010KT P6SM BKN270 FM231500 22010G20KT P6SM SCT030 BKN180 FM232100 22012G22KT P6SM SCT030 RMK NXT FCST BY 230000Z<br><br>
<br><br>
CYOO 222200Z AUTO 22009G16KT 9SM CLR 03/M01 A3008 RMK SLP194<br><br>
TAF CYOO 221938Z 2220/2308 25010G20KT P6SM SKC BECMG 2300/2302 23008KT RMK FCST BASED ON AUTO OBS. NXT FCST BY 230200Z<br><br>
<br><br>
CYTR 222200Z 24012KT 15SM SCT230 03/M02 A3010 RMK CI4 SLP198<br><br>
TAF CYTR 221730Z 2218/2318 22010KT P6SM FEW250 BECMG 2221/2223 25008KT FM231200 26008KT P6SM SCT020 BKN300 BECMG 2315/2317 24010G20KT RMK NXT FCST BY 230000Z<br><br>
<br><br>
