RETRIEVED AT : Jun 10 2019 01:05 Local <br>
  RETRIEVED AT: Jun 10 2019 05:05 UTC<br><br>
CYSN has no TAF <br><br>
<br><br>
CYHM 100400Z 07005KT 15SM BKN054 17/11 A3006 RMK SC7 SLP180 DENSITY ALT 1000FT<br><br>
TAF CYHM 092341Z 1000/1024 03008KT P6SM FEW070 BKN220 FM100600 11008KT P6SM -SHRA OVC040 FM100900 11008KT 5SM -SHRA BR OVC020 FM101400 12008KT 4SM -SHRA BR BKN007 OVC015 FM102000 18008KT 3SM SHRA BR BKN007 OVC015 PROB30 1020/1022 VRB15G25KT 11/2SM +TSRA BR BKN005 OVC020CB RMK NXT FCST BY 100600Z<br><br>
<br><br>
KIAG 100453Z AUTO 14009KT 10SM FEW090 OVC110 22/09 A3007 RMK AO2 SLP176 T02220094 402890122<br><br>
KIAG 100353Z AUTO 15010KT 10SM CLR 22/09 A3008 RMK AO2 SLP179 T02220094<br><br>
KIAG 100232Z 1003/1024 13007KT P6SM BKN250 FM100600 14008KT P6SM OVC050 WS020/17040KT FM101200 14008KT P6SM VCSH OVC025 FM101600 18010KT P6SM VCSH OVC030 FM101900 20009KT P6SM VCSH OVC035 FM102200 22007KT 3SM +SHRA BR OVC020<br><br>
<br><br>
KBUF 100454Z 13008KT 10SM BKN090 OVC200 22/09 A3008 RMK AO2 SLP180 T02170094 402890139<br><br>
KBUF 100354Z 14008KT 10SM BKN200 22/09 A3010 RMK AO2 SLP187 T02170089<br><br>
KBUF 100232Z 1003/1024 13006KT P6SM BKN250 FM100600 14009KT P6SM OVC060 WS020/17040KT FM101200 14008KT P6SM VCSH SCT025 OVC035 FM101600 18011G17KT P6SM VCSH OVC035 FM102200 20008KT 3SM +SHRA BR OVC020<br><br>
<br><br>
CYYZ 100400Z 10006KT 15SM BKN065 19/10 A3006 RMK SC7 SLP179 DENSITY ALT 1100FT<br><br>
TAF CYYZ 100238Z 1003/1106 10007KT P6SM SCT100 BKN200 FM100600 13007KT P6SM BKN070 OVC140 FM100800 14007KT 6SM -RA BR OVC025 TEMPO 1008/1012 4SM -RA BR OVC020 FM101200 12010KT 4SM -RA BR BKN007 OVC015 PROB30 1015/1022 1SM BR BKN003 FM110000 28015G25KT P6SM -SHRA OVC015 FM110300 30020G30KT P6SM BKN025 RMK NXT FCST BY 100600Z<br><br>
<br><br>
CYOO 100400Z AUTO 10006KT 9SM SCT210 18/10 A3009 RMK SLP188 DENSITY ALT 700FT<br><br>
TAF CYOO 100138Z 1002/1014 10010KT P6SM BKN220 FM100600 13010KT P6SM SCT060 BKN120 FM100900 13010G20KT 6SM -RA OVC030 TEMPO 1009/1014 3SM -RA BR BKN007 OVC015 RMK FCST BASED ON AUTO OBS. NXT FCST BY 100800Z<br><br>
<br><br>
CYTR 100400Z 14003KT 15SM BKN240 19/10 A3013 RMK CI6 SLP202<br><br>
TAF CYTR 092330Z 1000/1024 12005KT P6SM FEW140 BKN260 FM101000 15008KT P6SM SCT020 OVC040 TEMPO 1010/1013 P6SM -SHRA BKN020 OVC040 FM101300 15012KT 6SM -RA BR SCT008 OVC020 TEMPO 1013/1024 4SM SHRA BR BKN008 OVC020 RMK NXT FCST BY 100600Z<br><br>
<br><br>
