RETRIEVED AT : Dec 09 2017 18:10 Local <br>
  RETRIEVED AT: Dec 09 2017 23:10 UTC<br><br>
TAF CYSN 091938Z 0920/1002 22007KT P6SM OVC060 FM100000 22005KT P6SM -SN BKN020 OVC060 RMK NXT FCST WILL BE ISSUED AT 101345Z<br><br>
<br><br>
CYHM 092300Z 23008KT 15SM -SN OVC033 M02/M05 A2976 RMK SC8 SLP088<br><br>
CYHM 092230Z 25010KT 10SM -SN OVC030 M01/M06 A2975 RMK SC8 SLP086<br><br>
CYHM 092200Z 25006KT 15SM OVC060 M01/M08 A2974 RMK SC8 SLP082<br><br>
TAF CYHM 091742Z 0918/1018 21012KT P6SM FEW020 BKN080 BECMG 0920/0922 22007KT FM100000 22005KT P6SM -SN BKN030 OVC060 BECMG 1002/1004 28007KT FM101500 26015G25KT 6SM -SN BKN030 RMK NXT FCST BY 100000Z<br><br>
<br><br>
KIAG 091721Z 0918/1018 20010KT P6SM BKN120 FM092300 VRB03KT P6SM OVC090 FM100200 26004KT P6SM VCSH BKN080 FM100600 26007KT P6SM VCSH OVC045 FM101200 28011G19KT P6SM BKN040 FM101500 27015G26KT P6SM OVC050<br><br>
<br><br>
KBUF 091721Z 0918/1018 21009KT P6SM BKN120 FM100200 VRB03KT P6SM VCSH OVC050 FM100500 26006KT 1SM -SN OVC015 FM100800 26008KT P6SM VCSH OVC040 FM101200 27011G19KT P6SM BKN025 FM101500 27015G27KT P6SM OVC035<br><br>
<br><br>
TAF CYYZ 092045Z 0921/1024 23008KT P6SM SCT025 OVC040 TEMPO 0921/0923 P6SM -SN BECMG 1002/1004 26005KT FM100900 30012KT P6SM BKN040 FM101800 26015G25KT P6SM -SN BKN030 RMK NXT FCST BY 100000Z<br><br>
<br><br>
CYOO 092300Z AUTO 31004KT 9SM OVC048 M01/M05 A2976 RMK SLP087<br><br>
CYOO 092245Z AUTO 31003KT 9SM OVC042 M01/M05 A2976 RMK SLP086<br><br>
CYOO 092232Z AUTO 30002KT 9SM -SN OVC042 M01/M05 A2976 RMK SLP086<br><br>
CYOO 092200Z AUTO 28004KT 230V290 9SM OVC060 M00/M05 A2976 RMK SLP084<br><br>
CYOO has no TAF <br><br>
<br><br>
CYTR 092300Z 30002KT 15SM BKN034 M00/M05 A2977 RMK SC6 SLP086<br><br>
CYTR 092200Z 25004KT 15SM BKN034 BKN076 01/M05 A2977 RMK SC5AC2 SLP085<br><br>
TAF AMD CYTR 092128Z 0921/1018 VRB03KT P6SM SCT030 BKN080 TEMPO 1000/1006 P6SM -SHSN BKN030 OVC080 FM100600 30005KT P6SM SCT070 BKN140 BECMG 1009/1011 30010KT BECMG 1017/1018 26012G22KT RMK NXT FCST BY 100000Z<br><br>
<br><br>
