RETRIEVED AT : Jun 23 2019 17:22 Local <br>
  RETRIEVED AT: Jun 23 2019 21:22 UTC<br><br>
CYSN 232100Z 00000KT 15SM FEW045 SCT240 26/11 A2995 RMK SC1CI4 SC TR SLP142 DENSITY ALT 1700FT<br><br>
CYSN 232000Z 33004KT 280V050 15SM FEW045 SCT230 25/12 A2997 RMK SC1CI3 SC TR PRESFR SLP150 DENSITY ALT 1600FT<br><br>
TAF CYSN 231938Z 2320/2401 33008KT P6SM FEW050 BECMG 2323/2324 23005KT SKC RMK NXT FCST WILL BE ISSUED AT 241245Z<br><br>
<br><br>
CYHM 232100Z 21006KT 150V220 15SM FEW050 SCT270 25/13 A2997 RMK CF1CI3 CF TR SLP149 DENSITY ALT 2200FT<br><br>
CYHM 232000Z 11003KT 15SM FEW050 SCT270 25/11 A2998 RMK CF1CI3 CF TR SLP154 DENSITY ALT 2100FT<br><br>
TAF CYHM 231738Z 2318/2418 VRB03KT P6SM FEW050 BECMG 2318/2320 19010KT BECMG 2400/2402 06005KT FM241200 06008KT P6SM -SHRA BKN080 OVC120 FM241400 17012G22KT P6SM -SHRA OVC030 RMK NXT FCST BY 240000Z<br><br>
<br><br>
KIAG 232053Z 00000KT 10SM CLR 25/11 A2996 RMK AO2 SLP146 T02500106 58013<br><br>
KIAG 231953Z 33007KT 290V010 10SM CLR 25/10 A2999 RMK AO2 SLP156 T02500100<br><br>
KIAG 232109Z 2321/2418 25006KT P6SM SKC FM240000 22004KT P6SM SCT250 FM240500 16004KT P6SM SCT250 FM241000 14004KT P6SM BKN200 FM241500 14007KT P6SM VCSH OVC090<br><br>
<br><br>
KBUF 232054Z 00000KT 10SM FEW060 SCT250 BKN300 26/09 A2997 RMK AO2 SLP148 T02560089 58011<br><br>
KBUF 231954Z 22009G15KT 10SM FEW060 BKN250 BKN300 25/10 A3000 RMK AO2 SLP158 T02500100<br><br>
KBUF 232109Z 2321/2418 25007KT P6SM SKC FM240000 22004KT P6SM SCT250 FM240500 15004KT P6SM SCT250 FM241000 14006KT P6SM BKN200 FM241500 15007KT P6SM VCSH OVC090<br><br>
<br><br>
CYYZ 232100Z 15015G23KT 15SM FEW050 FEW270 25/12 A2995 RMK CF1CI1 CF TR CI TR SLP141 DENSITY ALT 1900FT<br><br>
CYYZ 232000Z 13010G20KT 15SM FEW055 FEW270 25/11 A2995 RMK CF1CI1 CF TR SLP144 DENSITY ALT 1900FT<br><br>
TAF CYYZ 232039Z 2321/2424 15010G20KT P6SM FEW050 BECMG 2400/2402 20005KT BECMG 2404/2406 VRB03KT FM241100 11005KT P6SM BKN180 BECMG 2412/2414 11012KT FM241800 12012KT P6SM -SHRA BKN050 RMK NXT FCST BY 240000Z<br><br>
<br><br>
CYOO 232100Z AUTO 20010G16KT 9SM CLR 24/08 A2994 RMK SLP141 DENSITY ALT 1600FT<br><br>
CYOO 232000Z AUTO 21009G15KT 180V240 9SM CLR 25/09 A2997 RMK PRESFR SLP148 DENSITY ALT 1600FT<br><br>
TAF CYOO 231938Z 2320/2408 22015KT P6SM SKC BECMG 2323/2401 VRB03KT RMK FCST BASED ON AUTO OBS. NXT FCST BY 240200Z<br><br>
<br><br>
CYTR 232100Z 22013KT 15SM SCT250 25/11 A2991 RMK CI4 SLP130<br><br>
CYTR 232000Z 22016KT 15SM FEW050 SCT250 25/11 A2995 RMK CF1CI3 CUFRA TR SLP141<br><br>
TAF CYTR 231730Z 2318/2418 20012KT P6SM FEW050 FEW250 BECMG 2400/2402 VRB03KT FM241500 15008KT P6SM FEW050 SCT200 RMK NXT FCST BY 240000Z<br><br>
<br><br>
