RETRIEVED AT : Sep 26 2017 10:10 Local <br>
  RETRIEVED AT: Sep 26 2017 14:10 UTC<br><br>
CYSN 261400Z 23003KT 12SM FEW090 SCT230 27/21 A3000 RMK AC1CI3 SLP157 DENSITY ALT 1700FT<br><br>
CYSN 261300Z 21003KT 10SM FEW090 SCT230 23/22 A3000 RMK AC1CI3 SLP158 DENSITY ALT 1300FT<br><br>
TAF CYSN 261238Z 2613/2701 VRB03KT P6SM FEW090 BKN230 BECMG 2615/2617 34006KT BECMG 2623/2701 VRB03KT RMK NXT FCST BY 262000Z<br><br>
<br><br>
CYHM 261400Z 22006KT 15SM FEW230 25/20 A3002 RMK CI1 SLP165 DENSITY ALT 2000FT<br><br>
CYHM 261341Z 25003KT 200V270 10SM FEW240 24/21 A3002 RMK CI1 SLP165 DENSITY ALT 1900FT<br><br>
CYHM 261300Z VRB02KT 6SM BR FEW240 23/20 A3002 RMK CI1 SLP164 DENSITY ALT 1800FT<br><br>
TAF AMD CYHM 261204Z 2612/2712 VRB03KT P6SM BKN240 TEMPO 2612/2614 2SM BR PROB30 2612/2613 1/2SM FG FM261700 20012KT P6SM SKC BECMG 2701/2703 21005KT RMK NXT FCST BY 261800Z<br><br>
<br><br>
KIAG 261353Z 20005KT 9SM CLR 26/19 A3002 RMK AO2 SLP159 T02560194<br><br>
KIAG 261253Z 20004KT 7SM CLR 23/19 A3002 RMK AO2 SLP159 T02280194<br><br>
KIAG 261120Z 2612/2712 VRB03KT P6SM SCT250 FM261800 22007KT P6SM SCT040 SCT250 FM270000 VRB03KT P6SM SCT250 FM270800 20006KT P6SM SCT250<br><br>
<br><br>
KBUF 261354Z 20005KT 10SM FEW160 SCT230 SCT270 24/19 A3003 RMK AO2 SLP164 T02440194<br><br>
KBUF 261254Z 19005KT 10SM FEW160 BKN230 BKN270 23/19 A3002 RMK AO2 SLP163 T02280189<br><br>
KBUF 261120Z 2612/2712 VRB03KT P6SM SCT250 FM261600 24008KT P6SM FEW040 SCT250 FM270000 VRB03KT P6SM SCT250 FM270800 19006KT P6SM SCT250<br><br>
<br><br>
CYYZ 261400Z 16003KT 110V200 12SM FEW160 SCT260 26/20 A3001 RMK AC2CI1 SLP160 DENSITY ALT 1900FT<br><br>
CYYZ 261300Z VRB02KT 12SM FEW160 SCT260 24/19 A3001 RMK AC1CI2 SLP160 DENSITY ALT 1700FT<br><br>
TAF CYYZ 261138Z 2612/2718 VRB03KT P6SM FEW140 SCT240 BECMG 2614/2616 16008KT FM261700 20010KT P6SM SKC BECMG 2619/2621 16010KT BECMG 2623/2701 20007KT FM271600 30012G22KT P6SM BKN025 RMK NXT FCST BY 261500Z<br><br>
<br><br>
CYOO 261400Z AUTO VRB02KT 8SM CLR 24/20 A3001 RMK SLP162 DENSITY ALT 1500FT<br><br>
CYOO 261300Z AUTO 10004KT 6SM HZ CLR 24/20 A3001 RMK SLP162 DENSITY ALT 1400FT<br><br>
CYOO 261227Z AUTO 03003KT 3SM BR FEW003 21/19 A3000 RMK SLP160 DENSITY ALT 1200FT<br><br>
CYOO has no TAF <br><br>
<br><br>
CYTR 261400Z 10002KT 15SM BKN250 24/20 A3001 RMK CI7 SLP162<br><br>
CYTR 261300Z 00000KT 7SM BKN250 21/19 A3001 RMK CI6 SLP163<br><br>
TAF CYTR 261130Z 2612/2712 VRB03KT P6SM SCT250 TEMPO 2612/2614 3SM BR PROB30 2612/2613 2SM BR FM261800 20008KT P6SM BKN200 BECMG 2622/2624 VRB03KT FM270300 VRB03KT P6SM FEW240 TEMPO 2703/2709 3SM BR FM270900 23008KT P6SM FEW040 SCT200 RMK NXT FCST BY 261800Z<br><br>
<br><br>
