RETRIEVED AT : Jan 12 2019 14:05 Local <br>
  RETRIEVED AT: Jan 12 2019 19:05 UTC<br><br>
CYSN 121800Z 09008KT 070V130 15SM SCT028 OVC081 M04/M10 A3053 RMK SC4AC4 SLP344<br><br>
TAF CYSN 121339Z 1214/1302 11006KT P6SM FEW025 OVC060 TEMPO 1214/1219 P6SM -SN BKN020 OVC060 FM121900 07010KT P6SM BKN025 TEMPO 1219/1302 BKN020 RMK NXT FCST BY 122000Z<br><br>
<br><br>
CYHM 121903Z 08010KT 4SM -SN BKN013 OVC021 M05/M08 A3048 RMK SC7SC1 SLP338<br><br>
CYHM 121825Z 06013KT 6SM -SN FEW018 BKN030 OVC075 M05/M08 A3049 RMK CU2SC5AC1 SLP341<br><br>
CYHM 121800Z 06010KT 10SM FEW020 BKN030 OVC075 M04/M09 A3048 RMK CU2SC4AC2 SLP338<br><br>
CYHM 121753Z 08012KT 12SM FEW020 BKN030 OVC075 M04/M09 A3049 RMK CU2SC4AC2 SLP340<br><br>
CYHM 121741Z 07011KT 10SM -SN FEW018 BKN030 OVC075 M04/M09 A3049 RMK CU2SC5AC1 SLP341<br><br>
TAF CYHM 121738Z 1218/1318 06010KT P6SM BKN025 OVC060 TEMPO 1218/1219 5SM -SN FEW002 OVC015 FM121900 05010KT P6SM BKN025 BKN070 OVC210 TEMPO 1219/1224 P6SM -SN OVC020 FM130000 04012KT P6SM BKN015 OVC210 FM131000 04010KT P6SM SCT008 BKN012 TEMPO 1310/1316 3SM -SHSN PROB30 1310/1315 OVC008 FM131600 05012G22KT P6SM BKN015 TEMPO 1316/1318 3SM -SHSN RMK NXT FCST BY 130000Z<br><br>
<br><br>
KIAG 121853Z 07011KT 10SM SCT028 OVC080 M05/M11 A3051 RMK AO2 SLP352 T10501111 $<br><br>
KIAG 121753Z 09008KT 10SM OVC085 M06/M12 A3051 RMK AO2 SLP355 60000 T10561117 11050 21072 58011 $<br><br>
KIAG 121735Z 1218/1318 06007KT 6SM -SN BKN050 FM122000 06008KT P6SM BKN130 BKN220 FM130700 07008KT P6SM BKN120 FM131300 07011KT P6SM SCT070<br><br>
<br><br>
KBUF 121854Z 04011KT 10SM FEW060 OVC075 M05/M12 A3050 RMK AO2 SLP344 T10501117<br><br>
KBUF 121754Z 08008KT 10SM FEW060 OVC080 M06/M13 A3051 RMK AO2 SNE1657 SLP344 4/002 933002 P0000 60000 T10561128 11056 21072 58012<br><br>
KBUF 121735Z 1218/1318 06007KT 6SM -SN BKN080 FM122200 06008KT P6SM BKN130 BKN220 FM130900 07008KT P6SM BKN120<br><br>
<br><br>
CYYZ 121800Z 03007KT 340V070 15SM FEW025 SCT085 BKN250 M05/M13 A3053 RMK SC2AC1CI4 SLP350<br><br>
TAF CYYZ 121738Z 1218/1324 05008KT P6SM FEW020 BKN080 OVC240 FM122100 06008KT P6SM FEW040 BKN240 BECMG 1302/1304 02008KT FM130900 03008KT P6SM SCT015 TEMPO 1312/1315 BKN015 FM131500 03010KT P6SM FEW015 RMK NXT FCST BY 122100Z<br><br>
<br><br>
CYOO 121800Z AUTO VRB02KT 9SM FEW240 M06/M16 A3054 RMK SLP354<br><br>
TAF CYOO 121344Z 1214/1302 02005KT P6SM SCT020 BKN080 FM121800 05005KT P6SM FEW060 BKN250 BECMG 1223/1301 04008KT RMK FCST BASED ON AUTO OBS. NXT FCST BY 122000Z<br><br>
<br><br>
CYTR 121800Z 17004KT 15SM FEW050 SCT200 M07/M18 A3058 RMK SC1CI3 SLP363<br><br>
TAF CYTR 121730Z 1218/1318 05005KT P6SM FEW050 SCT200 FM130600 03008KT P6SM FEW020 RMK NXT FCST BY 130000Z<br><br>
<br><br>
