RETRIEVED AT : Oct 14 2017 19:10 Local <br>
  RETRIEVED AT: Oct 14 2017 23:10 UTC<br><br>
CYSN 142300Z 06003KT 10SM -RA OVC070 16/15 A3012 RMK AC8 SLP201<br><br>
CYSN 142200Z 05004KT 040V100 8SM -RA FEW020 OVC085 16/15 A3012 RMK SC2AC6 SLP201 DENSITY ALT 400FT<br><br>
TAF CYSN 141939Z 1420/1501 34005KT 5SM -SHRA BR BKN015 OVC030 TEMPO 1420/1501 P6SM NSW SCT015 BKN040 OVC120 BECMG 1421/1423 07008KT RMK NXT FCST WILL BE ISSUED AT 151245Z<br><br>
<br><br>
CYHM 142300Z 02005KT 1 1/2SM -RA BR OVC050 15/15 A3013 RMK FG2SC6 SLP208 DENSITY ALT 800FT<br><br>
CYHM 142230Z 04007KT 1 3/4SM -RA BR OVC061 15/15 A3013 RMK FG1SC7 SLP205 DENSITY ALT 800FT<br><br>
CYHM 142209Z 03009KT 3SM -RA BR BKN063 OVC092 15/15 A3013 RMK SC7AC1 SLP204 DENSITY ALT 800FT<br><br>
CYHM 142200Z 03007KT 2SM -RA BR BKN062 OVC092 15/15 A3013 RMK FG1SC6AC1 SLP206 DENSITY ALT 800FT<br><br>
CYHM 142152Z 03006KT 2 1/2SM -RA BR FEW018 BKN059 OVC092 16/15 A3013 RMK CU1SC6AC1 SLP207 DENSITY ALT 800FT<br><br>
TAF AMD CYHM 142236Z 1422/1518 05008KT 11/2SM -SHRA BR FEW015 OVC050 TEMPO 1422/1505 6SM BR FM150500 12005KT P6SM BKN090 OVC200 BECMG 1507/1509 19008KT FM151100 21015G25KT P6SM BKN020 BECMG 1513/1515 21020G35KT RMK NXT FCST BY 150000Z<br><br>
<br><br>
KIAG 142253Z 07007KT 8SM OVC065 17/14 A3012 RMK AO2 RAE2157 SLP201 P0000 T01720139<br><br>
KIAG 142153Z 04007KT 6SM -RA OVC065 18/14 A3012 RMK AO2 RAB27 SLP201 P0000 T01780139<br><br>
KIAG 142108Z 1421/1518 01007KT P6SM VCSH OVC070 FM150100 07007KT P6SM OVC035 FM150400 10008KT P6SM BKN060 FM151000 20016G23KT P6SM BKN060 FM151600 21022G34KT P6SM BKN045<br><br>
<br><br>
KBUF 142254Z 03008KT 10SM BKN070 BKN130 OVC220 18/16 A3012 RMK AO2 SLP199 T01780156<br><br>
KBUF 142154Z 36008KT 10SM BKN070 BKN130 OVC220 20/14 A3012 RMK AO2 SLP199 T02000144<br><br>
KBUF 142108Z 1421/1518 35006KT P6SM BKN070 FM150200 09006KT P6SM BKN060 FM150500 15007KT P6SM SCT060 FM150800 19012G18KT P6SM SCT080 FM151600 21022G34KT P6SM BKN045<br><br>
<br><br>
CYYZ 142307Z 15003KT 5SM -RA BR FEW025 OVC056 16/15 A3013 RMK CF1SC7 SLP206 DENSITY ALT 600FT<br><br>
CYYZ 142300Z 16003KT 5SM RA BR FEW025 OVC058 16/15 A3013 RMK CF1SC7 SLP205 DENSITY ALT 600FT<br><br>
CYYZ 142200Z 10003KT 6SM -RA FEW025 OVC058 17/15 A3012 RMK CU1SC7 SLP203 DENSITY ALT 700FT<br><br>
TAF AMD CYYZ 142218Z 1422/1524 09006KT 21/2SM -RA BR SCT008 OVC015 TEMPO 1422/1505 6SM -RA BR SCT015 OVC025 PROB30 1501/1505 2SM -RA -DZ BR BKN003 OVC008 FM150500 10005KT P6SM SCT005 BKN070 OVC120 TEMPO 1505/1507 5SM -RA -DZ BR BKN004 OVC070 FM150800 15005KT 6SM BR BKN040 OVC100 FM151100 19010KT WS005/21030KT P6SM BKN015 OVC025 FM151400 22020G35KT P6SM OVC020 FM151800 22025G40KT P6SM -SHRA OVC025 PROB30 1518/1521 VRB30G50KT 2SM +TSRA BR OVC020CB FM152100 25025G40KT P6SM BKN025 RMK NXT FCST BY 150000Z<br><br>
<br><br>
CYOO 142307Z AUTO 00000KT 2 1/4SM -RA BR FEW040 BKN073 OVC087 16/15 A3013 RMK SLP206<br><br>
CYOO 142300Z AUTO VRB02KT 3SM -RA BR SCT040 BKN065 BKN077 OVC088 16/15 A3013 RMK SLP206<br><br>
CYOO 142245Z AUTO 00000KT 5SM -RA BR BKN065 OVC087 17/15 A3013 RMK SLP205 DENSITY ALT 500FT<br><br>
CYOO 142235Z AUTO 18002KT 7SM -RA OVC065 17/15 A3013 RMK SLP205 DENSITY ALT 500FT<br><br>
CYOO 142200Z AUTO 16003KT 7SM BKN031 OVC070 17/15 A3013 RMK SLP206 DENSITY ALT 600FT<br><br>
CYOO has no TAF <br><br>
<br><br>
CYTR 142300Z 00000KT 5SM -RA BR OVC030 16/15 A3014 RMK SC8 PCPN VRY LGT SLP208<br><br>
CYTR 142252Z 00000KT 5SM -RA BR OVC030 16/15 A3014 RMK SC8 SLP207<br><br>
CYTR 142241Z 00000KT 5SM BR OVC030 16/15 A3014 RMK SC8 SLP207<br><br>
CYTR 142200Z 16003KT 15SM OVC030 17/16 A3014 RMK SC8 SLP209<br><br>
TAF AMD CYTR 142208Z 1422/1518 VRB03KT P6SM SCT012 OVC030 TEMPO 1422/1502 4SM -RA BR OVC012 FM150200 12008KT P6SM -RA SCT008 OVC020 TEMPO 1502/1509 4SM -RA BR OVC008 FM150900 18012KT P6SM BKN030 BECMG 1513/1515 22020G30KT RMK NXT FCST BY 150000Z<br><br>
<br><br>
