RETRIEVED AT : Oct 29 2017 18:10 Local <br>
  RETRIEVED AT: Oct 29 2017 22:10 UTC<br><br>
CYSN 292200Z 36006KT 15SM SCT032 OVC052 07/03 A2966 RMK SC4SC4 SLP046<br><br>
CYSN 292100Z 01008KT 15SM BKN031 OVC062 07/04 A2967 RMK SC5SC3 PRESFR SLP049<br><br>
TAF CYSN 291945Z 2920/3001 VRB03KT P6SM SCT020 OVC070 TEMPO 2920/2922 5SM -RA BR OVC020 BECMG 2920/2922 36008KT RMK NXT FCST WILL BE ISSUED AT 301245Z<br><br>
<br><br>
CYHM 292200Z 36005KT 15SM FEW032 BKN042 07/01 A2967 RMK SC1SC6 SLP055<br><br>
CYHM 292100Z 03004KT 15SM FEW025 BKN034 OVC052 07/03 A2968 RMK CU1SC6SC1 SLP059<br><br>
TAF CYHM 291738Z 2918/3018 VRB03KT P6SM FEW020 BKN050 TEMPO 2918/2923 P6SM -SHRA BKN020 BECMG 2918/2920 35008KT FM292300 35008KT P6SM SCT025 BKN060 BECMG 3006/3008 31015KT FM301200 27015KT WS005/29035KT P6SM FEW025 BECMG 3014/3016 25020G35KT RMK NXT FCST BY 300000Z<br><br>
<br><br>
KIAG 292153Z 35005KT 10SM BKN031 OVC041 07/04 A2965 RMK AO2 SLP047 T00720039<br><br>
KIAG 292053Z 36008KT 10SM OVC042 08/04 A2966 RMK AO2 RAB1955E10 SLP053 P0000 60005 T00780039 57016<br><br>
KIAG 292052Z 2921/3018 36010KT 6SM -RA OVC015 FM300400 32015G25KT P6SM BKN025 FM301000 29020G30KT P6SM SCT040 FM301600 26025G35KT P6SM BKN040<br><br>
<br><br>
KBUF 292154Z 34006KT 10SM FEW009 BKN019 OVC033 06/05 A2965 RMK AO2 RAE05 SLP043 P0000 T00610050<br><br>
KBUF 292054Z 35008KT 10SM -RA SCT009 BKN023 OVC033 06/05 A2965 RMK AO2 RAB05 SLP043 P0001 60006 T00610050 56021<br><br>
KBUF 292052Z 2921/3018 35008KT 6SM -RA OVC008 FM300200 33012KT 6SM -SHRA OVC015 FM300600 30015G25KT P6SM BKN025 FM301200 27020G30KT P6SM SCT040 FM301600 25025G40KT P6SM BKN040<br><br>
<br><br>
CYYZ 292200Z 01010KT 15SM FEW035 OVC050 08/00 A2967 RMK SC1SC7 SLP054<br><br>
CYYZ 292100Z 36008KT 15SM FEW030 BKN050 BKN085 08/00 A2969 RMK CU1SC5AC1 PRESRR SLP058<br><br>
TAF CYYZ 292039Z 2921/3024 36010KT P6SM FEW030 BKN060 FM292200 35010KT P6SM FEW020 BKN060 BECMG 3003/3005 30015G25KT BECMG 3012/3014 30020G35KT FM301600 27020G35KT P6SM BKN030 FM302200 28018G28KT P6SM -SHRA OVC030 RMK NXT FCST BY 300000Z<br><br>
<br><br>
CYOO 292200Z AUTO 33005KT 9SM FEW042 OVC060 07/03 A2967 RMK SLP052<br><br>
CYOO 292100Z AUTO 35008KT 9SM BKN065 OVC075 07/04 A2967 RMK SLP053<br><br>
CYOO has no TAF <br><br>
<br><br>
CYTR 292200Z 33010G15KT 10SM -SHRA BKN008 OVC030 07/06 A2962 RMK SF6SC2 SLP034<br><br>
CYTR 292100Z 36007KT 10SM SHRA BKN011 BKN030 OVC047 07/06 A2964 RMK SF5SC2SC1 SLP040<br><br>
TAF CYTR 291730Z 2918/3018 01006KT P6SM -SHRA FEW008 OVC020 TEMPO 2918/2921 SCT020 OVC040 FM292100 01010KT P6SM -SHRA FEW008 OVC020 TEMPO 2921/2924 5SM -SHRA BR OVC012 FM300000 34012G22KT 6SM -SHRA BR OVC020 TEMPO 3000/3006 3SM -SHRA BR OVC010 FM300600 33018KT 6SM -SHRA BR SCT008 OVC012 FM301400 28022G32KT P6SM SCT020 BKN040 RMK NXT FCST BY 300000Z<br><br>
<br><br>
