RETRIEVED AT : Jun 14 2020 15:05 Local <br>
  RETRIEVED AT: Jun 14 2020 19:05 UTC<br><br>
TAF CYSN 141239Z 1413/1501 10010KT P6SM FEW250 BECMG 1413/1415 05015KT BECMG 1422/1424 06008KT RMK NXT FCST BY 142000Z<br><br>
<br><br>
TAF CYHM 141738Z 1418/1518 05012G22KT P6SM FEW030 SCT250 BECMG 1500/1502 04010KT BECMG 1513/1515 05015KT RMK NXT FCST BY 150000Z<br><br>
<br><br>
KIAG 141720Z 1418/1518 06012G17KT P6SM BKN050 FM142100 06012KT P6SM SCT050 FM150100 07006KT P6SM FEW250 FM151400 07008KT P6SM FEW250<br><br>
<br><br>
KBUF 141720Z 1418/1518 06009G20KT P6SM BKN050 FM142000 06011KT P6SM SCT050 FM150200 08006KT P6SM FEW250 FM150800 10005KT P6SM SKC<br><br>
<br><br>
TAF CYYZ 141738Z 1418/1524 13012KT P6SM FEW050 SCT250 BECMG 1500/1502 04006KT BECMG 1513/1515 12012KT RMK NXT FCST BY 142100Z<br><br>
<br><br>
TAF CYOO 141339Z 1414/1502 12010KT P6SM FEW250 BECMG 1422/1424 VRB03KT RMK FCST BASED ON AUTO OBS. NXT FCST BY 142000Z<br><br>
<br><br>
TAF CYTR 141730Z 1418/1518 08005KT P6SM FEW060 BECMG 1418/1420 21008KT SCT060 FM150200 VRB03KT P6SM FEW060 BECMG 1513/1515 07005KT RMK NXT FCST BY 150000Z<br><br>
<br><br>
