RETRIEVED AT : Oct 27 2018 17:05 Local <br>
  RETRIEVED AT: Oct 27 2018 21:05 UTC<br><br>
CYSN 272000Z 07017G22KT 10SM -RA OVC014 05/04 A2979 RMK SC8 SLP091<br><br>
TAF CYSN 271940Z 2720/2801 08015G25KT 5SM -RA BR OVC015 TEMPO 2720/2801 P6SM -RA OVC025 PROB30 2720/2801 BKN008 RMK NXT FCST WILL BE ISSUED AT 281245Z<br><br>
<br><br>
CYHM 272000Z 05019G27KT 10SM -RA BKN007 OVC015 04/04 A2977 RMK SC7SC1 SLP090<br><br>
CYHM 271946Z 05021G28KT 9SM -RA BKN009 OVC015 04/04 A2977 RMK SC7SC1 SLP089<br><br>
CYHM 271917Z 06022G29KT 5SM -RA BR SCT006 BKN014 OVC031 04/04 A2977 RMK SF4SC3SC1 SLP088<br><br>
TAF AMD CYHM 271846Z 2718/2818 05020G30KT 11/2SM -RA BR BKN006 OVC012 TEMPO 2718/2722 6SM -RA BR SCT006 OVC012 FM272200 05020G30KT 4SM -RA BR BKN008 OVC020 TEMPO 2722/2802 P6SM -RA OVC020 BECMG 2723/2801 04015G25KT FM280200 04012G22KT 2SM -RA BR OVC004 FM280700 01008KT 5SM -RASN BR OVC008 FM281200 33005KT 6SM -RASN BR SCT008 OVC012 FM281500 23005KT P6SM -RA BKN010 OVC040 RMK NXT FCST BY 280000Z<br><br>
<br><br>
KIAG 272053Z 07011KT 6SM -RA BR OVC013 04/03 A2978 RMK AO2 SLP096 P0004 60006 T00440028 53000<br><br>
KIAG 271953Z 08012G20KT 10SM -RA OVC012 04/02 A2978 RMK AO2 SLP096 P0002 T00390022<br><br>
KIAG 272103Z 2721/2818 07012KT 6SM -RA BR OVC012 FM280000 05014KT 6SM -RA OVC007 FM280600 02009KT 6SM -RA OVC007 FM281000 34005KT 6SM -SHRA OVC007 FM281400 28006KT P6SM OVC007<br><br>
<br><br>
KBUF 272054Z 07010KT 10SM -RA OVC012 03/02 A2977 RMK AO2 SLP088 P0005 60012 T00330022 55002 $<br><br>
KBUF 271954Z 07013KT 10SM -RA OVC010 03/02 A2977 RMK AO2 SLP088 P0004 T00330022 $<br><br>
KBUF 272103Z 2721/2818 07012KT P6SM -RA OVC012 FM280000 04014KT 6SM -RA OVC007 FM280400 02009KT 6SM -RA OVC007 FM280800 34006KT 6SM -RA OVC007 FM281100 30006KT 6SM -SHRA OVC007 FM281400 27006KT P6SM OVC007<br><br>
<br><br>
CYYZ 272000Z 07014KT 15SM -RA BKN029 OVC041 05/M02 A2982 RMK SC6SC2 SLP106<br><br>
CYYZ 271912Z 07012KT 15SM BKN029 OVC042 06/M01 A2982 RMK SC6SC2 SLP104<br><br>
TAF CYYZ 272039Z 2721/2824 07012G22KT P6SM OVC040 TEMPO 2721/2723 5SM -RA BR BKN020 OVC040 FM272300 07012G22KT P6SM -RA SCT008 OVC020 TEMPO 2723/2801 4SM -RASN BR BKN008 OVC020 PROB30 2723/2801 21/2SM -RA BR FM280100 04010G20KT 6SM -RASN OVC015 TEMPO 2801/2806 4SM -RASN BR PROB30 2801/2806 BKN008 FM280600 02010KT 6SM -SNRA SCT008 OVC015 TEMPO 2806/2812 5SM -SNRA BR BKN008 OVC015 BECMG 2806/2808 35008KT FM281200 33008KT 6SM -SNRA SCT008 OVC015 FM281400 30005KT P6SM -RA SCT008 OVC030 TEMPO 2814/2816 6SM -RASN BKN008 OVC030 FM281600 27007KT P6SM -RA BKN015 OVC050 FM281900 23008KT P6SM BKN020 OVC050 BECMG 2820/2822 VRB03KT RMK NXT FCST BY 280000Z<br><br>
<br><br>
CYOO 272000Z AUTO 06010G17KT 9SM -RA BKN031 BKN055 OVC065 04/M00 A2985 RMK SLP113<br><br>
CYOO 271959Z AUTO 06012G17KT 9SM BKN031 BKN055 OVC065 04/M01 A2985 RMK SLP112<br><br>
CYOO has no TAF <br><br>
<br><br>
CYTR 272034Z 05010G15KT 7SM -PL OVC022 03/M01 A2988 RMK SC8 SLP121<br><br>
CYTR 272015Z 05011KT 7SM -RAPL OVC024 03/M01 A2988 RMK SC8 SLP121<br><br>
CYTR 272010Z 05010KT 7SM -RAPL OVC033 03/M02 A2988 RMK SC8 SLP121<br><br>
CYTR 272000Z 05011G16KT 7SM -PL OVC033 03/M02 A2988 RMK SC8 SLP121<br><br>
TAF AMD CYTR 272009Z 2720/2818 05015G25KT P6SM -RA SCT020 OVC040 TEMPO 2720/2722 4SM -RA -PL BR OVC020 FM272200 05015G25KT 4SM -RA BR SCT008 OVC020 TEMPO 2722/2803 2SM -SNRA BR OVC008 FM280300 03015G25KT 6SM -SNRA BR SCT008 OVC020 TEMPO 2803/2812 2SM -SN BKN008 OVC020 BECMG 2803/2805 03010KT FM281200 34005KT P6SM BKN015 OVC030 BECMG 2816/2818 24005KT RMK NXT FCST BY 280000Z<br><br>
<br><br>
