RETRIEVED AT : Feb 21 2020 13:05 Local <br>
  RETRIEVED AT: Feb 21 2020 18:05 UTC<br><br>
CYSN 211700Z 24016KT 15SM FEW030 M00/M15 A3045 RMK SC1 SC TR SLP320<br><br>
TAF CYSN 211338Z 2114/2202 24010KT P6SM FEW030 BECMG 2116/2118 24015G25KT BECMG 2120/2122 24020G30KT RMK NXT FCST BY 212000Z<br><br>
<br><br>
CYHM 211700Z 23017G24KT 15SM FEW040 M03/M14 A3043 RMK CF1 CF TR SLP320<br><br>
TAF CYHM 211738Z 2118/2218 23015G25KT P6SM SKC BECMG 2118/2120 23018G28KT FM220400 24012G22KT P6SM SKC FM221000 24015KT P6SM BKN020 FM221700 24012G22KT P6SM SCT025 RMK NXT FCST BY 220000Z<br><br>
<br><br>
KIAG 211753Z 23020G25KT 10SM CLR M01/M11 A3042 RMK AO2 PK WND 22028/1736 SLP322 T10111106 11011 21089 58014<br><br>
KIAG 211653Z 24018G25KT 10SM CLR M01/M13 A3045 RMK AO2 PK WND 24026/1632 SLP330 T10111128<br><br>
KIAG 211720Z 2118/2218 23018G26KT P6SM FEW035 FM212200 24018G26KT P6SM SKC<br><br>
<br><br>
KBUF 211754Z 24019G28KT 10SM FEW030 M02/M09 A3043 RMK AO2 PK WND 26032/1738 SLP315 60000 T10171089 11011 21072 58012<br><br>
KBUF 211700Z 23020G30KT 10SM FEW028 M02/M09 A3045 RMK AO2 PK WND 23029/1658 T10171094<br><br>
KBUF 211654Z 23021G30KT 10SM CLR M02/M09 A3045 RMK AO2 PK WND 23030/1653 SLP322 T10171094<br><br>
KBUF 211720Z 2118/2218 23020G30KT P6SM SCT030 FM212200 24020G30KT P6SM SKC FM221400 24020G30KT P6SM SCT030<br><br>
<br><br>
CYYZ 211700Z 22010G17KT 15SM SKC M02/M12 A3041 RMK SLP310<br><br>
TAF CYYZ 211738Z 2118/2224 23010G20KT P6SM SKC BECMG 2119/2121 24015G25KT FM220600 24010G20KT P6SM SKC FM220900 24015KT P6SM BKN020 FM221600 24012G22KT P6SM BKN025 FM222100 24010G20KT P6SM SCT030 RMK NXT FCST BY 212100Z<br><br>
<br><br>
CYOO 211700Z AUTO 24013G19KT 9SM CLR M03/M12 A3039 RMK SLP303<br><br>
TAF CYOO 211338Z 2114/2202 25005KT P6SM SKC BECMG 2116/2118 25010G20KT FM212100 25015G25KT P6SM SKC RMK FCST BASED ON AUTO OBS. NXT FCST BY 212000Z<br><br>
<br><br>
CYTR 211700Z 23015G20KT 15SM FEW026 M02/M08 A3039 RMK SC1 SLP300<br><br>
TAF CYTR 211730Z 2118/2218 23015G25KT P6SM FEW030 FM220000 25012KT P6SM FEW030 FM220800 26008KT P6SM BKN030 FM221400 26010G20KT P6SM BKN020 RMK NXT FCST BY 220000Z<br><br>
<br><br>
