RETRIEVED AT : Nov 12 2018 06:05 Local <br>
  RETRIEVED AT: Nov 12 2018 11:05 UTC<br><br>
CYSN has no TAF <br><br>
<br><br>
CYHM 121000Z 18003KT 15SM OVC063 M00/M03 A3028 RMK SC8 SLP265<br><br>
TAF CYHM 120538Z 1206/1306 VRB03KT P6SM OVC060 FM121600 18005KT P6SM BKN030 BKN140 FM121800 16005KT P6SM OVC020 FM122300 16005KT 5SM -RA BR OVC015 FM130200 16005KT 11/2SM -RASN BR OVC007 RMK NXT FCST BY 121200Z<br><br>
<br><br>
KIAG 121053Z AUTO 19003KT 10SM OVC035 02/M03 A3030 RMK AO2 SLP275 T00171028<br><br>
KIAG 120953Z AUTO 00000KT 10SM BKN033 BKN040 OVC065 01/M03 A3029 RMK AO2 SLP273 T00111028<br><br>
KIAG 120811Z 1208/1306 VRB03KT P6SM OVC040 FM120900 VRB03KT P6SM OVC035 FM121300 18006KT P6SM BKN035 FM121700 22005KT P6SM BKN100 FM130500 VRB03KT 6SM -RASN OVC040<br><br>
<br><br>
KBUF 121054Z 17004KT 10SM OVC035 01/M03 A3031 RMK AO2 SLP271 T00061033<br><br>
KBUF 121031Z 18005KT 10SM SCT030 OVC035 01/M03 A3031 RMK AO2 T00061033<br><br>
KBUF 121009Z 18003KT 10SM BKN029 OVC060 01/M03 A3031 RMK AO2 T00061033<br><br>
KBUF 120954Z 19006KT 10SM FEW027 BKN060 00/M03 A3031 RMK AO2 SLP271 T00001033<br><br>
KBUF 120811Z 1208/1306 VRB03KT P6SM OVC035 FM120900 20005KT P6SM OVC025 FM121200 19005KT P6SM BKN035 FM121700 VRB03KT P6SM BKN100 FM130500 VRB03KT 6SM -RASN OVC040<br><br>
<br><br>
CYYZ 121000Z 23005KT 15SM OVC065 01/M04 A3028 RMK SC8 SLP262<br><br>
TAF CYYZ 120839Z 1209/1312 25006KT P6SM OVC060 FM121500 20006KT P6SM BKN040 BKN140 FM122000 18006KT P6SM OVC030 FM122300 08005KT P6SM OVC015 FM130200 08005KT 4SM -RA BR OVC007 FM130400 05005KT 11/2SM -SNRA BR OVC005 FM131100 33012KT 5SM -SN OVC012 RMK NXT FCST BY 121200Z<br><br>
<br><br>
CYOO 121000Z AUTO 07002KT 9SM OVC065 M01/M01 A3029 RMK SLP263<br><br>
CYOO has no TAF <br><br>
<br><br>
CYTR 121000Z 00000KT 15SM OVC071 M01/M02 A3031 RMK AC8 SLP267<br><br>
TAF CYTR 120531Z 1206/1306 VRB03KT P6SM BKN030 BKN070 TEMPO 1206/1207 5SM -SHSNRA BR OVC020 FM120800 VRB03KT P6SM SCT050 TEMPO 1208/1214 BKN050 FM121400 24005KT P6SM BKN030 BECMG 1216/1218 22009KT FM130200 13005KT P6SM -RA BKN020 OVC040 RMK NXT FCST BY 121200Z<br><br>
<br><br>
