RETRIEVED AT : Jun 29 2020 04:05 Local <br>
  RETRIEVED AT: Jun 29 2020 08:05 UTC<br><br>
CYSN has no TAF <br><br>
<br><br>
CYHM 290700Z 26002KT 15SM FEW250 16/15 A2989 RMK CI1 CI TR SLP121 DENSITY ALT 1200FT<br><br>
TAF CYHM 290540Z 2906/3006 03006KT P6SM SKC BECMG 2907/2909 VRB03KT FM291500 05008KT P6SM SCT060 RMK NXT FCST BY 291200Z<br><br>
<br><br>
KIAG 290753Z AUTO 00000KT 10SM CLR 18/14 A2987 RMK AO2 SLP110 T01830144<br><br>
KIAG 290653Z AUTO 00000KT 10SM CLR 18/15 A2986 RMK AO2 SLP107 T01830150<br><br>
KIAG 290533Z 2906/3006 VRB03KT P6SM FEW060 FM290800 VRB04KT P6SM FEW250 FM291600 35008KT P6SM FEW060 FM300100 VRB03KT P6SM FEW045<br><br>
<br><br>
KBUF 290754Z 26004KT 8SM CLR 18/17 A2988 RMK AO2 SLP115 T01780172 $<br><br>
KBUF 290654Z 25004KT 10SM CLR 18/18 A2987 RMK AO2 SLP111 T01780178 $<br><br>
KBUF 290533Z 2906/3006 23005KT P6SM FEW060 FM291500 33008KT P6SM FEW250 FM300000 VRB04KT P6SM FEW060<br><br>
<br><br>
CYYZ 290700Z 35010KT 15SM SKC 20/15 A2987 RMK SLP114 DENSITY ALT 1300FT<br><br>
TAF CYYZ 290540Z 2906/3012 36008KT P6SM SKC FM291700 14008KT P6SM SCT060 FM300000 36012KT P6SM FEW060 BECMG 3004/3006 05007KT RMK NXT FCST BY 290900Z<br><br>
<br><br>
CYOO 290700Z AUTO 35010KT 9SM CLR 19/15 A2985 RMK SLP109 DENSITY ALT 1100FT<br><br>
TAF CYOO 290743Z 2908/2920 35008KT P6SM SKC FM291700 18007KT P6SM BKN060 TEMPO 2917/2920 P6SM -SHRA OVC060 RMK FCST BASED ON AUTO OBS. NXT FCST BY 291400Z<br><br>
<br><br>
CYTR 290700Z 30003KT 15SM SKC 18/16 A2982 RMK SLP100<br><br>
TAF CYTR 290530Z 2906/3006 VRB03KT P6SM FEW090 PROB30 2908/2911 2SM BR BECMG 2915/2917 22008KT FM291700 22008KT P6SM BKN040 TEMPO 2917/2924 P6SM -SHRA PROB30 2919/2924 VRB15G25KT 2SM TSRA BR OVC040CB FM300000 35005KT P6SM BKN040 BECMG 3002/3004 02005KT RMK NXT FCST BY 291200Z<br><br>
<br><br>
