RETRIEVED AT : Oct 16 2018 18:06 Local <br>
  RETRIEVED AT: Oct 16 2018 22:06 UTC<br><br>
CYSN 162100Z 23015G30KT 15SM SCT040 BKN097 12/03 A2996 RMK SC3AC3 SLP148<br><br>
TAF CYSN 161938Z 1620/1701 24018G28KT P6SM FEW040 BECMG 1623/1701 25015G25KT RMK NXT FCST WILL BE ISSUED AT 171245Z<br><br>
<br><br>
CYHM 162100Z 23017G25KT 15SM FEW044 BKN088 10/02 A2994 RMK CU1AC6 SLP148<br><br>
TAF CYHM 161739Z 1618/1718 24018G28KT P6SM FEW030 FM162300 24012G22KT P6SM SCT030 BKN120 FM170200 24012KT P6SM BKN030 FM170700 23012KT P6SM OVC025 TEMPO 1707/1712 P6SM -SHRA OVC020 FM171200 26010G20KT P6SM BKN030 FM171400 26015G25KT P6SM BKN025 BECMG 1716/1718 27020G35KT RMK NXT FCST BY 170000Z<br><br>
<br><br>
KIAG 162153Z 24015KT 10SM BKN041 OVC090 10/03 A2996 RMK AO2 PK WND 23030/2114 SLP156 T01000028<br><br>
KIAG 162053Z 24021G30KT 10SM BKN045 11/02 A2997 RMK AO2 PK WND 23032/2000 SLP157 T01060022 56021<br><br>
KIAG 162129Z 1621/1718 24017G27KT P6SM BKN040 FM170300 25017G30KT P6SM BKN090 FM171700 28017G30KT P6SM BKN050<br><br>
<br><br>
KBUF 162154Z 23020G30KT 10SM FEW035 BKN045 BKN140 BKN260 10/02 A2997 RMK AO2 PK WND 21035/2127 SLP153 T01000017<br><br>
KBUF 162054Z 23023G28KT 10SM BKN035 BKN044 BKN140 BKN240 10/03 A2998 RMK AO2 PK WND 25034/2030 SLP157 T01000028 56022<br><br>
KBUF 162129Z 1621/1718 24017G30KT P6SM BKN040 FM170400 24017G30KT P6SM OVC070 FM171400 28017G26KT P6SM BKN050<br><br>
<br><br>
CYYZ 162100Z 24013G23KT 15SM FEW055 FEW085 BKN120 12/M01 A2992 RMK CU1AC1AC3 SLP138<br><br>
TAF CYYZ 162038Z 1621/1724 24015G25KT P6SM SCT030 FM162300 24012G22KT P6SM BKN040 BKN120 FM170400 25012KT P6SM BKN025 FM170700 26010KT P6SM OVC025 TEMPO 1707/1711 P6SM -SHRA OVC020 FM171100 29012G22KT P6SM -SHRA BKN030 BECMG 1714/1716 29015G25KT BECMG 1717/1719 30020G30KT FM172200 32020G30KT P6SM SCT030 RMK NXT FCST BY 170000Z<br><br>
<br><br>
CYOO 162100Z AUTO 20011G18KT 9SM SCT120 BKN170 11/00 A2992 RMK SLP136<br><br>
CYOO has no TAF <br><br>
<br><br>
CYTR 162100Z 27011KT 15SM FEW035 FEW094 BKN160 BKN240 09/M00 A2995 RMK SC1AC2AC2CI2 SLP145<br><br>
TAF CYTR 161730Z 1618/1718 25015G25KT P6SM SCT040 TEMPO 1618/1624 P6SM -SHRA BKN040 FM170000 25012KT P6SM BKN040 TEMPO 1700/1706 P6SM -SHRA FM170600 25010KT P6SM SCT020 OVC040 TEMPO 1706/1712 P6SM -SHRA OVC020 BECMG 1714/1716 28012G22KT RMK NXT FCST BY 170000Z<br><br>
<br><br>
