RETRIEVED AT : Apr 22 2018 07:05 Local <br>
  RETRIEVED AT: Apr 22 2018 11:05 UTC<br><br>
CYSN has no TAF <br><br>
<br><br>
CYHM 221000Z 00000KT 15SM FEW250 01/M05 A3040 RMK CI1 CI TR SLP301<br><br>
TAF CYHM 220538Z 2206/2306 24003KT P6SM SKC BECMG 2213/2215 05007KT RMK NXT FCST BY 221200Z<br><br>
<br><br>
KIAG 221053Z 00000KT 7SM CLR M01/M04 A3042 RMK AO2 SLP312 T10111044 $<br><br>
KIAG 220953Z AUTO 00000KT 9SM CLR M01/M04 A3041 RMK AO2 SLP307 T10061039 $<br><br>
KIAG 220848Z 2209/2306 VRB03KT P6SM SKC FM221400 05005KT P6SM SKC FM221700 01008KT P6SM SKC FM230000 07005KT P6SM SKC FM230200 11003KT P6SM SKC<br><br>
<br><br>
KBUF 221054Z 14004KT 10SM CLR 00/M03 A3042 RMK AO2 SLP308 T00001033<br><br>
KBUF 220954Z 16004KT 10SM CLR 00/M04 A3041 RMK AO2 SLP304 T00001039<br><br>
KBUF 220848Z 2209/2306 15004KT P6SM SKC FM221400 05005KT P6SM SKC FM221800 02008KT P6SM SKC FM230000 05005KT P6SM SKC FM230300 12005KT P6SM SKC<br><br>
<br><br>
CYYZ 221000Z 30004KT 15SM SKC 01/M06 A3041 RMK SLP303<br><br>
TAF CYYZ 220838Z 2209/2312 33005KT P6SM SKC BECMG 2216/2218 16008KT BECMG 2301/2303 02003KT RMK NXT FCST BY 221200Z<br><br>
<br><br>
CYOO 221000Z AUTO 19004KT 9SM CLR 03/M06 A3040 RMK SLP298<br><br>
CYOO has no TAF <br><br>
<br><br>
CYTR 221000Z 33005KT 15SM SKC 02/M06 A3039 RMK SLP294<br><br>
TAF CYTR 220530Z 2206/2306 33008KT P6SM SKC BECMG 2206/2208 VRB03KT RMK NXT FCST BY 221200Z<br><br>
<br><br>
