RETRIEVED AT : Dec 10 2017 07:10 Local <br>
  RETRIEVED AT: Dec 10 2017 12:10 UTC<br><br>
CYSN has no TAF <br><br>
<br><br>
CYHM 101200Z 25011KT 15SM FEW018 SCT037 BKN120 BKN170 M04/M08 A2983 RMK CF1SC2AC2AC2 SLP113<br><br>
CYHM 101100Z 26010G16KT 15SM FEW016 SCT060 BKN160 M04/M07 A2981 RMK CF2SC1AC3 SLP108<br><br>
TAF CYHM 101139Z 1012/1112 25010G20KT P6SM BKN040 BECMG 1013/1015 25015G25KT FM101800 26015G30KT P6SM -SN BKN030 OVC050 TEMPO 1018/1106 4SM -SN OVC020 PROB30 1103/1105 11/2SM -SHSN VV008 FM110600 33008KT P6SM SCT030 RMK NXT FCST BY 101800Z<br><br>
<br><br>
KIAG 101153Z 27013KT 10SM FEW026 OVC070 M02/M06 A2982 RMK AO2 SLP115 60000 T10171061 11006 21017 51016<br><br>
KIAG 101120Z 1012/1112 27012KT P6SM BKN040 FM101500 26018G27KT P6SM BKN040 FM110000 25015G23KT P6SM BKN035 FM110200 25015G23KT P6SM VCSH BKN035 FM110500 28012KT P6SM VCSH BKN035 FM110700 31008KT P6SM BKN035<br><br>
<br><br>
KBUF 101154Z 26009KT 10SM FEW013 FEW031 BKN070 OVC130 M02/M06 A2982 RMK AO2 SNE32 SLP108 4/001 P0000 60001 70001 T10221056 11017 21022 53017<br><br>
KBUF 101054Z 28010KT 6SM -SN BR SCT016 BKN032 OVC070 M02/M04 A2981 RMK AO2 SLP103 P0001 T10221044<br><br>
KBUF 101047Z 28008KT 6SM -SN BR SCT018 BKN035 OVC070 M02/M04 A2980 RMK AO2 P0001 T10221039<br><br>
KBUF 101120Z 1012/1112 27012KT P6SM BKN040 FM101500 25016G25KT P6SM BKN040 FM102100 25016G24KT 2SM -SHSN OVC015 FM110200 25014G20KT P6SM VCSH OVC035 FM110500 27010KT P6SM VCSH BKN035 FM110800 30007KT P6SM BKN035<br><br>
<br><br>
CYYZ 101200Z CCA 28013G20KT 15SM FEW015 OVC025 M03/M08 A2980 RMK SC1SC8 SC TR SLP102<br><br>
CYYZ 101100Z 26009KT 15SM SCT037 BKN100 M04/M08 A2979 RMK SC4AC2 SLP097<br><br>
TAF CYYZ 101139Z 1012/1118 25010G20KT P6SM SCT025 BKN060 BECMG 1013/1015 25015G25KT FM101600 25015G25KT P6SM -SN BKN030 OVC060 TEMPO 1016/1101 5SM -SN OVC020 FM110100 25015KT 6SM -SN OVC030 TEMPO 1101/1104 3SM -SN OVC020 PROB30 1102/1104 33012G22KT 11/4SM -SN OVC015 FM110400 35012KT P6SM -SHSN BKN030 FM110600 35010KT P6SM SCT030 FM111500 09008KT P6SM BKN180 RMK NXT FCST BY 101500Z<br><br>
<br><br>
CYOO 101200Z AUTO 27009KT 9SM OVC041 M03/M07 A2979 RMK SLP094<br><br>
CYOO 101147Z AUTO 27010G16KT 9SM -SN BKN039 BKN180 M03/M08 A2978 RMK SLP092<br><br>
CYOO 101100Z AUTO 26010G17KT 9SM BKN110 OVC170 M03/M08 A2977 RMK SLP089<br><br>
CYOO has no TAF <br><br>
<br><br>
CYTR 101200Z 28006KT 15SM SCT072 BKN250 M04/M09 A2976 RMK AC3CI2 SLP084<br><br>
CYTR 101100Z 29008KT 15SM BKN059 M03/M08 A2975 RMK SC6 SLP078<br><br>
TAF CYTR 101130Z 1012/1112 30007G17KT P6SM SCT030 BKN060 FM101800 25015G25KT P6SM SCT020 BKN070 TEMPO 1018/1022 4SM -SHSN BKN020 FM102200 26015G25KT P6SM FEW015 BKN030 TEMPO 1022/1101 4SM -SHSN BKN015 PROB30 1022/1101 1SM -SHSN BKN012 OVC030 FM110100 30012KT P6SM SCT030 BKN050 FM110600 33010KT P6SM SCT050 FM111000 33005KT P6SM FEW220 RMK NXT FCST BY 101800Z<br><br>
<br><br>
