RETRIEVED AT : Sep 08 2019 08:05 Local <br>
  RETRIEVED AT: Sep 08 2019 12:05 UTC<br><br>
CYSN 081100Z 28002KT 15SM SCT018 SCT140 BKN240 13/13 A3004 RMK SC3AC1CI2 SLP174<br><br>
CYSN has no TAF <br><br>
<br><br>
CYHM 081100Z 32003KT 15SM FEW020 BKN220 11/11 A3006 RMK SC1CC7 SC TR SLP181<br><br>
TAF CYHM 081140Z 0812/0912 VRB03KT P6SM FEW020 BKN220 PROB30 0812/0813 2SM BR FM081300 04006KT P6SM SCT020 FM081600 04006KT P6SM BKN040 FM082300 06006KT P6SM SCT040 BKN160 RMK NXT FCST BY 081800Z<br><br>
<br><br>
KIAG 081156Z COR 00000KT 10SM SCT015 SCT025 BKN040 A3006<br><br>
KIAG 081153Z A3006 RMK AO2 SLPNO 70003 51027 $<br><br>
KIAG 081055Z COR 00000KT 10SM SCT015 SCT025 BKN030 A3005<br><br>
KIAG 081053Z A3004 RMK AO2 SLPNO $<br><br>
KIAG 081120Z 0812/0912 01005KT P6SM BKN020 FM081400 36007KT P6SM BKN035 FM081600 35008KT P6SM BKN060 FM090200 00000KT P6SM SCT250 AMD NOT SKED<br><br>
<br><br>
KBUF 081154Z 00000KT 10SM FEW024 BKN230 15/12 A3006 RMK AO2 SLP180 T01500122 10156 20133 51026<br><br>
KBUF 081054Z 00000KT 10SM FEW017 FEW024 BKN220 14/12 A3005 RMK AO2 SLP176 T01390117<br><br>
KBUF 081020Z 00000KT 10SM SCT020 SCT027 BKN280 14/12 A3003 RMK AO2 T01390117<br><br>
KBUF 081120Z 0812/0912 VRB03KT P6SM BKN020 FM081600 35006KT P6SM BKN035 FM082000 35006KT P6SM BKN090 FM082300 02005KT P6SM SCT250<br><br>
<br><br>
CYYZ 081100Z 35004KT 320V020 15SM FEW120 SCT250 13/11 A3006 RMK AC1CI3 SLP181<br><br>
TAF CYYZ 081140Z 0812/0918 36005KT P6SM FEW120 FM081300 35010KT P6SM SCT030 FM082100 36008KT P6SM FEW050 BKN200 BECMG 0906/0908 VRB03KT FM091600 11005KT P6SM BKN040 RMK NXT FCST BY 081500Z<br><br>
<br><br>
CYOO 081138Z AUTO 31005KT 9SM SCT008 12/11 A3007 RMK SLP184<br><br>
CYOO 081100Z AUTO 34006KT 9SM OVC008 12/11 A3005 RMK SLP177<br><br>
CYOO 081021Z AUTO 00000KT 9SM BKN008 11/11 A3003 RMK SLP170<br><br>
TAF AMD CYOO 081032Z 0810/0820 VRB03KT P6SM FEW008 TEMPO 0810/0812 3SM BR BKN008 BECMG 0810/0812 36005KT FM081600 33012KT P6SM FEW030 RMK FCST BASED ON AUTO OBS. NXT FCST BY 081400Z<br><br>
<br><br>
CYTR 081100Z 32005KT 15SM FEW120 10/10 A3003 RMK AC2 SLP171<br><br>
TAF CYTR 081130Z 0812/0912 32005KT P6SM FEW120 FM081500 30010KT P6SM FEW040 BKN220 BECMG 0819/0821 22010KT BECMG 0900/0902 VRB03KT RMK NXT FCST BY 081800Z<br><br>
<br><br>
