RETRIEVED AT : Mar 29 2020 16:05 Local <br>
  RETRIEVED AT: Mar 29 2020 20:05 UTC<br><br>
CYSN 291900Z 21008KT 15SM FEW045 18/15 A2950 RMK SC2 SLP991 DENSITY ALT 1300FT<br><br>
CYSN 291830Z 21003KT 130V270 15SM SCT040 SCT250 13/13 A2949 RMK SC3CI1 CB S AND E PRESFR SLP991 DENSITY ALT 700FT<br><br>
TAF CYSN 291938Z 2920/3001 21008KT P6SM SCT040 BECMG 2920/2921 23025G45KT FM300000 23018G30KT P6SM BKN030 RMK NXT FCST WILL BE ISSUED AT 301245Z<br><br>
<br><br>
CYHM 291900Z 24031G46KT 15SM FEW030 SCT048CB 19/10 A2951 RMK CU2CB2 DIST CB SE SLP998 DENSITY ALT 1900FT<br><br>
TAF CYHM 291738Z 2918/3018 21010G20KT P6SM BKN025 BKN240 TEMPO 2918/2919 3SM +TSRAGR BR BKN005 OVC015CB FM291900 23020G38KT P6SM SCT020 BKN040 TEMPO 2919/2922 BKN020 BKN040 FM292200 23020G32KT P6SM BKN030 BKN050 TEMPO 3000/3002 BKN020 OVC040 FM300200 23018G28KT P6SM -SHRA BKN020 OVC030 TEMPO 3002/3006 SCT020 OVC040 FM300600 23015G25KT P6SM -SHRA OVC015 BECMG 3014/3016 26015G25KT RMK NXT FCST BY 300000Z<br><br>
<br><br>
KIAG 291953Z 21017KT 10SM -RA FEW035 BKN070 OVC090 13/11 A2956 RMK AO2 PK WND 20032/1931 RAB25 SLP014 P0000 T01330106<br><br>
KIAG 291853Z 24011KT 10SM SCT055 BKN065 BKN085 16/12 A2952 RMK AO2 PK WND 28040/1801 WSHFT 1754 LTG DSNT E-S RAB1756E24 TSB1756E23 SLP001 P0004 T01610122<br><br>
KIAG 291837Z 27011KT 10SM BKN050 BKN070 OVC080 16/13 A2952 RMK AO2 PK WND 28040/1801 WSHFT 1754 LTG DSNT NE AND E RAB1756E24 TSB1756E23 P0004 T01560128<br><br>
KIAG 291829Z 27010KT 10SM VCTS FEW037 BKN060 OVC075 14/12 A2953 RMK AO2 PK WND 28040/1801 WSHFT 1754 LTG DSNT N-SE RAB1756E24 TSB1756E23 P0004 T01440117<br><br>
KIAG 291820Z 27013G24KT 9SM -TSRA SCT042 SCT055 OVC075 14/12 A2953 RMK AO2 PK WND 28040/1801 WSHFT 1754 LTG DSNT N-SE RAB1756 TSB1756 P0004 T01440117<br><br>
KIAG 291811Z 27022G38KT 2SM TSRA BR BKN044 BKN065 BKN080 13/11 A2954 RMK AO2 PK WND 28040/1801 WSHFT 1754 VIS 1V4 LTG DSNT ALQDS RAB1756 TSB1756 P0004 T01330111<br><br>
KIAG 291807Z 26022G40KT 1 3/4SM R28R/5500VP6000FT TSRA SQ FEW024 BKN050 OVC075 14/11 A2954 RMK AO2 PK WND 28040/1801 VIS 3/4V5 LTG DSNT ALQDS RAB1756 TSB1756 P0003 T01390111<br><br>
KIAG 291734Z 2918/3018 22018G30KT 2SM TSRA OVC025CB TEMPO 2918/2919 VRB30G45KT 1SM +TSRA OVC015CB FM291900 24020G34KT P6SM VCSH BKN040 FM292100 24023G38KT P6SM BKN050 FM300200 24018G32KT P6SM BKN080 FM300800 23018G29KT P6SM -SHRA OVC030 FM301200 23018G31KT 5SM -SHRA BR OVC015<br><br>
<br><br>
KBUF 291954Z 23017KT 10SM BKN055 BKN080 13/10 A2958 RMK AO2 PK WND 23030/1921 RAE47 SLP019 P0003 T01330100<br><br>
KBUF 291854Z 21011KT 10SM -RA BKN047 BKN075 BKN095 16/13 A2955 RMK AO2 PK WND 22059/1804 LTG DSNT E-S RAB05E23B48 TSB00E39 SLP008 TS MOVD NE P0017 T01610128<br><br>
KBUF 291840Z 27011KT 10SM FEW011 BKN049 16/13 A2954 RMK AO2 PK WND 22059/1804 LTG DSNT ALQDS RAB05E23 TSB00E39 TS MOVD NE P0017 T01560133<br><br>
KBUF 291823Z 26014G29KT 10SM TS FEW011 SCT029 BKN044CB 15/13 A2954 RMK AO2 PK WND 22059/1804 LTG DSNT NW-NE RAB05E23 TSB00 OCNL LTGCCIC VC N-E-S TS VC N-E-S MOV NE P0017 T01500128<br><br>
KBUF 291817Z 26019G30KT 2 1/2SM R23/2000VP6000FT TSRA BR FEW025 BKN044CB BKN060 14/12 A2953 RMK AO2 PK WND 22059/1804 LTG DSNT NW-NE RAB05 TSB00 FRQ LTGCC SW-OHD-N TS SW-OHD-W MOV NE P0017 T01390122<br><br>
KBUF 291806Z 23038G59KT 3/4SM R23/1400VP6000FT TSRA SQ SCT044CB BKN080 BKN180 20/13 A2954 RMK AO2 PK WND 22059/1804 LTG DSNT SW-N RAB05 TSB00 PRESRR FRQ LTGCC VC SW-NW TS VC SW-NW MOV NE P0000 T02000133<br><br>
KBUF 291733Z 2918/3018 20018G30KT 2SM TSRA OVC025CB TEMPO 2918/2919 VRB30G45KT 1SM +TSRA OVC015CB FM291900 23018G34KT P6SM VCSH OVC025 FM292100 24023G38KT P6SM BKN045 FM300200 24018G32KT P6SM BKN040 FM300900 24020G30KT P6SM -SHRA OVC030 FM301200 24019G31KT 4SM -SHRA BR OVC015<br><br>
<br><br>
CYYZ 291900Z 14005KT 15SM BKN040 13/11 A2950 RMK CU6 MOD CU ASOCTD SLP993 DENSITY ALT 1000FT<br><br>
TAF CYYZ 291738Z 2918/3024 10006KT WS005/22020KT P6SM SCT004 BKN020 TEMPO 2918/2919 SCT020 BKN040 BECMG 2918/2919 23015G30KT FM291900 23015G30KT P6SM SCT020 BKN040 TEMPO 2919/2920 P6SM VCTS BKN012CB BKN040 BECMG 2919/2920 23020G38KT FM292200 23018G30KT P6SM SCT025 BKN040 TEMPO 3002/3004 BKN020 OVC040 FM300400 23015G25KT P6SM -SHRA OVC015 TEMPO 3004/3006 OVC025 BECMG 3008/3010 24012G22KT FM301700 26015G25KT P6SM -SHRA OVC015 RMK NXT FCST BY 292100Z<br><br>
<br><br>
CYOO 291911Z AUTO 09006KT 040V100 8SM FEW070 BKN098 13/13 A2950 RMK TS/LTNG TEMPO UNAVBL SLP992 DENSITY ALT 700FT<br><br>
CYOO 291904Z AUTO 07004KT 040V110 7SM -RA FEW045 BKN097 OVC130 12/12 A2950 RMK PRESFR TS/LTNG TEMPO UNAVBL SLP993 DENSITY ALT 600FT<br><br>
CYOO 291900Z AUTO 08005KT 070V140 5SM -RA BR FEW045 BKN095 OVC120 11/11 A2950 RMK TS/LTNG TEMPO UNAVBL SLP995 DENSITY ALT 500FT<br><br>
CYOO 291857Z AUTO 09010KT 080V240 5SM -RA BR FEW045 BKN096 OVC120 11/11 A2950 RMK TS/LTNG TEMPO UNAVBL SLP994 DENSITY ALT 600FT<br><br>
CYOO 291848Z AUTO 00000KT 9SM -RA FEW019 SCT100 BKN120 11/11 A2952 RMK TS/LTNG TEMPO UNAVBL SLP000 DENSITY ALT 500FT<br><br>
CYOO 291832Z AUTO 10003KT 060V130 9SM SCT014 BKN120 BKN160 BKN240 11/11 A2951 RMK TS/LTNG TEMPO UNAVBL SLP998 DENSITY ALT 500FT<br><br>
TAF CYOO 291938Z 2920/3008 09005KT WS005/24025KT P6SM SCT040 BKN120 TEMPO 2920/2921 BKN015 BKN030 BKN120 FM292100 23018G38KT P6SM SCT040 FM300000 23015G25KT P6SM BKN030 TEMPO 3002/3005 BKN020 FM300500 23012G22KT P6SM -SHRA OVC015 TEMPO 3005/3007 OVC025 RMK FCST BASED ON AUTO OBS. NXT FCST BY 300200Z<br><br>
<br><br>
CYTR 291949Z CCA 27016G27KT 2SM TSRA BR OVC005 11/09 A2962 RMK SF8 CB EMBD SW MOVG NE OCNL LTGCCCG PRESRR SLP033<br><br>
CYTR 291941Z 14008KT 5SM -TSRA BR BKN015 OVC032 12/09 A2958 RMK SF6SC2 CB EMBD SW MOVG NE OCNL LTGCCCG VIS VRB 3-7 SLP021<br><br>
CYTR 291918Z 14008KT 10SM -TSRA BKN015 OVC032 12/09 A2954 RMK SF5SC3 PRESFR CB DIST SW MOVG NE OCNL LTGCCCG SLP005<br><br>
CYTR 291900Z 16004KT 15SM -RA SCT015 OVC037 12/09 A2956 RMK SF4SC4 PCPN VRY LGT SLP011<br><br>
CYTR 291843Z 17004KT 15SM SCT012 OVC039 12/09 A2956 RMK SF4SC4 SLP013<br><br>
CYTR 291816Z 15005KT 15SM BKN011 OVC035 12/08 A2956 RMK SF5SC3 CIG VRB 8-14 SLP013<br><br>
TAF AMD CYTR 291901Z 2919/3018 17005KT P6SM SCT012 OVC040 TEMPO 2919/2921 VRB20G35KT 1SM +TSRA BR BKN005 OVC015CB FM292100 22015G25KT P6SM SCT015 OVC040 TEMPO 2921/2924 2SM -SHRA BR BKN010 OVC025 PROB30 2921/2922 VRB15G30KT 1SM +TSRA BR BKN005 OVC015CB FM300300 24015KT P6SM OVC020 FM300800 23012KT 6SM -RA BR OVC010 FM301300 23012G22KT 3SM -SHRA BR OVC008 RMK NXT FCST BY 300000Z<br><br>
<br><br>
