RETRIEVED AT : Sep 13 2019 07:06 Local <br>
  RETRIEVED AT: Sep 13 2019 11:06 UTC<br><br>
CYSN has no TAF <br><br>
<br><br>
CYHM 131000Z 06007KT 15SM SCT017 BKN120 12/10 A3025 RMK SC3AC4 SLP247<br><br>
TAF AMD CYHM 131027Z 1310/1406 06007KT P6SM SCT015 BKN120 BECMG 1310/1312 OVC015 FM131700 13010G20KT P6SM -SHRA OVC020 PROB30 1317/1320 VRB15G25KT 1SM +TSRA BR OVC008CB FM140000 15015G25KT P6SM -SHRA FEW008 BKN025 PROB40 1400/1404 VRB20G35KT 1SM +TSRA BR OVC008CB FM140400 22015G25KT P6SM BKN008 OVC040 PROB30 1404/1406 2SM BR OVC003 RMK NXT FCST BY 131200Z<br><br>
<br><br>
KIAG 131053Z AUTO 11007KT 10SM OVC027 12/11 A3027 RMK AO2 SLP254 T01220106<br><br>
KIAG 131035Z AUTO 10009KT 10SM BKN026 OVC036 12/11 A3027 RMK AO2 T01170106<br><br>
KIAG 130953Z AUTO 10009KT 10SM CLR 11/09 A3026 RMK AO2 SLP252 T01110094<br><br>
KIAG 130902Z 1309/1406 10006KT P6SM BKN250 FM131200 12010KT P6SM OVC200 FM131500 16014G22KT P6SM BKN060 FM140000 17015G25KT P6SM VCSH BKN040 FM140300 18017G27KT 6SM SHRA BKN025<br><br>
<br><br>
KBUF 131054Z 07007KT 10SM BKN048 BKN250 13/10 A3027 RMK AO2 SLP252 T01330100<br><br>
KBUF 130954Z 05006KT 10SM SCT047 SCT250 12/10 A3027 RMK AO2 SLP251 T01170100<br><br>
KBUF 130901Z 1309/1406 08006KT P6SM BKN250 FM131200 11008KT P6SM FEW035 OVC200 FM131600 16014G20KT P6SM BKN060 FM140000 17018G26KT P6SM VCSH BKN050 FM140300 18016G30KT 6SM -SHRA OVC035<br><br>
<br><br>
CYYZ 131000Z 11010G18KT 15SM FEW035 BKN260 15/12 A3028 RMK SC1CI5 SC TR SLP254<br><br>
TAF CYYZ 130842Z 1309/1412 08012KT P6SM FEW030 SCT260 FM131200 11010G20KT P6SM BKN020 FM131700 11012G22KT P6SM OVC025 TEMPO 1317/1322 4SM SHRA BR VCTS BKN015 OVC025CB FM132200 15015G25KT P6SM OVC025 FM140000 16015G25KT 4SM -SHRA BR FEW003 OVC008 PROB30 1400/1404 VRB20G35KT 1SM +TSRA BR OVC003CB FM140400 22015G25KT 3SM -RA -DZ BR OVC005 PROB30 1404/1409 OVC003 FM140900 26009KT P6SM BKN015 RMK NXT FCST BY 131200Z<br><br>
<br><br>
CYOO 131000Z AUTO 09011G17KT 9SM FEW021 SCT031 13/10 A3031 RMK SLP265<br><br>
TAF CYOO 130744Z 1308/1320 03004KT P6SM SKC FM131200 10015G25KT P6SM BKN020 FM131800 10015G25KT 4SM SHRA BR OVC020 RMK FCST BASED ON AUTO OBS. NXT FCST BY 131400Z<br><br>
<br><br>
CYTR 131000Z 05007KT 15SM FEW035 FEW160 FEW250 07/06 A3036 RMK SC1AC1CI1 SLP285<br><br>
TAF CYTR 130530Z 1306/1406 05005KT P6SM FEW250 BECMG 1314/1316 16010G20KT FM131600 16010G20KT P6SM BKN030 BECMG 1319/1321 16015G25KT FM132100 16015G25KT P6SM -SHRA BKN030 OVC050 FM140200 16015G25KT 5SM -SHRA BR FEW008 OVC020 PROB30 1402/1406 2SM TSRA BR BKN008 OVC060CB RMK NXT FCST BY 131200Z<br><br>
<br><br>
