RETRIEVED AT : Oct 15 2017 07:10 Local <br>
  RETRIEVED AT: Oct 15 2017 11:10 UTC<br><br>
CYSN 151100Z 20014KT 10SM SCT070 BKN140 21/16 A2975 RMK AC4AC1 SLP076 DENSITY ALT 1300FT<br><br>
CYSN has no TAF <br><br>
<br><br>
CYHM 151100Z 20013G21KT 15SM SCT055 BKN068 19/16 A2974 RMK SC3AC4 SLP073 DENSITY ALT 1700FT<br><br>
CYHM 151000Z 21014G21KT 15SM BKN055 BKN150 18/16 A2977 RMK SC5AC2 SLP083 DENSITY ALT 1600FT<br><br>
TAF AMD CYHM 150607Z 1506/1606 08006KT 11/2SM BR BKN003 OVC070 TEMPO 1506/1508 6SM BR SCT003 BKN070 FM150800 19010KT 6SM BR SCT090 BKN200 TEMPO 1508/1511 2SM BR FM151100 21015KT WS005/22035KT P6SM SCT008 BKN025 TEMPO 1511/1518 5SM -DZ -RA BR BKN008 OVC020 BECMG 1513/1515 22020G35KT FM151800 23025G40KT P6SM -SHRA OVC025 PROB30 1518/1521 VRB30G50KT 2SM +TSRA BR OVC020CB FM152100 24020G35KT P6SM BKN025 BECMG 1523/1524 29018G30KT BECMG 1603/1604 31012KT RMK NXT FCST BY 151200Z<br><br>
<br><br>
KIAG 151053Z 20016G24KT 10SM FEW030 BKN045 OVC065 22/15 A2978 RMK AO2 SLP083 T02170150<br><br>
KIAG 150953Z AUTO 19010KT 10SM FEW047 BKN075 20/14 A2980 RMK AO2 SLP091 T02000144<br><br>
KIAG 150905Z 1509/1606 19010KT P6SM BKN060 WS020/22050KT FM151400 21020G31KT P6SM BKN060 FM151800 21024G35KT P6SM BKN050 FM152000 23026G42KT 3SM SHRA OVC015 FM152200 26024G38KT P6SM BKN040 FM160200 29018G28KT P6SM BKN025<br><br>
<br><br>
KBUF 151054Z 20017G23KT 10SM SCT036 BKN065 BKN095 BKN290 20/15 A2980 RMK AO2 SLP089 T02000150<br><br>
KBUF 150954Z 20016G23KT 10SM FEW040 BKN070 OVC130 19/14 A2982 RMK AO2 PK WND 19026/0921 SLP097 T01940144<br><br>
KBUF 151017Z 1510/1606 20015G25KT P6SM BKN070 WS020/22050KT FM151400 21020G29KT P6SM BKN060 FM151800 21024G35KT P6SM BKN050 FM152000 23026G42KT 3SM SHRA OVC015 FM152200 25024G38KT P6SM BKN040 FM160200 28018G28KT P6SM BKN025<br><br>
<br><br>
CYYZ 151100Z 16007KT 10SM FEW065 SCT120 BKN190 16/15 A2973 RMK SC1AC3AC3 SLP070 DENSITY ALT 1100FT<br><br>
CYYZ 151000Z 14008KT 10SM BKN057 16/15 A2975 RMK SC6 SLP075 DENSITY ALT 1000FT<br><br>
TAF AMD CYYZ 151108Z 1511/1612 19010KT WS005/21030KT P6SM SCT025 OVC070 TEMPO 1511/1517 5SM -DZ -RA BR BKN010 OVC025 BECMG 1514/1515 22020G35KT FM151700 23025G40KT P6SM -SHRA OVC025 PROB30 1517/1520 VRB35G50KT 2SM +TSRA BR OVC020CB FM152100 25025G40KT P6SM BKN025 BECMG 1600/1601 31018G28KT FM160500 33012G22KT P6SM BKN015 BECMG 1609/1610 33008KT RMK NXT FCST BY 151200Z<br><br>
<br><br>
CYOO 151100Z AUTO 12004KT 090V180 7SM SCT033 OVC065 16/15 A2974 RMK SLP073 DENSITY ALT 800FT<br><br>
CYOO 151056Z AUTO 11004KT 080V180 6SM BR SCT033 BKN065 OVC076 16/15 A2974 RMK SLP073 DENSITY ALT 800FT<br><br>
CYOO 151000Z AUTO 11005KT 5SM BR BKN037 OVC055 16/15 A2977 RMK SLP084 DENSITY ALT 700FT<br><br>
CYOO 150917Z AUTO 11008KT 5SM BR BKN043 OVC055 16/15 A2979 RMK PRESFR SLP090 DENSITY ALT 700FT<br><br>
CYOO has no TAF <br><br>
<br><br>
CYTR 151100Z 18007KT 10SM OVC035 17/15 A2978 RMK SC8 SLP086<br><br>
CYTR 151000Z 16005KT 10SM FEW008 OVC063 16/15 A2982 RMK SF2SC6 SLP097<br><br>
TAF AMD CYTR 150742Z 1507/1606 VRB03KT P6SM SCT015 OVC030 TEMPO 1507/1518 5SM -SHRA BR OVC015 BECMG 1512/1514 22015G25KT FM151800 24020G35KT P6SM SCT010 OVC025 TEMPO 1518/1524 3SM -SHRA BR OVC010 PROB30 1519/1522 VRB35G50KT 1SM TSRA BR BKN005 OVC010CB FM160000 24022G38KT P6SM BKN030 BECMG 1602/1604 28020G30KT RMK NXT FCST BY 151200Z<br><br>
<br><br>
