RETRIEVED AT : Oct 26 2018 15:05 Local <br>
  RETRIEVED AT: Oct 26 2018 19:05 UTC<br><br>
CYSN 261800Z 10012KT 15SM OVC120 09/01 A2999 RMK AC8 SLP158<br><br>
TAF CYSN 261238Z 2613/2701 14006KT P6SM SCT040 OVC130 TEMPO 2613/2622 BKN040 OVC100 BECMG 2615/2617 09012KT FM262200 09010G20KT P6SM BKN060 OVC080 RMK NXT FCST BY 262000Z<br><br>
<br><br>
CYHM 261800Z 07012KT 10SM FEW030 FEW095 SCT130 BKN160 BKN200 08/02 A2997 RMK CU1AC1AC2AC2CS2 CU TR PRTL HALO SLP156<br><br>
TAF CYHM 261738Z 2618/2718 08012KT P6SM FEW030 SCT090 OVC120 BECMG 2618/2620 08010G20KT FM270300 07012G22KT P6SM OVC025 TEMPO 2703/2708 P6SM -RA OVC015 FM270800 06015G25KT 3SM -RA BR SCT004 OVC010 FM271000 06015G25KT 2SM -RA BR OVC004 FM271700 06015G25KT 4SM -RA BR OVC006 RMK NXT FCST BY 270000Z<br><br>
<br><br>
KIAG 261853Z 10011KT 10SM SCT110 08/01 A2997 RMK AO2 SLP157 T00780006<br><br>
KIAG 261753Z 11008G17KT 10SM CLR 08/01 A2999 RMK AO2 SLP166 T00830011 10089 20028 58017<br><br>
KIAG 261737Z 2618/2718 12009KT P6SM BKN110 FM270100 08012G18KT P6SM OVC060 FM270500 08011G20KT 6SM -RA OVC050 FM270900 08012G20KT 6SM -RA OVC025 FM271400 06013G26KT 6SM -RA OVC007<br><br>
<br><br>
KBUF 261854Z 08011KT 10SM FEW070 FEW120 BKN170 OVC250 08/01 A2996 RMK AO2 SLP152 VIRGA OHD-ALQDS T00830011<br><br>
KBUF 261754Z COR 09009KT 10SM FEW070 FEW130 BKN170 OVC250 08/01 A2999 RMK AO2 VIRGA DSNT SW-NW SLP161 T00830006 10083 20022 58018<br><br>
KBUF 261737Z 2618/2718 10014KT P6SM BKN170 FM262100 10010G16KT P6SM OVC070 FM270500 08010G18KT 6SM -RA OVC045 FM270800 08011G18KT 6SM -RA OVC025 FM271400 06012G24KT 6SM -RA OVC007<br><br>
<br><br>
CYYZ 261800Z 10010G16KT 15SM FEW030 FEW038 BKN100 BKN250 08/01 A3001 RMK CF1SC2AC3CI1 CF TR SLP170<br><br>
TAF CYYZ 261738Z 2618/2724 11010G20KT P6SM FEW030 SCT060 OVC100 TEMPO 2618/2621 BKN020 OVC060 FM262100 09012G22KT P6SM SCT025 OVC090 TEMPO 2702/2708 P6SM -SHRA BKN025 OVC090 FM270800 07010G20KT P6SM -RA OVC015 FM271100 06012G22KT 6SM -RA BR SCT006 OVC012 PROB30 2711/2715 OVC006 FM271700 06015G25KT P6SM -RA FEW009 OVC015 FM272200 04010G20KT 4SM -RASN BR OVC008 RMK NXT FCST BY 262100Z<br><br>
<br><br>
CYOO 261803Z AUTO 11011G16KT 9SM SCT040 OVC070 06/02 A3004 RMK SLP178<br><br>
CYOO 261800Z AUTO 10012KT 9SM -RA SCT040 SCT048 OVC070 06/02 A3004 RMK SLP178<br><br>
CYOO 261744Z AUTO 11012G18KT 9SM -RA FEW039 BKN046 BKN055 OVC072 06/02 A3004 RMK SLP179<br><br>
CYOO has no TAF <br><br>
<br><br>
CYTR 261800Z 09007KT 15SM BKN024 OVC047 05/M01 A3009 RMK SC5SC3 SLP195<br><br>
TAF CYTR 261730Z 2618/2718 10008KT P6SM SCT020 OVC050 TEMPO 2618/2621 BKN020 OVC050 FM270000 07010KT P6SM SCT010 BKN080 TEMPO 2712/2718 5SM -SHRA BR BKN010 OVC080 BECMG 2712/2714 05012G22KT RMK NXT FCST BY 270000Z<br><br>
<br><br>
