RETRIEVED AT : Oct 31 2017 00:10 Local <br>
  RETRIEVED AT: Oct 31 2017 04:10 UTC<br><br>
CYSN has no TAF <br><br>
<br><br>
CYHM 310400Z 25019G25KT 15SM BKN094 05/01 A2968 RMK AC7 SLP058<br><br>
CYHM 310300Z 24015G20KT 15SM FEW022 BKN100 04/01 A2966 RMK SC1AC4 SLP052<br><br>
TAF CYHM 302349Z 3100/3124 25015G25KT 5SM -SHRA BR BKN020 OVC050 TEMPO 3100/3103 P6SM NSW OVC050 FM310300 25015G25KT P6SM FEW020 SCT040 TEMPO 3103/3108 BKN020 FM310800 24012KT P6SM BKN020 FM311600 25015G25KT P6SM BKN040 BECMG 3120/3122 23008KT RMK NXT FCST BY 310600Z<br><br>
<br><br>
KIAG 310353Z 24014G23KT 10SM OVC095 07/01 A2969 RMK AO2 SLP062 T00670006<br><br>
KIAG 310253Z 25015G21KT 10SM BKN100 07/01 A2969 RMK AO2 SLP060 60000 T00670011 53026<br><br>
KIAG 310259Z 3103/3124 25015G21KT P6SM VCSH BKN100 FM310600 26020KT P6SM BKN050 FM311500 26011KT P6SM BKN060<br><br>
<br><br>
KBUF 310354Z 22008KT 10SM SCT045 BKN060 BKN100 06/01 A2971 RMK AO2 SLP066 T00610006<br><br>
KBUF 310254Z 26015G23KT 10SM FEW012 FEW034 BKN100 06/01 A2969 RMK AO2 RAE18 SLP059 P0000 60023 T00610011 53023<br><br>
KBUF 310229Z 25011KT 10SM FEW012 BKN030 OVC070 06/03 A2968 RMK AO2 RAE18 P0000 T00610028<br><br>
KBUF 310259Z 3103/3124 26015G23KT P6SM FEW012 BKN100 FM310700 26016KT 6SM -RA BKN045 FM311200 25014KT 6SM -RA BKN040 FM312000 26015KT P6SM SCT030 FM312200 26012KT 6SM -RA BKN035<br><br>
<br><br>
CYYZ 310400Z 25014KT 15SM FEW025 BKN110 05/01 A2964 RMK SC1AC6 SLP044<br><br>
CYYZ 310300Z 25017KT 15SM FEW018 SCT030 BKN110 06/01 A2963 RMK SC1SC2AC4 SLP038<br><br>
TAF CYYZ 310238Z 3103/0106 24015G25KT P6SM SCT020 BKN040 TEMPO 3105/3110 BKN020 FM311000 24015KT P6SM BKN020 FM311500 25015G25KT P6SM BKN030 BECMG 3120/3122 24012G22KT RMK NXT FCST BY 310600Z<br><br>
<br><br>
CYOO 310400Z AUTO 25007G16KT 9SM OVC110 06/01 A2962 RMK SLP036<br><br>
CYOO 310300Z AUTO 24011G17KT 9SM BKN031 OVC110 07/01 A2961 RMK SLP031<br><br>
CYOO has no TAF <br><br>
<br><br>
CYTR 310400Z 25014G24KT 15SM SCT026 BKN120 07/03 A2961 RMK SC3AC4 SLP029<br><br>
CYTR 310300Z 24013KT 15SM FEW038 BKN120 07/03 A2958 RMK SC1AC6 SLP021<br><br>
TAF CYTR 302330Z 3100/3124 25015G25KT P6SM FEW030 BKN120 TEMPO 3100/3107 P6SM -SHRA BKN030 FM310700 25015G25KT P6SM FEW040 FM311300 25022G32KT P6SM SCT030 RMK NXT FCST BY 310600Z<br><br>
<br><br>
