RETRIEVED AT : Jun 06 2018 22:05 Local <br>
  RETRIEVED AT: Jun 07 2018 02:05 UTC<br><br>
CYSN has no TAF <br><br>
<br><br>
CYHM 070100Z 19006KT 15SM FEW030 SCT240 11/09 A2997 RMK SC2CI1 SLP154<br><br>
TAF CYHM 062338Z 0700/0724 20005KT P6SM BKN030 FM070100 23006KT P6SM FEW030 FM070500 23008KT P6SM BKN100 FM070900 23008KT P6SM BKN080 FM071400 24015KT P6SM BKN050 RMK NXT FCST BY 070600Z<br><br>
<br><br>
KIAG 070153Z 20006KT 10SM CLR 12/08 A2999 RMK AO2 SLP157 T01220078<br><br>
KIAG 070053Z 24006KT 10SM CLR 13/08 A2999 RMK AO2 SLP159 T01280078<br><br>
KIAG 062325Z 0700/0724 VRB04KT P6SM SCT035 SCT250 FM070300 21004KT P6SM SCT250 FM071200 21006KT P6SM SCT080 FM071500 23012G18KT P6SM SCT050 FM072100 23010KT P6SM SCT035<br><br>
<br><br>
KBUF 070154Z 20005KT 10SM SCT150 SCT220 SCT270 12/08 A2999 RMK AO2 SLP158 T01170083<br><br>
KBUF 070054Z 24005KT 10SM SCT150 SCT220 BKN270 12/08 A2999 RMK AO2 SLP157 T01220083<br><br>
KBUF 062325Z 0700/0724 24006KT P6SM FEW035 SCT250 FM070300 20006KT P6SM SCT250 FM071200 22006KT P6SM SCT080 FM071500 24012G18KT P6SM SCT060 FM072100 24010KT P6SM SCT045<br><br>
<br><br>
CYYZ 070100Z 17005KT 15SM BKN230 14/09 A2995 RMK CI5 SLP147<br><br>
TAF CYYZ 062338Z 0700/0806 14012KT P6SM FEW040 SCT240 BECMG 0700/0702 20008KT BECMG 0703/0705 25008KT FM070500 25008KT P6SM BKN120 FM071000 26008KT P6SM BKN060 FM071500 26012G22KT P6SM BKN040 FM072100 27015KT P6SM BKN080 FM080100 34008KT P6SM SCT100 RMK NXT FCST BY 070300Z<br><br>
<br><br>
CYOO 070100Z AUTO 00000KT 9SM FEW240 12/07 A2997 RMK SLP151<br><br>
CYOO has no TAF <br><br>
<br><br>
TAF CYTR 062330Z 0700/0724 22012KT P6SM FEW030 BKN220 BECMG 0700/0702 21005KT FM070800 21005KT P6SM BKN100 BECMG 0713/0715 23012G22KT FM071500 23012G22KT P6SM BKN040 FM072100 23010G20KT P6SM SCT040 RMK NXT FCST BY 070600Z<br><br>
<br><br>
