RETRIEVED AT : Apr 05 2020 12:05 Local <br>
  RETRIEVED AT: Apr 05 2020 16:05 UTC<br><br>
CYSN 051500Z 31009KT 15SM BKN031 08/05 A3009 RMK SC7 SLP193<br><br>
TAF CYSN 051241Z 0513/0601 35008KT P6SM OVC020 TEMPO 0513/0517 BKN025 OVC150 FM051700 32008KT P6SM FEW020 SCT120 BECMG 0522/0524 01006KT RMK NXT FCST BY 052000Z<br><br>
<br><br>
CYHM 051500Z 30008G15KT 15SM BKN023 BKN250 08/02 A3009 RMK SC7CI1 CI TR SLP198<br><br>
TAF CYHM 051138Z 0512/0612 32010KT P6SM BKN010 OVC030 TEMPO 0512/0514 SCT010 BKN030 FM051400 33010KT P6SM SCT015 BKN140 TEMPO 0514/0518 BKN015 BKN140 FM051800 36005KT P6SM FEW025 SCT120 BECMG 0519/0521 06008KT FM060400 02005KT P6SM SKC BECMG 0610/0612 VRB03KT RMK NXT FCST BY 051800Z<br><br>
<br><br>
KIAG 051553Z 32010KT 10SM BKN016 OVC026 08/03 A3009 RMK AO2 SLP199 T00780033<br><br>
KIAG 051453Z 32008KT 10SM OVC031 07/03 A3008 RMK AO2 SLP195 60000 T00720033 51013<br><br>
KIAG 051441Z 32011KT 10SM FEW023 OVC030 07/03 A3008 RMK AO2 T00720033<br><br>
KIAG 051505Z 0515/0612 32008KT P6SM OVC030 TEMPO 0515/0517 BKN020 FM051900 31008KT P6SM SCT020 BKN150 FM052300 30005KT P6SM FEW250<br><br>
<br><br>
KBUF 051554Z 33005KT 10SM FEW012 BKN017 OVC023 08/03 A3009 RMK AO2 SLP192 T00830033<br><br>
KBUF 051524Z 32007KT 10SM SCT012 BKN017 OVC021 08/04 A3008 RMK AO2 T00830039<br><br>
KBUF 051454Z 33007KT 10SM BKN012 OVC025 08/04 A3008 RMK AO2 SLP190 T00830044 51013<br><br>
KBUF 051505Z 0515/0612 33007KT P6SM BKN012 OVC025 FM051900 30008KT P6SM SCT020 BKN150 FM052300 26004KT P6SM FEW250<br><br>
<br><br>
CYYZ 051500Z 35011G19KT 15SM FEW020 SCT250 09/02 A3009 RMK SC2CI1 SLP195<br><br>
TAF CYYZ 051438Z 0515/0618 34010G20KT P6SM SCT015 BKN040 TEMPO 0515/0517 BKN015 OVC040 FM051700 35015KT P6SM SCT015 BKN180 FM052100 36008KT P6SM SKC BECMG 0609/0611 33008KT FM061600 15010KT P6SM SCT150 RMK NXT FCST BY 051800Z<br><br>
<br><br>
CYOO 051500Z AUTO 32011G17KT 9SM OVC014 07/03 A3008 RMK SLP190<br><br>
TAF CYOO 051338Z 0514/0602 32012KT P6SM SCT012 OVC040 TEMPO 0514/0516 BKN012 OVC040 PROB30 0514/0515 OVC008 FM051600 32012KT P6SM FEW015 SCT180 TEMPO 0516/0518 BKN015 BECMG 0600/0602 34008KT RMK FCST BASED ON AUTO OBS. NXT FCST BY 052000Z<br><br>
<br><br>
CYTR 051500Z 33008KT 15SM BKN016 BKN060 10/06 A3003 RMK SC5SC2 SLP173<br><br>
CYTR 051457Z 31008KT 15SM BKN016 BKN060 10/07 A3003 RMK SC5SC2 SLP173<br><br>
TAF CYTR 051130Z 0512/0612 VRB03KT P6SM FEW010 OVC030 TEMPO 0512/0513 3SM -RA -DZ BR OVC010 PROB30 0512/0513 2SM -DZ BR OVC008 FM051300 31005KT P6SM OVC012 TEMPO 0513/0517 SCT012 OVC025 FM051700 32010KT P6SM BKN025 TEMPO 0517/0520 BKN020 FM052000 32010KT P6SM SCT025 FM060000 31008KT P6SM SKC BECMG 0608/0610 VRB03KT RMK NXT FCST BY 051800Z<br><br>
<br><br>
