RETRIEVED AT : Apr 21 2018 22:27 Local <br>
  RETRIEVED AT: Apr 22 2018 02:27 UTC<br><br>
CYSN 220100Z 22008KT 15SM FEW260 07/M03 A3039 RMK CI2 LAST STFD OBS/NEXT 221100 UTC SLP297<br><br>
CYSN has no TAF <br><br>
<br><br>
CYHM 220200Z 31005KT 15SM SKC 08/M05 A3040 RMK SLP303<br><br>
CYHM 220100Z 31003KT 15SM FEW150 09/M06 A3040 RMK AC1 AC TR SLP302<br><br>
TAF CYHM 212340Z 2200/2224 31005KT P6SM SCT250 BECMG 2202/2204 34005KT FM221400 05008KT P6SM SKC RMK NXT FCST BY 220600Z<br><br>
<br><br>
KIAG 220153Z 22005KT 10SM CLR 05/M04 A3041 RMK AO2 SLP307 T00501044 $<br><br>
KIAG 220053Z 22007KT 10SM CLR 06/M04 A3040 RMK AO2 SLP304 T00611039 $<br><br>
KIAG 212324Z 2200/2224 23008KT P6SM SKC FM220300 22004KT P6SM SKC FM220400 VRB03KT P6SM SKC FM221600 03004KT P6SM SKC FM221800 02008KT P6SM SKC<br><br>
<br><br>
KBUF 220154Z 20004KT 10SM BKN250 03/M03 A3041 RMK AO2 SLP306 T00331033<br><br>
KBUF 220054Z 22003KT 10SM BKN250 05/M05 A3040 RMK AO2 SLP302 T00501050<br><br>
KBUF 212324Z 2200/2224 22006KT P6SM SKC FM220300 VRB03KT P6SM SKC FM221900 04004KT P6SM SKC<br><br>
<br><br>
CYYZ 220200Z 35006KT 15SM FEW260 09/M06 A3040 RMK CI1 CI TR SLP300<br><br>
CYYZ 220100Z 31006KT 15SM FEW260 10/M06 A3039 RMK CI1 SLP297<br><br>
TAF CYYZ 212340Z 2200/2306 30010KT P6SM FEW250 BECMG 2200/2202 31005KT FM221700 16008KT P6SM SKC BECMG 2301/2303 36005KT RMK NXT FCST BY 220300Z<br><br>
<br><br>
CYOO 220200Z AUTO 34005KT 9SM CLR 06/M06 A3039 RMK SLP298<br><br>
CYOO 220100Z AUTO 33006KT 9SM CLR 08/M07 A3038 RMK SLP294<br><br>
CYOO has no TAF <br><br>
<br><br>
CYTR 220200Z 31003KT 15SM SKC 08/M05 A3037 RMK SLP286<br><br>
CYTR 220100Z 29004KT 15SM SKC 09/M05 A3035 RMK SLP280<br><br>
TAF CYTR 212330Z 2200/2224 27012KT P6SM FEW200 BECMG 2202/2204 VRB03KT FM221600 21008KT P6SM SKC BECMG 2222/2224 VRB03KT RMK NXT FCST BY 220600Z<br><br>
<br><br>
