RETRIEVED AT : May 25 2020 02:05 Local <br>
  RETRIEVED AT: May 25 2020 06:05 UTC<br><br>
CYSN has no TAF <br><br>
<br><br>
CYHM 250500Z 22005KT 15SM OVC051 20/17 A2997 RMK SC7 SLP147 DENSITY ALT 1500FT<br><br>
TAF CYHM 250538Z 2506/2606 19005KT P6SM FEW040 SCT080 FM251600 21012KT P6SM SCT040 FM251900 22012KT P6SM SCT060 TEMPO 2520/2601 P6SM VCTS FEW040CB BKN060 RMK NXT FCST BY 251200Z<br><br>
<br><br>
KIAG 250553Z AUTO 20012KT 10SM FEW120 21/15 A2996 RMK AO2 SLP141 T02060150 10261 20206 50001 $<br><br>
KIAG 250453Z AUTO 20013KT 10SM CLR 21/16 A2997 RMK AO2 SLP144 T02110156 402830156 $<br><br>
KIAG 250539Z 2506/2606 20012KT P6SM VCSH BKN150 TEMPO 2506/2509 5SM -TSRA OVC040CB FM251100 21012G18KT P6SM SCT150 FM251800 22010KT P6SM SCT250 FM260000 20005KT P6SM SKC<br><br>
<br><br>
KBUF 250554Z 18013KT 10SM FEW120 21/15 A2998 RMK AO2 SLP148 T02110150 10261 20211 58003<br><br>
KBUF 250454Z 18011KT 10SM FEW080 SCT180 22/16 A2999 RMK AO2 SLP152 T02170156 402940172<br><br>
KBUF 250539Z 2506/2606 18012KT P6SM VCSH BKN150 TEMPO 2507/2510 5SM -TSRA OVC040CB FM251200 20010G16KT P6SM SCT150 FM251800 23012KT P6SM SCT250 FM260000 20005KT P6SM SKC<br><br>
<br><br>
CYYZ 250540Z 21006KT 15SM FEW060 SCT100 21/17 A2993 RMK SC2AC2 SLP134 DENSITY ALT 1400FT<br><br>
CYYZ 250511Z 18004KT 15SM -RA SCT070 BKN100 20/16 A2992 RMK AC4AC3 SLP133 DENSITY ALT 1400FT<br><br>
CYYZ 250500Z 20005KT 15SM SCT070 BKN100 21/16 A2993 RMK AC4AC3 SLP134 DENSITY ALT 1400FT<br><br>
TAF CYYZ 250538Z 2506/2612 17005KT P6SM SCT060 BKN100 FM250900 16010KT P6SM FEW030 BECMG 2510/2512 24012KT FM252000 20012KT P6SM SCT060 TEMPO 2520/2602 P6SM VCTS FEW040CB BKN060 FM260200 22008KT P6SM FEW060 BECMG 2604/2606 13007KT FM260900 09006KT P6SM FEW080 PROB30 2609/2612 3/4SM BR RMK NXT FCST BY 250900Z<br><br>
<br><br>
CYOO 250602Z AUTO 12003KT 080V220 9SM -RA VCTS BKN042 OVC050 18/18 A2996 RMK LTNG DIST E SW W SLP145 DENSITY ALT 900FT<br><br>
CYOO 250552Z AUTO 00000KT 6SM -RA BR BKN042 OVC050 19/18 A2996 RMK LTNG DIST E W SLP145 DENSITY ALT 900FT<br><br>
CYOO 250548Z AUTO 00000KT 3SM -RA BR BKN042 OVC050 19/18 A2995 RMK LTNG DIST E SE W SLP144 DENSITY ALT 900FT<br><br>
CYOO 250543Z AUTO 00000KT 3SM RA VCTS BR BKN042 OVC050 19/18 A2995 RMK LTNG DIST E SE SLP143 DENSITY ALT 900FT<br><br>
CYOO 250529Z AUTO VRB06KT 5SM TSRA BR SCT044 OVC055 19/18 A2995 RMK SLP142 DENSITY ALT 900FT<br><br>
CYOO 250528Z AUTO VRB04KT 6SM TSRA BR BKN048 OVC055 19/18 A2995 RMK SLP143 DENSITY ALT 900FT<br><br>
CYOO 250523Z AUTO VRB02KT 9SM -RA FEW042 OVC055 19/17 A2996 RMK PRESRR SLP146 DENSITY ALT 900FT<br><br>
CYOO 250519Z AUTO 31005KT 300V080 9SM FEW042 BKN055 OVC072 19/18 A2997 RMK PRESRR SLP149 DENSITY ALT 900FT<br><br>
CYOO 250516Z AUTO 31010KT 300V110 9SM -RA FEW042 BKN055 OVC072 19/17 A2997 RMK PRESRR SLP150 DENSITY ALT 1000FT<br><br>
CYOO 250500Z AUTO 07005KT 320V100 9SM -TSRA BKN055 OVC069 19/17 A2994 RMK LTNG DIST NE SLP141 DENSITY ALT 900FT<br><br>
CYOO 250451Z AUTO 32007KT 310V080 9SM -TSRA SCT055 BKN069 OVC085 19/17 A2996 RMK LTNG DIST N NE PRESRR SLP145 DENSITY ALT 1000FT<br><br>
CYOO 250443Z AUTO 07003KT 9SM TS SCT055 OVC068 19/16 A2993 RMK LTNG DIST N NE SLP136 DENSITY ALT 900FT<br><br>
CYOO 250438Z AUTO 08003KT 9SM VCTS FEW055 BKN069 OVC090 19/16 A2993 RMK LTNG DIST N SLP136 DENSITY ALT 900FT<br><br>
CYOO 250431Z AUTO 09005KT 060V160 9SM BKN070 OVC088 19/16 A2993 RMK LTNG DIST NE SLP136 DENSITY ALT 900FT<br><br>
CYOO 250412Z AUTO 03004KT 320V050 8SM -RA BKN075 OVC093 20/15 A2994 RMK SLP140 DENSITY ALT 1000FT<br><br>
TAF AMD CYOO 250455Z 2504/2514 VRB03KT P6SM SCT080 BKN120 TEMPO 2504/2507 VRB15G25KT 4SM TSRA BKN030 OVC060CB FM250700 VRB03KT P6SM FEW020 SCT080 RMK FCST BASED ON AUTO OBS. NXT FCST BY 250800Z<br><br>
<br><br>
CYTR 250546Z 21007KT 6SM -TSRA BR FEW015 OVC025 19/14 A3000 RMK SF1SC8 CB EMBD W-SW MOVG E OCNL LTGICCC SLP159<br><br>
CYTR 250521Z 23005KT 7SM -TSRA BKN036 OVC050 20/14 A2999 RMK SC5SC3 CB EMBD OVRHD MOVG E OCNL LTGICCC SLP157<br><br>
CYTR 250500Z 20003KT 15SM TS FEW031 OVC085 20/13 A2998 RMK SC2AC6 CB EMBD W MOVG E OCNL LTGCCCG SLP154<br><br>
CYTR 250452Z 20003KT 15SM FEW031 OVC085 20/13 A2998 RMK SC2AC6 CB EMBD DIST W AND NE MOVG E OCNL LTGCG SLP150<br><br>
CYTR 250422Z 14005KT 12SM -TSRA FEW027 BKN045 OVC085 20/13 A2997 RMK SC2SC5AC2 CB EMBD NE MOVG E OCNL LTGICCCCG SLP151<br><br>
TAF CYTR 250530Z 2506/2606 VRB03KT P6SM -SHRA FEW012 SCT030 OVC080 TEMPO 2506/2507 VRB15G25KT 2SM TSRA BR SCT012 OVC030CB FM250700 20005KT 3SM -SHRA BR SCT006 BKN012 OVC025 TEMPO 2507/2509 P6SM NSW FEW006 SCT012 OVC025 PROB30 2507/2508 VRB15G25KT 11/2SM TSRA BR SCT006 OVC012CB FM250900 20005KT 2SM BR BKN006 OVC012 TEMPO 2509/2513 6SM BR SCT006 BKN012 OVC025 PROB30 2509/2513 1SM -DZ BR OVC004 FM251300 20005KT 6SM BR SCT008 OVC012 TEMPO 2513/2515 P6SM NSW FEW008 SCT012 OVC025 FM251500 20005KT P6SM BKN015 BECMG 2515/2517 22010KT FEW015 FM251900 22010KT P6SM FEW040 BECMG 2600/2602 VRB03KT RMK NXT FCST BY 251200Z<br><br>
<br><br>
