RETRIEVED AT : Apr 05 2020 13:05 Local <br>
  RETRIEVED AT: Apr 05 2020 17:05 UTC<br><br>
CYSN 051600Z 32011KT 15SM BKN030 09/04 A3010 RMK SC7 SLP195<br><br>
TAF CYSN 051241Z 0513/0601 35008KT P6SM OVC020 TEMPO 0513/0517 BKN025 OVC150 FM051700 32008KT P6SM FEW020 SCT120 BECMG 0522/0524 01006KT RMK NXT FCST BY 052000Z<br><br>
<br><br>
CYHM 051600Z 31007KT 280V350 15SM BKN023 BKN250 08/02 A3011 RMK SC6CI1 CC ASOCTD SLP202<br><br>
TAF CYHM 051138Z 0512/0612 32010KT P6SM BKN010 OVC030 TEMPO 0512/0514 SCT010 BKN030 FM051400 33010KT P6SM SCT015 BKN140 TEMPO 0514/0518 BKN015 BKN140 FM051800 36005KT P6SM FEW025 SCT120 BECMG 0519/0521 06008KT FM060400 02005KT P6SM SKC BECMG 0610/0612 VRB03KT RMK NXT FCST BY 051800Z<br><br>
<br><br>
KIAG 051653Z 31012KT 10SM OVC028 09/03 A3009 RMK AO2 SLP200 T00890028<br><br>
KIAG 051553Z 32010KT 10SM BKN016 OVC026 08/03 A3009 RMK AO2 SLP199 T00780033<br><br>
