RETRIEVED AT : Jun 29 2018 23:41 Local <br>
  RETRIEVED AT: Jun 30 2018 03:41 UTC<br><br>
CYSN has no TAF <br><br>
<br><br>
CYHM 300300Z 20009KT 15SM FEW250 22/18 A2999 RMK CI1 CI TR SLP152 DENSITY ALT 1800FT<br><br>
CYHM 300200Z 20006KT 15SM FEW250 22/19 A3000 RMK CI1 SLP158 DENSITY ALT 1800FT<br><br>
TAF CYHM 292338Z 3000/3024 20012KT P6SM FEW240 BECMG 3013/3015 25012G22KT FM301700 25010G20KT P6SM SCT040 RMK NXT FCST BY 300600Z<br><br>
<br><br>
KIAG 300222Z 3002/3024 22007KT P6SM FEW250 FM301300 22012G20KT P6SM FEW250<br><br>
<br><br>
KBUF 300222Z 3002/3024 21004KT P6SM FEW250 FM301100 22009KT P6SM SCT250 FM301300 23013G23KT P6SM FEW250<br><br>
<br><br>
CYYZ 300300Z 21006KT 15SM FEW250 26/18 A2996 RMK CI2 SLP145 DENSITY ALT 2000FT<br><br>
CYYZ 300200Z 21006KT 15SM SKC 27/17 A2998 RMK SLP149 DENSITY ALT 2000FT<br><br>
TAF CYYZ 300238Z 3003/0106 22010KT P6SM SKC FM301500 24015KT P6SM FEW030 BECMG 3023/3024 26010KT RMK NXT FCST BY 300600Z<br><br>
<br><br>
CYOO 300300Z AUTO 22006KT 9SM CLR 24/15 A2996 RMK SLP146 DENSITY ALT 1500FT<br><br>
CYOO 300200Z AUTO 20005KT 9SM CLR 25/15 A2997 RMK SLP150 DENSITY ALT 1600FT<br><br>
CYOO has no TAF <br><br>
<br><br>
TAF CYTR 292330Z 3000/3024 22010KT P6SM BKN250 BECMG 3001/3003 23006KT FM300800 23008KT P6SM SCT250 FM301700 23012G22KT P6SM SCT040 RMK NXT FCST BY 300600Z<br><br>
<br><br>
