RETRIEVED AT : Mar 20 2020 22:05 Local <br>
  RETRIEVED AT: Mar 21 2020 02:05 UTC<br><br>
CYSN 210100Z CCA 29017G24KT 15SM OVC021 01/M03 A3018 RMK SC8 LAST STFD OBS/NEXT 211100 UTC SLP224<br><br>
CYSN has no TAF <br><br>
<br><br>
CYHM 210100Z 31019G27KT 15SM OVC019 M01/M05 A3020 RMK SC8 PRESRR SLP234<br><br>
TAF CYHM 202338Z 2100/2124 30015G25KT P6SM OVC020 TEMPO 2100/2110 SCT020 BKN030 BECMG 2104/2106 36008KT FM211000 03010KT P6SM SCT020 FM211200 04010KT P6SM SKC FM211800 06008KT P6SM SCT200 RMK NXT FCST BY 210600Z<br><br>
<br><br>
KIAG 210153Z 32019G26KT 10SM BKN018 OVC025 00/M04 A3020 RMK AO2 PK WND 31026/0146 SLP236 T00001039<br><br>
KIAG 210053Z 30013G25KT 10SM OVC020 01/M03 A3017 RMK AO2 PK WND 29029/0042 SLP224 T00061028<br><br>
KIAG 202330Z 2100/2124 29017G25KT P6SM BKN025 OVC030 FM210400 32015G22KT P6SM BKN060 FM210800 34011G17KT P6SM BKN070 FM211100 35010KT P6SM FEW250<br><br>
<br><br>
KBUF 210154Z 30014G20KT 10SM OVC019 01/M03 A3019 RMK AO2 PK WND 29026/0116 SLP228 T00111033<br><br>
KBUF 210054Z 29017G20KT 10SM BKN019 OVC026 02/M02 A3015 RMK AO2 PK WND 30026/0018 SLP215 T00221022<br><br>
KBUF 202330Z 2100/2124 28015G23KT P6SM OVC023 FM210600 33011G17KT P6SM OVC040 FM211400 36007KT P6SM SCT250<br><br>
<br><br>
CYYZ 210100Z 32023G29KT 15SM BKN024 M01/M06 A3019 RMK SC7 SLP229<br><br>
TAF CYYZ 202338Z 2100/2206 31018G28KT P6SM BKN020 OVC100 TEMPO 2100/2102 SCT020 OVC100 FM210200 33015G25KT P6SM BKN025 TEMPO 2102/2106 BKN020 FM210600 35015G25KT P6SM SCT025 TEMPO 2106/2108 BKN020 FM210900 01012G22KT P6SM SKC BECMG 2112/2114 01012KT FM211800 01012KT P6SM SCT200 FM220000 36008KT P6SM SKC RMK NXT FCST BY 210300Z<br><br>
<br><br>
CYOO 210142Z AUTO 31017G29KT 9SM BKN025 M02/M06 A3018 RMK PRESRR SLP225<br><br>
CYOO 210139Z AUTO 32015G32KT 9SM BKN023 M02/M06 A3017 RMK PRESRR SLP224<br><br>
CYOO 210128Z AUTO 31024G35KT 9SM SCT021 BKN025 M02/M06 A3016 RMK SLP219<br><br>
CYOO 210100Z AUTO 31021G28KT 9SM OVC019 M01/M05 A3015 RMK SLP215<br><br>
TAF CYOO 210138Z 2102/2114 31018G28KT P6SM OVC020 TEMPO 2102/2106 BKN025 BECMG 2104/2106 34012G22KT FM210600 34012G22KT P6SM SCT020 TEMPO 2106/2108 BKN020 FM211000 34010KT P6SM SKC RMK FCST BASED ON AUTO OBS. NXT FCST BY 210800Z<br><br>
<br><br>
CYTR 210100Z 30016G25KT 15SM BKN020 BKN250 01/M04 A3007 RMK SC5CI2 PRESRR SLP186<br><br>
TAF AMD CYTR 210156Z 2101/2124 30015G25KT P6SM BKN020 OVC250 BECMG 2102/2104 34010G20KT SCT020 FM210700 35008KT P6SM SKC FM211700 35008KT P6SM SCT210 RMK NXT FCST BY 210600Z<br><br>
<br><br>
