RETRIEVED AT : Oct 28 2018 14:05 Local <br>
  RETRIEVED AT: Oct 28 2018 18:05 UTC<br><br>
CYSN 281700Z 24007KT 8SM BKN011 OVC029 05/04 A2971 RMK SC5SC3 SLP066<br><br>
CYSN 281623Z 24009G15KT 10SM -RA BKN010 OVC030 04/03 A2972 RMK SC7SC1 SLP069<br><br>
TAF AMD CYSN 281324Z 2813/2901 27005KT 5SM -RA -DZ BR OVC006 TEMPO 2813/2817 P6SM NSW OVC010 FM281700 26007KT 11/2SM -RA -DZ BR OVC005 TEMPO 2817/2819 6SM -RA BR OVC010 FM281900 24008KT P6SM -RA BKN015 BKN050 TEMPO 2819/2822 P6SM NSW SCT012 BKN050 FM282200 22008KT P6SM OVC015 TEMPO 2823/2824 P6SM -SHRA FM290000 VRB03KT P6SM -SHRA OVC015 RMK NXT FCST BY 282000Z<br><br>
<br><br>
CYHM 281700Z 25008KT 12SM SCT007 BKN014 OVC070 05/03 A2970 RMK SC3SC3AC2 SLP065<br><br>
TAF CYHM 281739Z 2818/2918 25008KT P6SM SCT007 BKN015 OVC070 TEMPO 2818/2821 SCT015 OVC070 FM282100 25007KT P6SM -SHRA BKN015 OVC050 TEMPO 2821/2824 P6SM NSW SCT015 OVC050 FM290000 35005KT P6SM -SHRA BKN015 OVC025 FM290300 35008KT P6SM OVC025 FM290500 31008KT P6SM SCT010 BKN050 FM291100 27010KT P6SM -SHRA SCT020 BKN030 BECMG 2915/2917 27015G25KT FM291700 27015G25KT P6SM BKN025 RMK NXT FCST BY 290000Z<br><br>
<br><br>
KIAG 281753Z 25004KT 10SM SCT012 BKN018 OVC036 05/03 A2969 RMK AO2 RAE16 SLP065 P0000 60000 T00500028 10050 20022 58014<br><br>
KIAG 281653Z 25008KT 9SM -RA OVC011 04/02 A2971 RMK AO2 RAB04 SLP073 P0000 T00390017<br><br>
KIAG 281640Z 26008KT 9SM -RA OVC011 04/02 A2971 RMK AO2 RAB04 P0000 T00390017<br><br>
KIAG 281729Z 2818/2918 25008KT P6SM -RA OVC011 FM282100 21004KT P6SM OVC020 FM290300 VRB03KT 5SM -SHRA OVC012 FM291000 30007KT P6SM OVC020 FM291400 27012G20KT P6SM OVC015 FM291700 26015G25KT P6SM OVC020<br><br>
<br><br>
KBUF 281754Z 25008KT 10SM FEW013 OVC024 05/03 A2969 RMK AO2 RAE49 SLP060 P0000 60001 T00500033 10050 20022 58013<br><br>
KBUF 281654Z 26010KT 10SM -RA BKN010 OVC014 05/03 A2971 RMK AO2 DZE22RAB22 SLP066 PCPN VRY LGT P0000 T00500033<br><br>
KBUF 281618Z 27007KT 10SM -DZ FEW006 OVC011 04/03 A2972 RMK AO2 P0000 T00390028<br><br>
KBUF 281729Z 2818/2918 26010KT P6SM -RA BKN010 OVC014 FM282200 VRB03KT P6SM OVC012 FM290100 VRB03KT P6SM OVC007 FM290300 00000KT 5SM -SHRA OVC012 FM291100 28007KT P6SM OVC012 FM291700 26014G24KT P6SM OVC020<br><br>
<br><br>
CYYZ 281700Z 23010KT 10SM -RA OVC012 04/02 A2970 RMK SC8 SLP063<br><br>
TAF CYYZ 281739Z 2818/2924 23010KT P6SM -RA OVC012 FM281820 23010KT P6SM OVC012 TEMPO 2818/2821 BKN025 OVC050 FM282100 24008KT P6SM BKN025 OVC050 TEMPO 2821/2823 BKN020 OVC050 FM282300 VRB03KT P6SM OVC012 TEMPO 2823/2904 P6SM -SHRA FM290400 VRB03KT P6SM SCT020 OVC050 BECMG 2905/2907 30007KT FM291100 24008KT P6SM -SHRASN BKN015 OVC050 FM291400 29010G20KT P6SM -SHRA BKN015 OVC030 FM291700 29015G25KT P6SM BKN030 FM291900 29015G25KT P6SM SCT030 BKN100 RMK NXT FCST BY 282100Z<br><br>
<br><br>
CYOO 281700Z AUTO 24006KT 210V270 9SM OVC012 04/02 A2969 RMK SLP061<br><br>
CYOO has no TAF <br><br>
<br><br>
CYTR 281722Z 00000KT 15SM SCT013 OVC044 04/01 A2970 RMK SF3SC5 SLP061<br><br>
CYTR 281700Z 26005KT 15SM -RA SCT012 OVC050 03/01 A2971 RMK SF4SC4 PCPN VRY LGT SLP065<br><br>
CYTR 281615Z 25002KT 15SM -RA BKN010 OVC050 03/01 A2971 RMK SF6SC2 PCPN VRY LGT SLP067<br><br>
TAF CYTR 281730Z 2818/2918 25005KT P6SM SCT012 OVC040 TEMPO 2818/2821 P6SM -RA BKN012 OVC040 FM282100 24005KT 6SM -RA BR OVC015 TEMPO 2821/2903 P6SM NSW SCT015 OVC025 FM290300 VRB03KT P6SM SCT020 BKN050 TEMPO 2903/2914 P6SM -RA OVC020 FM291400 27005KT 6SM -RASN BR BKN006 OVC020 FM291700 29010KT P6SM -RASN BKN015 OVC040 RMK NXT FCST BY 290000Z<br><br>
<br><br>
