RETRIEVED AT : Jun 13 2020 12:05 Local <br>
  RETRIEVED AT: Jun 13 2020 16:05 UTC<br><br>
TAF CYSN 131240Z 1313/1401 05010KT P6SM FEW020 BKN140 FM131800 05008KT P6SM FEW040 BECMG 1323/1401 VRB03KT RMK NXT FCST BY 132000Z<br><br>
<br><br>
TAF CYHM 131138Z 1312/1412 03010KT P6SM FEW040 BKN120 FM131600 05010KT P6SM FEW050 RMK NXT FCST BY 131800Z<br><br>
<br><br>
KIAG 131509Z 1315/1412 01010G15KT P6SM SCT200 FM132200 05007KT P6SM FEW250<br><br>
<br><br>
KBUF 131509Z 1315/1412 36007KT P6SM SCT200 FM132300 06007KT P6SM FEW250<br><br>
<br><br>
TAF CYYZ 131438Z 1315/1418 33012KT P6SM FEW040 BECMG 1316/1318 03012KT BECMG 1321/1323 VRB03KT FM140200 03008KT P6SM SKC FM141500 10012KT P6SM FEW060 RMK NXT FCST BY 131800Z<br><br>
<br><br>
TAF CYOO 131338Z 1314/1402 01007KT P6SM FEW240 FM131800 02010KT P6SM FEW050 BECMG 1322/1324 VRB03KT RMK FCST BASED ON AUTO OBS. NXT FCST BY 132000Z<br><br>
<br><br>
TAF CYTR 131130Z 1312/1412 35008KT P6SM FEW140 BKN180 FM131500 01008KT P6SM FEW050 BECMG 1318/1320 20008KT FM140200 VRB03KT P6SM SCT060 BECMG 1407/1409 03005KT RMK NXT FCST BY 131800Z<br><br>
<br><br>
