RETRIEVED AT : Jun 01 2018 07:06 Local <br>
  RETRIEVED AT: Jun 01 2018 11:06 UTC<br><br>
CYSN has no TAF <br><br>
<br><br>
CYHM 011000Z 23003KT 15SM FEW045 SCT090 BKN230 18/18 A2973 RMK CU1AC2CI3 SLP065 DENSITY ALT 1600FT<br><br>
TAF CYHM 010538Z 0106/0206 18006KT P6SM SCT060 TEMPO 0106/0108 5SM -SHRA BR BKN040 FM010800 VRB03KT 6SM BR FEW020 TEMPO 0108/0113 2SM BR PROB30 0108/0113 3/4SM BR FM011300 VRB03KT P6SM BKN025 OVC160 FM011600 04010KT P6SM -SHRA BKN060 PROB30 0117/0122 VRB15G25KT 2SM TSRA BR BKN060CB FM012300 02010G20KT P6SM BKN030 BECMG 0204/0206 03015G25KT RMK NXT FCST BY 011200Z<br><br>
<br><br>
KIAG 011053Z 20007KT 10SM CLR 23/18 A2975 RMK AO2 SLP068 T02280183<br><br>
KIAG 010953Z AUTO 20007KT 10SM FEW070 BKN110 22/18 A2974 RMK AO2 SLP064 T02220183<br><br>
KIAG 010943Z 0110/0206 22007KT P6SM BKN080 BKN100 FM011400 22006KT P6SM SCT025 BKN035 FM011700 30006KT 4SM -SHRA VCTS BKN050CB FM012000 33007KT P6SM BKN045 FM020200 34008KT P6SM BKN025<br><br>
<br><br>
KBUF 010945Z 0110/0206 22006KT P6SM SCT110 FM011200 23009KT P6SM BKN035 FM012300 31006KT P6SM BKN025 FM020500 02007KT P6SM BKN020<br><br>
<br><br>
TAF CYYZ 010839Z 0109/0212 VRB03KT P6SM FEW030 TEMPO 0109/0112 4SM BR PROB30 0109/0112 3/4SM BR FM011200 VRB03KT P6SM FEW006 FM011600 35010KT P6SM SCT015 BKN050 TEMPO 0116/0118 P6SM -SHRA BKN015 FM011800 36012KT P6SM SCT050 TEMPO 0118/0120 P6SM -SHRA BKN040 BECMG 0121/0123 36012G22KT FM020400 36012G22KT P6SM BKN030 BECMG 0210/0212 03008G18KT RMK NXT FCST BY 011200Z<br><br>
<br><br>
CYOO 011000Z AUTO 00000KT 9SM BKN100 BKN130 18/17 A2972 RMK LTNG DIST NE SLP065 DENSITY ALT 1100FT<br><br>
CYOO 010938Z AUTO 36004KT 9SM FEW031 SCT043 SCT095 18/17 A2973 RMK LTNG DIST NE SLP066 DENSITY ALT 1100FT<br><br>
CYOO 010921Z AUTO 00000KT 9SM VCTS FEW028 SCT033 BKN045 BKN060 18/17 A2973 RMK LTNG DIST N NE NW SLP067 DENSITY ALT 1100FT<br><br>
CYOO has no TAF <br><br>
<br><br>
CYTR 011000Z 00000KT 15SM FEW120 OVC250 17/16 A2973 RMK AC2CI6 SLP067<br><br>
TAF AMD CYTR 010941Z 0109/0206 VRB03KT P6SM SCT120 BKN250 TEMPO 0109/0115 5SM BR BKN020 OVC120 PROB30 0110/0112 4SM TSRA BR BKN015 OVC030CB FM011500 21008KT P6SM SCT030 FM020000 03010KT P6SM BKN030 RMK NXT FCST BY 011200Z<br><br>
<br><br>
