RETRIEVED AT : May 30 2020 00:05 Local <br>
  RETRIEVED AT: May 30 2020 04:05 UTC<br><br>
CYSN has no TAF <br><br>
<br><br>
CYHM 300300Z 28008KT 15SM SKC 13/11 A2993 RMK SLP138 DENSITY ALT 800FT<br><br>
TAF CYHM 292354Z 3000/3024 29012KT P6SM FEW015 BKN050 TEMPO 3000/3003 BKN015 FM300300 29012KT P6SM FEW050 BECMG 3004/3006 29008KT FM300600 25005KT P6SM SKC FM300900 25006KT P6SM FEW010 SCT020 TEMPO 3009/3012 BKN010 FM301500 29015KT P6SM BKN020 BECMG 3015/3017 BKN030 FM301700 30018KT P6SM BKN040 FM302000 31020KT P6SM SCT050 TEMPO 3021/3024 BKN050 RMK NXT FCST BY 300600Z<br><br>
<br><br>
KIAG 300353Z AUTO 28013KT 10SM FEW026 FEW033 14/11 A2992 RMK AO2 SLP130 T01390111 $<br><br>
KIAG 300253Z 28005KT 10SM FEW025 BKN050 OVC070 15/12 A2990 RMK AO2 SLP123 60000 T01500122 51024 $<br><br>
KIAG 300233Z 31007KT 10SM SCT031 BKN050 OVC070 15/12 A2990 RMK AO2 T01500122 $<br><br>
KIAG 300254Z 3003/3024 31007KT P6SM BKN040 OVC070 FM300800 23007KT P6SM BKN060 TEMPO 3008/3011 4SM BR FM301500 26010G17KT P6SM VCSH BKN035 FM302300 30012G18KT P6SM SCT100<br><br>
<br><br>
KBUF 300354Z 26009KT 10SM SCT023 SCT028 BKN060 14/12 A2992 RMK AO2 SLP130 T01440122 $<br><br>
KBUF 300325Z 26006KT 10SM BKN025 BKN039 BKN070 14/12 A2991 RMK AO2 T01440122 $<br><br>
KBUF 300254Z 28012G18KT 10SM SCT019 BKN043 OVC070 15/12 A2991 RMK AO2 SLP126 T01500122 51026 $<br><br>
KBUF 300239Z 28010KT 10SM SCT016 SCT022 OVC055 15/13 A2990 RMK AO2 T01500133 $<br><br>
KBUF 300217Z 24006KT 10SM SCT014 OVC022 14/14 A2990 RMK AO2 T01440139 $<br><br>
KBUF 300254Z 3003/3024 28010KT P6SM SCT020 OVC040 FM300800 24007KT P6SM BKN060 TEMPO 3008/3011 4SM BR FM301200 23008KT P6SM BKN025 FM301500 24012G19KT P6SM VCSH BKN035 FM302200 28011G18KT P6SM SCT050<br><br>
<br><br>
CYYZ 300300Z 28011KT 15SM FEW065 14/11 A2990 RMK SC1 SC TR SLP127 DENSITY ALT 600FT<br><br>
TAF CYYZ 300238Z 3003/3106 29012KT P6SM FEW040 FM300900 24005KT P6SM SCT020 TEMPO 3010/3013 BKN020 FM301400 29010G20KT P6SM SCT030 BECMG 3016/3018 29015G25KT BKN030 FM302000 32018KT P6SM BKN050 FM302300 34012KT P6SM BKN030 FM310300 33010KT P6SM SCT025 TEMPO 3103/3106 BKN025 RMK NXT FCST BY 300600Z<br><br>
<br><br>
CYOO 300300Z AUTO 31013G19KT 9SM OVC017 15/13 A2986 RMK SLP113 DENSITY ALT 600FT<br><br>
CYOO 300211Z AUTO 30011G17KT 9SM BKN019 BKN070 OVC082 15/12 A2986 RMK SLP112 DENSITY ALT 600FT<br><br>
TAF CYOO 300138Z 3002/3014 28012KT P6SM BKN025 TEMPO 3002/3004 BKN020 FM300400 30012KT P6SM FEW050 FM301000 26005KT P6SM BKN020 BECMG 3012/3014 24010KT RMK FCST BASED ON AUTO OBS. NXT FCST BY 300800Z<br><br>
<br><br>
CYTR 300300Z 28013G21KT 5SM -DZ BKN015 OVC035 16/15 A2978 RMK SC5SC3 SLP085<br><br>
TAF AMD CYTR 300313Z 3003/3024 28012G22KT 3SM -DZ BR SCT003 BKN008 OVC030 TEMPO 3003/3012 P6SM NSW FEW003 BKN020 OVC030 BECMG 3003/3005 28010KT FM301200 25008KT P6SM -SHRA FEW015 BKN040 FM301500 22010KT P6SM -SHRA BKN015 OVC040 FM302100 28012G22KT P6SM SCT015 BKN040 RMK NXT FCST BY 300600Z<br><br>
<br><br>
