RETRIEVED AT : Feb 22 2020 07:05 Local <br>
  RETRIEVED AT: Feb 22 2020 12:05 UTC<br><br>
CYSN has no TAF <br><br>
<br><br>
CYHM 221100Z 24014G19KT 15SM SKC M03/M10 A3018 RMK SLP232<br><br>
TAF CYHM 221138Z 2212/2312 24010G20KT P6SM FEW020 FM221700 24012G22KT P6SM SCT025 FM230600 24010KT P6SM SCT015 FM230900 24010KT P6SM FEW020 BKN260 RMK NXT FCST BY 221800Z<br><br>
<br><br>
KIAG 221153Z 24011KT 10SM CLR M02/M08 A3021 RMK AO2 SLP246 T10221078 11006 21022 53006<br><br>
KIAG 221053Z AUTO 24015KT 10SM CLR M02/M08 A3020 RMK AO2 SLP244 T10171078<br><br>
KIAG 221130Z 2212/2312 24015KT P6SM SKC FM221400 24016G29KT P6SM FEW250 FM221700 23016G27KT P6SM FEW250 FM222300 23014G25KT P6SM FEW250<br><br>
<br><br>
KBUF 221154Z 25019G27KT 10SM FEW040 FEW120 00/M06 A3020 RMK AO2 PK WND 24029/1104 SLP236 T00001061 10000 20000 50002<br><br>
KBUF 221054Z 24015G23KT 10SM CLR 00/M06 A3021 RMK AO2 PK WND 25030/1012 SLP238 T00001061<br><br>
KBUF 221130Z 2212/2312 24015G23KT P6SM SKC FM221600 24016G31KT P6SM FEW250 FM230000 24015G27KT P6SM FEW250 FM230500 23014G25KT P6SM FEW250<br><br>
<br><br>
CYYZ 221100Z 21009G15KT 15SM FEW250 M04/M10 A3016 RMK CI1 CI TR SLP223<br><br>
TAF CYYZ 221138Z 2212/2318 23010G20KT P6SM FEW025 FM221600 24012G22KT P6SM SCT025 FM230200 23010KT P6SM FEW015 FM230900 23008KT P6SM FEW015 BKN270 FM231500 22010G20KT P6SM FEW025 BKN180 RMK NXT FCST BY 221500Z<br><br>
<br><br>
CYOO 221100Z AUTO 23006KT 9SM BKN240 M04/M10 A3016 RMK SLP221<br><br>
TAF CYOO 220741Z 2208/2220 24010KT P6SM SKC FM221200 25010G20KT P6SM SCT025 TEMPO 2212/2215 BKN025 FM221500 25012G22KT P6SM BKN025 RMK FCST BASED ON AUTO OBS. NXT FCST BY 221400Z<br><br>
<br><br>
CYTR 221100Z 25009KT 15SM FEW250 M03/M09 A3015 RMK CI2 SLP214<br><br>
TAF CYTR 221130Z 2212/2312 26010KT P6SM FEW020 FEW250 BECMG 2221/2223 25008KT RMK NXT FCST BY 221800Z<br><br>
<br><br>
