RETRIEVED AT : Aug 26 2018 16:05 Local <br>
  RETRIEVED AT: Aug 26 2018 20:05 UTC<br><br>
CYSN 261900Z 30008KT 250V320 12SM SCT038 SCT070 29/21 A3001 RMK CU3AC1 SLP161 DENSITY ALT 2000FT<br><br>
TAF CYSN 261943Z 2620/2701 28012KT P6SM BKN040 TEMPO 2620/2621 P6SM -SHRA BKN020 FM262100 28012KT P6SM FEW040 BECMG 2623/2624 23005KT SKC RMK NXT FCST WILL BE ISSUED AT 271245Z<br><br>
<br><br>
CYHM 261900Z 29008KT 240V310 15SM SCT032 BKN041 27/21 A3004 RMK CU3SC2 SLP171 DENSITY ALT 2300FT<br><br>
TAF CYHM 261739Z 2618/2718 27012KT P6SM BKN040 TEMPO 2618/2619 BKN020 FM262000 27012KT P6SM FEW040 BECMG 2622/2624 28005KT SKC FM270200 VRB03KT P6SM SKC FM270800 18005KT P6SM FEW060 SCT220 FM271100 23005KT P6SM -SHRA BKN040 BKN070 FM271400 24010KT P6SM BKN070 FM271700 23015G25KT P6SM FEW040 SCT070 RMK NXT FCST BY 270000Z<br><br>
<br><br>
KIAG 261953Z 21014G19KT 8SM FEW028 SCT037 BKN050 27/22 A3002 RMK AO2 SLP161 T02670217<br><br>
KIAG 261916Z 23011KT 8SM SCT026 BKN038 OVC055 26/22 A3003 RMK AO2 T02610217<br><br>
KIAG 261908Z 25013G20KT 8SM FEW020 BKN027 OVC065 26/22 A3003 RMK AO2 T02610217<br><br>
KIAG 261853Z 21015G18KT 8SM FEW021 BKN050 OVC060 26/21 A3003 RMK AO2 SLP162 T02560211<br><br>
KIAG 261734Z 2618/2718 20012KT P6SM SCT024 BKN040 FM261900 24012KT P6SM SCT040 BKN060 FM262300 24009KT P6SM SCT080 FM270800 18005KT P6SM SCT250 FM271400 21009KT P6SM BKN035 FM271600 22012G21KT P6SM BKN060<br><br>
<br><br>
KBUF 261954Z 24016KT 10SM SCT016 BKN230 26/22 A3004 RMK AO2 SLP169 T02560217<br><br>
KBUF 261905Z 24017G23KT 10SM SCT015 SCT030 SCT230 26/22 A3004 RMK AO2 T02560217<br><br>
KBUF 261854Z 24019KT 10SM BKN015 BKN030 BKN220 26/22 A3004 RMK AO2 SLP167 T02560217<br><br>
KBUF 261836Z 22016KT 10SM BKN015 BKN030 BKN220 26/21 A3004 RMK AO2 T02560211<br><br>
KBUF 261820Z 23016G22KT 10SM BKN014 BKN019 25/22 A3005 RMK AO2 T02500217<br><br>
KBUF 261734Z 2618/2718 23014KT P6SM SCT020 FM261900 24014G20KT P6SM SCT040 FM262100 24009KT P6SM SCT100 FM270600 20005KT P6SM SCT250 FM271400 22009KT P6SM BKN025 FM271600 23012G19KT P6SM BKN040<br><br>
<br><br>
CYYZ 261900Z 29012KT 15SM SCT043 BKN056 28/20 A3001 RMK CU4SC2 SLP160 DENSITY ALT 2100FT<br><br>
TAF CYYZ 261739Z 2618/2724 28010G20KT P6SM BKN050 FM262000 28010G20KT P6SM SCT050 BECMG 2621/2623 28010KT FM262300 27010KT P6SM SKC BECMG 2700/2702 VRB03KT FM270900 VRB03KT P6SM FEW040 SCT220 FM271200 20005KT P6SM BKN040 BKN200 TEMPO 2712/2715 P6SM -SHRA OVC040 FM271500 21010KT P6SM SCT100 BKN200 BECMG 2716/2718 22010G20KT BECMG 2718/2720 23015G25KT RMK NXT FCST BY 262100Z<br><br>
<br><br>
CYOO 261900Z AUTO 29009G15KT 230V300 9SM BKN043 28/19 A2999 RMK SLP156 DENSITY ALT 1900FT<br><br>
CYOO has no TAF <br><br>
<br><br>
CYTR 261900Z 23008KT 10SM SCT020 SCT100 BKN220 27/22 A2998 RMK CU4AC1CI1 MDT CU S OVR LKS HAZY SLP150<br><br>
TAF CYTR 261733Z 2618/2718 25012KT P6SM BKN030 BECMG 2620/2622 29008KT SCT040 FM270000 VRB03KT P6SM FEW040 PROB30 2707/2711 1SM BR FM271500 20005KT P6SM SCT025 BKN100 RMK NXT FCST BY 270000Z<br><br>
<br><br>
