RETRIEVED AT : Jun 16 2019 04:05 Local <br>
  RETRIEVED AT: Jun 16 2019 08:05 UTC<br><br>
CYSN has no TAF <br><br>
<br><br>
CYHM 160700Z 06010KT 3/4SM R12/2800VP6000FT/N -DZ BR OVC003 14/14 A2984 RMK FG4ST4 SLP108 DENSITY ALT 1000FT<br><br>
CYHM 160637Z 06010KT 1/8SM R12/3500VP6000FT/D -DZ FG VV002 15/15 A2985 RMK FG8 SLP110 DENSITY ALT 1100FT<br><br>
CYHM 160633Z 05008KT 3/4SM R12/3500VP6000FT/D BR OVC002 15/15 A2985 RMK FG3ST5 SLP110 DENSITY ALT 1100FT<br><br>
TAF CYHM 160538Z 1606/1706 05008KT 6SM BR OVC010 TEMPO 1606/1610 11/2SM -DZ BR OVC005 PROB40 1606/1609 3/4SM -RA -DZ BR OVC003 FM161000 04012KT P6SM FEW005 OVC012 TEMPO 1610/1612 5SM -DZ BR BKN005 OVC012 FM161400 04012KT P6SM BKN020 OVC050 FM161600 06012KT P6SM BKN025 FM170500 03005KT P6SM BKN120 RMK NXT FCST BY 161200Z<br><br>
<br><br>
KIAG 160753Z AUTO 07007KT 10SM FEW005 BKN012 OVC016 13/12 A2983 RMK AO2 SLP105 T01330117<br><br>
KIAG 160743Z AUTO 08007KT 10SM SCT005 OVC010 13/12 A2985 RMK AO2 T01330122<br><br>
KIAG 160719Z AUTO 05009KT 4SM BR OVC004 14/13 A2985 RMK AO2 T01390133<br><br>
KIAG 160653Z AUTO 05008KT 4SM BR OVC003 14/13 A2986 RMK AO2 CIG 002V006 SLP112 T01390133<br><br>
KIAG 160644Z AUTO 05008KT 2 1/2SM BR OVC002 14/13 A2985 RMK AO2 T01390133<br><br>
KIAG 160636Z AUTO 06006KT 2SM BR OVC004 14/14 A2985 RMK AO2 T01390139<br><br>
KIAG 160615Z AUTO 05009KT 3SM BR OVC004 14/14 A2986 RMK AO2 T01440139<br><br>
KIAG 160520Z 1606/1706 02007KT 4SM -DZ BR OVC005 FM160900 04006KT 2SM -DZ BR OVC004 FM161400 05008KT P6SM OVC007 FM161700 05008KT P6SM BKN015 FM162000 05007KT P6SM SCT025 BKN120<br><br>
<br><br>
KBUF 160754Z 04006KT 1 1/2SM R23/6000VP6000FT BR OVC001 14/14 A2984 RMK AO2 SLP104 T01440139<br><br>
KBUF 160746Z 03008KT 1 1/2SM BR OVC001 14/14 A2984 RMK AO2 T01440139<br><br>
KBUF 160715Z 02008KT 3SM BR OVC002 15/14 A2985 RMK AO2 T01500139<br><br>
KBUF 160654Z 02009KT 2SM BR OVC002 16/14 A2985 RMK AO2 RAE15 SLP108 P0000 T01560144<br><br>
KBUF 160641Z 03009KT 2SM BR OVC002 16/15 A2985 RMK AO2 RAE15 P0000 T01610150<br><br>
KBUF 160520Z 1606/1706 25005KT 2SM -RA BR OVC004 FM160900 04006KT 2SM -DZ BR OVC004 FM161400 05008KT P6SM OVC007 FM161700 05008KT P6SM BKN015 FM162100 05007KT P6SM SCT025 BKN120<br><br>
<br><br>
CYYZ 160700Z 05009KT 15SM FEW025 SCT043 BKN084 14/11 A2986 RMK CU1SC4AC1 CU TR SLP113 DENSITY ALT 600FT<br><br>
TAF CYYZ 160538Z 1606/1712 05010KT P6SM BKN060 BECMG 1612/1614 08010KT FM170000 14005KT P6SM FEW050 BECMG 1700/1702 32005KT RMK NXT FCST BY 160900Z<br><br>
<br><br>
CYOO 160700Z AUTO 36007KT 9SM CLR 11/10 A2986 RMK SLP113<br><br>
TAF CYOO 160738Z 1608/1620 01005KT P6SM BKN100 FM161500 08010KT P6SM SKC BECMG 1618/1620 16008KT RMK FCST BASED ON AUTO OBS. NXT FCST BY 161400Z<br><br>
<br><br>
CYTR 160700Z 03003KT 15SM FEW100 BKN240 10/09 A2987 RMK AC2CI3 SLP115<br><br>
TAF CYTR 160530Z 1606/1706 VRB03KT P6SM FEW050 BKN240 PROB30 1606/1609 1SM BR FM161300 04010KT P6SM SCT240 FM161800 21010KT P6SM SCT030 BECMG 1623/1701 VRB03KT RMK NXT FCST BY 161200Z<br><br>
<br><br>
