RETRIEVED AT : Oct 08 2017 12:10 Local <br>
  RETRIEVED AT: Oct 08 2017 16:10 UTC<br><br>
CYSN 081600Z 27014G20KT 15SM BKN034 21/14 A2986 RMK SC7 SLP112 DENSITY ALT 1200FT<br><br>
CYSN 081500Z 24014G22KT 15SM BKN037 22/14 A2983 RMK SC6 SLP103 DENSITY ALT 1300FT<br><br>
TAF CYSN 081238Z 0813/0901 23015G25KT P6SM FEW050 BECMG 0818/0820 22010G20KT RMK NXT FCST BY 082000Z<br><br>
<br><br>
CYHM 081600Z 26018KT 15SM FEW023 BKN030 20/14 A2987 RMK CU2SC5 SLP114 DENSITY ALT 1700FT<br><br>
CYHM 081500Z 25016G22KT 15SM FEW022 BKN028 19/15 A2985 RMK CU2SC5 SLP107 DENSITY ALT 1600FT<br><br>
TAF CYHM 081138Z 0812/0912 23015G25KT P6SM BKN025 TEMPO 0812/0819 BKN020 BECMG 0815/0817 23010G20KT FM081900 22010KT P6SM SKC BECMG 0821/0823 20007KT FM090400 09008KT P6SM BKN050 OVC160 FM090700 05012KT 6SM -RA SCT006 OVC025 FM090900 05012KT 3SM RA BR BKN005 OVC010 RMK NXT FCST BY 081800Z<br><br>
<br><br>
KIAG 081553Z 25015KT 10SM BKN038 22/13 A2987 RMK AO2 SLP111 T02170128<br><br>
KIAG 081453Z 23016G23KT 10SM BKN033 22/12 A2985 RMK AO2 SLP104 T02170122 51030<br><br>
KIAG 081535Z 0816/0912 23015G25KT P6SM BKN035 FM082200 22008KT P6SM SCT250 FM090100 18005KT P6SM SCT250 FM090500 14005KT 6SM -RA OVC060 FM091100 15006KT 4SM RA OVC012<br><br>
<br><br>
KBUF 081554Z 24018G24KT 10SM BKN040 BKN050 20/14 A2988 RMK AO2 PK WND 24027/1510 SLP116 T02000144<br><br>
KBUF 081454Z 26014G23KT 10SM FEW025 BKN033 BKN040 20/15 A2986 RMK AO2 PK WND 24030/1416 SLP109 T02000150 53027<br><br>
KBUF 081422Z 25018G30KT 10SM SCT029 BKN040 19/14 A2984 RMK AO2 PK WND 24030/1416 T01940144<br><br>
KBUF 081535Z 0816/0912 26015G25KT P6SM FEW025 BKN035 FM082000 24012KT P6SM SCT200 FM090100 VRB03KT P6SM SCT250 FM090500 13005KT 6SM -RA OVC080 FM091100 16012KT 4SM RA OVC012<br><br>
<br><br>
CYYZ 081600Z 26014G20KT 15SM FEW025 BKN035 21/15 A2984 RMK CU2SC3 SLP105 DENSITY ALT 1500FT<br><br>
CYYZ 081500Z 27014KT 15SM OVC022 19/14 A2982 RMK SC8 SLP099 DENSITY ALT 1300FT<br><br>
TAF CYYZ 081438Z 0815/0918 25015G25KT P6SM BKN030 TEMPO 0815/0816 BKN020 FM081600 27012G22KT P6SM BKN040 TEMPO 0816/0817 BKN020 FM081900 26010G20KT P6SM SKC BECMG 0821/0823 20008KT FM090200 VRB03KT P6SM SCT220 FM090600 VRB03KT P6SM BKN080 FM090800 08008KT 6SM -RA BR SCT008 OVC025 FM091000 08010KT 2SM RA BR OVC006 PROB30 0910/0914 OVC003 FM091400 04008KT 5SM -RA BR BKN008 OVC020 FM091600 04008KT P6SM OVC012 RMK NXT FCST BY 081800Z<br><br>
<br><br>
CYOO 081600Z AUTO 26013G19KT 9SM BKN028 OVC033 20/13 A2982 RMK SLP099 DENSITY ALT 1200FT<br><br>
CYOO 081500Z AUTO 24011G18KT 210V270 9SM OVC030 19/13 A2980 RMK SLP091 DENSITY ALT 1200FT<br><br>
CYOO has no TAF <br><br>
<br><br>
CYTR 081600Z 24016G21KT 15SM OVC025 20/15 A2982 RMK SC8 SLP097<br><br>
CYTR 081500Z 24016G22KT 15SM FEW024 BKN042 BKN078 21/15 A2979 RMK SC1SC6AC1 SLP086<br><br>
TAF CYTR 081130Z 0812/0912 23018G28KT P6SM SCT030 TEMPO 0812/0815 BKN020 FM081800 23008G18KT P6SM SCT030 BECMG 0821/0823 VRB03KT FM090200 VRB03KT P6SM SCT020 BKN200 FM090800 15005KT 3SM -SHRA BR SCT008 BKN020 RMK NXT FCST BY 081800Z<br><br>
<br><br>
