RETRIEVED AT : Oct 30 2017 10:10 Local <br>
  RETRIEVED AT: Oct 30 2017 14:10 UTC<br><br>
CYSN 301400Z 25018G26KT 15SM SCT048 07/00 A2948 RMK SC4 SLP986<br><br>
CYSN 301300Z 26017G30KT 15SM SCT040 07/M00 A2946 RMK SC4 SLP978<br><br>
TAF CYSN 301238Z 3013/3101 26015G25KT P6SM BKN025 BECMG 3013/3015 26020G35KT BECMG 3016/3018 25030G40KT FM302000 25020G30KT P6SM SCT020 BKN060 TEMPO 3020/3101 5SM -SHRA BR BKN020 RMK NXT FCST BY 302000Z<br><br>
<br><br>
CYHM 301400Z 25019G30KT 15SM FEW020 SCT024 SCT110 06/01 A2950 RMK CU2SC2AC1 AC TR PRESRR SLP996<br><br>
CYHM 301300Z 25016G23KT 15SM FEW024 SCT042 BKN100 06/M00 A2947 RMK CU1SC3AC1 SLP986<br><br>
TAF CYHM 301142Z 3012/3112 28015G25KT P6SM FEW015 BKN060 BECMG 3015/3017 25020G35KT FM301900 24020G35KT 6SM -SHRA BR OVC025 TEMPO 3019/3022 OVC020 BECMG 3022/3024 25018G28KT FM310300 25020G30KT P6SM BKN040 BECMG 3106/3108 24015G25KT RMK NXT FCST BY 301800Z<br><br>
<br><br>
KIAG 301353Z 25017G29KT 10SM SCT045 08/00 A2947 RMK AO2 PK WND 25030/1338 SLP987 T00830000<br><br>
KIAG 301253Z 27018G23KT 10SM BKN045 07/M01 A2946 RMK AO2 PK WND 27030/1203 SLP982 T00671006<br><br>
KIAG 301120Z 3012/3112 28021G37KT P6SM BKN030 FM301700 26023G41KT P6SM BKN045 FM302100 26021G33KT P6SM BKN050<br><br>
<br><br>
KBUF 301354Z 26020G29KT 10SM FEW027 BKN039 BKN048 BKN250 07/00 A2948 RMK AO2 PK WND 26029/1354 SLP986 T00670000<br><br>
KBUF 301254Z 25013G24KT 10SM FEW027 BKN048 BKN250 06/01 A2946 RMK AO2 PK WND 27028/1158 SLP980 T00560006<br><br>
KBUF 301120Z 3012/3112 28018G32KT P6SM BKN040 FM301500 27021G40KT P6SM SCT070 FM302000 25024G38KT 2SM +RA OVC007 FM310100 25020G28KT P6SM BKN025 FM310400 25019G28KT P6SM BKN140 FM310700 26018G28KT P6SM BKN025<br><br>
<br><br>
CYYZ 301400Z 28022G28KT 15SM FEW036 SCT050 SCT200 08/M01 A2944 RMK CU2SC1CI1 SLP974<br><br>
CYYZ 301300Z 28016KT 15SM FEW030 FEW200 06/M00 A2942 RMK SC1CI1 SLP967<br><br>
TAF CYYZ 301142Z 3012/3118 30020G30KT P6SM FEW020 BKN050 BKN200 BECMG 3012/3014 27020G30KT BECMG 3016/3018 25020G35KT FM302000 25020G30KT P6SM OVC030 TEMPO 3020/3024 P6SM -SHRA FM310100 24015G25KT P6SM BKN040 FM311200 24015KT P6SM BKN020 FM311500 25015G25KT P6SM BKN030 RMK NXT FCST BY 301500Z<br><br>
<br><br>
CYOO 301400Z AUTO 27019G26KT 9SM SCT040 07/M02 A2939 RMK SLP956<br><br>
CYOO 301300Z AUTO 27016G24KT 9SM CLR 06/M02 A2936 RMK SLP948<br><br>
CYOO has no TAF <br><br>
<br><br>
CYTR 301400Z 27018G27KT 15SM BKN032 BKN250 07/01 A2928 RMK SC5CI2 CONTRAILS SLP919<br><br>
CYTR 301300Z 28025G34KT 15SM FEW026 BKN070 BKN250 07/02 A2923 RMK SC2AC4CI1 SLP902<br><br>
CYTR 301219Z 28018G26KT 15SM BKN026 BKN053 06/02 A2920 RMK SC6SC2 SLP891<br><br>
TAF CYTR 301131Z 3012/3112 29020G35KT P6SM -RA OVC020 TEMPO 3012/3013 P6SM NSW SCT020 OVC030 FM301300 27020G35KT P6SM SCT020 BKN040 TEMPO 3013/3016 BKN020 OVC040 BECMG 3019/3021 25015G25KT FM302100 25015G25KT P6SM FEW020 SCT040 TEMPO 3021/3107 P6SM -SHRA BKN020 OVC040 BECMG 3021/3023 25012KT FM310700 25015KT P6SM SCT040 RMK NXT FCST BY 301800Z<br><br>
<br><br>
