RETRIEVED AT : Nov 04 2018 01:05 Local <br>
  RETRIEVED AT: Nov 04 2018 05:05 UTC<br><br>
CYSN has no TAF <br><br>
<br><br>
CYHM 040400Z 16004KT 15SM FEW022 FEW037 01/M00 A3033 RMK CF1SC2 CF TR SLP280<br><br>
TAF CYHM 032338Z 0400/0424 27007KT P6SM SCT040 TEMPO 0400/0403 BKN050 FM040500 VRB03KT P6SM SCT030 FM041600 07010KT P6SM FEW030 BKN140 RMK NXT FCST BY 040600Z<br><br>
<br><br>
KIAG 040453Z 26005KT 10SM CLR 01/M02 A3035 RMK AO2 SLP290 T00111017 400610011<br><br>
KIAG 040353Z 25007KT 10SM OVC044 03/M01 A3033 RMK AO2 SLP281 T00281006<br><br>
KIAG 040245Z 0403/0424 28012KT P6SM BKN045 FM040500 25006KT P6SM SCT045 FM041400 10004KT P6SM SCT250 FM042300 10010G16KT P6SM SCT200<br><br>
<br><br>
KBUF 040454Z 26004KT 10SM BKN043 04/M01 A3035 RMK AO2 SLP284 T00391006 400610028 $<br><br>
KBUF 040354Z 26007KT 10SM OVC047 04/M01 A3033 RMK AO2 SLP278 T00391006 $<br><br>
KBUF 040245Z 0403/0424 27011KT P6SM BKN045 FM040500 26006KT P6SM SCT045 FM040800 00000KT P6SM FEW250 FM041700 10008KT P6SM SCT250<br><br>
<br><br>
CYYZ 040400Z 27006KT 15SM FEW040 01/M03 A3032 RMK SC1 SLP275<br><br>
CYYZ 040335Z CCA 27004KT 270V330 15SM FEW040 02/M03 A3030 RMK SC1 T BLO 2 DEGS C SLP267<br><br>
TAF CYYZ 040238Z 0403/0506 30010KT P6SM BKN040 TEMPO 0403/0406 SCT040 FM040600 28007KT P6SM SCT040 FM041200 VRB03KT P6SM FEW030 BKN240 FM041700 11008KT P6SM SCT020 BKN140 FM042100 09010KT P6SM FEW025 BKN100 RMK NXT FCST BY 040600Z<br><br>
<br><br>
CYOO 040400Z AUTO 26004KT 9SM CLR 02/M01 A3030 RMK SLP267<br><br>
CYOO has no TAF <br><br>
<br><br>
CYTR 040400Z 25005KT 15SM BKN029 03/00 A3029 RMK SC7 SLP261<br><br>
TAF CYTR 032330Z 0400/0424 28012KT P6SM SCT030 TEMPO 0400/0406 BKN030 BECMG 0404/0406 27005KT FM041000 VRB03KT P6SM SCT020 FM041700 10008KT P6SM FEW020 SCT100 SCT250 RMK NXT FCST BY 040600Z<br><br>
<br><br>
