RETRIEVED AT : Oct 16 2017 10:10 Local <br>
  RETRIEVED AT: Oct 16 2017 14:10 UTC<br><br>
CYSN 161400Z 31012KT 15SM BKN030 10/02 A3020 RMK SC6 SLP228<br><br>
CYSN 161300Z 32009KT 15SM BKN025 08/03 A3018 RMK SC6 SLP221<br><br>
TAF CYSN 161238Z 1613/1701 34007KT P6SM BKN020 TEMPO 1613/1618 SCT025 FM161800 32007G19KT P6SM FEW030 FM170000 31011KT P6SM SKC RMK NXT FCST BY 162000Z<br><br>
<br><br>
CYHM 161400Z 34011KT 15SM FEW020 BKN038 06/02 A3021 RMK CU1SC5 CU TR SLP238<br><br>
CYHM 161300Z 31007KT 15SM FEW020 FEW030 05/03 A3020 RMK CU1SC1 CU TR SLP233<br><br>
TAF AMD CYHM 161156Z 1612/1712 30008KT P6SM FEW030 BECMG 1614/1616 31010G20KT BECMG 1622/1624 30008KT FM170300 VRB03KT P6SM SKC BECMG 1708/1710 23010KT RMK NXT FCST BY 161800Z<br><br>
<br><br>
KIAG 161353Z 34007KT 10SM BKN024 08/02 A3019 RMK AO2 SLP229 T00830022 $<br><br>
KIAG 161253Z 34008KT 10SM BKN026 09/02 A3017 RMK AO2 SLP220 T00890022<br><br>
KIAG 161132Z 1612/1712 36007KT P6SM BKN045 FM161500 31010KT P6SM SCT045 FM162200 29006KT P6SM FEW250 FM170100 VRB03KT P6SM FEW250<br><br>
<br><br>
KBUF 161354Z 35008KT 10SM BKN024 BKN037 BKN047 08/03 A3018 RMK AO2 SLP223 T00780033<br><br>
KBUF 161343Z 34011KT 10SM BKN024 BKN037 BKN047 08/03 A3018 RMK AO2 T00780028<br><br>
KBUF 161254Z 35006KT 10SM FEW026 FEW037 BKN047 08/03 A3016 RMK AO2 SLP217 T00780028<br><br>
KBUF 161132Z 1612/1712 34005KT P6SM BKN045 FM161400 32007KT P6SM SCT045 FM162100 31009KT P6SM FEW250 FM170000 VRB03KT P6SM FEW250<br><br>
<br><br>
CYYZ 161400Z 34009KT 15SM FEW018 FEW025 SCT035 BKN040 06/01 A3021 RMK CF1CU2SC2SC2 CF TR SLP236<br><br>
CYYZ 161335Z 01012KT 15SM FEW018 SCT025 BKN040 04/01 A3020 RMK CU2SC2SC2 SLP233<br><br>
CYYZ 161315Z 36010KT 15SM -SHRA SCT013 BKN025 BKN030 05/02 A3020 RMK CF3SC2SC2 SLP231<br><br>
CYYZ 161300Z 36009KT 15SM FEW013 SCT018 BKN030 05/02 A3019 RMK CF2SC2SC3 SLP229<br><br>
TAF CYYZ 161138Z 1612/1718 34009KT P6SM BKN030 TEMPO 1612/1616 SCT030 FM161600 33012G22KT P6SM BKN030 FM162200 32010G20KT P6SM FEW040 BECMG 1623/1624 32010KT BECMG 1701/1703 VRB03KT FM170500 25008KT P6SM BKN030 FM171400 24010G20KT P6SM FEW030 BECMG 1717/1718 24018G28KT RMK NXT FCST BY 161500Z<br><br>
<br><br>
CYOO 161400Z AUTO 35006KT 9SM OVC044 05/00 A3020 RMK SLP232<br><br>
CYOO 161300Z AUTO 30006KT 290V350 9SM OVC048 05/01 A3018 RMK SLP225<br><br>
CYOO 161243Z AUTO 34006KT 9SM FEW036 OVC048 05/01 A3017 RMK SLP223<br><br>
CYOO 161230Z AUTO 35007KT 9SM -RA SCT036 OVC046 05/01 A3017 RMK SLP220<br><br>
CYOO has no TAF <br><br>
<br><br>
CYTR 161400Z 34008KT 15SM BKN025 BKN055 07/01 A3017 RMK SC5SC2 SLP220<br><br>
CYTR 161300Z 36009KT 15SM FEW018 BKN032 BKN055 05/02 A3016 RMK CF1SC4SC2 SLP216<br><br>
CYTR 161211Z 33005KT 15SM -SHRA SCT022 BKN047 05/02 A3014 RMK SC4SC3 PCPN VRY LGT SLP210<br><br>
TAF CYTR 161130Z 1612/1712 32005KT P6SM SCT020 BKN030 TEMPO 1612/1615 P6SM -SHRA BKN020 OVC030 BECMG 1613/1615 32012KT FM162000 32012KT P6SM SCT050 FM170000 30005KT P6SM FEW080 BECMG 1702/1704 VRB03KT FM170900 VRB03KT P6SM BKN020 OVC040 RMK NXT FCST BY 161800Z<br><br>
<br><br>
