RETRIEVED AT : Jun 07 2018 19:05 Local <br>
  RETRIEVED AT: Jun 07 2018 23:05 UTC<br><br>
CYSN 072200Z 21012KT 15SM SCT250 23/10 A3000 RMK CI3 SLP162 DENSITY ALT 1300FT<br><br>
TAF CYSN 071938Z 0720/0801 20012KT P6SM FEW070 SCT240 RMK NXT FCST WILL BE ISSUED AT 081245Z<br><br>
<br><br>
CYHM 072200Z 22010G16KT 15SM SCT056 SCT250 23/12 A3002 RMK SC3CI1 SLP168 DENSITY ALT 1900FT<br><br>
TAF CYHM 071738Z 0718/0818 23015KT P6SM BKN060 FM080000 22008KT P6SM FEW040 BECMG 0803/0805 34008KT FM080800 VRB03KT P6SM SKC FM081400 06008KT P6SM SCT240 RMK NXT FCST BY 080000Z<br><br>
<br><br>
KIAG 072253Z 23011KT 10SM FEW065 24/09 A3004 RMK AO2 SLP172 T02390089<br><br>
KIAG 072153Z 24009KT 10SM CLR 24/10 A3002 RMK AO2 SLP165 T02440100<br><br>
KIAG 072107Z 0721/0818 22010KT P6SM SCT250 FM080200 20004KT P6SM SCT250 FM081400 06007KT P6SM SCT250<br><br>
<br><br>
KBUF 072254Z 23007KT 10SM FEW065 FEW150 SCT290 21/09 A3006 RMK AO2 SLP179 T02110089<br><br>
KBUF 072154Z 22008KT 10SM FEW070 SCT290 22/09 A3004 RMK AO2 SLP172 T02170094<br><br>
KBUF 072106Z 0721/0818 23008KT P6SM FEW050 BKN250 FM080500 VRB03KT P6SM SCT035 FM081400 05004KT P6SM SCT250<br><br>
<br><br>
CYYZ 072200Z 13006KT 15SM BKN056 BKN250 21/12 A3001 RMK SC5CI1 SLP163 DENSITY ALT 1400FT<br><br>
TAF CYYZ 072038Z 0721/0824 16010KT P6SM BKN060 BECMG 0721/0723 21010KT FM072300 21010KT P6SM SCT060 BECMG 0800/0802 34008KT FM081500 09008KT P6SM FEW200 FM082000 15008KT P6SM SCT240 RMK NXT FCST BY 080000Z<br><br>
<br><br>
CYOO 072200Z AUTO 17006KT 130V210 9SM CLR 20/10 A3002 RMK SLP167 DENSITY ALT 1000FT<br><br>
CYOO has no TAF <br><br>
<br><br>
CYTR 072200Z 22007KT 15SM FEW081 19/12 A3001 RMK AC1 SLP163<br><br>
TAF CYTR 071730Z 0718/0818 21012KT P6SM FEW030 SCT060 OVC100 FM072200 23010KT P6SM SCT030 BECMG 0723/0801 24005KT BECMG 0808/0810 02005KT RMK NXT FCST BY 080000Z<br><br>
<br><br>
