RETRIEVED AT : Oct 26 2018 12:05 Local <br>
  RETRIEVED AT: Oct 26 2018 16:05 UTC<br><br>
CYSN 261500Z 13009KT 15SM OVC070 08/01 A3004 RMK AC8 SLP177<br><br>
TAF CYSN 261238Z 2613/2701 14006KT P6SM SCT040 OVC130 TEMPO 2613/2622 BKN040 OVC100 BECMG 2615/2617 09012KT FM262200 09010G20KT P6SM BKN060 OVC080 RMK NXT FCST BY 262000Z<br><br>
<br><br>
CYHM 261500Z 08009KT 12SM FEW038 BKN092 06/03 A3001 RMK SC1AC6 SUN VSBL SLP171<br><br>
TAF CYHM 261138Z 2612/2712 04006KT P6SM SCT130 BKN230 FM261500 06007KT P6SM SCT025 OVC100 TEMPO 2615/2619 BKN025 OVC100 BECMG 2616/2617 08010G20KT FM270500 07012G22KT 6SM -SHRA BR BKN012 OVC025 FM270900 06015G25KT 11/2SM RA BR OVC004 RMK NXT FCST BY 261800Z<br><br>
<br><br>
KIAG 261553Z 10008KT 10SM SCT100 07/01 A3003 RMK AO2 SLP180 T00670011<br><br>
KIAG 261453Z 13008KT 10SM OVC065 07/00 A3005 RMK AO2 SLP184 T00670000 58005<br><br>
KIAG 261514Z 2615/2712 13008KT P6SM OVC070 FM262300 08014KT P6SM OVC080 FM271100 08013KT 6SM -RA OVC070<br><br>
<br><br>
KBUF 261554Z 10011KT 10SM FEW065 BKN120 BKN170 08/01 A3004 RMK AO2 SLP177 VIRGA DSNT N-E T00780006<br><br>
KBUF 261454Z 11010KT 10SM BKN065 OVC130 07/00 A3005 RMK AO2 SLP180 T00670000 58006<br><br>
KBUF 261514Z 2615/2712 11010KT P6SM BKN070 FM262000 09012KT P6SM OVC070 FM270800 08011KT P6SM -RA OVC070<br><br>
<br><br>
CYYZ 261500Z 12007KT 15SM BKN021 OVC090 06/02 A3005 RMK SC5AC3 SLP181<br><br>
TAF CYYZ 261438Z 2615/2718 09006KT P6SM BKN060 OVC100 TEMPO 2615/2618 BKN020 OVC060 BECMG 2616/2618 12010KT FM261900 09012G22KT P6SM SCT025 OVC090 TEMPO 2702/2708 P6SM -SHRA BKN025 OVC090 FM270800 07010G20KT 6SM -RA BR BKN012 OVC025 FM271100 06012G22KT 3SM RA BR BKN006 OVC012 FM271700 06015G25KT 6SM -RA BR SCT006 OVC012 RMK NXT FCST BY 261800Z<br><br>
<br><br>
CYOO 261500Z AUTO 08008KT 9SM OVC031 05/01 A3008 RMK SLP192<br><br>
CYOO has no TAF <br><br>
<br><br>
CYTR 261500Z 07007KT 15SM BKN032 OVC047 04/M01 A3013 RMK SC7SC1 SLP208<br><br>
TAF CYTR 261130Z 2612/2712 06005KT P6SM OVC030 TEMPO 2614/2618 P6SM -SHRA BECMG 2614/2616 08010KT FM261800 12012KT P6SM BKN030 OVC080 TEMPO 2618/2702 P6SM -SHRA BECMG 2702/2704 07012KT RMK NXT FCST BY 261800Z<br><br>
<br><br>
