RETRIEVED AT : Oct 27 2018 10:05 Local <br>
  RETRIEVED AT: Oct 27 2018 14:05 UTC<br><br>
CYSN 271300Z 07013G21KT 8SM FEW010 SCT033 BKN055 OVC090 05/05 A2983 RMK SF1SC4SC2AC2 SF TR SLP104<br><br>
CYSN 271250Z 07014KT 8SM FEW010 BKN033 OVC055 05/04 A2983 RMK SF1SC6SC2 SF TR SLP104<br><br>
TAF CYSN 271238Z 2713/2801 08012KT 5SM -RA BR BKN008 OVC030 TEMPO 2713/2715 P6SM -RA SCT008 OVC030 PROB30 2713/2715 BKN007 FM271500 08015G25KT 5SM -RA BR BKN010 OVC030 TEMPO 2715/2717 P6SM -RA SCT010 OVC030 PROB30 2715/2717 BKN008 FM271700 07015G25KT 5SM -RA BR BKN012 OVC030 TEMPO 2717/2801 P6SM -RA OVC030 RMK NXT FCST BY 272000Z<br><br>
<br><br>
CYHM 271344Z 04020G27KT 1 1/2SM -RA BR OVC007 03/02 A2982 RMK FG3SF5 SLP105<br><br>
CYHM 271300Z 04022G27KT 3SM -RA BR OVC008 03/02 A2982 RMK SF8 SLP106<br><br>
CYHM 271222Z 04020G29KT 3SM -RA BR OVC007 03/02 A2983 RMK SF8 SLP108<br><br>
TAF CYHM 271141Z 2712/2812 04018G30KT P6SM -RA BKN007 OVC015 TEMPO 2712/2717 2SM -RA BR BKN005 OVC015 FM271700 06015G25KT 4SM -RA BR OVC006 BECMG 2722/2724 04012G22KT FM280200 04012G22KT 2SM -RA BR OVC004 FM280700 01008KT 5SM -RA BR SCT008 OVC012 RMK NXT FCST BY 271800Z<br><br>
<br><br>
KIAG 271353Z 08018G22KT 5SM -RA BR FEW011 SCT046 OVC060 04/03 A2982 RMK AO2 SLP108 P0001 T00440028<br><br>
KIAG 271253Z 08016KT 5SM -RA BR FEW009 BKN041 OVC050 04/02 A2983 RMK AO2 SLP110 P0001 T00390022<br><br>
KIAG 271246Z 08015KT 5SM -RA BR FEW009 BKN041 OVC050 04/02 A2983 RMK AO2 P0001 T00390022<br><br>
KIAG 271130Z 2712/2812 07012G22KT P6SM -RA SCT007 OVC025 FM271600 06014G24KT 6SM -RA OVC015 FM280500 02009KT 6SM -RA SCT007 OVC012 FM280900 32005KT 6SM -RA OVC012<br><br>
<br><br>
KBUF 271354Z 07013KT 10SM -RA BKN009 OVC018 04/03 A2982 RMK AO2 SLP104 P0002 T00390033<br><br>
KBUF 271254Z 06013KT 6SM -RA BR BKN009 BKN020 OVC042 04/03 A2982 RMK AO2 SLP103 P0005 T00390028<br><br>
KBUF 271244Z 06012KT 6SM -RA BR BKN009 BKN020 OVC042 04/03 A2982 RMK AO2 P0004 T00390028<br><br>
KBUF 271340Z 2714/2812 06013KT 6SM -RA BR BKN009 FM271800 07014G24KT 6SM -RA OVC009 FM280100 03013G19KT 6SM -RA OVC007 FM280500 01007KT 6SM -RA OVC007 FM280800 33006KT 6SM -RA OVC007<br><br>
<br><br>
CYYZ 271338Z 03010KT 10SM -RA OVC023 02/00 A2988 RMK SC8 SLP125<br><br>
CYYZ 271332Z 03010KT 12SM SCT022 OVC031 02/00 A2988 RMK SC3SC5 SLP125<br><br>
CYYZ 271300Z 04010KT 10SM -RASN OVC023 01/M01 A2989 RMK SC8 SLP128<br><br>
TAF CYYZ 271141Z 2712/2818 04010KT P6SM -RA OVC025 TEMPO 2712/2715 5SM -SNRA BR SCT009 OVC015 BECMG 2712/2714 04010G20KT FM271500 06012G22KT P6SM -RA SCT007 OVC020 TEMPO 2715/2717 5SM -RA BR OVC007 FM271700 06015G25KT P6SM -RA SCT009 OVC015 FM272200 04010G20KT 4SM -RASN BR OVC008 FM280600 02010KT 6SM -SNRA SCT008 OVC015 BECMG 2806/2808 35008KT FM281400 30005KT P6SM -RA BKN008 OVC030 RMK NXT FCST BY 271500Z<br><br>
<br><br>
CYOO 271323Z AUTO 06009G16KT 9SM OVC042 04/M02 A2991 RMK SLP134<br><br>
CYOO 271310Z AUTO 05012G19KT 9SM -RA OVC042 04/M02 A2991 RMK SLP134<br><br>
CYOO 271300Z AUTO 06009KT 9SM OVC042 04/M02 A2991 RMK SLP134<br><br>
CYOO has no TAF <br><br>
<br><br>
CYTR 271300Z 05009KT 15SM BKN061 OVC100 03/M04 A2996 RMK SC7AC1 SLP150<br><br>
TAF CYTR 271130Z 2712/2812 05008KT P6SM BKN080 TEMPO 2712/2718 P6SM -SHRA OVC050 BECMG 2712/2714 05012G22KT FM271800 05015G25KT P6SM -RA SCT020 OVC040 FM272000 05015G25KT 4SM -RA BR OVC020 TEMPO 2720/2803 2SM -RASN BR OVC008 FM280300 03015G25KT 6SM -SN SCT008 OVC020 TEMPO 2803/2812 2SM -SN BKN008 OVC020 BECMG 2803/2805 03010KT RMK NXT FCST BY 271800Z<br><br>
<br><br>
