RETRIEVED AT : Oct 30 2017 14:10 Local <br>
  RETRIEVED AT: Oct 30 2017 18:10 UTC<br><br>
CYSN 301800Z 26018G26KT 15SM -RA BKN043 OVC078 09/01 A2948 RMK SC6AC2 SLP986<br><br>
CYSN 301737Z 27018G26KT 15SM -RA OVC050 10/M01 A2949 RMK SC8 PRESRR SLP989<br><br>
CYSN 301700Z 26018G29KT 15SM FEW030 BKN062 OVC120 10/M00 A2950 RMK SC2SC4AC2 SLP991<br><br>
TAF CYSN 301238Z 3013/3101 26015G25KT P6SM BKN025 BECMG 3013/3015 26020G35KT BECMG 3016/3018 25030G40KT FM302000 25020G30KT P6SM SCT020 BKN060 TEMPO 3020/3101 5SM -SHRA BR BKN020 RMK NXT FCST BY 302000Z<br><br>
<br><br>
CYHM 301800Z 23020G27KT 12SM FEW022 BKN042 OVC068 06/01 A2949 RMK CU2SC4AC2 SLP992<br><br>
CYHM 301708Z 24021G32KT 10SM FEW025 BKN056 BKN060 OVC070 06/00 A2949 RMK CU1SC5SC1AC2 CU TR SLP992<br><br>
CYHM 301700Z 25026G32KT 10SM -RA BKN042 OVC050 06/00 A2949 RMK SC5SC3 SLP993<br><br>
CYHM 301652Z 23023G32KT 10SM -RA BKN033 OVC042 07/M00 A2949 RMK SC5SC3 SLP993<br><br>
TAF CYHM 301738Z 3018/3118 24020G35KT P6SM OVC040 TEMPO 3019/3022 6SM -SHRA BR OVC020 BECMG 3022/3024 25018G28KT FM310300 25015G25KT P6SM SCT020 BKN040 FM310800 24015KT P6SM BKN020 FM311600 25015G25KT P6SM BKN040 RMK NXT FCST BY 310000Z<br><br>
<br><br>
KIAG 301753Z 25023G30KT 10SM -RA OVC039 10/01 A2948 RMK AO2 PK WND 25030/1752 RAB50 SLP990 P0000 60000 T01000011 10117 20061 58002<br><br>
KIAG 301653Z 27021G27KT 10SM BKN070 BKN110 12/01 A2948 RMK AO2 PK WND 26030/1605 SLP989 T01170006<br><br>
KIAG 301728Z 3018/3118 25025G35KT P6SM SCT030 BKN070 FM301900 26025G40KT P6SM OVC040 FM302100 26021G33KT P6SM BKN060<br><br>
<br><br>
KBUF 301754Z 23020G33KT 10SM -RA BKN029 BKN044 OVC070 08/02 A2948 RMK AO2 PK WND 23036/1723 RAE16B47 SLP986 PCPN VRY LGT P0000 60000 T00830022 10089 20050 58006<br><br>
KBUF 301716Z 23019G33KT 10SM BKN029 BKN047 OVC075 09/04 A2948 RMK AO2 PK WND 22033/1712 RAE16 P0000 T00890039<br><br>
KBUF 301654Z 26017G22KT 10SM -RA BKN035 BKN050 BKN075 BKN130 BKN250 09/02 A2948 RMK AO2 PK WND 26029/1600 RAB51 SLP986 PCPN VRY LGT P0000 T00890017<br><br>
KBUF 301728Z 3018/3118 25020G35KT P6SM -SHRA SCT025 OVC035 FM302100 25024G38KT 2SM +RA OVC012 FM310100 25020G28KT 4SM RA OVC015 TEMPO 3101/3102 2SM -SHRA OVC007 FM310300 25020G28KT P6SM BKN060 FM311200 25014G22KT 6SM -RA OVC020<br><br>
<br><br>
CYYZ 301800Z 25020G28KT 15SM FEW030 SCT036 BKN080 08/00 A2945 RMK CU1SC3AC3 SLP978<br><br>
CYYZ 301722Z 25023KT 15SM SCT030 OVC042 08/M00 A2946 RMK CU4SC4 SLP981<br><br>
CYYZ 301700Z 24022G27KT 15SM -RA OVC030 08/00 A2946 RMK SC8 SLP981<br><br>
TAF CYYZ 301738Z 3018/3124 25018G28KT P6SM SCT020 BKN040 TEMPO 3018/3020 BKN020 FM302000 25020G30KT P6SM OVC030 TEMPO 3020/3024 P6SM -SHRA OVC020 FM310100 24015G25KT P6SM BKN040 FM311000 24015KT P6SM BKN020 FM311500 25015G25KT P6SM BKN030 BECMG 3120/3122 24012G22KT RMK NXT FCST BY 302100Z<br><br>
<br><br>
CYOO 301800Z AUTO 24012G26KT 9SM -RA OVC044 08/01 A2944 RMK SLP973<br><br>
CYOO 301700Z AUTO 27017G27KT 9SM SCT043 SCT055 OVC074 09/M00 A2943 RMK SLP971<br><br>
CYOO has no TAF <br><br>
<br><br>
CYTR 301800Z 26019G28KT 15SM BKN038 BKN075 10/05 A2940 RMK SC5AC2 SLP959<br><br>
CYTR 301700Z 27019G27KT 15SM BKN036 10/00 A2938 RMK SC6 SLP954<br><br>
TAF CYTR 301730Z 3018/3118 27020G35KT P6SM BKN040 BECMG 3019/3021 25015G25KT FM302100 25015G25KT P6SM SCT020 BKN040 TEMPO 3021/3107 P6SM -SHRA BKN020 OVC040 FM310700 25015G25KT P6SM SCT040 FM311300 25022G35KT P6SM BKN030 RMK NXT FCST BY 310000Z<br><br>
<br><br>
