RETRIEVED AT : Oct 28 2018 23:05 Local <br>
  RETRIEVED AT: Oct 29 2018 03:05 UTC<br><br>
CYSN has no TAF <br><br>
<br><br>
CYHM 290200Z 34002KT 15SM -RA OVC027 05/05 A2963 RMK SC8 SLP042<br><br>
TAF CYHM 282338Z 2900/2924 VRB03KT P6SM OVC030 TEMPO 2900/2903 5SM -RA BR OVC020 FM290300 35008KT P6SM OVC025 FM290500 31008KT P6SM SCT010 BKN050 FM291100 27010KT P6SM -SHRA SCT020 BKN030 BECMG 2915/2917 27015G25KT FM291700 27015G25KT P6SM BKN025 FM292100 29015G25KT P6SM FEW030 SCT090 RMK NXT FCST BY 290600Z<br><br>
<br><br>
KIAG 290253Z 00000KT 7SM SCT016 OVC022 06/05 A2963 RMK AO2 RAE11 SLP044 P0001 60005 T00560050 56006<br><br>
KIAG 290229Z 00000KT 4SM BR OVC015 06/05 A2963 RMK AO2 RAE11 P0001 T00560050<br><br>
KIAG 290153Z 09003KT 3SM -RA BR OVC012 06/04 A2963 RMK AO2 SLP046 P0004 T00560044<br><br>
KIAG 290144Z 10003KT 3SM -RA BR SCT007 OVC012 06/04 A2963 RMK AO2 P0004 T00560044<br><br>
KIAG 290139Z 00000KT 2 1/2SM -RA BR BKN007 OVC011 06/04 A2964 RMK AO2 CIG 004V010 P0004 T00560044<br><br>
KIAG 290255Z 2903/2924 VRB03KT 6SM -RA BR OVC015 FM290800 32005KT 5SM -RA BR OVC007 FM291100 27009KT P6SM OVC015 FM291500 27014G24KT P6SM VCSH OVC025 FM292000 28017G24KT P6SM BKN035<br><br>
<br><br>
KBUF 290254Z 17004KT 10SM -RA BKN035 OVC045 06/04 A2963 RMK AO2 SLP041 P0002 60002 T00560044 56007<br><br>
KBUF 290154Z 18006KT 10SM -RA BKN050 OVC075 06/04 A2964 RMK AO2 SLP042 P0000 T00560044<br><br>
KBUF 290255Z 2903/2924 18006KT 6SM -RA BR OVC025 FM290500 00000KT P6SM VCSH OVC015 FM290800 VRB03KT 5SM -RA BR OVC007 FM291100 27008KT P6SM VCSH OVC015 FM291600 27014G23KT P6SM VCSH OVC025 FM292200 28015G25KT P6SM OVC035<br><br>
<br><br>
CYYZ 290200Z 00000KT 12SM -RA FEW010 OVC021 05/04 A2964 RMK SF1SC8 SF TR SLP042<br><br>
TAF CYYZ 290238Z 2903/3006 VRB03KT P6SM FEW009 OVC025 TEMPO 2903/2906 5SM -SHRA BR OVC009 FM290600 32007KT P6SM OVC025 TEMPO 2906/2913 P6SM -RA -DZ OVC015 FM291300 25008KT P6SM SCT015 OVC050 TEMPO 2913/2915 P6SM -SHRASN BKN015 OVC050 FM291500 29010G20KT P6SM SCT015 OVC050 TEMPO 2915/2917 P6SM -SHRA BKN015 OVC030 FM291700 29015G25KT P6SM BKN030 FM291900 29015G25KT P6SM SCT030 BKN100 FM300000 29012G25KT P6SM FEW030 SCT100 BECMG 3003/3005 28012KT FEW030 RMK NXT FCST BY 290600Z<br><br>
<br><br>
CYOO 290200Z AUTO 00000KT 8SM SCT014 OVC024 04/04 A2964 RMK SLP044<br><br>
CYOO 290147Z AUTO 00000KT 9SM SCT014 OVC024 04/04 A2964 RMK SLP045<br><br>
CYOO 290146Z AUTO 00000KT 9SM SCT014 OVC026 04/04 A2964 RMK SLP045<br><br>
CYOO 290144Z AUTO 00000KT 9SM SCT014 OVC024 04/04 A2964 RMK SLP045<br><br>
CYOO has no TAF <br><br>
<br><br>
CYTR 290243Z 10002KT 4SM BR BKN013 OVC054 03/03 A2966 RMK SC6SC2 SLP049<br><br>
CYTR 290216Z 05002KT 5SM BR BKN015 OVC054 04/04 A2967 RMK SC5SC3 SLP050<br><br>
CYTR 290200Z 00000KT 5SM BR FEW020 OVC054 04/04 A2966 RMK SC2SC6 SLP050<br><br>
CYTR 290139Z 00000KT 5SM BR SCT020 OVC054 04/04 A2966 RMK SC3SC5 SLP049<br><br>
CYTR 290112Z 07002KT 6SM BR BKN020 OVC054 04/04 A2966 RMK SC5SC3 SLP049<br><br>
TAF CYTR 282330Z 2900/2924 VRB03KT P6SM SCT008 OVC025 TEMPO 2900/2903 2SM -RA BR OVC008 FM290300 VRB03KT P6SM SCT020 BKN050 TEMPO 2903/2914 5SM -RA BR OVC020 FM291400 27005KT 5SM -RASN BR BKN006 OVC020 TEMPO 2914/2917 P6SM NSW SCT006 OVC020 FM291700 29010KT P6SM SCT015 OVC030 TEMPO 2917/2924 P6SM -RASN RMK NXT FCST BY 290600Z<br><br>
<br><br>
