RETRIEVED AT : Dec 11 2017 22:10 Local <br>
  RETRIEVED AT: Dec 12 2017 03:10 UTC<br><br>
CYSN 120200Z 08005KT 6SM -SN OVC024 M04/M06 A2979 RMK SC8 LAST STFD OBS/NEXT 121200 UTC SLP093<br><br>
CYSN has no TAF <br><br>
<br><br>
CYHM 120300Z 06007KT 2 1/2SM -SN OVC020 M05/M05 A2972 RMK SN3SC5 SLP079<br><br>
CYHM 120200Z 08007KT 8SM -SN OVC013 M05/M06 A2975 RMK SC8 SLP087<br><br>
TAF AMD CYHM 120219Z 1202/1224 07007KT 6SM -SN SCT008 OVC015 TEMPO 1202/1206 21/2SM -SN OVC008 PROB30 1202/1206 11/2SM -SN -FZDZ BKN005 OVC010 FM120600 05008KT 1SM -SN VV010 BECMG 1212/1214 30008KT FM121400 29018G28KT 3SM -SN BLSN SCT030 OVC060 PROB30 1214/1219 11/2SM -SHSN BLSN VV012 FM121900 30020G30KT P6SM -SHSN BKN040 FM122300 30020G30KT 4SM -SHSN OVC030 RMK NXT FCST BY 120600Z<br><br>
<br><br>
KIAG 120302Z 10006KT 1 3/4SM -SN OVC027 M03/M06 A2974 RMK AO2 P0000 T10281061<br><br>
KIAG 120253Z 10005KT 3SM -SN OVC029 M03/M06 A2974 RMK AO2 SNB31 SLP089 P0000 60000 T10281061 56036<br><br>
KIAG 120153Z 08004KT 10SM OVC022 M03/M07 A2978 RMK AO2 SLP100 T10331067<br><br>
KIAG 112337Z 1200/1224 11007KT 5SM -SHSN OVC035 TEMPO 1200/1203 2SM -SHSN OVC025 FM120300 13007KT 1SM -SN OVC012 FM121000 03007KT 1SM -SN OVC007 FM121700 30013G23KT 1SM -SN BLSN OVC003 FM122100 28016G25KT 2SM -SN BLSN OVC020<br><br>
<br><br>
KBUF 120254Z 13005KT 2 1/2SM -SN BR BKN027 BKN036 OVC044 M03/M04 A2975 RMK AO2 SNB09 SLP084 P0000 60000 T10281044 56031 $<br><br>
KBUF 120250Z 13004KT 2 1/2SM -SN BR BKN029 BKN034 OVC044 M03/M04 A2975 RMK AO2 SNB09 P0000 $<br><br>
KBUF 120154Z 12006KT 10SM FEW024 OVC032 M03/M05 A2977 RMK AO2 SLP093 T10281050 $<br><br>
KBUF 112337Z 1200/1224 11006KT 5SM -SHSN OVC035 TEMPO 1200/1203 2SM -SHSN OVC025 FM120300 15008KT 1SM -SN OVC025 FM121100 34007KT 1SM -SN OVC007 FM121400 30010G17KT 1SM -SN OVC007 FM122200 27015KT 3SM -SN OVC020<br><br>
<br><br>
CYYZ 120300Z 06003KT 11SM BKN015 OVC022 M03/M05 A2975 RMK SC6SC2 SLP083<br><br>
CYYZ 120227Z 12003KT 11SM FEW008 SCT014 OVC019 M03/M05 A2976 RMK SF1SC3SC4 SLP089<br><br>
CYYZ 120200Z 13003KT 110V180 6SM -SN FEW008 BKN014 OVC025 M03/M05 A2977 RMK SF2NS5NS1 /S01/ SLP093<br><br>
TAF CYYZ 120238Z 1203/1306 12005KT P6SM SCT015 OVC020 TEMPO 1203/1205 21/2SM -SN OVC012 PROB30 1203/1205 11/2SM -FZDZ -SN BKN006 OVC012 FM120500 03005KT 11/2SM -SN OVC012 TEMPO 1205/1211 3SM -SN SCT012 OVC020 PROB30 1205/1211 3/4SM -SN VV007 FM121100 35012KT 11/2SM -SN OVC012 PROB30 1211/1220 3/4SM -SN VV007 FM122000 30018KT 3SM -SN BKN030 OVC060 FM122300 34020G30KT P6SM BKN030 RMK NXT FCST BY 120600Z<br><br>
<br><br>
CYOO 120305Z AUTO 07007KT 4SM -SN SCT017 OVC022 M05/M07 A2978 RMK SLP093<br><br>
CYOO 120300Z AUTO 06007KT 6SM -SN BKN017 OVC022 M05/M07 A2978 RMK SLP094<br><br>
CYOO 120259Z AUTO 07007KT 6SM -SN BKN017 OVC022 M05/M07 A2978 RMK SLP094<br><br>
CYOO 120249Z AUTO 07008KT 5SM -SN FEW014 OVC020 M05/M07 A2978 RMK SLP094<br><br>
CYOO 120229Z AUTO 07009KT 6SM -SN BKN018 OVC025 M05/M07 A2979 RMK SLP097<br><br>
CYOO 120225Z AUTO 08007KT 3SM -SN BKN018 OVC025 M05/M07 A2979 RMK SLP098<br><br>
CYOO 120220Z AUTO 08010KT 2 1/2SM -SN BKN018 OVC023 M05/M07 A2979 RMK SLP098<br><br>
CYOO 120215Z AUTO 08008KT 4SM -SN BKN018 OVC023 M05/M07 A2979 RMK SLP099<br><br>
CYOO 120200Z AUTO 08008KT 8SM -SN OVC018 M05/M07 A2980 RMK SLP101<br><br>
CYOO 120158Z AUTO 07008KT 7SM -SN OVC018 M05/M07 A2980 RMK SLP102<br><br>
CYOO 120146Z AUTO 07007KT 5SM -SN BKN016 OVC022 M05/M07 A2981 RMK SLP105<br><br>
CYOO 120126Z AUTO 07009KT 6SM -SN BKN014 OVC024 M05/M07 A2982 RMK SLP108<br><br>
CYOO has no TAF <br><br>
<br><br>
CYTR 120300Z 06005KT 6SM -SN OVC016 M07/M09 A2984 RMK NS8 SLP111<br><br>
CYTR 120200Z 05007KT 3SM -SN OVC013 M07/M08 A2987 RMK SN3NS5 SLP121<br><br>
TAF AMD CYTR 120307Z 1203/1224 06007KT 6SM -SN OVC015 TEMPO 1203/1205 2SM -SN OVC012 FM120500 07012KT 11/2SM -SN OVC010 TEMPO 1205/1211 3/4SM -SN VV008 FM121100 07012KT 11/2SM -SN OVC010 FM121600 02012KT 3SM -SN BKN012 OVC030 FM122000 35012G22KT 6SM -SN BLSN BKN020 OVC040 RMK NXT FCST BY 120600Z<br><br>
<br><br>
