RETRIEVED AT : Nov 25 2018 14:01 Local <br>
  RETRIEVED AT: Nov 25 2018 19:01 UTC<br><br>
CYSN 251800Z 25013G18KT 15SM SCT025 BKN039 08/02 A2984 RMK SC3SC4 SLP108<br><br>
TAF CYSN 251338Z 2514/2602 24012KT P6SM OVC040 BECMG 2523/2524 25005KT RMK NXT FCST BY 252000Z<br><br>
<br><br>
CYHM 251800Z 25011KT 15SM OVC022 05/02 A2985 RMK SC8 SLP115<br><br>
TAF CYHM 251744Z 2518/2618 25012KT P6SM OVC030 TEMPO 2518/2607 OVC020 FM260700 VRB03KT P6SM -RA BKN020 OVC090 FM260900 05010KT 4SM -RA BR BKN006 OVC050 FM261100 06010G20KT 2SM -RA BR OVC003 PROB30 2611/2616 1/4SM -RA FG VV001 FM261700 08010G20KT 3SM -RA BR OVC015 RMK NXT FCST BY 260000Z<br><br>
<br><br>
KIAG 251853Z 27011KT 10SM OVC035 07/01 A2985 RMK AO2 SLP117 T00670006 $<br><br>
KIAG 251753Z 26011KT 10SM OVC037 07/01 A2983 RMK AO2 SLP110 T00670011 10078 20061 53009 $<br><br>
KIAG 251728Z 2518/2618 26012KT P6SM OVC035 FM252000 26009KT P6SM OVC025 FM260100 VRB03KT P6SM OVC040 FM260900 09007KT P6SM VCSH OVC060 FM261100 08010G16KT P6SM -RA OVC040 WS020/14040KT FM261400 09012G20KT 5SM -RA BR OVC015<br><br>
<br><br>
KBUF 251854Z 26008KT 10SM FEW021 BKN029 BKN041 OVC150 07/03 A2986 RMK AO2 RAB1755E04 SLP115 P0000 T00670028<br><br>
KBUF 251754Z 27012KT 10SM BKN022 OVC027 06/03 A2984 RMK AO2 SLP110 60000 T00610028 10072 20061 53010<br><br>
KBUF 251740Z 25011KT 10SM BKN024 BKN037 07/02 A2984 RMK AO2 T00670022<br><br>
KBUF 251728Z 2518/2618 26010KT P6SM OVC040 FM252000 24008KT P6SM OVC025 FM260100 VRB03KT P6SM OVC040 FM260900 09008KT P6SM VCSH OVC060 FM261100 10010G17KT P6SM -RA OVC040 WS020/14040KT FM261400 11013G21KT 5SM -RA BR OVC015<br><br>
<br><br>
CYYZ 251800Z CCA 29010KT 15SM SCT018 OVC024 06/02 A2982 RMK SC3SC5 SLP105<br><br>
CYYZ 251718Z 26011KT 15SM SCT016 BKN024 OVC030 06/03 A2981 RMK CF3SC3SC2 SLP099<br><br>
TAF CYYZ 251744Z 2518/2624 26013KT P6SM BKN030 TEMPO 2518/2520 P6SM -RA OVC020 FM252000 27012KT P6SM BKN025 TEMPO 2520/2607 OVC020 BECMG 2602/2604 VRB03KT FM260700 04008KT P6SM -RA BKN020 OVC050 PROB30 2607/2611 4SM -FZRA BR OVC008 FM261100 05010G20KT 5SM -RA BR BKN008 OVC020 PROB30 2611/2613 2SM -RA BR OVC003 FM261300 09015G25KT 1SM -RA BR OVC003 FM261700 10010G20KT 21/2SM -RA BR OVC005 PROB30 2617/2624 1SM -RA BR OVC003 RMK NXT FCST BY 252100Z<br><br>
<br><br>
CYOO 251800Z AUTO 27010G16KT 9SM OVC029 07/04 A2980 RMK SLP098<br><br>
CYOO 251746Z AUTO 26009KT 9SM FEW020 OVC029 07/04 A2980 RMK SLP096<br><br>
CYOO 251744Z AUTO 26008KT 9SM BKN023 OVC029 07/04 A2980 RMK SLP096<br><br>
CYOO 251737Z AUTO 25010KT 9SM SCT020 OVC026 07/04 A2980 RMK SLP096<br><br>
CYOO has no TAF <br><br>
<br><br>
CYTR 251838Z 23006KT 12SM -SHRA BKN019 OVC050 07/05 A2980 RMK SC6SC2 SLP096<br><br>
CYTR 251821Z 22007KT 12SM BKN025 OVC050 07/05 A2979 RMK SC6SC2 SLP092<br><br>
CYTR 251800Z 21005KT 12SM BKN017 OVC050 06/05 A2979 RMK SC7SC1 SLP090<br><br>
TAF CYTR 251730Z 2518/2618 25010KT P6SM SCT012 BKN025 OVC070 TEMPO 2518/2524 BKN012 OVC025 BECMG 2522/2524 25005KT FM260000 24005KT 6SM BR FEW006 SCT015 BKN025 TEMPO 2600/2609 3SM BR SCT006 OVC015 BECMG 2602/2604 05005KT FM260900 07005KT 5SM -RA BR OVC010 FM261100 09008KT 2SM -RA BR OVC006 BECMG 2614/2616 09012G22KT RMK NXT FCST BY 260000Z<br><br>
<br><br>
