RETRIEVED AT : Oct 20 2018 02:05 Local <br>
  RETRIEVED AT: Oct 20 2018 06:05 UTC<br><br>
CYSN has no TAF <br><br>
<br><br>
CYHM 200534Z 23020KT 9SM -RA OVC012 09/08 A2962 RMK SC8 SLP035<br><br>
CYHM 200500Z 23020KT 15SM VCSH OVC010 09/07 A2963 RMK SC8 SLP038<br><br>
CYHM 200453Z 23017G28KT 15SM VCSH OVC013 09/07 A2963 RMK SC8 SLP038<br><br>
TAF CYHM 200542Z 2006/2106 23018G28KT P6SM -RA OVC010 TEMPO 2006/2009 P6SM NSW OVC025 PROB30 2006/2008 OVC008 FM200900 26012G22KT P6SM BKN020 TEMPO 2009/2011 SCT020 FM201100 26012G22KT P6SM SCT020 TEMPO 2011/2017 BKN020 FM201700 27015G25KT P6SM -SHRA BKN030 BKN050 BECMG 2020/2022 30010G20KT FM202300 34012G22KT P6SM SCT030 BKN050 BECMG 2102/2104 35012KT RMK NXT FCST BY 201200Z<br><br>
<br><br>
KIAG 200601Z AUTO 22017G28KT 2 1/2SM -RA BR SCT008 BKN011 OVC018 09/07 A2964 RMK AO2 PK WND 22026/0601 P0001 T00890072<br><br>
KIAG 200553Z AUTO 22020G29KT 2 1/2SM -RA BR FEW008 BKN015 OVC021 09/07 A2964 RMK AO2 PK WND 21034/0539 RAB30 SLP041 P0001 60001 T00890072 10128 20089 56019<br><br>
KIAG 200547Z AUTO 22020G34KT 2 1/2SM -RA BR FEW008 BKN014 OVC021 09/07 A2964 RMK AO2 PK WND 21034/0539 RAB30 P0001<br><br>
KIAG 200523Z AUTO 24027G33KT 10SM BKN026 OVC034 11/06 A2965 RMK AO2 PK WND 25033/0523 T01110061<br><br>
KIAG 200453Z AUTO 24021G34KT 10SM BKN034 OVC042 12/05 A2965 RMK AO2 PK WND 23040/0354 SLP046 T01170050 401440061<br><br>
KIAG 200533Z 2006/2106 24027G38KT P6SM VCSH BKN026 OVC035 FM200900 25022G38KT P6SM VCSH OVC012 FM201200 26018G28KT P6SM SCT035 FM201700 28015G21KT P6SM VCSH BKN040 FM210000 34015G24KT P6SM BKN045<br><br>
<br><br>
KBUF 200554Z 24031G42KT 10SM OVC032 11/05 A2964 RMK AO2 PK WND 22043/0512 RAB13E51 SLP039 P0000 60000 T01110050 10122 20100 56019<br><br>
KBUF 200454Z 23027G41KT 10SM OVC037 12/04 A2966 RMK AO2 PK WND 25041/0449 SLP044 T01170044 401390061<br><br>
KBUF 200533Z 2006/2106 23027G42KT P6SM OVC035 FM200800 24022G38KT P6SM VCSH OVC015 TEMPO 2010/2012 4SM -SHRA OVC007 FM201200 26015G26KT P6SM BKN020 FM201300 26014G23KT P6SM BKN035 FM201700 27014G20KT P6SM VCSH BKN035 FM202300 31012G19KT P6SM BKN040<br><br>
<br><br>
CYYZ 200500Z 24022G30KT 15SM BKN027 OVC041 10/04 A2959 RMK SC5SC3 SLP025<br><br>
TAF CYYZ 200542Z 2006/2112 24018G28KT P6SM -RA BKN020 OVC040 TEMPO 2006/2008 P6SM NSW BKN025 OVC050 FM200800 28012G25KT P6SM BKN030 BKN050 TEMPO 2008/2009 P6SM -SHRA BKN020 OVC040 FM200900 28015G28KT P6SM BKN030 TEMPO 2009/2011 BKN020 FM201100 28015G28KT P6SM BKN030 TEMPO 2011/2017 SCT030 FM201700 28015G28KT P6SM -SHRA BKN030 BKN050 FM202200 34018G28KT P6SM SCT030 BKN050 FM210600 34015G25KT P6SM BKN040 BECMG 2108/2110 34015KT RMK NXT FCST BY 200900Z<br><br>
<br><br>
CYOO 200604Z AUTO 22011G20KT 7SM -RA BKN023 OVC028 09/06 A2956 RMK SLP014<br><br>
CYOO 200602Z AUTO 23010G20KT 7SM -RA SCT023 OVC028 09/06 A2956 RMK SLP014<br><br>
CYOO 200500Z AUTO 23010G17KT 9SM BKN032 BKN042 OVC060 10/05 A2958 RMK SLP021<br><br>
CYOO has no TAF <br><br>
<br><br>
CYTR 200500Z 23011G19KT 12SM -SHRA OVC028 10/07 A2959 RMK SC8 SLP022<br><br>
CYTR 200408Z 23012G17KT 15SM -SHRA OVC032 11/05 A2962 RMK SC8 SLP032<br><br>
TAF CYTR 200531Z 2006/2106 23010G20KT WS005/22035KT P6SM -SHRA OVC025 TEMPO 2006/2007 OVC020 FM200700 24015G25KT P6SM OVC025 TEMPO 2007/2010 P6SM -SHRA OVC020 FM201000 26015G25KT P6SM BKN030 FM201800 28020G30KT P6SM FEW030 SCT200 BECMG 2021/2023 31008KT FM210200 34008KT P6SM BKN040 BKN200 RMK NXT FCST BY 201200Z<br><br>
<br><br>
