RETRIEVED AT : Mar 13 2020 10:05 Local <br>
  RETRIEVED AT: Mar 13 2020 14:05 UTC<br><br>
CYSN 131300Z 29019G32KT 15SM BKN030 07/02 A2970 RMK SC7 SLP061<br><br>
TAF CYSN 131238Z 1313/1401 29025G40KT P6SM OVC020 TEMPO 1313/1315 OVC025 BECMG 1313/1315 26020G35KT FM131500 26020G35KT P6SM BKN025 TEMPO 1315/1401 BKN020 BECMG 1322/1324 27018G28KT RMK NXT FCST BY 132000Z<br><br>
<br><br>
CYHM 131350Z 26017G27KT 15SM BKN028 BKN042 05/00 A2976 RMK SC5SC2 SLP086<br><br>
CYHM 131306Z 27015G24KT 15SM -RA BKN026 BKN034 05/01 A2973 RMK SC5SC2 PRESRR SLP075<br><br>
CYHM 131300Z 27015G24KT 15SM BKN026 BKN033 05/00 A2972 RMK SC5SC2 SLP073<br><br>
TAF CYHM 131140Z 1312/1412 29020G35KT P6SM BKN015 OVC030 TEMPO 1312/1318 SCT015 OVC030 FM131800 27022G35KT P6SM BKN030 BECMG 1322/1324 27015G25KT BECMG 1406/1408 28010KT RMK NXT FCST BY 131800Z<br><br>
<br><br>
KIAG 131353Z 27025G32KT 10SM BKN015 BKN040 06/02 A2976 RMK AO2 PK WND 29034/1335 SLP087 T00560017<br><br>
KIAG 131253Z 29018G28KT 10SM BKN015 OVC040 07/04 A2968 RMK AO2 PK WND 29042/1217 RAB18E32 SLP059 P0000 T00670039<br><br>
KIAG 131306Z 1313/1412 29018G28KT P6SM BKN015 OVC040 FM131500 26025G37KT P6SM BKN030 FM132100 26016G24KT P6SM SCT040 FM140600 27012KT P6SM SCT040<br><br>
<br><br>
KBUF 131354Z 26021G28KT 10SM FEW012 SCT023 BKN033 07/02 A2976 RMK AO2 PK WND 29030/1338 SLP082 P0000 T00720017<br><br>
KBUF 131308Z 24010KT 7SM SCT006 SCT012 OVC020 06/04 A2971 RMK AO2 PRESRR T00610044<br><br>
KBUF 131254Z 24015KT 7SM BKN005 OVC023 06/05 A2969 RMK AO2 PK WND 22033/1155 RAB1156E19 PRESRR SLP059 CIG 003V008 P0000 T00610050<br><br>
KBUF 131241Z 24021G31KT 6SM BR OVC004 07/05 A2968 RMK AO2 PK WND 22033/1155 RAB1156E19 PRESRR P0000 T00670050<br><br>
KBUF 131212Z 24019G31KT 1SM R23/P6000FT -RA BR OVC002 07/06 A2963 RMK AO2 PK WND 22033/1155 SFC VIS 4 RAB1156 P0000 T00670056<br><br>
KBUF 131306Z 1313/1412 24015G28KT P6SM BKN005 OVC023 FM131600 25025G40KT P6SM BKN025 FM132100 25018G26KT P6SM SCT040 FM140800 27012KT P6SM SCT040<br><br>
<br><br>
CYYZ 131300Z 28021G32KT 15SM FEW019 SCT026 05/01 A2965 RMK CU1SC3 SLP048<br><br>
TAF CYYZ 131140Z 1312/1418 30025G38KT P6SM OVC020 TEMPO 1312/1314 OVC030 FM131400 27025G35KT P6SM BKN025 BECMG 1322/1324 27020G30KT FM140600 29012G22KT P6SM SCT025 FM141500 32010KT P6SM BKN025 BKN200 RMK NXT FCST BY 131500Z<br><br>
<br><br>
CYOO 131334Z AUTO 29015G26KT 9SM BKN026 OVC034 05/02 A2966 RMK SLP048<br><br>
CYOO 131327Z AUTO 28016G28KT 9SM BKN024 OVC030 05/01 A2965 RMK PRESRR SLP047<br><br>
CYOO 131322Z AUTO 29015G29KT 9SM OVC026 05/02 A2965 RMK PRESRR SLP047<br><br>
CYOO 131300Z AUTO 28026G33KT 9SM BKN024 05/02 A2962 RMK PRESRR SLP036<br><br>
CYOO 131258Z AUTO 27024G33KT 9SM BKN024 06/03 A2962 RMK PRESRR SLP035<br><br>
CYOO 131252Z AUTO 28023G34KT 9SM BKN026 BKN080 BKN100 06/03 A2961 RMK PRESRR SLP032<br><br>
CYOO 131245Z AUTO 27025G34KT 9SM BKN024 BKN080 BKN099 06/03 A2959 RMK PRESRR SLP027<br><br>
CYOO 131223Z AUTO 28017G25KT 9SM SCT019 SCT024 BKN031 OVC100 07/05 A2956 RMK PRESRR SLP014<br><br>
TAF CYOO 131339Z 1314/1402 29015G25KT P6SM SCT020 BKN030 TEMPO 1314/1402 BKN020 OVC030 RMK FCST BASED ON AUTO OBS. NXT FCST BY 132000Z<br><br>
<br><br>
CYTR 131339Z 28030G36KT 10SM BKN012 BKN035 08/04 A2957 RMK SC6SC1 PRESRR SLP016<br><br>
CYTR 131316Z 23010KT 8SM -SHRA OVC012 08/07 A2954 RMK SC8 SLP006<br><br>
CYTR 131300Z 23010G17KT 10SM BKN008 OVC020 09/07 A2952 RMK SF6SC2 SLP001<br><br>
CYTR 131245Z 23012G19KT 15SM BKN008 OVC020 09/08 A2951 RMK SF5SC3 SLP995<br><br>
CYTR 131227Z 23015G22KT 6SM -RA BR BKN008 OVC015 08/08 A2950 RMK SF5SC3 SLP992<br><br>
TAF AMD CYTR 131305Z 1313/1412 23015G25KT 5SM -SHRA BR BKN008 OVC020 BECMG 1313/1315 26020G35KT P6SM NSW BKN025 FM131500 26020G35KT P6SM BKN025 TEMPO 1315/1322 P6SM -SHRA BKN020 FM132200 27020G35KT P6SM BKN030 FM141000 29015G25KT P6SM SCT030 RMK NXT FCST BY 131800Z<br><br>
<br><br>
