RETRIEVED AT : Sep 09 2017 01:10 Local <br>
  RETRIEVED AT: Sep 09 2017 05:10 UTC<br><br>
CYSN has no TAF <br><br>
<br><br>
CYHM 090500Z 36007KT 15SM FEW035 09/07 A3032 RMK SC1 SC TR SLP273<br><br>
CYHM 090400Z 01007KT 15SM FEW040 09/07 A3031 RMK SC1 SLP269<br><br>
TAF CYHM 082338Z 0900/0924 33006KT P6SM BKN050 FM090200 01008KT P6SM SCT040 FM091500 02012KT P6SM SCT040 RMK NXT FCST BY 090600Z<br><br>
<br><br>
KIAG 090453Z AUTO 01006KT 10SM OVC055 13/08 A3030 RMK AO2 SLP263 T01280083 401940106<br><br>
KIAG 090353Z AUTO 00000KT 10SM SCT048 SCT055 12/08 A3029 RMK AO2 SLP260 T01170078<br><br>
KIAG 090250Z 0903/0924 01005KT P6SM BKN050 FM090600 36005KT P6SM SCT050 FM091300 36005KT P6SM SCT250<br><br>
<br><br>
KBUF 090454Z 34004KT 10SM FEW045 SCT060 SCT150 11/09 A3030 RMK AO2 SLP261 T01060094 401670106<br><br>
KBUF 090354Z 35003KT 10SM FEW045 BKN060 12/09 A3029 RMK AO2 SLP258 T01220094<br><br>
KBUF 090250Z 0903/0924 35006KT P6SM SCT035 BKN060 FM090600 VRB03KT P6SM BKN060 FM091400 36005KT P6SM SCT060 FM091700 34007KT P6SM SCT200<br><br>
<br><br>
CYYZ 090500Z 35009KT 15SM SKC 10/07 A3033 RMK SLP273<br><br>
CYYZ 090400Z 36010KT 15SM SKC 10/08 A3031 RMK SLP267<br><br>
TAF CYYZ 090238Z 0903/1006 34010KT P6SM SKC FM091500 01015KT P6SM FEW040 FM092300 35010KT P6SM SKC RMK NXT FCST BY 090600Z<br><br>
<br><br>
CYOO 090500Z AUTO 34006KT 9SM CLR 09/07 A3032 RMK SLP271<br><br>
CYOO 090400Z AUTO 33007KT 9SM BKN060 10/07 A3030 RMK SLP265<br><br>
CYOO has no TAF <br><br>
<br><br>
CYTR 090500Z 35005KT 15SM FEW061 09/07 A3030 RMK SC2 SLP262<br><br>
CYTR 090400Z 36005KT 15SM BKN061 10/08 A3029 RMK SC6 SLP258<br><br>
TAF CYTR 082330Z 0900/0924 35005KT P6SM SCT040 FM091500 36010KT P6SM FEW040 RMK NXT FCST BY 090600Z<br><br>
<br><br>
