RETRIEVED AT : Apr 04 2020 05:05 Local <br>
  RETRIEVED AT: Apr 04 2020 09:05 UTC<br><br>
CYSN has no TAF <br><br>
<br><br>
CYHM 040817Z 29003KT 10SM OVC008 04/04 A3002 RMK ST8 SLP171<br><br>
CYHM 040800Z 31002KT 4SM -DZ BR OVC007 04/04 A3002 RMK ST8 SLP171<br><br>
CYHM 040739Z 29003KT 4SM -DZ OVC008 05/04 A3002 RMK ST8 VIS SW HIER SLP171<br><br>
TAF AMD CYHM 040744Z 0408/0506 VRB03KT 4SM -DZ BR FEW002 BKN008 OVC030 TEMPO 0408/0414 P6SM NSW FEW002 SCT008 BKN060 PROB40 0408/0413 03005KT 1SM -DZ BR BKN002 OVC008 FM041400 VRB03KT P6SM BKN015 BKN050 TEMPO 0414/0417 SCT015 BKN050 FM041700 07006KT P6SM BKN025 FM042200 VRB03KT P6SM BKN030 BKN080 FM050200 22007KT P6SM -SHRA BKN030 OVC050 FM050500 25007KT P6SM BKN025 OVC050 RMK NXT FCST BY 041200Z<br><br>
<br><br>
KIAG 040853Z AUTO 31005KT 3SM BR OVC002 05/04 A3001 RMK AO2 SLP170 T00500044 50001<br><br>
KIAG 040848Z AUTO 30006KT 3SM BR OVC002 05/04 A3001 RMK AO2<br><br>
KIAG 040753Z AUTO 33003KT 6SM BR OVC003 06/05 A3000 RMK AO2 SLP169 T00560050<br><br>
KIAG 040538Z 0406/0506 00000KT 1 1/2SM -DZ BR OVC003 FM041000 00000KT 2SM BR OVC003 FM041400 00000KT P6SM OVC007 FM041600 00000KT P6SM OVC012 FM041800 00000KT P6SM BKN020 FM042100 VRB03KT P6SM BKN035<br><br>
<br><br>
KBUF 040854Z 00000KT 3/4SM R23/2800V3500FT -DZ BR VV002 06/05 A3001 RMK AO2 SLP166 P0000 60001 T00560050 55001<br><br>
KBUF 040828Z 00000KT 3/4SM R23/3000V5000FT -DZ BR OVC002 06/05 A3001 RMK AO2 P0000 T00610050<br><br>
KBUF 040754Z 00000KT 1SM R23/4500VP6000FT -DZ BR OVC002 06/05 A3000 RMK AO2 DZB09 SLP165 P0000 T00610050<br><br>
KBUF 040743Z 32003KT 1 3/4SM R23/2600V5500FT -DZ BR OVC002 06/05 A3000 RMK AO2 DZB09 P0000 T00610050<br><br>
KBUF 040732Z 34003KT 3SM -DZ BR OVC002 06/05 A3000 RMK AO2 DZB09 P0000 T00610050<br><br>
KBUF 040711Z 36003KT 1 1/2SM R23/4000VP6000FT -DZ BR OVC002 06/05 A3000 RMK AO2 DZB09 P0000 T00610050<br><br>
KBUF 040538Z 0406/0506 VRB03KT 1 1/2SM -DZ BR OVC003 FM041000 VRB03KT 2SM BR OVC004 FM041500 00000KT P6SM OVC007 FM041700 VRB03KT P6SM BKN012 FM042300 VRB03KT P6SM SCT030 FM050200 00000KT P6SM BKN060<br><br>
<br><br>
CYYZ 040800Z 05007KT 15SM SCT012 OVC065 06/05 A3002 RMK SC3SC5 SLP170<br><br>
CYYZ 040728Z 05009KT 15SM SCT013 OVC018 06/05 A3002 RMK SC4SC4 SLP170<br><br>
TAF CYYZ 040838Z 0409/0512 05008KT P6SM SCT012 OVC060 TEMPO 0409/0415 5SM BR BKN008 OVC012 FM041500 11008KT P6SM BKN015 OVC040 TEMPO 0415/0420 BKN025 OVC040 FM042000 14008KT P6SM BKN025 FM050000 13008KT P6SM BKN030 BKN100 FM050200 15008KT P6SM -SHRA BKN030 OVC080 FM050600 14006KT 4SM BR SCT004 OVC015 PROB40 0506/0508 11/2SM BR OVC004 FM050800 35008KT P6SM SCT006 BKN012 OVC040 PROB30 0508/0512 VRB03KT 3SM BR OVC006 RMK NXT FCST BY 041200Z<br><br>
<br><br>
CYOO 040843Z AUTO 34005KT 9SM OVC025 06/06 A3001 RMK SLP167<br><br>
CYOO 040800Z AUTO 33004KT 9SM OVC023 05/05 A3001 RMK SLP167<br><br>
TAF CYOO 040738Z 0408/0420 01005KT 5SM BR BKN020 BKN100 TEMPO 0408/0410 P6SM NSW SCT020 BKN100 PROB30 0408/0410 3SM -DZ BR OVC007 FM041000 01006KT P6SM BKN012 OVC060 TEMPO 0410/0414 5SM -DZ BR OVC007 FM041400 VRB03KT P6SM OVC015 TEMPO 0414/0420 BKN025 BECMG 0416/0418 19008KT RMK FCST BASED ON AUTO OBS. NXT FCST BY 041400Z<br><br>
<br><br>
CYTR 040800Z 04005KT 15SM BKN019 OVC097 07/05 A3001 RMK SC5AC3 SLP166<br><br>
CYTR 040731Z 02006KT 15SM OVC018 07/05 A3001 RMK SC8 SLP167<br><br>
TAF CYTR 040530Z 0406/0506 36005KT P6SM SCT008 OVC025 TEMPO 0406/0415 3SM BR BKN008 OVC015 FM041500 VRB03KT P6SM SCT015 OVC025 FM041800 22008KT P6SM BKN040 BECMG 0500/0502 VRB03KT RMK NXT FCST BY 041200Z<br><br>
<br><br>
