RETRIEVED AT : May 13 2018 05:05 Local <br>
  RETRIEVED AT: May 13 2018 09:05 UTC<br><br>
CYSN has no TAF <br><br>
<br><br>
CYHM 130800Z 03007KT 15SM OVC150 07/01 A3010 RMK AC8 SLP198<br><br>
TAF CYHM 130538Z 1306/1406 03005KT P6SM FEW140 BKN250 FM131500 05007KT P6SM FEW100 FM140300 VRB03KT P6SM FEW060 RMK NXT FCST BY 131200Z<br><br>
<br><br>
KIAG 130853Z AUTO 10004KT 10SM CLR 07/M01 A3010 RMK AO2 SLP197 T00671006 58001<br><br>
KIAG 130753Z AUTO 06003KT 10SM CLR 06/M02 A3011 RMK AO2 SLP200 T00611017<br><br>
KIAG 130858Z 1309/1406 04005KT P6SM SCT100 FM131000 11004KT P6SM BKN090 FM131900 VRB03KT P6SM SCT090 FM132000 00000KT P6SM SCT030 FM140500 22004KT P6SM SCT030<br><br>
<br><br>
KBUF 130854Z 00000KT 10SM FEW100 BKN170 OVC270 09/04 A3010 RMK AO2 SLP194 T00890039 58000<br><br>
KBUF 130754Z COR 04004KT 10SM FEW100 FEW140 OVC260 08/03 A3011 RMK AO2 SLP197 T00830028<br><br>
KBUF 130858Z 1309/1406 04005KT P6SM SCT100 FM131000 11005KT P6SM BKN090 FM131800 15006KT P6SM SCT070 FM132200 19005KT P6SM SCT030 FM140200 VRB03KT P6SM SCT030<br><br>
<br><br>
CYYZ 130800Z 34008KT 15SM OVC190 09/M07 A3011 RMK AS8 SLP199<br><br>
TAF CYYZ 130838Z 1309/1412 36005KT P6SM BKN180 BECMG 1311/1313 10005KT FM131500 12008KT P6SM FEW120 FM132300 18007KT P6SM FEW080 BECMG 1400/1402 20005KT RMK NXT FCST BY 131200Z<br><br>
<br><br>
CYOO 130800Z AUTO 36004KT 9SM OVC220 06/00 A3011 RMK SLP199<br><br>
CYOO has no TAF <br><br>
<br><br>
CYTR 130800Z 04003KT 15SM SCT240 04/01 A3012 RMK CI3 SLP203<br><br>
TAF CYTR 130533Z 1306/1406 VRB03KT P6SM SCT240 BECMG 1313/1315 14008KT BECMG 1318/1320 24008KT FM140200 VRB03KT P6SM FEW030 RMK NXT FCST BY 131200Z<br><br>
<br><br>
