RETRIEVED AT : Jun 13 2020 07:05 Local <br>
  RETRIEVED AT: Jun 13 2020 11:05 UTC<br><br>
CYSN has no TAF <br><br>
<br><br>
TAF CYHM 130538Z 1306/1406 02005KT P6SM SKC FM131000 04010KT P6SM BKN160 FM131600 05010KT P6SM FEW050 RMK NXT FCST BY 131200Z<br><br>
<br><br>
KIAG 130909Z 1309/1406 03007KT P6SM FEW040 BKN200 FM131400 02009KT P6SM FEW040 FM132200 04007KT P6SM FEW250<br><br>
<br><br>
KBUF 130909Z 1309/1406 01005KT P6SM FEW050 FM131100 04005KT P6SM SCT050 BKN200 FM131500 01007KT P6SM FEW050 FM132300 05007KT P6SM FEW250<br><br>
<br><br>
TAF CYYZ 130838Z 1309/1412 01008KT P6SM BKN150 FM131400 03012KT P6SM FEW200 BECMG 1321/1323 VRB03KT FEW060 FM140200 03008KT P6SM SKC RMK NXT FCST BY 131200Z<br><br>
<br><br>
TAF CYOO 130738Z 1308/1320 36008KT P6SM BKN150 FM131400 02010KT P6SM SKC FM131800 02012KT P6SM FEW050 RMK FCST BASED ON AUTO OBS. NXT FCST BY 131400Z<br><br>
<br><br>
TAF CYTR 130530Z 1306/1406 01008KT P6SM FEW090 FM130800 01010KT P6SM FEW040 BKN160 FM131500 01007KT P6SM FEW050 BECMG 1318/1320 20008KT FM140200 VRB03KT P6SM SCT060 RMK NXT FCST BY 131200Z<br><br>
<br><br>
