RETRIEVED AT : Jul 05 2020 18:05 Local <br>
  RETRIEVED AT: Jul 05 2020 22:05 UTC<br><br>
CYSN 052100Z 01005KT 300V020 15SM FEW120 BKN220 32/11 A2993 RMK AC2CI4 SLP135 DENSITY ALT 2300FT<br><br>
TAF CYSN 051938Z 0520/0601 32008KT P6SM SCT250 BECMG 0523/0601 07006KT RMK NXT FCST WILL BE ISSUED AT 061245Z<br><br>
<br><br>
CYHM 052100Z 32004KT 290V360 15SM BKN290 32/14 A2995 RMK CI5 SLP140 DENSITY ALT 2900FT<br><br>
TAF CYHM 051738Z 0518/0618 VRB03KT P6SM FEW060 BKN250 BECMG 0601/0603 SKC FM060900 04008KT P6SM SCT090 RMK NXT FCST BY 060000Z<br><br>
<br><br>
KIAG 052153Z 36005KT 10SM CLR 31/13 A2994 RMK AO2 SLP132 T03110128<br><br>
KIAG 052053Z 02005KT 10SM CLR 31/13 A2995 RMK AO2 SLP136 T03110128 58011<br><br>
KIAG 052102Z 0521/0618 31007KT P6SM SCT250 FM052300 24006KT P6SM SCT250 FM060100 18003KT P6SM SCT200 FM061500 05006KT P6SM SCT200<br><br>
<br><br>
KBUF 052154Z 23006KT 10SM BKN230 BKN270 32/12 A2995 RMK AO2 SLP138 T03170117<br><br>
KBUF 052054Z 19007KT 10SM FEW150 BKN230 BKN270 32/12 A2996 RMK AO2 SLP141 T03170117 58012<br><br>
KBUF 052102Z 0521/0618 21009KT P6SM SCT250 FM060000 20004KT P6SM SCT200 FM061600 03005KT P6SM SCT050<br><br>
<br><br>
CYYZ 052100Z 25004KT 210V020 15SM FEW180 BKN250 33/12 A2993 RMK AC2CI4 SLP135 DENSITY ALT 2800FT<br><br>
TAF CYYZ 052039Z 0521/0624 26008KT P6SM FEW150 BKN250 BECMG 0601/0603 02006KT FM061300 10010KT P6SM SCT090 RMK NXT FCST BY 060000Z<br><br>
<br><br>
CYOO 052100Z AUTO 30006KT 290V360 9SM CLR 31/13 A2994 RMK SLP138 DENSITY ALT 2300FT<br><br>
TAF CYOO 051938Z 0520/0608 30007KT P6SM BKN250 BECMG 0523/0601 01005KT RMK FCST BASED ON AUTO OBS. NXT FCST BY 060200Z<br><br>
<br><br>
CYTR 052100Z 20007KT 15SM FEW040 OVC250 28/17 A2991 RMK SC1CI7 SLP129<br><br>
TAF CYTR 051731Z 0518/0618 20008KT P6SM FEW040 OVC250 BECMG 0520/0522 28012KT FM060300 33006KT P6SM BKN150 BECMG 0607/0609 VRB03KT BECMG 0614/0616 21008KT RMK NXT FCST BY 060000Z<br><br>
<br><br>
