RETRIEVED AT : Jun 06 2020 23:05 Local <br>
  RETRIEVED AT: Jun 07 2020 03:05 UTC<br><br>
CYSN has no TAF <br><br>
<br><br>
TAF CYHM 062338Z 0700/0724 31012G22KT P6SM FEW060 BECMG 0702/0704 36010KT FM071700 33010KT P6SM FEW050 BECMG 0723/0724 06007KT RMK NXT FCST BY 070600Z<br><br>
<br><br>
KIAG 070251Z 0703/0724 34008KT P6SM FEW060 FM070800 36005KT P6SM FEW250 FM071800 33010G18KT P6SM FEW250<br><br>
<br><br>
KBUF 070251Z 0703/0724 34008KT P6SM SCT250 FM071000 01006KT P6SM FEW250 FM071600 33010G18KT P6SM FEW250<br><br>
<br><br>
TAF CYYZ 070238Z 0703/0806 34010G20KT P6SM FEW060 BECMG 0703/0705 36012KT RMK NXT FCST BY 070600Z<br><br>
<br><br>
TAF CYOO 070138Z 0702/0714 34006KT P6SM SCT050 FM070500 36006KT P6SM SKC BECMG 0713/0714 34010KT RMK FCST BASED ON AUTO OBS. NXT FCST BY 070800Z<br><br>
<br><br>
TAF CYTR 062330Z 0700/0724 33008KT P6SM BKN050 BKN140 OVC200 TEMPO 0700/0701 VRB15G25KT 11/2SM TSRA BR BKN020 OVC050CB FM070200 32005KT P6SM SCT050 FM071600 35010KT P6SM BKN050 RMK NXT FCST BY 070600Z<br><br>
<br><br>
