RETRIEVED AT : May 24 2020 14:05 Local <br>
  RETRIEVED AT: May 24 2020 18:05 UTC<br><br>
CYSN 241700Z 18010G16KT 15SM FEW045 SCT160 BKN250 27/17 A3003 RMK SC1AC2CI2 SLP169 DENSITY ALT 1700FT<br><br>
TAF CYSN 241238Z 2413/2501 VRB03KT P6SM SCT090 BKN250 BECMG 2413/2415 19008KT FM241800 20010KT P6SM -SHRA BKN040 PROB30 2418/2424 3SM TSRA BKN030CB RMK NXT FCST BY 242000Z<br><br>
<br><br>
CYHM 241700Z 18011G16KT 15SM FEW030 FEW048 FEW170 SCT250 26/18 A3004 RMK CU1SC1AC1CI1 CU TR SLP171 DENSITY ALT 2100FT<br><br>
TAF CYHM 241742Z 2418/2518 18012G22KT P6SM FEW030 SCT250 FM242100 20012G22KT P6SM BKN040 TEMPO 2421/2503 P6SM -SHRA PROB30 2421/2503 VRB20G30KT 4SM TSRA BKN030CB FM250300 22010KT P6SM BKN040 FM251200 22012KT P6SM SCT020 BKN030 TEMPO 2512/2518 BKN020 RMK NXT FCST BY 250000Z<br><br>
<br><br>
KIAG 241753Z 20011KT 10SM FEW050 27/16 A3003 RMK AO2 SLP167 T02720156 10272 20189 56014<br><br>
KIAG 241653Z VRB05KT 10SM CLR 27/16 A3004 RMK AO2 SLP171 T02670156<br><br>
KIAG 241720Z 2418/2518 18008KT P6SM BKN050 FM250000 18008KT P6SM VCSH BKN050 FM250400 19012KT 6SM -SHRA BKN040 FM250900 20012KT P6SM SCT050<br><br>
<br><br>
KBUF 241754Z COR 20007KT 10SM BKN050 BKN180 BKN220 BKN270 27/16 A3004 RMK AO2 SLP170 T02720156 10278 20194 58014<br><br>
KBUF 241654Z 19010KT 10SM FEW045 FEW100 SCT180 BKN250 BKN290 27/15 A3006 RMK AO2 SLP175 T02670150<br><br>
KBUF 241720Z 2418/2518 20010KT P6SM SCT050 BKN250 FM250100 19008KT P6SM VCSH BKN050 FM250500 19010KT 6SM -SHRA BKN040 FM251000 20010KT P6SM BKN050 FM251400 22012KT P6SM FEW250<br><br>
<br><br>
CYYZ 241700Z 16011KT 15SM FEW050 FEW100 SCT260 24/17 A3004 RMK CU1AC1CI2 SLP171 DENSITY ALT 1700FT<br><br>
TAF CYYZ 241742Z 2418/2524 16012KT P6SM FEW050 SCT260 FM242000 16012KT P6SM BKN050 TEMPO 2420/2424 P6SM VCTS SCT030CB BKN050 FM250000 17010KT P6SM BKN040 TEMPO 2500/2506 P6SM -SHRA PROB30 2500/2506 VRB15G25KT 4SM TSRA BKN030CB FM250600 18010KT P6SM SCT040 BECMG 2510/2512 24012KT FM252000 17010KT P6SM VCTS SCT030CB BKN050 RMK NXT FCST BY 242100Z<br><br>
<br><br>
CYOO 241700Z AUTO 15008KT 110V210 9SM CLR 23/17 A3006 RMK SLP179 DENSITY ALT 1300FT<br><br>
TAF CYOO 241343Z 2414/2502 13008KT P6SM FEW030 BKN240 FM241800 14012KT P6SM SCT050 BKN180 FM242000 12010KT P6SM -SHRA BKN050 PROB30 2423/2502 VRB15G25KT 5SM TSRA BKN050CB RMK FCST BASED ON AUTO OBS. NXT FCST BY 242000Z<br><br>
<br><br>
CYTR 241700Z 13008KT 15SM FEW036 FEW100 SCT250 23/13 A3010 RMK SC1AC2CI2 SLP194<br><br>
TAF CYTR 241740Z 2418/2518 14008KT P6SM FEW040 SCT100 FM250200 19008KT P6SM -SHRA FEW020 BKN040 OVC060 PROB30 2502/2506 VRB15G25KT 2SM TSRA BR SCT020 OVC030CB FM250600 20005KT 3SM -SHRA BR SCT006 BKN012 OVC030 FM250900 20005KT 2SM BR BKN006 OVC010 PROB30 2509/2514 1SM -DZ BR OVC004 FM251500 20005KT 6SM BR OVC008 FM251700 20005KT P6SM BKN015 RMK NXT FCST BY 250000Z<br><br>
<br><br>
