RETRIEVED AT : Oct 28 2018 18:05 Local <br>
  RETRIEVED AT: Oct 28 2018 22:05 UTC<br><br>
CYSN 282100Z 19006KT 15SM FEW008 BKN048 06/05 A2965 RMK SF2SC5 SLP044<br><br>
TAF AMD CYSN 282121Z 2821/2901 19006KT P6SM FEW008 BKN050 TEMPO 2821/2823 3SM -RA BR BKN008 OVC012 FM282300 VRB03KT P6SM -RA OVC025 TEMPO 2823/2901 5SM -SHRA BR BKN008 OVC015 RMK NXT FCST WILL BE ISSUED AT 291245Z<br><br>
<br><br>
CYHM 282100Z 22003KT 15SM FEW019 OVC054 06/04 A2963 RMK SC2SC6 SLP041<br><br>
CYHM 282034Z 22006KT 15SM SCT013 OVC021 06/04 A2964 RMK SC3SC5 SLP044<br><br>
TAF CYHM 281739Z 2818/2918 25008KT P6SM SCT007 BKN015 OVC070 TEMPO 2818/2821 SCT015 OVC070 FM282100 25007KT P6SM -SHRA BKN015 OVC050 TEMPO 2821/2824 P6SM NSW SCT015 OVC050 FM290000 35005KT P6SM -SHRA BKN015 OVC025 FM290300 35008KT P6SM OVC025 FM290500 31008KT P6SM SCT010 BKN050 FM291100 27010KT P6SM -SHRA SCT020 BKN030 BECMG 2915/2917 27015G25KT FM291700 27015G25KT P6SM BKN025 RMK NXT FCST BY 290000Z<br><br>
<br><br>
KIAG 282153Z 23003KT 10SM OVC049 05/03 A2964 RMK AO2 SLP049 T00500033<br><br>
KIAG 282053Z 18005KT 10SM FEW020 SCT034 OVC043 05/03 A2965 RMK AO2 SLP052 60001 T00500033 56013<br><br>
KIAG 282044Z 19003KT 10SM SCT019 OVC037 05/04 A2965 RMK AO2 T00500039<br><br>
KIAG 282019Z 22003KT 5SM BR SCT008 OVC018 04/04 A2966 RMK AO2 T00440039<br><br>
KIAG 282103Z 2821/2918 19004KT P6SM SCT020 OVC040 FM290300 VRB03KT 5SM -SHRA OVC012 FM291000 30007KT P6SM OVC020 FM291400 27012G20KT P6SM OVC015 FM291700 26015G25KT P6SM OVC020<br><br>
<br><br>
KBUF 282154Z 17003KT 3SM -RA SCT012 OVC018 05/04 A2965 RMK AO2 SLP047 P0003 T00500044<br><br>
KBUF 282120Z 19005KT 2SM -RA BKN005 OVC012 04/04 A2966 RMK AO2 P0001 T00440044<br><br>
KBUF 282054Z 00000KT 3SM -RA BR BKN005 OVC012 04/04 A2966 RMK AO2 SLP049 P0002 60003 T00440044 56012<br><br>
KBUF 282045Z 00000KT 2SM R23/2400VP6000FT -RA BR BKN008 OVC012 04/04 A2966 RMK AO2 P0002 T00440044<br><br>
KBUF 282028Z 25003KT 1 3/4SM R23/6000VP6000FT -RA BR BKN008 OVC012 04/04 A2967 RMK AO2 P0001 T00440039<br><br>
KBUF 282103Z 2821/2918 VRB03KT 3SM -RA BR OVC008 FM290000 VRB03KT P6SM VCSH OVC007 FM290300 00000KT 5SM -SHRA OVC012 FM291100 28007KT P6SM OVC012 FM291700 26014G24KT P6SM OVC020<br><br>
<br><br>
CYYZ 282100Z 00000KT 15SM SCT018 BKN035 06/03 A2963 RMK SC4SC3 SLP039<br><br>
TAF CYYZ 282038Z 2821/2924 24005KT P6SM SCT020 BKN040 TEMPO 2821/2823 BKN020 BKN040 FM282300 VRB03KT P6SM BKN025 OVC050 TEMPO 2823/2904 P6SM -SHRA BKN020 OVC050 FM290400 VRB03KT P6SM SCT020 OVC050 BECMG 2905/2907 30007KT FM291100 24008KT P6SM -SHRASN BKN015 OVC050 FM291400 29010G20KT P6SM -SHRA BKN015 OVC030 FM291700 29015G25KT P6SM BKN030 FM291900 29015G25KT P6SM SCT030 BKN100 RMK NXT FCST BY 290000Z<br><br>
<br><br>
CYOO 282113Z AUTO 20007KT 9SM SCT012 OVC055 05/04 A2966 RMK SLP049<br><br>
CYOO 282100Z AUTO 18005KT 9SM BKN010 BKN055 OVC071 05/03 A2965 RMK SLP046<br><br>
CYOO 282059Z AUTO 18004KT 9SM BKN010 BKN055 OVC071 05/03 A2965 RMK SLP046<br><br>
CYOO 282057Z AUTO 20005KT 9SM SCT010 BKN055 OVC071 05/04 A2965 RMK SLP046<br><br>
CYOO 282054Z AUTO 19005KT 9SM BKN010 OVC055 05/03 A2964 RMK SLP045<br><br>
CYOO 282046Z AUTO 17003KT 9SM SCT010 OVC055 04/03 A2964 RMK SLP044<br><br>
CYOO has no TAF <br><br>
<br><br>
CYTR 282130Z 00000KT 15SM SCT008 OVC013 04/04 A2967 RMK SF4SC4 SLP051<br><br>
CYTR 282100Z 00000KT 12SM BKN005 OVC014 04/03 A2966 RMK SF5SC3 SLP050<br><br>
TAF AMD CYTR 281927Z 2819/2918 VRB03KT 11/2SM -RA BR OVC007 TEMPO 2819/2903 6SM BR SCT007 OVC020 FM290300 VRB03KT P6SM SCT020 BKN050 TEMPO 2903/2914 P6SM -RA OVC020 FM291400 27005KT 6SM -RASN BR BKN006 OVC020 FM291700 29010KT P6SM -RASN BKN015 OVC040 RMK NXT FCST BY 290000Z<br><br>
<br><br>
