RETRIEVED AT : Oct 21 2018 12:05 Local <br>
  RETRIEVED AT: Oct 21 2018 16:05 UTC<br><br>
CYSN 211500Z 31012KT 15SM OVC035 04/M04 A3018 RMK SC8 SLP225<br><br>
TAF CYSN 211238Z 2113/2201 33010KT P6SM BKN030 TEMPO 2113/2115 P6SM -SHSN FM212100 28012KT P6SM BKN040 TEMPO 2121/2201 P6SM -SHRA BKN020 RMK NXT FCST BY 212000Z<br><br>
<br><br>
CYHM 211500Z 31012G20KT 15SM FEW030 BKN040 03/M04 A3019 RMK CU2SC5 SLP233<br><br>
TAF CYHM 211138Z 2112/2212 30010G20KT P6SM BKN040 TEMPO 2112/2114 P6SM -SHSN BKN020 FM211600 29010G20KT P6SM BKN040 TEMPO 2120/2124 P6SM -SHRA BECMG 2122/2124 27010KT FM220000 27010KT P6SM BKN030 BKN120 BECMG 2202/2204 23010KT FM220600 24010KT P6SM SCT030 BKN100 RMK NXT FCST BY 211800Z<br><br>
<br><br>
KIAG 211553Z 30014G21KT 10SM BKN033 03/M04 A3017 RMK AO2 SNE1459 SLP228 P0000 T00331039<br><br>
KIAG 211453Z 31013G17KT 9SM -SN BKN025 OVC035 02/M03 A3017 RMK AO2 UPB39E52SNB42E51B52 SLP230 P0000 60000 T00221028 51008<br><br>
KIAG 211503Z 2115/2212 31012G18KT P6SM BKN030 FM211800 30012G20KT P6SM BKN040 FM220000 28009KT P6SM BKN060 FM220600 23005KT P6SM BKN070<br><br>
<br><br>
KBUF 211554Z 29009KT 10SM BKN026 BKN040 03/M02 A3017 RMK AO2 SNB01E11 SLP222 P0000 T00281022<br><br>
KBUF 211505Z 31010KT 10SM -SN BKN028 BKN040 03/M02 A3017 RMK AO2 SNB01 P0000 T00281022<br><br>
KBUF 211454Z 30007KT 10SM BKN030 BKN045 03/M03 A3017 RMK AO2 SLP221 T00281028 51019<br><br>
KBUF 211503Z 2115/2212 31009KT P6SM BKN030 FM211800 28012G20KT P6SM BKN045 FM220000 28009KT P6SM BKN060 FM220600 24004KT P6SM BKN060<br><br>
<br><br>
CYYZ 211500Z 30012G22KT 15SM BKN035 04/M05 A3017 RMK SC7 SLP222<br><br>
TAF CYYZ 211439Z 2115/2218 31012G22KT P6SM BKN040 FM212100 29010G20KT P6SM BKN040 TEMPO 2121/2124 P6SM -SHRA FM220300 24008KT P6SM BKN030 TEMPO 2204/2208 P6SM -SHSN FM220800 24010KT P6SM FEW030 BKN080 FM221200 24008KT P6SM FEW030 SCT080 FM221500 26008KT P6SM BKN040 RMK NXT FCST BY 211800Z<br><br>
<br><br>
CYOO 211500Z AUTO 31014KT 9SM OVC040 03/M04 A3015 RMK SLP217<br><br>
CYOO has no TAF <br><br>
<br><br>
CYTR 211500Z 33008KT 15SM SCT044 04/M07 A3011 RMK SC3 SLP201<br><br>
TAF CYTR 211130Z 2112/2212 33010KT P6SM BKN040 BECMG 2114/2116 31012G22KT BECMG 2121/2123 28005KT RMK NXT FCST BY 211800Z<br><br>
<br><br>
