RETRIEVED AT : Apr 04 2020 08:05 Local <br>
  RETRIEVED AT: Apr 04 2020 12:05 UTC<br><br>
CYSN 041100Z 26003KT 2SM BR OVC001 06/06 A3003 RMK SF8 SLP172<br><br>
CYSN has no TAF <br><br>
<br><br>
CYHM 041100Z 32002KT 8SM FEW006 OVC014 05/04 A3003 RMK SF1SC7 SLP175<br><br>
CYHM 041043Z 30003KT 7SM SCT005 OVC014 05/04 A3003 RMK SC3SC5 SLP174<br><br>
TAF CYHM 041139Z 0412/0512 VRB03KT P6SM FEW006 BKN010 OVC050 TEMPO 0412/0414 4SM -DZ BR OVC006 FM041400 VRB03KT P6SM BKN015 BKN050 TEMPO 0414/0417 SCT015 BKN050 FM041700 07006KT P6SM BKN025 FM042200 VRB03KT P6SM BKN030 BKN080 FM050300 22007KT P6SM -SHRA BKN030 OVC050 FM050700 25007KT P6SM BKN025 OVC050 FM051000 29008KT P6SM BKN010 OVC030 RMK NXT FCST BY 041800Z<br><br>
<br><br>
KIAG 041153Z 27003KT 1 1/2SM BR OVC002 06/05 A3004 RMK AO2 SLP182 70003 T00560050 10056 20050 53011<br><br>
KIAG 041146Z 26003KT 1 1/4SM BR OVC002 05/05 A3004 RMK AO2 T00500050<br><br>
KIAG 041053Z 28003KT 1 1/4SM BR OVC003 05/05 A3002 RMK AO2 SLP175 T00500050<br><br>
KIAG 041020Z AUTO 30005KT 1 1/4SM BR OVC003 05/04 A3001 RMK AO2 T00500044<br><br>
KIAG 041009Z AUTO 30004KT 1 1/2SM BR OVC003 05/04 A3001 RMK AO2 T00500044<br><br>
KIAG 041120Z 0412/0512 30005KT 2SM BR OVC003 FM041400 24005KT 6SM BR OVC007 FM041600 24005KT P6SM OVC012 FM042100 VRB03KT P6SM BKN035 FM050900 28005KT P6SM VCSH OVC030<br><br>
<br><br>
KBUF 041154Z 27003KT 3SM BR OVC002 06/05 A3004 RMK AO2 DZE49 SLP176 P0000 60002 70008 T00610050 10061 20050 53009<br><br>
KBUF 041054Z 20003KT 2SM -DZ BR OVC002 06/05 A3002 RMK AO2 SLP171 P0001 T00560050<br><br>
KBUF 041038Z 20003KT 2SM -DZ BR OVC002 06/05 A3002 RMK AO2 P0000 T00560050<br><br>
KBUF 041015Z 22003KT 1 1/4SM R23/3500V4500FT -DZ BR OVC002 06/04 A3001 RMK AO2 P0000 T00560044<br><br>
KBUF 041120Z 0412/0512 22003KT 2SM -DZ BR OVC003 FM041500 22006KT P6SM OVC007 FM041700 24007KT P6SM BKN012 FM042300 VRB03KT P6SM SCT030 FM050200 VRB03KT P6SM BKN060<br><br>
<br><br>
CYYZ 041149Z 32006KT 10SM OVC015 06/06 A3005 RMK ST8 SLP180<br><br>
CYYZ 041100Z 33006KT 10SM -DZ OVC013 06/05 A3003 RMK ST8 SLP175<br><br>
CYYZ 041030Z 05006KT 340V060 12SM -DZ OVC013 06/05 A3002 RMK ST8 SLP172<br><br>
TAF CYYZ 041139Z 0412/0518 33008KT P6SM FEW007 SCT015 OVC060 TEMPO 0412/0415 5SM BR BKN007 OVC015 FM041500 11008KT P6SM BKN015 OVC040 TEMPO 0415/0420 BKN025 OVC040 FM042000 14008KT P6SM BKN025 FM050000 13008KT P6SM BKN030 BKN100 FM050300 15008KT P6SM -SHRA BKN030 OVC080 FM050700 VRB03KT 4SM BR SCT006 OVC015 PROB40 0507/0509 2SM BR OVC006 FM050900 35008KT P6SM SCT008 BKN012 OVC040 PROB30 0509/0513 OVC008 FM051500 34015KT P6SM SCT015 RMK NXT FCST BY 041500Z<br><br>
<br><br>
CYOO 041100Z AUTO 01003KT 9SM OVC034 06/06 A3002 RMK SLP171<br><br>
TAF AMD CYOO 041006Z 0410/0420 01005KT 5SM BR OVC020 TEMPO 0410/0414 P6SM NSW SCT020 OVC030 PROB30 0410/0414 3SM -DZ BR OVC007 FM041400 VRB03KT P6SM OVC015 TEMPO 0414/0420 BKN025 BECMG 0416/0418 19008KT RMK FCST BASED ON AUTO OBS. NXT FCST BY 041400Z<br><br>
<br><br>
CYTR 041100Z 03003KT 15SM BKN035 BKN097 06/04 A3003 RMK SC5AC2 SLP172<br><br>
TAF CYTR 041130Z 0412/0512 VRB03KT P6SM FEW015 BKN030 OVC100 TEMPO 0412/0419 BKN015 OVC030 BECMG 0417/0419 20008KT FM041900 20008KT P6SM SCT040 BECMG 0500/0502 VRB03KT FM050700 VRB03KT P6SM SCT040 OVC070 TEMPO 0507/0512 P6SM -SHRA OVC040 RMK NXT FCST BY 041800Z<br><br>
<br><br>
