RETRIEVED AT : May 22 2020 07:05 Local <br>
  RETRIEVED AT: May 22 2020 11:05 UTC<br><br>
CYSN has no TAF <br><br>
<br><br>
CYHM 221000Z 18003KT 15SM FEW250 10/03 A3012 RMK CI1 CONTRAILS SLP202<br><br>
TAF CYHM 220544Z 2206/2306 VRB03KT P6SM SKC FM221500 24005KT P6SM FEW050 SCT070 BKN120 FM221800 22010KT P6SM FEW020 BKN050 OVC070 TEMPO 2218/2224 P6SM -SHRA SCT020 OVC050 FM230000 22005KT P6SM -RA FEW008 SCT015 OVC030 TEMPO 2300/2306 4SM -SHRA BR SCT008 OVC015 RMK NXT FCST BY 221200Z<br><br>
<br><br>
KIAG 221053Z 00000KT 10SM CLR 12/09 A3012 RMK AO2 SLP200 T01170094<br><br>
KIAG 220953Z AUTO 00000KT 10SM CLR 11/07 A3012 RMK AO2 SLP201 T01060072<br><br>
KIAG 220818Z 2208/2306 VRB03KT P6SM SKC FM221500 06005KT P6SM BKN200 FM222000 07006KT P6SM BKN040 FM230200 VRB03KT P6SM VCSH OVC035<br><br>
<br><br>
KBUF 221054Z 17005KT 10SM FEW250 14/10 A3013 RMK AO2 SLP200 T01440100<br><br>
KBUF 220954Z 15006KT 10SM CLR 13/09 A3013 RMK AO2 SLP201 T01330094<br><br>
KBUF 220818Z 2208/2306 VRB03KT P6SM SKC FM221500 VRB03KT P6SM BKN200 FM222000 23007KT P6SM BKN040 FM230100 VRB03KT 6SM -SHRA OVC025<br><br>
<br><br>
CYYZ 221000Z 00000KT 15SM FEW250 10/01 A3011 RMK CI1 CI TR SLP200<br><br>
TAF CYYZ 220838Z 2209/2312 VRB03KT P6SM SKC FM221500 17010KT P6SM FEW050 SCT150 FM222200 15010KT P6SM SCT070 BKN090 BKN200 TEMPO 2222/2305 P6SM VCSH SCT050 BKN070 OVC090 FM230500 18005KT P6SM FEW008 SCT012 BKN180 BECMG 2308/2310 02005KT FM231000 02005KT P6SM FEW030 FEW080 SCT200 RMK NXT FCST BY 221200Z<br><br>
<br><br>
CYOO 221000Z AUTO 00000KT 9SM CLR 07/02 A3012 RMK SLP202<br><br>
TAF CYOO 220742Z 2208/2220 VRB03KT P6SM SKC BECMG 2214/2216 20008KT FM221800 18008KT P6SM SCT150 RMK FCST BASED ON AUTO OBS. NXT FCST BY 221400Z<br><br>
<br><br>
CYTR 221000Z 36002KT 15SM FEW240 06/01 A3013 RMK CI1 CI TR SLP205<br><br>
TAF CYTR 220530Z 2206/2306 VRB03KT P6SM SKC BECMG 2215/2217 22010KT BECMG 2222/2224 VRB03KT FM230300 VRB03KT P6SM BKN250 RMK NXT FCST BY 221200Z<br><br>
<br><br>
