RETRIEVED AT : Mar 30 2020 07:05 Local <br>
  RETRIEVED AT: Mar 30 2020 11:05 UTC<br><br>
CYSN has no TAF <br><br>
<br><br>
CYHM 301000Z 26012KT 15SM -RA OVC045 06/03 A2974 RMK SC8 SLP077<br><br>
TAF CYHM 300542Z 3006/3106 23012G22KT P6SM FEW020 BKN040 TEMPO 3006/3009 P6SM -SHRA BKN020 OVC030 FM300900 23012G22KT P6SM -SHRA OVC015 TEMPO 3009/3012 P6SM NSW SCT015 OVC025 BECMG 3014/3016 26012G22KT FM302200 27010G20KT P6SM BKN015 OVC030 BECMG 3100/3102 27008KT FM310500 01008KT P6SM BKN007 OVC012 RMK NXT FCST BY 301200Z<br><br>
<br><br>
KIAG 301053Z 23010KT 10SM -RA SCT037 OVC045 06/03 A2977 RMK AO2 RAB46 SLP088 P0000 T00610028<br><br>
KIAG 300953Z AUTO 23011G19KT 10SM BKN042 OVC050 07/03 A2976 RMK AO2 SLP082 T00670033<br><br>
KIAG 300901Z 3009/3106 23017G25KT P6SM SCT080 OVC110 FM301200 23013G23KT P6SM OVC030 TEMPO 3013/3015 4SM -SHRA OVC015 FM301500 23013G23KT 6SM -SHRA BR OVC015 FM302200 24010G18KT 6SM -SHRA OVC012 FM310100 26009KT P6SM OVC015 FM310300 25008KT P6SM OVC007<br><br>
<br><br>
KBUF 301054Z 23017G24KT 10SM SCT038 BKN070 OVC090 07/03 A2979 RMK AO2 PK WND 23031/0959 RAE37 SLP090 P0000 T00670028<br><br>
KBUF 300954Z 23021G32KT 10SM -RA OVC070 08/03 A2977 RMK AO2 PK WND 23032/0948 RAB09E25B49 SLP083 P0000 T00780033<br><br>
KBUF 300901Z 3009/3106 22020G30KT P6SM BKN090 OVC110 FM301200 24014G25KT P6SM OVC030 TEMPO 3013/3015 4SM -SHRA OVC015 FM301500 24015G27KT 6SM -SHRA BR OVC012 FM301800 24015G26KT 6SM -SHRA OVC007 FM302300 24011G17KT 6SM -SHRA OVC012 FM310200 25009KT P6SM OVC007<br><br>
<br><br>
CYYZ 301000Z 23007KT 15SM BKN027 07/03 A2973 RMK SC7 SLP070<br><br>
TAF CYYZ 300838Z 3009/3112 24010G20KT P6SM -RA SCT020 BKN030 OVC070 TEMPO 3009/3012 BKN015 OVC030 FM301200 25012G22KT P6SM -SHRA OVC015 TEMPO 3012/3021 P6SM NSW SCT015 OVC025 BECMG 3016/3018 26010G20KT FM302100 29010G20KT P6SM -SHRA OVC015 FM310300 36010KT P6SM BKN009 OVC012 RMK NXT FCST BY 301200Z<br><br>
<br><br>
CYOO 301026Z AUTO 25008KT 9SM -RA OVC032 08/03 A2973 RMK SLP070<br><br>
CYOO 301000Z AUTO 23006KT 9SM OVC032 08/04 A2972 RMK SLP067<br><br>
TAF CYOO 300738Z 3008/3020 21010KT P6SM FEW020 BKN030 TEMPO 3008/3012 P6SM -SHRA BKN015 OVC030 FM301200 24010G20KT P6SM -SHRA OVC015 TEMPO 3012/3020 P6SM NSW SCT015 OVC025 RMK FCST BASED ON AUTO OBS. NXT FCST BY 301400Z<br><br>
<br><br>
CYTR 301000Z 22005KT 15SM -SHRA SCT035 OVC065 06/05 A2974 RMK SC4SC4 SLP074<br><br>
CYTR 300919Z 24007KT 15SM -SHRA SCT035 OVC065 07/04 A2973 RMK SC4SC4 PCPN VRY LGT SLP070<br><br>
TAF CYTR 300530Z 3006/3106 22008G18KT P6SM FEW050 OVC080 TEMPO 3006/3013 5SM -SHRA BR BKN030 OVC050 FM301300 23010G20KT P6SM -SHRA BKN010 OVC025 TEMPO 3013/3018 P6SM NSW SCT010 OVC025 FM301800 24012G22KT 4SM -SHRA BR OVC010 BECMG 3021/3023 24008KT FM310100 VRB03KT P6SM -SHRA BKN006 OVC010 RMK NXT FCST BY 301200Z<br><br>
<br><br>
