RETRIEVED AT : Oct 05 2018 07:05 Local <br>
  RETRIEVED AT: Oct 05 2018 11:05 UTC<br><br>
CYSN has no TAF <br><br>
<br><br>
CYHM 051000Z 03007KT 12SM SCT021 BKN030 07/06 A3020 RMK SC3SC3 SLP232<br><br>
TAF CYHM 050539Z 0506/0606 35007KT P6SM FEW250 FM050900 04010KT P6SM SCT012 SCT240 TEMPO 0509/0516 BKN012 BKN240 FM051600 06012G22KT P6SM FEW020 BKN090 BECMG 0522/0523 06012KT FM060200 06007KT P6SM OVC030 RMK NXT FCST BY 051200Z<br><br>
<br><br>
KIAG 051053Z 07009KT 10SM BKN031 07/03 A3023 RMK AO2 SLP242 T00720028<br><br>
KIAG 050953Z AUTO 07009KT 10SM CLR 07/03 A3020 RMK AO2 SLP232 T00720033<br><br>
KIAG 050939Z 0510/0606 06007KT P6SM BKN035 FM051200 07008KT P6SM SCT030 FM051500 08012KT P6SM BKN150 FM052200 09010KT P6SM BKN080 FM060400 10006KT P6SM BKN040<br><br>
<br><br>
KBUF 051054Z 04007KT 10SM FEW031 07/04 A3022 RMK AO2 SLP238 T00720044<br><br>
KBUF 050954Z 06009KT 10SM SCT031 08/05 A3020 RMK AO2 SLP228 T00780050<br><br>
KBUF 050939Z 0510/0606 04007KT P6SM BKN035 FM051200 06008KT P6SM SCT030 FM051500 08010KT P6SM BKN150 FM052200 09008KT P6SM BKN080 FM060400 11005KT P6SM BKN040<br><br>
<br><br>
CYYZ 051000Z 04007KT 15SM FEW025 05/01 A3024 RMK SC1 SLP246<br><br>
TAF CYYZ 050838Z 0509/0612 03005KT P6SM FEW220 FM051100 03008KT P6SM BKN015 BKN240 TEMPO 0511/0513 SCT015 SCT240 BECMG 0514/0515 06015KT FM051800 08012KT P6SM SCT020 BKN080 FM060400 05010KT P6SM BKN020 OVC050 FM060700 03007KT 6SM -DZ BR SCT008 OVC020 FM061100 04005KT 3SM -RA BR BKN007 OVC015 RMK NXT FCST BY 051200Z<br><br>
<br><br>
CYOO 051000Z AUTO 03006KT 9SM CLR 03/01 A3025 RMK SLP249<br><br>
CYOO has no TAF <br><br>
<br><br>
CYTR 051000Z 04004KT 15SM FEW065 FEW160 03/00 A3027 RMK SC1AC1 SLP252<br><br>
TAF CYTR 050530Z 0506/0606 04008KT P6SM FEW160 FM051400 05010KT P6SM BKN250 FM052100 05008KT P6SM BKN080 RMK NXT FCST BY 051200Z<br><br>
<br><br>
