RETRIEVED AT : Nov 11 2017 16:10 Local <br>
  RETRIEVED AT: Nov 11 2017 21:10 UTC<br><br>
CYSN 112100Z 09005KT 15SM FEW030 FEW120 BKN240 01/M10 A3044 RMK SC1AC1CI6 SC TR SLP315<br><br>
CYSN 112000Z 11008KT 080V150 15SM FEW140 BKN250 01/M10 A3046 RMK AC2CI5 SLP320<br><br>
TAF CYSN 111938Z 1120/1202 13012KT P6SM FEW030 FM120100 14012KT P6SM BKN120 RMK NXT FCST WILL BE ISSUED AT 121345Z<br><br>
<br><br>
CYHM 112100Z 09009KT 15SM FEW150 BKN220 M01/M11 A3040 RMK AC1CI7 AC TR SLP311<br><br>
CYHM 112000Z 09009KT 15SM FEW160 BKN230 M01/M11 A3043 RMK AC1CI7 AC TR SLP320<br><br>
TAF CYHM 111740Z 1118/1218 11012KT P6SM FEW030 BKN240 FM120200 VRB03KT P6SM BKN080 OVC240 FM121700 08005KT P6SM -SHSN OVC030 RMK NXT FCST BY 120000Z<br><br>
<br><br>
KIAG 112053Z 11008KT 10SM CLR 01/M09 A3043 RMK AO2 SLP321 T00111094 56022 $<br><br>
KIAG 111953Z 10008KT 10SM CLR 02/M11 A3045 RMK AO2 SLP327 T00221106 $<br><br>
KIAG 112105Z 1121/1218 11012KT P6SM SKC FM120300 15006KT P6SM BKN110 FM121100 17005KT P6SM OVC070 FM121300 17005KT P6SM BKN045<br><br>
<br><br>
KBUF 112054Z 09006KT 10SM SCT180 BKN250 01/M10 A3042 RMK AO2 SLP313 T00111100 58019<br><br>
KBUF 111954Z 12006KT 10SM FEW035 SCT180 BKN250 01/M10 A3044 RMK AO2 SLP320 T00111100<br><br>
KBUF 112105Z 1121/1218 10011KT P6SM FEW030 BKN250 FM120200 15006KT P6SM BKN120 FM121200 19006KT P6SM BKN060 FM121400 19005KT P6SM BKN045<br><br>
<br><br>
CYYZ 112100Z 10007KT 15SM SCT025 BKN030 BKN140 M00/M07 A3044 RMK CU3SC3AC1 SLP318<br><br>
CYYZ 112000Z 11010KT 090V160 15SM BKN030 BKN140 BKN280 00/M07 A3045 RMK CU6AC1CI1 CI TR SLP323<br><br>
CYYZ 111914Z 13010G16KT 15SM SCT028 BKN120 BKN280 00/M08 A3047 RMK CU4AC2CI1 SLP331<br><br>
TAF CYYZ 112038Z 1121/1224 11010KT P6SM SCT030 BKN150 FM120400 VRB03KT P6SM BKN080 FM121600 15005KT P6SM OVC030 TEMPO 1216/1222 P6SM -RASN FM122200 VRB03KT 4SM -RASN BR OVC015 RMK NXT FCST BY 120000Z<br><br>
<br><br>
CYOO 112100Z AUTO 07007KT 020V080 9SM BKN030 BKN035 M01/M05 A3046 RMK SLP326<br><br>
CYOO 112011Z AUTO 08007KT 9SM SCT020 OVC029 M02/M05 A3048 RMK SLP331<br><br>
CYOO 112001Z AUTO 08007KT 040V100 9SM BKN022 OVC029 M02/M05 A3048 RMK SLP330<br><br>
CYOO 112000Z AUTO 08007KT 9SM -SN BKN022 OVC029 M02/M05 A3048 RMK SLP330<br><br>
CYOO 111942Z AUTO 08010KT 9SM -SN OVC024 M02/M06 A3049 RMK SLP335<br><br>
CYOO 111929Z AUTO 10006KT 9SM BKN024 OVC030 M02/M06 A3050 RMK SLP337<br><br>
CYOO has no TAF <br><br>
<br><br>
CYTR 112000Z 07004KT 15SM FEW030 FEW150 BKN200 M01/M10 A3052 RMK SC1AC1CI6 SLP343<br><br>
TAF CYTR 111730Z 1118/1218 09005KT P6SM FEW030 BKN200 FM112200 09005KT P6SM FEW020 BKN120 FM121200 VRB03KT P6SM SCT030 BKN060 RMK NXT FCST BY 120000Z<br><br>
<br><br>
