RETRIEVED AT : May 01 2020 07:06 Local <br>
  RETRIEVED AT: May 01 2020 11:06 UTC<br><br>
CYSN has no TAF <br><br>
<br><br>
CYHM 011032Z 26008KT 12SM OVC004 07/07 A2974 RMK SC8 SLP074<br><br>
CYHM 011000Z 25008KT 7SM -DZ OVC005 08/07 A2972 RMK SF8 SLP068<br><br>
TAF CYHM 010539Z 0106/0206 24008KT 2SM -RA BR BKN003 OVC025 TEMPO 0106/0108 6SM BR OVC025 FM010800 24005KT 6SM BR OVC006 TEMPO 0108/0114 11/2SM -SHRA BR OVC004 BECMG 0109/0111 34005KT FM011400 02008KT 5SM -SHRA BR BKN008 OVC015 FM011600 01008KT P6SM -SHRA OVC015 FM011800 35008KT P6SM BKN030 BECMG 0118/0120 03008KT FEW040 FM020300 VRB03KT P6SM SKC RMK NXT FCST BY 011200Z<br><br>
<br><br>
KIAG 011053Z 20006KT 10SM BKN060 OVC110 07/05 A2974 RMK AO2 SLP077 T00670050<br><br>
KIAG 010953Z AUTO 24007KT 10SM OVC110 07/05 A2973 RMK AO2 SLP073 T00670050<br><br>
KIAG 010910Z 0109/0206 22009KT P6SM OVC110 FM011200 22008KT P6SM OVC025 FM011400 23007KT P6SM OVC009 FM011700 29006KT P6SM OVC012 FM012000 30009KT P6SM BKN050<br><br>
<br><br>
KBUF 011054Z 23009KT 10SM BKN100 08/04 A2976 RMK AO2 SLP079 T00780044 $<br><br>
KBUF 010954Z 23009KT 10SM OVC110 08/04 A2974 RMK AO2 SLP071 T00780044 $<br><br>
KBUF 010910Z 0109/0206 24009KT P6SM OVC110 FM011200 23009KT P6SM OVC025 FM011500 25008KT P6SM OVC009 FM012000 28008KT P6SM BKN015 FM020100 26006KT P6SM FEW200<br><br>
<br><br>
CYYZ 011019Z 03006KT 330V040 10SM BKN006 OVC011 10/10 A2972 RMK SF5SC3 SLP068<br><br>
CYYZ 011000Z 35006KT 2 1/2SM -RA BR BKN004 OVC012 10/10 A2972 RMK NS7NS1 SLP066<br><br>
CYYZ 010932Z VRB03KT 2 1/2SM -RA BR BKN005 OVC010 10/09 A2971 RMK NS6NS2 SLP066<br><br>
TAF CYYZ 010838Z 0109/0212 18007KT 21/2SM -RA BR BKN006 OVC025 TEMPO 0109/0113 P6SM NSW SCT006 OVC025 BECMG 0110/0112 36012KT FM011300 35010G20KT P6SM BKN012 OVC030 FM011600 35010G20KT P6SM BKN020 BKN050 BECMG 0116/0118 35015KT SCT020 FM020300 34008KT P6SM SKC FM021100 VRB03KT P6SM BKN200 RMK NXT FCST BY 011200Z<br><br>
<br><br>
CYOO 011009Z AUTO 27002KT 3SM BR FEW002 OVC008 09/09 A2971 RMK SLP063<br><br>
CYOO 011003Z AUTO 28002KT 3SM -RA BR FEW002 OVC008 09/09 A2971 RMK SLP063<br><br>
CYOO 011000Z AUTO 29003KT 3SM -RA BR FEW002 OVC010 09/09 A2971 RMK SLP062<br><br>
CYOO 010949Z AUTO 30002KT 3SM -RA BR FEW002 OVC010 09/09 A2971 RMK SLP063<br><br>
CYOO 010934Z AUTO 29002KT 2 1/4SM -RA BR FEW002 OVC010 09/09 A2971 RMK SLP063<br><br>
TAF AMD CYOO 010945Z 0109/0120 VRB03KT 6SM BR OVC010 TEMPO 0109/0113 11/2SM -RA BR BKN002 OVC010 FM011300 33010KT P6SM -RA BKN012 OVC040 TEMPO 0113/0116 P6SM NSW SCT012 OVC040 FM011600 33012KT P6SM BKN020 BKN050 BECMG 0118/0120 SCT020 RMK FCST BASED ON AUTO OBS. NXT FCST BY 011400Z<br><br>
<br><br>
CYTR 011020Z 24002KT 1/2SM -DZ FG VV003 09/08 A2971 RMK FG8 VIS VRB 1/4-3/4 SLP064<br><br>
CYTR 011000Z 25003KT 1 1/4SM -DZ BR OVC002 08/08 A2971 RMK ST8 VIS VRB 3/4-1 3/4 SLP062<br><br>
CYTR 010947Z 26004KT 1 1/4SM -DZ BR OVC002 08/08 A2970 RMK ST8 VIS VRB 3/4-1 3/4 SLP061<br><br>
TAF AMD CYTR 010840Z 0108/0206 23005KT 3/8SM FG VV001 TEMPO 0108/0111 6SM -SHRA BR SCT003 BKN008 OVC040 FM011100 27008KT 11/2SM BR BKN005 OVC015 TEMPO 0111/0115 6SM -SHRA BR SCT005 OVC015 FM011500 27005KT 5SM -SHRA BR FEW006 BKN015 OVC050 PROB30 0117/0119 2SM SHRA BR OVC010 FM011900 35010G20KT P6SM BKN030 FM012200 35010G20KT P6SM FEW030 BECMG 0200/0202 33007KT RMK NXT FCST BY 011200Z<br><br>
<br><br>
