RETRIEVED AT : Jun 07 2019 18:05 Local <br>
  RETRIEVED AT: Jun 07 2019 22:05 UTC<br><br>
CYSN 072100Z 02005KT 15SM FEW250 25/10 A2998 RMK CI2 SLP154 DENSITY ALT 1600FT<br><br>
TAF CYSN 071939Z 0720/0801 33006KT P6SM SKC BECMG 0722/0724 02005KT RMK NXT FCST WILL BE ISSUED AT 081245Z<br><br>
<br><br>
CYHM 072100Z 03004KT 350V130 15SM FEW260 25/11 A3000 RMK CI2 SLP160 DENSITY ALT 2100FT<br><br>
TAF CYHM 071738Z 0718/0818 04006KT P6SM FEW240 FM080300 03005KT P6SM SKC BECMG 0812/0814 05015KT RMK NXT FCST BY 080000Z<br><br>
<br><br>
KIAG 072153Z 02006KT 10SM CLR 25/08 A2999 RMK AO2 SLP156 T02500078<br><br>
KIAG 072053Z 03008KT 10SM CLR 25/09 A3000 RMK AO2 SLP157 T02500089 56003<br><br>
KIAG 072105Z 0721/0818 03008KT P6SM FEW250 FM080100 VRB05KT P6SM FEW250<br><br>
<br><br>
KBUF 072154Z 36006KT 10SM FEW060 FEW290 25/08 A3000 RMK AO2 SLP156 T02500083<br><br>
KBUF 072054Z 01009KT 10SM FEW060 FEW290 25/09 A2999 RMK AO2 SLP154 T02500094 57002<br><br>
KBUF 072105Z 0721/0818 01009KT P6SM FEW250 FM080100 VRB04KT P6SM FEW250<br><br>
<br><br>
CYYZ 072100Z VRB07KT 15SM FEW180 26/10 A2998 RMK AC1 AC TR SLP155 DENSITY ALT 1900FT<br><br>
TAF CYYZ 072038Z 0721/0824 05012KT P6SM FEW250 BECMG 0723/0801 02007KT FM081200 08012KT P6SM SKC BECMG 0814/0816 13010G20KT RMK NXT FCST BY 080000Z<br><br>
<br><br>
CYOO 072100Z AUTO 33010KT 9SM CLR 26/09 A2997 RMK SLP152 DENSITY ALT 1700FT<br><br>
TAF CYOO 071939Z 0720/0808 VRB03KT P6SM SKC BECMG 0804/0806 04008KT RMK FCST BASED ON AUTO OBS. NXT FCST BY 080200Z<br><br>
<br><br>
CYTR 072100Z 20008KT 15SM FEW050 FEW250 22/13 A2996 RMK CF1CI1 CUFRA TR SLP147<br><br>
TAF CYTR 071730Z 0718/0818 21012KT P6SM FEW250 BECMG 0800/0802 VRB03KT BECMG 0804/0806 04007KT FM081400 09007KT P6SM SKC BECMG 0816/0818 21010KT RMK NXT FCST BY 080000Z<br><br>
<br><br>
