RETRIEVED AT : May 16 2020 10:05 Local <br>
  RETRIEVED AT: May 16 2020 14:05 UTC<br><br>
CYSN 161300Z 02005KT 4SM BR OVC005 10/10 A3018 RMK SF8 SLP221<br><br>
TAF CYSN 161238Z 1613/1701 04007KT 4SM BR OVC004 FM161500 36006KT P6SM SCT015 TEMPO 1615/1617 BKN015 FM161700 36006KT P6SM FEW040 BECMG 1620/1622 02006KT RMK NXT FCST BY 162000Z<br><br>
<br><br>
CYHM 161338Z 06008KT 7SM OVC005 09/09 A3019 RMK SF8 SLP230<br><br>
CYHM 161300Z 06009KT 6SM BR OVC004 09/09 A3019 RMK SF8 SLP227<br><br>
CYHM 161225Z 05010KT 4SM BR OVC003 09/09 A3016 RMK SF8 SLP218<br><br>
CYHM 161218Z 05009KT 2SM BR OVC002 08/08 A3016 RMK FG1SF7 SLP218<br><br>
CYHM 161210Z 04008KT 1SM R12/5500VP6000FT/U BR OVC002 08/08 A3016 RMK FG4SF4 SLP218<br><br>
TAF CYHM 161139Z 1612/1712 04010KT 1SM BR OVC002 TEMPO 1612/1614 6SM BR SCT002 FM161400 05006KT P6SM SCT008 TEMPO 1614/1616 SCT008 BKN015 FM161600 05010KT P6SM SCT030 FM170100 06005KT P6SM SKC FM171000 06012KT P6SM SCT040 BKN200 RMK NXT FCST BY 161800Z<br><br>
<br><br>
KIAG 161353Z 07007KT 10SM BKN013 BKN030 12/09 A3019 RMK AO2 SLP227 T01220089<br><br>
KIAG 161349Z 07006KT 10SM BKN013 OVC030 12/09 A3019 RMK AO2<br><br>
KIAG 161253Z 06007KT 10SM BKN009 OVC025 09/09 A3017 RMK AO2 CIG 006V012 SLP222 T00940089<br><br>
KIAG 161226Z 07006KT 8SM OVC007 09/09 A3017 RMK AO2 CIG 003V010 T00890089<br><br>
KIAG 161214Z 07006KT 5SM BR OVC004 09/09 A3016 RMK AO2 CIG 003V007 T00890089<br><br>
KIAG 161120Z 1612/1712 02006KT 3SM BR OVC002 TEMPO 1612/1614 SCT002 BKN015 FM161400 02006KT P6SM BKN025 FM161600 01006KT P6SM SCT040 FM162200 03006KT P6SM SKC FM170600 09004KT P6SM SCT250<br><br>
<br><br>
KBUF 161354Z 05006KT 10SM BKN009 OVC013 12/09 A3019 RMK AO2 CIG 007V011 SLP225 T01170089<br><br>
KBUF 161254Z 04006KT 10SM OVC006 09/08 A3018 RMK AO2 CIG 004V010 SLP221 T00940083<br><br>
KBUF 161242Z 03005KT 10SM OVC005 09/08 A3017 RMK AO2 CIG 003V008 T00940083<br><br>
KBUF 161220Z 05006KT 3SM BR OVC002 09/08 A3017 RMK AO2 T00940083<br><br>
KBUF 161210Z 04004KT 1 1/2SM R23/2200VP6000FT BR OVC002 09/08 A3016 RMK AO2 T00940083<br><br>
KBUF 161120Z 1612/1712 36006KT 5SM BR BKN007 TEMPO 1612/1614 1SM BR BKN002 FM161430 01006KT P6SM BKN025 FM161600 36006KT P6SM SCT040 FM162200 04006KT P6SM SKC FM170400 09006KT P6SM SCT250<br><br>
<br><br>
CYYZ 161315Z VRB03KT 15SM SCT014 12/08 A3018 RMK SC4 SLP224<br><br>
CYYZ 161300Z 03003KT 280V080 15SM BKN013 11/08 A3018 RMK SC5 SLP222<br><br>
TAF CYYZ 161139Z 1612/1718 36008KT 2SM BR BKN007 TEMPO 1612/1613 6SM BR BKN010 FM161300 36008KT P6SM FEW005 SCT015 TEMPO 1613/1615 BKN015 FM161500 36008KT P6SM SCT030 FM161900 13008KT P6SM FEW040 BECMG 1701/1703 07007KT FM171100 08012KT P6SM SCT050 SCT180 RMK NXT FCST BY 161500Z<br><br>
<br><br>
CYOO 161300Z AUTO 03006KT 340V080 9SM CLR 13/09 A3016 RMK SLP216<br><br>
TAF CYOO 161338Z 1614/1702 03006KT P6SM SKC FM161500 34006KT P6SM SCT030 BECMG 1618/1620 17005KT BECMG 1700/1702 VRB03KT RMK FCST BASED ON AUTO OBS. NXT FCST BY 162000Z<br><br>
<br><br>
CYTR 161300Z 04010KT 15SM BKN020 12/06 A3017 RMK SC6 SLP219<br><br>
TAF AMD CYTR 161305Z 1613/1712 04010KT P6SM BKN020 TEMPO 1613/1615 BKN025 FM161500 04005KT P6SM BKN025 BECMG 1617/1619 20008KT FM170200 VRB03KT P6SM FEW030 BECMG 1706/1708 04007KT RMK NXT FCST BY 161800Z<br><br>
<br><br>
