RETRIEVED AT : Nov 04 2017 14:10 Local <br>
  RETRIEVED AT: Nov 04 2017 18:10 UTC<br><br>
CYSN 041800Z 09015KT 15SM FEW028 OVC160 09/03 A3024 RMK SC2AC6 SLP244<br><br>
CYSN 041700Z 10013G18KT 15SM SCT024 OVC230 09/04 A3028 RMK SC4CI4 SLP257<br><br>
TAF CYSN 041238Z 0413/0501 10005KT P6SM FEW020 BKN110 OVC250 BECMG 0413/0415 09010KT FM041600 09012KT P6SM SCT110 BKN170 BECMG 0418/0420 09012G22KT FM050000 09012G22KT P6SM BKN040 BKN120 RMK NXT FCST BY 042000Z<br><br>
<br><br>
CYHM 041800Z 05020G26KT 15SM BKN012 OVC150 07/05 A3021 RMK SC7AC1 SLP239<br><br>
CYHM 041745Z 06021KT 15SM BKN011 OVC150 07/05 A3022 RMK SC7AC1 SLP243<br><br>
CYHM 041700Z 08019G24KT 15SM FEW023 BKN150 OVC220 08/02 A3025 RMK SC2AC5CS1 SLP251<br><br>
TAF CYHM 041745Z 0418/0518 06015G25KT P6SM FEW025 BKN150 OVC220 FM050000 07010G20KT P6SM SCT030 BKN140 TEMPO 0500/0502 P6SM -SHRA OVC030 FM050200 07008KT P6SM FEW012 OVC025 TEMPO 0502/0507 3SM -SHRA BR OVC012 PROB30 0504/0507 VRB15G25KT 2SM TSRA BR OVC008CB FM050700 10008KT 21/2SM -SHRA BR OVC008 PROB30 0507/0510 VRB15G25KT 11/2SM TSRA BR OVC005CB FM051000 18012G22KT 21/2SM -SHRA BR OVC008 BECMG 0512/0514 19015G25KT RMK NXT FCST BY 050000Z<br><br>
<br><br>
KIAG 041753Z 09014KT 10SM CLR 09/02 A3024 RMK AO2 SLP252 T00890017 10089 20017 58023<br><br>
KIAG 041653Z 09009G18KT 10SM CLR 09/02 A3028 RMK AO2 SLP263 T00890017<br><br>
KIAG 041732Z 0418/0518 08013KT P6SM BKN150 FM042200 09011KT P6SM BKN100 FM050100 09010KT P6SM VCSH BKN050 FM050500 16008KT P6SM OVC035 WS020/20040KT FM051000 18012KT 4SM SHRA OVC025 WS020/20045KT FM051400 18016G23KT P6SM VCSH OVC025<br><br>
<br><br>
KBUF 041754Z 10013KT 10SM FEW025 FEW110 SCT180 OVC250 08/03 A3025 RMK AO2 SLP247 T00830028 10083 20022 58021<br><br>
KBUF 041654Z 09012KT 10SM FEW025 FEW110 BKN160 OVC240 08/02 A3027 RMK AO2 SLP257 T00780017<br><br>
KBUF 041732Z 0418/0518 08013KT P6SM BKN150 FM042200 09012KT P6SM BKN120 FM050100 10009KT P6SM VCSH BKN050 FM050500 14009KT P6SM OVC045 WS020/20040KT FM051000 17014G20KT 4SM SHRA OVC025 WS020/20045KT FM051400 18017G25KT P6SM VCSH OVC025<br><br>
<br><br>
CYYZ 041800Z 08013G18KT 15SM BKN021 OVC028 06/01 A3027 RMK SF6SC2 SLP258<br><br>
CYYZ 041700Z 07009G17KT 15SM FEW023 OVC028 06/M00 A3029 RMK SF2SC6 SLP265<br><br>
TAF CYYZ 041745Z 0418/0524 07012KT P6SM SCT015 OVC025 TEMPO 0418/0420 BKN015 OVC025 FM042000 09012G22KT P6SM FEW025 SCT120 BKN200 BECMG 0422/0424 09012KT FM050100 09010KT P6SM SCT040 BKN120 TEMPO 0501/0504 P6SM -SHRA BKN040 OVC120 FM050400 09008KT P6SM -SHRA SCT015 OVC030 TEMPO 0504/0506 5SM -SHRA BR OVC015 FM050600 09006KT 4SM -SHRA BR FEW006 OVC015 FM050800 13008KT 11/2SM -SHRA BR BKN003 OVC008 FM051200 19012G22KT 2SM -SHRA BR BKN006 OVC012 FM051700 20010G20KT 4SM -SHRA BR BKN008 OVC015 FM052100 21010G20KT 6SM -SHRA BR SCT008 OVC015 RMK NXT FCST BY 042100Z<br><br>
<br><br>
CYOO 041800Z AUTO 09009G16KT 050V110 9SM FEW026 BKN150 06/M00 A3029 RMK SLP265<br><br>
CYOO 041700Z AUTO 07009G15KT 9SM SCT120 06/M00 A3031 RMK PRESFR SLP271<br><br>
CYOO has no TAF <br><br>
<br><br>
CYTR 041800Z 08007KT 15SM OVC092 05/00 A3034 RMK AC8 SLP278<br><br>
CYTR 041700Z 07004KT 15SM OVC090 05/02 A3038 RMK AC8 SLP291<br><br>
TAF CYTR 041730Z 0418/0518 07005KT P6SM OVC090 BECMG 0418/0420 07010G20KT FM050300 12012KT P6SM -DZ SCT020 BKN040 FM050600 14012G22KT P6SM -RA BKN020 OVC040 TEMPO 0506/0518 3SM -RA BR OVC010 BECMG 0512/0514 16020G30KT RMK NXT FCST BY 050000Z<br><br>
<br><br>
