RETRIEVED AT : Sep 03 2017 03:10 Local <br>
  RETRIEVED AT: Sep 03 2017 07:10 UTC<br><br>
CYSN has no TAF <br><br>
<br><br>
CYHM 030700Z 17007KT 1 1/2SM RA BR OVC003 14/14 A2987 RMK FG2SF6 VIS VRB 1 - 2 SLP116 DENSITY ALT 900FT<br><br>
CYHM 030600Z 18005KT 2 1/4SM -RA BR OVC004 14/14 A2990 RMK SF8 SLP126 DENSITY ALT 900FT<br><br>
TAF CYHM 030538Z 0306/0406 18008KT 2SM -RA BR OVC005 TEMPO 0306/0309 6SM -RA BR OVC006 FM030900 25006KT 5SM -RA BR OVC008 TEMPO 0309/0311 P6SM -RA OVC010 FM031100 27010G20KT P6SM SCT012 BKN080 TEMPO 0311/0314 OVC012 FM031700 26015G25KT P6SM BKN040 PROB30 0317/0320 3SM TSRA BR BKN030CB FM032300 28010KT P6SM SCT050 FM040300 22005KT P6SM SKC RMK NXT FCST BY 031200Z<br><br>
<br><br>
KIAG 030653Z AUTO 19007KT 5SM -RA BKN009 OVC014 15/12 A2988 RMK AO2 CIG 006V012 SLP118 P0001 T01500122<br><br>
KIAG 030632Z AUTO 19005KT 6SM -RA BKN009 OVC016 15/12 A2989 RMK AO2 CIG 006V012 P0001 T01500122<br><br>
KIAG 030553Z AUTO 17005KT 6SM -RA FEW009 BKN014 OVC020 15/12 A2991 RMK AO2 SLP129 P0001 60002 T01500122 10183 20150 58022<br><br>
KIAG 030539Z AUTO 16006KT 8SM -RA BKN014 OVC023 15/12 A2992 RMK AO2 P0001 T01500117<br><br>
KIAG 030537Z 0306/0406 19006KT 6SM -RA OVC025 FM031300 24009KT P6SM OVC012 FM031600 26012G19KT 6SM -RA OVC080 FM032000 27012G19KT P6SM OVC060 FM040100 26011KT P6SM SCT250<br><br>
<br><br>
KBUF 030654Z COR 18006KT 6SM -RA BR SCT008 BKN014 OVC020 13/13 A2989 RMK AO2 SLP120 P0001 T01330128<br><br>
KBUF 030637Z 19005KT 4SM -RA BR FEW007 SCT014 OVC022 13/13 A2990 RMK AO2 P0000 T01330128<br><br>
KBUF 030554Z 18007KT 10SM -RA OVC028 13/12 A2992 RMK AO2 SLP131 P0001 60003 T01330122 10172 20133 58022<br><br>
KBUF 030512Z 17006KT 8SM -RA OVC030 13/12 A2993 RMK AO2 P0000 T01330122<br><br>
KBUF 030537Z 0306/0406 16007KT 6SM -RA OVC030 FM030700 17007KT 6SM -RA OVC012 FM031600 26012G20KT 6SM -RA OVC035 FM032200 25013G19KT P6SM OVC035 FM040200 25010KT P6SM SCT120<br><br>
<br><br>
CYYZ 030700Z 15005KT 15SM -RA SCT008 OVC013 15/13 A2987 RMK SF3SC5 SLP115 DENSITY ALT 800FT<br><br>
CYYZ 030654Z 15006KT 12SM -RA SCT008 OVC014 15/13 A2987 RMK SF4SC4 SLP117 DENSITY ALT 800FT<br><br>
CYYZ 030608Z 17006KT 15SM -RA OVC015 15/13 A2989 RMK SC8 VIS LWR W SLP123 DENSITY ALT 800FT<br><br>
CYYZ 030600Z 18007KT 15SM OVC016 16/12 A2990 RMK SC8 SLP126 DENSITY ALT 800FT<br><br>
TAF CYYZ 030538Z 0306/0412 16008KT P6SM -SHRA OVC015 TEMPO 0306/0307 P6SM NSW SCT015 OVC025 FM030700 16010KT 3SM -RA BR OVC007 TEMPO 0307/0312 6SM -RA BR OVC012 PROB30 0308/0311 2SM TSRA BR OVC003CB FM031200 30012KT P6SM SCT010 OVC060 TEMPO 0312/0314 OVC010 FM031400 29010KT P6SM BKN025 BKN080 FM031700 28010G20KT P6SM BKN040 PROB30 0317/0321 VRB15G25KT 3SM TSRA BR OVC020CB FM032300 29015KT P6SM BKN040 FM040200 28008KT P6SM FEW040 BECMG 0408/0410 23008KT RMK NXT FCST BY 030900Z<br><br>
<br><br>
CYOO 030700Z AUTO 14005KT 110V170 9SM -RA OVC017 15/13 A2988 RMK SLP120 DENSITY ALT 500FT<br><br>
CYOO 030624Z AUTO 15008KT 9SM -RA OVC021 16/12 A2990 RMK SLP126 DENSITY ALT 700FT<br><br>
CYOO 030600Z AUTO 16007KT 120V190 9SM OVC023 16/12 A2991 RMK SLP129 DENSITY ALT 600FT<br><br>
CYOO 030526Z AUTO 14007G15KT 9SM BKN023 OVC031 16/12 A2992 RMK SLP134 DENSITY ALT 600FT<br><br>
CYOO 030514Z AUTO 17006KT 9SM -RA BKN025 OVC030 17/12 A2992 RMK SLP134 DENSITY ALT 700FT<br><br>
CYOO has no TAF <br><br>
<br><br>
CYTR 030700Z 14006KT 4SM -DZ BR SCT009 OVC028 14/13 A2993 RMK SF4SC4 SLP137<br><br>
CYTR 030641Z 15010KT 3SM -DZ BR OVC018 15/13 A2994 RMK SC8 SLP139<br><br>
CYTR 030600Z 17005KT 6SM -DZ BR FEW010 OVC015 15/13 A2995 RMK SF2SC6 SLP143<br><br>
TAF CYTR 030530Z 0306/0406 14010KT 6SM -RA BR SCT012 OVC030 TEMPO 0306/0309 3SM -RA BR SCT008 OVC012 FM030900 16010KT 3SM -RA BR BKN008 OVC015 TEMPO 0309/0315 6SM -RA BR SCT008 OVC015 FM031500 22008KT 3SM -RA BR BKN008 OVC015 TEMPO 0315/0319 6SM -RA BR SCT008 OVC015 PROB30 0315/0319 VRB15G25KT 2SM TSRA BR BKN008 OVC015CB FM031900 29012KT P6SM SCT015 BKN040 TEMPO 0319/0322 P6SM -SHRA FM040000 29008KT P6SM SCT040 BECMG 0403/0405 VRB03KT RMK NXT FCST BY 031200Z<br><br>
<br><br>
