RETRIEVED AT : Jun 27 2020 15:05 Local <br>
  RETRIEVED AT: Jun 27 2020 19:05 UTC<br><br>
CYSN 271820Z 23015G21KT 180V240 15SM BKN022 24/21 A2971 RMK SC7 SLP060 DENSITY ALT 1700FT<br><br>
CYSN 271800Z 21013G21KT 10SM -RA BKN020 24/21 A2971 RMK SC7 SLP060 DENSITY ALT 1800FT<br><br>
TAF AMD CYSN 271811Z 2718/2801 24010G20KT P6SM BKN030 TEMPO 2718/2724 P6SM -SHRA BKN020 PROB30 2719/2724 VRB15G25KT 2SM TSRA BR BKN020 OVC030CB FM280000 24010G20KT P6SM BKN050 RMK NXT FCST BY 272000Z<br><br>
<br><br>
CYHM 271800Z 24013G19KT 15SM BKN025 BKN040 26/20 A2974 RMK CU6SC1 SLP070 DENSITY ALT 2500FT<br><br>
TAF CYHM 271739Z 2718/2818 26012G22KT P6SM BKN030 TEMPO 2718/2720 P6SM -SHRA PROB30 2720/2724 VRB15G25KT 2SM TSRA BR BKN020 OVC030CB FM280000 24010G20KT P6SM BKN050 BECMG 2801/2803 25008KT FM280800 26006KT P6SM SCT070 FM281100 30006KT P6SM SKC FM281700 05006KT P6SM BKN040 RMK NXT FCST BY 280000Z<br><br>
<br><br>
KIAG 271853Z 23014KT 10SM FEW019 SCT075 BKN110 26/19 A2972 RMK AO2 PK WND 22026/1816 SLP061 T02560194<br><br>
KIAG 271800Z 21015G23KT 10SM SCT016 BKN055 24/19 A2974 RMK AO2 T02440194<br><br>
KIAG 271753Z 23013G22KT 10SM BKN014 BKN021 OVC025 24/19 A2974 RMK AO2 RAB25E35 SLP066 P0001 60001 T02440194 10244 20200 51008<br><br>
KIAG 271721Z 2718/2818 23014G22KT P6SM VCSH BKN020 OVC025 FM272300 23010KT P6SM VCSH BKN040 FM280400 23005KT P6SM BKN060 FM281500 31005KT P6SM SCT250<br><br>
<br><br>
KBUF 271854Z 24019G27KT 10SM BKN013 BKN021 BKN200 22/19 A2975 RMK AO2 PK WND 25027/1845 SLP070 T02170189<br><br>
KBUF 271815Z 24014G24KT 10SM OVC010 21/18 A2976 RMK AO2 T02060183<br><br>
KBUF 271754Z 23018G24KT 10SM OVC008 20/18 A2977 RMK AO2 PK WND 23026/1736 SLP077 60002 T02000183 10211 20183 51010<br><br>
KBUF 271721Z 2718/2818 23015G22KT P6SM BKN008 OVC020 FM280000 24010KT P6SM VCSH BKN040 FM280600 23005KT P6SM BKN012 FM281200 27005KT P6SM BKN007 FM281300 27005KT P6SM SCT012<br><br>
<br><br>
CYYZ 271800Z 26014G20KT 15SM SCT039 BKN055 BKN250 29/20 A2970 RMK CU3SC2CI1 SLP055 DENSITY ALT 2600FT<br><br>
TAF CYYZ 271739Z 2718/2824 26010G20KT P6SM BKN040 TEMPO 2718/2720 P6SM -SHRA FM272000 30012G22KT P6SM SCT050 TEMPO 2720/2801 P6SM -SHRA VCTS BKN050CB FM280200 VRB03KT P6SM -SHRA BKN050 FM280500 VRB03KT P6SM FEW070 BECMG 2808/2810 34010KT BECMG 2810/2812 01010KT FM281700 02010KT P6SM BKN050 FM282200 08008KT P6SM SCT050 RMK NXT FCST BY 272100Z<br><br>
<br><br>
CYOO 271836Z AUTO 22011G21KT 9SM VCTS SCT042 SCT050 BKN060 BKN077 26/19 A2966 RMK LTNG DIST N SLP045 DENSITY ALT 2000FT<br><br>
CYOO 271800Z AUTO 21014KT 9SM FEW050 SCT100 26/19 A2967 RMK SLP048 DENSITY ALT 2100FT<br><br>
CYOO 271759Z AUTO 21014KT 9SM FEW050 26/18 A2967 RMK SLP047 DENSITY ALT 2100FT<br><br>
CYOO 271742Z AUTO 21010KT 9SM VCTS CLR 27/19 A2967 RMK LTNG DIST NE SLP047 DENSITY ALT 2200FT<br><br>
TAF AMD CYOO 271856Z 2718/2802 24012KT P6SM SCT015 BKN030 TEMPO 2718/2721 VRB20G35KT 5SM -SHRA VCTS BR OVC020CB RMK FCST BASED ON AUTO OBS. NXT FCST BY 272000Z<br><br>
<br><br>
CYTR 271800Z 21010G15KT 10SM SCT009 OVC045 21/19 A2967 RMK SF3SC5 CB W MOVG E OCNL DIST LTGCCCG SLP047<br><br>
TAF CYTR 271730Z 2718/2818 20010KT P6SM FEW008 BKN050 OVC100 TEMPO 2718/2724 P6SM -SHRA BKN015 OVC060 PROB30 2719/2724 VRB15G25KT 2SM TSRA BR OVC015CB FM280000 22005KT P6SM SCT050 PROB30 2808/2812 1SM BR OVC005 FM281400 VRB03KT P6SM -SHRA BKN030 BECMG 2814/2816 27005KT RMK NXT FCST BY 280000Z<br><br>
<br><br>
