RETRIEVED AT : Jun 16 2019 19:05 Local <br>
  RETRIEVED AT: Jun 16 2019 23:05 UTC<br><br>
TAF CYSN 161938Z 1620/1701 12006KT P6SM SCT080 BKN230 BECMG 1620/1622 02005KT RMK NXT FCST WILL BE ISSUED AT 171245Z<br><br>
<br><br>
CYHM 162200Z 01005KT 15SM BKN140 16/11 A2990 RMK AC5 SLP128 DENSITY ALT 1200FT<br><br>
TAF CYHM 161738Z 1618/1718 05010KT P6SM FEW030 SCT070 BKN160 FM170300 03006KT P6SM SCT080 BECMG 1712/1714 04012KT RMK NXT FCST BY 170000Z<br><br>
<br><br>
KIAG 162253Z 09004KT 10SM BKN110 18/11 A2990 RMK AO2 RAB16E26 SLP125 P0000 T01830111<br><br>
KIAG 162153Z 07005KT 10SM FEW046 SCT095 SCT120 17/11 A2989 RMK AO2 RAB2058E39 SLP121 P0000 T01670111<br><br>
KIAG 162101Z 1621/1718 05008KT P6SM SCT025 BKN040 FM170200 VRB03KT P6SM BKN060 FM170800 VRB03KT 3SM BR SCT060 FM171300 06008KT P6SM BKN100<br><br>
<br><br>
KBUF 162254Z 03003KT 10SM FEW050 BKN090 BKN130 17/11 A2990 RMK AO2 RAE15 SLP126 P0000 T01670111<br><br>
KBUF 162154Z 06005KT 10SM -RA BKN049 BKN095 BKN110 17/12 A2989 RMK AO2 RAE26B51 SLP122 P0000 T01670117<br><br>
KBUF 162130Z 10005KT 10SM SCT029 BKN037 17/12 A2988 RMK AO2 RAE26 P0000 T01670122<br><br>
KBUF 162101Z 1621/1718 05008KT P6SM SCT025 BKN040 FM170200 08004KT P6SM BKN060 FM170800 VRB03KT 3SM BR SCT060 FM171300 08008KT P6SM BKN100<br><br>
<br><br>
CYYZ 162200Z 06003KT 15SM FEW040 FEW160 FEW220 19/10 A2989 RMK CU1AC1CI1 CU TR SLP123 DENSITY ALT 1300FT<br><br>
TAF CYYZ 162038Z 1621/1724 15010KT P6SM FEW040 BKN130 FM162200 17006KT P6SM FEW050 SCT120 BECMG 1701/1703 32005KT FM171200 01005KT P6SM SCT080 BECMG 1712/1714 09006KT BECMG 1715/1717 15010KT RMK NXT FCST BY 170000Z<br><br>
<br><br>
CYOO 162200Z AUTO VRB03KT 9SM CLR 19/10 A2989 RMK SLP123 DENSITY ALT 1000FT<br><br>
TAF CYOO 161938Z 1620/1708 18005KT P6SM SCT170 BECMG 1700/1702 VRB03KT RMK FCST BASED ON AUTO OBS. NXT FCST BY 170200Z<br><br>
<br><br>
CYTR 162200Z 22006KT 15SM FEW040 FEW100 SCT160 BKN200 18/11 A2989 RMK SC1AS2AC1CI4 SLP122<br><br>
TAF CYTR 161730Z 1618/1718 02005KT P6SM FEW050 SCT090 OVC220 BECMG 1618/1619 21010KT FM170000 VRB03KT P6SM SCT050 BKN150 FM171300 VRB03KT P6SM FEW050 SCT120 BECMG 1716/1718 20010KT RMK NXT FCST BY 170000Z<br><br>
<br><br>
