RETRIEVED AT : Jun 27 2020 07:05 Local <br>
  RETRIEVED AT: Jun 27 2020 11:05 UTC<br><br>
CYSN has no TAF <br><br>
<br><br>
CYHM 271032Z 24005KT 15SM FEW010 OVC030 19/19 A2972 RMK SC1SC7 SLP062 DENSITY ALT 1700FT<br><br>
CYHM 271000Z 22007KT 6SM -RA BR FEW009 SCT025 OVC060 19/19 A2972 RMK SF2SC2SC4 SLP063 DENSITY ALT 1700FT<br><br>
CYHM 270947Z 22007KT 6SM -RA BR SCT008 BKN025 BKN060 19/19 A2972 RMK SF4SC2SC1 PCPN VRY LGT SLP063 DENSITY ALT 1700FT<br><br>
TAF AMD CYHM 271011Z 2710/2806 22007KT P6SM FEW009 BKN025 OVC060 TEMPO 2710/2712 5SM -SHRA BR BKN005 OVC020 FM271200 27008KT P6SM FEW009 BKN025 TEMPO 2712/2715 BKN007 OVC020 PROB30 2712/2715 BKN005 FM271500 27012KT P6SM BKN025 TEMPO 2715/2718 BKN020 FM271800 26012G22KT P6SM BKN030 TEMPO 2718/2720 P6SM -SHRA PROB30 2720/2724 VRB15G25KT 2SM TSRA BR BKN020 OVC030CB FM280000 24010G20KT P6SM BKN050 BECMG 2801/2803 25008KT RMK NXT FCST BY 271200Z<br><br>
<br><br>
KIAG 271053Z 21008KT 4SM -RA BR BKN006 OVC015 19/19 A2971 RMK AO2 SLP057 P0005 T01940189<br><br>
KIAG 270953Z AUTO 21010KT 9SM -RA OVC006 19/18 A2973 RMK AO2 SLP064 P0010 T01940183<br><br>
KIAG 270934Z AUTO 20006KT 5SM RA BR BKN006 BKN060 OVC100 19/18 A2973 RMK AO2 P0008 T01940183<br><br>
KIAG 270923Z AUTO 19006KT 6SM RA BR SCT006 BKN060 OVC100 19/18 A2973 RMK AO2 P0006 T01940183<br><br>
KIAG 270939Z 2710/2806 21008KT 4SM SHRA OVC008 FM271200 30005KT P6SM VCSH OVC008 FM271600 23014G22KT P6SM VCSH BKN040 TEMPO 2718/2721 -SHRA OVC025 FM272300 23010KT P6SM VCSH BKN040<br><br>
<br><br>
KBUF 271054Z 18005KT 6SM -RA BR SCT005 BKN010 OVC013 18/18 A2973 RMK AO2 SLP064 P0022 T01830183<br><br>
KBUF 271047Z 17006KT 4SM R23/5500VP6000FT -RA BR FEW005 SCT009 OVC015 18/18 A2973 RMK AO2 P0021 T01780178<br><br>
KBUF 271044Z 17005KT 2SM R23/5500VP6000FT -RA BR FEW005 SCT009 OVC015 18/18 A2973 RMK AO2 P0021 T01780178<br><br>
KBUF 271036Z 18008KT 1 1/4SM R23/6000VP6000FT +RA BR SCT005 BKN009 OVC035 18/18 A2974 RMK AO2 P0014 T01780178<br><br>
KBUF 271020Z 19004KT 1 3/4SM +RA BR OVC010 18/18 A2974 RMK AO2 P0004 T01780178<br><br>
KBUF 270954Z 19006KT 8SM -RA FEW006 OVC010 18/18 A2975 RMK AO2 SLP070 P0010 T01780178<br><br>
KBUF 270855Z 2709/2806 21010KT 6SM -SHRA OVC015 FM271000 VRB05KT 4SM SHRA VCTS OVC008CB FM271200 30005KT P6SM VCSH OVC008 FM271600 24016G24KT P6SM BKN040 FM280000 24010KT P6SM VCSH BKN040<br><br>
<br><br>
CYYZ 271000Z 20004KT 12SM SCT038 BKN090 OVC120 19/18 A2971 RMK SC4AC1AC3 SLP058 DENSITY ALT 1500FT<br><br>
CYYZ 270946Z 20004KT 12SM FEW032 BKN038 OVC110 19/18 A2971 RMK SF1SC5AC3 SF TR SLP059 DENSITY ALT 1500FT<br><br>
TAF CYYZ 270838Z 2709/2812 21010KT P6SM -SHRA OVC060 TEMPO 2709/2712 FEW020 OVC040 FM271200 22010KT P6SM BKN020 OVC040 TEMPO 2712/2715 SCT020 BKN040 FM271500 25010G20KT P6SM BKN030 FM271700 28010G20KT P6SM BKN040 TEMPO 2717/2720 P6SM -SHRA FM272000 30012G22KT P6SM SCT050 TEMPO 2720/2801 P6SM -SHRA VCTS BKN050CB FM280200 VRB03KT P6SM SCT050 FM280500 30010KT P6SM FEW070 RMK NXT FCST BY 271200Z<br><br>
<br><br>
CYOO 271000Z AUTO 00000KT 9SM FEW090 SCT110 OVC140 17/16 A2971 RMK SLP062 DENSITY ALT 1000FT<br><br>
CYOO 270955Z AUTO 00000KT 9SM FEW049 SCT110 OVC140 18/16 A2972 RMK SLP063 DENSITY ALT 1000FT<br><br>
CYOO 270938Z AUTO 19003KT 140V200 6SM -RA BR FEW049 SCT075 BKN091 OVC110 18/16 A2972 RMK SLP063 DENSITY ALT 1000FT<br><br>
CYOO 270916Z AUTO 17004KT 150V210 4SM -RA BR FEW041 SCT094 BKN120 18/16 A2972 RMK SLP064 DENSITY ALT 1100FT<br><br>
TAF AMD CYOO 270930Z 2709/2720 19005KT P6SM FEW040 OVC120 TEMPO 2709/2712 4SM -SHRA BR BKN040 OVC090 FM271200 23006KT P6SM FEW008 OVC020 TEMPO 2712/2715 SCT020 BKN040 PROB30 2712/2715 BKN006 OVC015 FM271500 23008KT P6SM BKN012 BKN020 FM271700 24008KT P6SM -SHRA SCT015 BKN030 RMK FCST BASED ON AUTO OBS. NXT FCST BY 271400Z<br><br>
<br><br>
CYTR 271040Z 19005KT 15SM -SHRA FEW088 OVC140 19/15 A2972 RMK AC1AC7 SLP062<br><br>
CYTR 271000Z 18003KT 15SM FEW088 OVC140 19/15 A2973 RMK AC1AC7 SLP065<br><br>
TAF CYTR 270530Z 2706/2806 22006KT P6SM SKC BECMG 2708/2710 BKN100 FM271100 21010KT P6SM FEW008 BKN012 OVC100 FM271600 23008KT P6SM FEW008 SCT015 BKN060 RMK NXT FCST BY 271200Z<br><br>
<br><br>
