RETRIEVED AT : Sep 08 2019 21:05 Local <br>
  RETRIEVED AT: Sep 09 2019 01:05 UTC<br><br>
CYSN 090000Z 02003KT 15SM BKN030 OVC190 16/12 A3017 RMK SC6CI2 SLP217<br><br>
TAF CYSN 081938Z 0820/0901 01006KT P6SM FEW030 BKN220 RMK NXT FCST WILL BE ISSUED AT 091245Z<br><br>
<br><br>
CYHM 090000Z 06005KT 15SM FEW050 BKN170 BKN210 14/11 A3017 RMK SC1AC4CC2 SLP220<br><br>
TAF CYHM 082338Z 0900/0924 09005KT P6SM SCT050 BKN160 TEMPO 0900/0903 BKN050 OVC160 FM090300 03006KT P6SM SCT040 BKN120 FM091200 03010KT P6SM SCT040 BKN080 FM092200 06008KT P6SM FEW040 RMK NXT FCST BY 090600Z<br><br>
<br><br>
KIAG 090053Z 00000KT 10SM SCT035 A3018 RMK AO2 SLPNO $<br><br>
KIAG 082353Z 34004KT 10SM SCT045 A3016 RMK AO2 SLPNO 52007 $<br><br>
KIAG 082337Z 0900/0924 35005KT P6SM SCT200 FM091000 VRB04KT 5SM BR SCT200 FM091300 08005KT P6SM SCT150 FM092300 06007KT P6SM FEW200<br><br>
<br><br>
KBUF 090054Z 01004KT 10SM SCT045 BKN200 16/10 A3019 RMK AO2 SLP223 T01560100<br><br>
KBUF 082354Z 01005KT 10SM BKN045 BKN200 16/09 A3017 RMK AO2 SLP216 T01610094 10194 20161 53010<br><br>
KBUF 082337Z 0900/0924 02005KT P6SM SCT200 FM091000 VRB04KT 5SM BR SCT200 FM091200 08006KT P6SM SCT150 FM092300 06007KT P6SM FEW200<br><br>
<br><br>
CYYZ 090000Z 04010G15KT 15SM BKN180 BKN250 13/07 A3018 RMK AC7CI1 CI TR SLP224<br><br>
TAF CYYZ 082338Z 0900/1006 03010G20KT P6SM FEW050 BKN180 BECMG 0900/0902 01008KT FM091500 08009KT P6SM SCT025 BKN120 FM091800 12010KT P6SM BKN030 OVC100 FM092100 12010KT P6SM SCT030 FM100000 07007KT P6SM SKC RMK NXT FCST BY 090300Z<br><br>
<br><br>
CYOO 090000Z AUTO 33007KT 9SM OVC200 14/09 A3018 RMK SLP223<br><br>
TAF CYOO 081938Z 0820/0908 32010KT P6SM BKN040 FM090000 33008KT P6SM FEW030 SCT200 BECMG 0901/0903 01007KT BECMG 0904/0906 04008KT RMK FCST BASED ON AUTO OBS. NXT FCST BY 090200Z<br><br>
<br><br>
CYTR 090000Z 02006KT 15SM BKN050 BKN180 OVC250 16/10 A3017 RMK SC5AC1CI2 SLP217<br><br>
TAF CYTR 082330Z 0900/0924 34004KT P6SM SCT050 BKN220 BECMG 0903/0905 03005KT FM091100 05006KT P6SM SCT040 BKN150 FM092100 21005KT P6SM FEW040 RMK NXT FCST BY 090600Z<br><br>
<br><br>
