RETRIEVED AT : Oct 30 2017 19:10 Local <br>
  RETRIEVED AT: Oct 30 2017 23:10 UTC<br><br>
CYSN 302200Z 24015KT 15SM FEW025 SCT042 BKN130 07/03 A2955 RMK SC1SC2AC3 SLP012<br><br>
CYSN 302153Z 25012G18KT 15SM FEW030 BKN052 BKN130 07/03 A2955 RMK SC2SC3AC2 SLP010<br><br>
TAF CYSN 301938Z 3020/3101 25020G30KT P6SM SCT020 BKN070 TEMPO 3020/3101 P6SM -SHRA BKN020 RMK NXT FCST WILL BE ISSUED AT 311245Z<br><br>
<br><br>
CYHM 302300Z 23011G17KT 15SM BKN038 BKN096 05/02 A2957 RMK SC5CI1 SLP019<br><br>
CYHM 302200Z 25014G22KT 15SM FEW018 BKN034 06/03 A2955 RMK SF1SC6 SLP014<br><br>
TAF CYHM 301738Z 3018/3118 24020G35KT P6SM OVC040 TEMPO 3019/3022 6SM -SHRA BR OVC020 BECMG 3022/3024 25018G28KT FM310300 25015G25KT P6SM SCT020 BKN040 FM310800 24015KT P6SM BKN020 FM311600 25015G25KT P6SM BKN040 RMK NXT FCST BY 310000Z<br><br>
<br><br>
KIAG 302253Z 23012KT 10SM FEW050 OVC095 07/03 A2959 RMK AO2 RAE07 SLP029 P0000 T00670028<br><br>
KIAG 302200Z 25012KT 10SM -RA SCT018 BKN050 OVC090 07/03 A2956 RMK AO2 P0000 T00720033<br><br>
KIAG 302153Z 25010G20KT 10SM -RA BKN015 OVC020 07/03 A2956 RMK AO2 SLP016 P0002 T00720033<br><br>
KIAG 302103Z 3021/3118 23012G24KT P6SM -RA BKN015 OVC022 FM310300 25020G28KT P6SM BKN060 FM311200 25014G22KT 6SM -RA OVC020<br><br>
<br><br>
KBUF 302254Z 24016G30KT 3SM +RA BR FEW010 SCT014 OVC024 06/04 A2961 RMK AO2 PK WND 26030/2245 SLP031 P0026 T00560044<br><br>
KBUF 302222Z 25014G27KT 3SM +RA BR FEW010 BKN017 OVC024 05/04 A2959 RMK AO2 PK WND 24028/2210 P0015 T00500039<br><br>
KBUF 302207Z COR 24017G28KT 2SM +RA BR SCT012 BKN020 OVC026 05/04 A2958 RMK AO2 PK WND 26028/2200 P0008 T00500039<br><br>
KBUF 302154Z 25021G34KT 2SM +RA BR SCT010 BKN014 OVC018 05/04 A2957 RMK AO2 PK WND 23036/2056 SLP017 P0022 T00500039<br><br>
KBUF 302124Z 24019G34KT 2SM RA BR BKN014 OVC022 06/04 A2955 RMK AO2 PK WND 23036/2056 TWR VIS 2 1/2 P0008 T00610044<br><br>
KBUF 302119Z 24024G34KT 2 1/2SM +RA BR BKN017 OVC024 06/04 A2955 RMK AO2 PK WND 23036/2056 P0005 T00610044<br><br>
KBUF 302103Z 3021/3118 23022G31KT 3SM RA BR OVC018 FM310100 25020G28KT 4SM RA OVC015 TEMPO 3101/3102 2SM -SHRA OVC007 FM310300 25020G28KT P6SM BKN060 FM311200 25014G22KT 6SM -RA OVC020<br><br>
<br><br>
CYYZ 302300Z 25012G22KT 15SM FEW018 BKN030 BKN100 05/02 A2954 RMK SC2SC3AC1 SLP009<br><br>
CYYZ 302200Z 24019G27KT 15SM SCT020 BKN045 06/02 A2951 RMK SC4SC1 SLP999<br><br>
TAF CYYZ 302038Z 3021/3124 25020G30KT P6SM -SHRA OVC020 TEMPO 3021/3101 P6SM NSW OVC030 FM310100 24015G25KT P6SM BKN040 FM311000 24015KT P6SM BKN020 FM311500 25015G25KT P6SM BKN030 BECMG 3120/3122 24012G22KT RMK NXT FCST BY 310000Z<br><br>
<br><br>
CYOO 302300Z AUTO 24009KT 9SM FEW027 06/02 A2952 RMK SLP002<br><br>
CYOO 302200Z AUTO 24012G17KT 9SM BKN028 OVC036 07/01 A2950 RMK SLP996<br><br>
CYOO has no TAF <br><br>
<br><br>
CYTR 302300Z 25013G22KT 15SM FEW025 BKN120 07/03 A2951 RMK SC2AC3 SLP997<br><br>
CYTR 302200Z 24014G24KT 15SM FEW035 BKN120 08/03 A2948 RMK SC2AC4 SLP984<br><br>
CYTR 302131Z 24014G20KT 15SM FEW035 BKN120 07/03 A2947 RMK SC2AC5 SLP982<br><br>
TAF CYTR 301730Z 3018/3118 27020G35KT P6SM BKN040 BECMG 3019/3021 25015G25KT FM302100 25015G25KT P6SM SCT020 BKN040 TEMPO 3021/3107 P6SM -SHRA BKN020 OVC040 FM310700 25015G25KT P6SM SCT040 FM311300 25022G35KT P6SM BKN030 RMK NXT FCST BY 310000Z<br><br>
<br><br>
