RETRIEVED AT : Mar 13 2020 22:05 Local <br>
  RETRIEVED AT: Mar 14 2020 02:05 UTC<br><br>
CYSN 140100Z 27017KT 15SM BKN061 05/M04 A3014 RMK SC5 LAST STFD OBS/NEXT 1100UTC SLP212<br><br>
CYSN has no TAF <br><br>
<br><br>
CYHM 140100Z 28015G24KT 15SM BKN052 04/M04 A3014 RMK SC7 SLP216<br><br>
TAF CYHM 132339Z 1400/1424 27015G25KT P6SM BKN050 FM140900 29010KT P6SM BKN025 BECMG 1422/1424 34008KT RMK NXT FCST BY 140600Z<br><br>
<br><br>
KIAG 140153Z 27014G23KT 10SM CLR 03/M04 A3015 RMK AO2 SLP222 T00281039<br><br>
KIAG 140053Z 27017G24KT 10SM FEW065 03/M04 A3013 RMK AO2 PK WND 27028/0029 SLP214 T00331039<br><br>
KIAG 132320Z 1400/1424 26014G24KT P6SM BKN050 FM140300 26014G23KT P6SM SCT050 FM140900 27010KT P6SM SCT040 FM141600 28013KT P6SM BKN250 FM142100 27009KT P6SM BKN150<br><br>
<br><br>
KBUF 140154Z 24009KT 10SM FEW055 FEW060 03/M01 A3015 RMK AO2 SLP216 T00281011<br><br>
KBUF 140054Z 25008KT 10SM FEW060 03/M01 A3014 RMK AO2 SLP211 T00331011<br><br>
KBUF 140113Z 1401/1424 25010KT P6SM SCT050 FM140300 26014G23KT P6SM SCT050 FM140900 26009KT P6SM SCT040 FM141600 25013KT P6SM BKN250 FM142100 25009KT P6SM BKN150<br><br>
<br><br>
CYYZ 140100Z 28023G31KT 15SM SCT055 04/M05 A3011 RMK SC3 SLP202<br><br>
TAF CYYZ 132339Z 1400/1506 27020G35KT P6SM SCT060 FM140600 29018G28KT P6SM BKN030 FM141200 32012KT P6SM BKN025 BKN200 BECMG 1420/1422 36009KT FM150300 36012KT P6SM BKN150 RMK NXT FCST BY 140300Z<br><br>
<br><br>
CYOO 140135Z AUTO 27019G29KT 9SM OVC050 04/M05 A3010 RMK SLP199<br><br>
CYOO 140100Z AUTO 26009G16KT 9SM OVC055 04/M05 A3008 RMK SLP194<br><br>
TAF CYOO 140138Z 1402/1414 27010G20KT P6SM BKN040 FM141000 29010KT P6SM BKN020 RMK FCST BASED ON AUTO OBS. NXT FCST BY 140800Z<br><br>
<br><br>
CYTR 140100Z 28017G27KT 15SM FEW050 04/M06 A3003 RMK SC1 SLP172<br><br>
TAF CYTR 132330Z 1400/1424 27020G35KT P6SM BKN050 FM141000 29015G25KT P6SM SCT040 BECMG 1411/1413 29010KT RMK NXT FCST BY 140600Z<br><br>
<br><br>
