RETRIEVED AT : Dec 11 2017 21:10 Local <br>
  RETRIEVED AT: Dec 12 2017 02:10 UTC<br><br>
TAF AMD CYSN 112131Z 1121/1202 10008KT 11/2SM -SHSN VV012 TEMPO 1121/1202 6SM -SN OVC025 RMK NXT FCST WILL BE ISSUED AT 121345Z<br><br>
<br><br>
CYHM 120200Z 08007KT 8SM -SN OVC013 M05/M06 A2975 RMK SC8 SLP087<br><br>
CYHM 120100Z 10003KT 15SM -SN OVC016 M05/M06 A2978 RMK SC8 SLP099<br><br>
TAF CYHM 112339Z 1200/1224 VRB03KT 6SM -SN OVC025 TEMPO 1200/1202 2SM -SHSN OVC015 FM120200 06008KT 3/4SM -SN BR OVC006 TEMPO 1202/1208 2SM -SN OVC010 FM120800 05010KT 1/4SM -SN FG VV001 BECMG 1212/1214 29010G20KT FM121400 29018G28KT 3SM -SN BLSN OVC015 PROB30 1214/1219 1SM -SHSN BLSN VV008 FM121900 30020G30KT P6SM -SHSN BKN040 FM122300 30020G30KT 4SM -SHSN OVC030 RMK NXT FCST BY 120600Z<br><br>
<br><br>
KIAG 112337Z 1200/1224 11007KT 5SM -SHSN OVC035 TEMPO 1200/1203 2SM -SHSN OVC025 FM120300 13007KT 1SM -SN OVC012 FM121000 03007KT 1SM -SN OVC007 FM121700 30013G23KT 1SM -SN BLSN OVC003 FM122100 28016G25KT 2SM -SN BLSN OVC020<br><br>
<br><br>
KBUF 112337Z 1200/1224 11006KT 5SM -SHSN OVC035 TEMPO 1200/1203 2SM -SHSN OVC025 FM120300 15008KT 1SM -SN OVC025 FM121100 34007KT 1SM -SN OVC007 FM121400 30010G17KT 1SM -SN OVC007 FM122200 27015KT 3SM -SN OVC020<br><br>
<br><br>
CYYZ 120200Z 13003KT 110V180 6SM -SN FEW008 BKN014 OVC025 M03/M05 A2977 RMK SF2NS5NS1 /S01/ SLP093<br><br>
CYYZ 120101Z 13003KT 5SM -SN FEW008 BKN013 OVC020 M04/M05 A2980 RMK SF2SC4NS2 SLP103<br><br>
CYYZ 120100Z 14003KT 5SM -SN FEW008 BKN013 OVC020 M04/M05 A2980 RMK SF2SC4NS2 SLP103<br><br>
CYYZ 120023Z 17004KT 150V210 3SM -SN FEW007 SCT013 OVC022 M04/M06 A2982 RMK SF1NS2NS5 SLP108<br><br>
TAF CYYZ 112339Z 1200/1306 15005KT 6SM -SN SCT012 OVC030 TEMPO 1200/1203 2SM -SHSN OVC012 FM120300 10010KT 11/2SM -SN SCT006 OVC012 TEMPO 1203/1204 3/4SM -SN OVC006 FM120400 10008KT 3/4SM -SN OVC006 FM121200 04012KT 11/2SM -SN OVC012 FM121400 34010G20KT 2SM -SHSN BLSN BKN030 OVC060 FM122100 30018G28KT 6SM -SHSN BLSN BKN030 OVC060 FM130300 34020G30KT P6SM BKN030 RMK NXT FCST BY 120300Z<br><br>
<br><br>
CYOO 120200Z AUTO 08008KT 8SM -SN OVC018 M05/M07 A2980 RMK SLP101<br><br>
CYOO 120158Z AUTO 07008KT 7SM -SN OVC018 M05/M07 A2980 RMK SLP102<br><br>
CYOO 120146Z AUTO 07007KT 5SM -SN BKN016 OVC022 M05/M07 A2981 RMK SLP105<br><br>
CYOO 120126Z AUTO 07009KT 6SM -SN BKN014 OVC024 M05/M07 A2982 RMK SLP108<br><br>
CYOO 120107Z AUTO 06008KT 5SM -SN BKN012 OVC018 M06/M08 A2983 RMK SLP111<br><br>
CYOO 120103Z AUTO 06008KT 7SM -SN OVC012 M06/M08 A2983 RMK SLP112<br><br>
CYOO 120100Z AUTO 06008KT 5SM -SN BKN012 OVC019 M06/M08 A2983 RMK SLP111<br><br>
CYOO 120048Z AUTO 06007KT 4SM -SN OVC012 M06/M08 A2983 RMK SLP113<br><br>
CYOO 120044Z AUTO 06007KT 5SM -SN BKN009 OVC016 M06/M08 A2984 RMK SLP114<br><br>
CYOO 120028Z AUTO 07008KT 7SM -SN OVC009 M06/M07 A2984 RMK SLP116<br><br>
CYOO 120023Z AUTO 07008KT 3SM -SN OVC009 M06/M07 A2985 RMK SLP117<br><br>
CYOO has no TAF <br><br>
<br><br>
CYTR 120200Z 05007KT 3SM -SN OVC013 M07/M08 A2987 RMK SN3NS5 SLP121<br><br>
CYTR 120100Z 07005KT 3SM -SN OVC015 M07/M09 A2989 RMK SN3NS5 SLP128<br><br>
TAF CYTR 112330Z 1200/1224 09007KT 3SM -SN SCT020 OVC050 TEMPO 1200/1203 11/2SM -SN BKN020 OVC040 FM120300 07010KT 11/2SM -SN OVC012 TEMPO 1203/1205 3/4SM -SN OVC008 FM120500 07012KT 3/4SM -SN VV008 TEMPO 1205/1211 1SM -SN OVC010 FM121100 07012KT 11/2SM -SN OVC010 FM121600 02012KT 3SM -SN BKN012 OVC030 FM122000 35012G22KT 6SM -SN BLSN BKN020 OVC040 RMK NXT FCST BY 120600Z<br><br>
<br><br>
