RETRIEVED AT : Oct 15 2017 01:10 Local <br>
  RETRIEVED AT: Oct 15 2017 05:10 UTC<br><br>
CYSN has no TAF <br><br>
<br><br>
CYHM 150500Z 04006KT 6SM BR FEW077 OVC095 15/14 A2997 RMK AC1AC7 SLP151 DENSITY ALT 900FT<br><br>
CYHM 150400Z 06006KT 15SM FEW075 OVC095 15/14 A2999 RMK AC2AC6 SLP158 DENSITY ALT 900FT<br><br>
TAF CYHM 142338Z 1500/1524 05005KT 11/2SM -SHRA BR FEW015 OVC050 TEMPO 1500/1505 6SM BR BKN050 OVC120 FM150500 12005KT P6SM BKN090 OVC200 BECMG 1507/1509 19008KT FM151100 21015G25KT P6SM BKN020 BECMG 1513/1515 21020G35KT FM151800 22025G40KT P6SM -SHRA OVC025 PROB30 1518/1521 VRB30G50KT 2SM +TSRA BR OVC020CB FM152100 24020G35KT P6SM BKN025 RMK NXT FCST BY 150600Z<br><br>
<br><br>
KIAG 150453Z AUTO 11008KT 6SM HZ BKN075 OVC100 17/14 A2997 RMK AO2 SLP147 T01670139 402220150<br><br>
KIAG 150353Z AUTO 11008KT 8SM BKN075 OVC095 17/13 A3001 RMK AO2 RAE04 SLP161 P0000 T01670133<br><br>
KIAG 150259Z 1503/1524 07007KT P6SM -SHRA OVC060 FM150400 10008KT P6SM BKN060 WS020/19035KT FM151300 21019G28KT P6SM BKN025 FM151900 23026G44KT 4SM SHRA OVC025 FM152100 24026G47KT 5SM SHRA OVC015 FM152300 25024G44KT P6SM SCT025<br><br>
<br><br>
KBUF 150454Z 12005KT 9SM BKN100 OVC110 16/14 A2998 RMK AO2 RAB00E09 SLP150 P0000 T01610144 402220122<br><br>
KBUF 150354Z 08006KT 9SM BKN085 OVC110 16/14 A3002 RMK AO2 SLP164 T01610144<br><br>
KBUF 150259Z 1503/1524 05007KT P6SM BKN060 FM150700 17010KT P6SM SCT080 WS020/21035KT FM151100 20016G23KT P6SM BKN100 FM151400 21023G36KT P6SM BKN035 FM151900 22024G40KT P6SM VCSH OVC025 FM152000 23026G47KT 4SM SHRA OVC015 FM152300 25026G45KT P6SM SCT015<br><br>
<br><br>
CYYZ 150500Z 14006KT 6SM -RA BR SCT006 BKN021 OVC090 15/14 A2998 RMK SF4SC2AC2 SLP152 DENSITY ALT 700FT<br><br>
CYYZ 150444Z 12007KT 6SM -RA BR SCT004 BKN009 OVC090 15/14 A2998 RMK SF3SC3AC2 SLP154 DENSITY ALT 700FT<br><br>
CYYZ 150400Z 12006KT 5SM -RA BR OVC004 15/15 A3000 RMK NS8 SLP160 DENSITY ALT 700FT<br><br>
CYYZ 150338Z 12006KT 5SM -RA BR OVC003 15/15 A3001 RMK NS8 SLP164 DENSITY ALT 700FT<br><br>
TAF CYYZ 150238Z 1503/1606 13005KT 21/2SM -RA BR BKN005 OVC025 TEMPO 1503/1505 6SM -RA BR BKN025 OVC040 PROB30 1503/1505 2SM -RA BR OVC003 FM150500 14005KT P6SM SCT005 OVC040 TEMPO 1505/1507 5SM -RA -DZ BR BKN005 OVC040 FM150800 15005KT 6SM BR BKN040 OVC100 FM151100 19010KT WS005/21030KT P6SM BKN015 OVC025 FM151400 22020G35KT P6SM OVC020 FM151800 22025G40KT P6SM -SHRA OVC025 PROB30 1518/1521 VRB30G50KT 2SM +TSRA BR OVC020CB FM152100 25025G40KT P6SM BKN025 BECMG 1601/1603 29018G28KT RMK NXT FCST BY 150600Z<br><br>
<br><br>
CYOO 150500Z AUTO 12004KT 6SM -RA BR BKN004 BKN060 OVC090 15/15 A2999 RMK SLP156 DENSITY ALT 500FT<br><br>
CYOO 150458Z AUTO 12005KT 6SM -RA BR BKN004 BKN060 OVC090 15/15 A2999 RMK SLP156 DENSITY ALT 500FT<br><br>
CYOO 150439Z AUTO 11006KT 5SM -RA BR BKN004 OVC055 15/15 A2999 RMK PRESFR SLP157 DENSITY ALT 500FT<br><br>
CYOO 150432Z AUTO 11006KT 6SM -RA BR BKN004 OVC055 15/15 A3000 RMK PRESFR SLP160 DENSITY ALT 500FT<br><br>
CYOO 150427Z AUTO 11006KT 5SM -RA BR BKN004 OVC060 15/15 A3000 RMK SLP163 DENSITY ALT 500FT<br><br>
CYOO 150425Z AUTO 12006KT 090V150 5SM BR BKN004 OVC060 15/15 A3000 RMK SLP163 DENSITY ALT 500FT<br><br>
CYOO 150400Z AUTO 13007KT 5SM -RA BR OVC004 15/15 A3002 RMK SLP168<br><br>
CYOO has no TAF <br><br>
<br><br>
CYTR 150500Z 05003KT 3SM -RA BR OVC012 15/15 A3001 RMK SF8 VIS VRB 2 1/4-4 SLP163<br><br>
CYTR 150450Z 04002KT 3SM -RA BR OVC012 16/15 A3002 RMK SF8 VIS VRB 2 1/4-4 SLP166<br><br>
CYTR 150400Z 04002KT 4SM -RA BR SCT005 OVC025 16/15 A3005 RMK SF3SC5 SLP177<br><br>
CYTR 150338Z 09003KT 4SM -RA BR SCT010 OVC032 16/15 A3005 RMK SF3SC5 SLP178<br><br>
TAF AMD CYTR 150240Z 1502/1524 VRB03KT 2SM -RA BR SCT005 OVC010 TEMPO 1502/1503 1/2SM RA FG OVC005 FM150300 VRB03KT 1SM -RA BR OVC005 TEMPO 1503/1506 P6SM -RA SCT005 OVC015 FM150600 12008KT P6SM SCT020 OVC030 TEMPO 1506/1518 5SM -SHRA BR OVC020 BECMG 1509/1511 22018G28KT FM151800 24020G32KT P6SM SCT010 OVC025 TEMPO 1518/1524 3SM -SHRA BR OVC010 RMK NXT FCST BY 150600Z<br><br>
<br><br>
