RETRIEVED AT : Oct 15 2017 21:10 Local <br>
  RETRIEVED AT: Oct 16 2017 01:10 UTC<br><br>
CYSN 160100Z 30021G29KT 15SM BKN025 OVC040 13/07 A2986 RMK SC5SC3 LAST STFD OBS/NEXT 16 1100UTC SLP112<br><br>
CYSN 160000Z 29017G32KT 15SM BKN028 14/09 A2982 RMK SC6 PRESRR SLP099 DENSITY ALT 500FT<br><br>
TAF CYSN 151946Z 1520/1601 22025G40KT P6SM -SHRA SCT020 BKN070 TEMPO 1520/1521 VRB35G50KT 11/2SM +SHRA BR OVC020 FM152030 27020G35KT P6SM SCT020 BKN070 FM152300 27020G30KT P6SM BKN025 RMK NXT FCST WILL BE ISSUED AT 161245Z<br><br>
<br><br>
CYHM 160100Z 30015G26KT 15SM BKN032 10/06 A2990 RMK SC7 PRESRR SLP128<br><br>
CYHM 160000Z 29016G25KT 15SM FEW021 BKN044 11/07 A2985 RMK SC1SC6 PRESRR SLP111<br><br>
TAF CYHM 152338Z 1600/1624 29022G32KT P6SM BKN025 TEMPO 1600/1605 OVC020 BECMG 1601/1603 31015G25KT FM160500 31010KT P6SM SCT030 BECMG 1614/1616 31010G20KT BECMG 1622/1624 29008KT RMK NXT FCST BY 160600Z<br><br>
<br><br>
KIAG 160100Z 29020G30KT 10SM FEW029 OVC037 14/06 A2987 RMK AO2 PK WND 29030/0056 T01390061<br><br>
KIAG 160053Z 29021G28KT 10SM BKN029 BKN037 14/07 A2987 RMK AO2 PK WND 30031/0005 SLP112 T01440067<br><br>
KIAG 160000Z 30022G30KT 10SM BKN029 BKN035 16/08 A2982 RMK AO2 PK WND 30029/0000 PRESRR T01560083<br><br>
KIAG 152353Z 29023G34KT 10SM SCT029 BKN037 16/08 A2981 RMK AO2 PK WND 30035/2257 PRESRR SLP094 60000 T01560083 10256 20156 53056<br><br>
KIAG 152340Z 1600/1624 28025G35KT P6SM BKN045 FM160200 30019G26KT P6SM BKN025 FM160800 32012G19KT P6SM BKN025 FM161400 30010G20KT P6SM SCT035 FM162300 29005KT P6SM FEW250<br><br>
<br><br>
KBUF 160054Z 30020G30KT 10SM SCT030 BKN037 BKN049 13/08 A2985 RMK AO2 PK WND 30031/0029 SLP108 T01330078 $<br><br>
KBUF 152354Z 28022G31KT 10SM SCT032 BKN048 BKN065 16/11 A2980 RMK AO2 PK WND 28031/2354 PRESRR SLP090 60015 T01560106 10250 20156 53051 $<br><br>
KBUF 152340Z 1600/1624 28018G25KT P6SM BKN045 FM160200 29018G24KT P6SM BKN025 FM161000 32010G16KT P6SM BKN025 FM161400 30010G18KT P6SM SCT035 FM162200 30008KT P6SM FEW250<br><br>
<br><br>
CYYZ 160100Z 32024G30KT 15SM FEW022 SCT032 10/05 A2986 RMK CU1SC4 CU TR SLP116<br><br>
CYYZ 160000Z 30024G30KT 15SM FEW026 SCT035 12/06 A2981 RMK CU1SC3 PRESRR SLP097<br><br>
TAF CYYZ 152338Z 1600/1706 30025G35KT P6SM BKN030 BECMG 1600/1602 32018G28KT BECMG 1603/1605 34010G20KT FM160600 34012KT P6SM BKN020 TEMPO 1608/1614 P6SM -SHRA FM161500 33010G20KT P6SM BKN020 FM161700 33012G22KT P6SM BKN030 FM162100 32012G22KT P6SM FEW040 BECMG 1622/1624 32010KT BECMG 1701/1703 VRB03KT RMK NXT FCST BY 160300Z<br><br>
<br><br>
CYOO 160100Z AUTO 31014G20KT 9SM BKN026 BKN034 10/05 A2983 RMK PRESRR SLP103<br><br>
CYOO 160000Z AUTO 30014G22KT 9SM FEW024 BKN042 12/07 A2977 RMK PRESRR SLP082<br><br>
CYOO has no TAF <br><br>
<br><br>
CYTR 160100Z 28022G33KT 15SM FEW026 FEW060 12/06 A2973 RMK SC2SC1 PRESRR SLP070<br><br>
CYTR 160000Z 28021G34KT 15SM FEW030 SCT057 16/11 A2966 RMK SC2SC2 PRESRR SLP045<br><br>
TAF CYTR 152330Z 1600/1624 28020G35KT P6SM SCT020 BKN060 TEMPO 1600/1604 BKN020 OVC060 FM160400 28015G25KT P6SM SCT020 BKN030 BECMG 1606/1608 32012KT FM162200 32012KT P6SM SCT030 RMK NXT FCST BY 160600Z<br><br>
<br><br>
