RETRIEVED AT : May 01 2018 04:46 Local <br>
  RETRIEVED AT: May 01 2018 08:46 UTC<br><br>
CYSN has no TAF <br><br>
<br><br>
CYHM 010800Z 25008KT 15SM SKC 05/M02 A3003 RMK SLP175<br><br>
CYHM 010700Z 21005KT 15SM SKC 04/M02 A3003 RMK SLP175<br><br>
TAF CYHM 010538Z 0106/0206 21005KT P6SM SKC BECMG 0115/0117 24015G25KT BECMG 0121/0123 23015KT RMK NXT FCST BY 011200Z<br><br>
<br><br>
KIAG 010753Z AUTO 15004KT 10SM CLR 07/M03 A3005 RMK AO2 SLP179 T00671033<br><br>
KIAG 010653Z AUTO 17003KT 10SM CLR 07/M03 A3004 RMK AO2 SLP176 T00671033<br><br>
KIAG 010532Z 0106/0206 21006KT P6SM SKC FM011400 21011G17KT P6SM FEW250 FM011900 22015G26KT P6SM FEW250 FM020000 23012KT P6SM FEW250 WS020/24045KT<br><br>
<br><br>
KBUF 010754Z 19006KT 10SM CLR 06/M06 A3005 RMK AO2 SLP181 T00611056<br><br>
KBUF 010654Z 16005KT 10SM CLR 06/M03 A3005 RMK AO2 SLP180 T00611033<br><br>
KBUF 010532Z 0106/0206 21006KT P6SM SKC FM011300 23010KT P6SM FEW250 FM011600 23015G22KT P6SM FEW250 FM020000 23010KT P6SM FEW250 WS020/24040KT<br><br>
<br><br>
CYYZ 010800Z 14005KT 15SM SCT230 09/M03 A3001 RMK CI3 SLP166<br><br>
CYYZ 010700Z 23003KT 15SM SKC 10/M03 A3001 RMK SLP165<br><br>
TAF CYYZ 010538Z 0106/0212 23003KT P6SM SKC BECMG 0115/0117 24015G25KT BECMG 0121/0123 24012KT RMK NXT FCST BY 010900Z<br><br>
<br><br>
CYOO 010800Z AUTO 01003KT 9SM CLR 03/M02 A3001 RMK SLP166<br><br>
CYOO 010700Z AUTO 36005KT 9SM CLR 02/M02 A3001 RMK SLP168<br><br>
CYOO has no TAF <br><br>
<br><br>
CYTR 010800Z 23002KT 15SM SKC 04/M04 A3002 RMK SLP169<br><br>
CYTR 010700Z 00000KT 15SM SKC 06/M02 A3000 RMK SLP163<br><br>
TAF CYTR 010530Z 0106/0206 VRB03KT P6SM SKC FM011000 22006KT P6SM SCT150 BECMG 0116/0118 24012G22KT FM012000 24012G22KT P6SM SKC BECMG 0200/0202 24012KT WS010/25040KT RMK NXT FCST BY 011200Z<br><br>
<br><br>
