RETRIEVED AT : Sep 25 2017 09:10 Local <br>
  RETRIEVED AT: Sep 25 2017 13:10 UTC<br><br>
CYSN 251300Z 00000KT 10SM OVC250 24/21 A3009 RMK CI8 SLP189 DENSITY ALT 1300FT<br><br>
CYSN 251200Z 21002KT 12SM BKN250 20/19 A3008 RMK CI7 SLP187 DENSITY ALT 800FT<br><br>
TAF CYSN 251238Z 2513/2601 VRB03KT P6SM BKN250 BECMG 2517/2519 35008KT BECMG 2522/2524 VRB03KT RMK NXT FCST BY 252000Z<br><br>
<br><br>
CYHM 251300Z 10003KT 15SM BKN240 23/20 A3011 RMK CS6 HALO SLP194 DENSITY ALT 1700FT<br><br>
CYHM 251200Z 09003KT 15SM BKN240 20/17 A3010 RMK CI5 SLP193 DENSITY ALT 1300FT<br><br>
TAF CYHM 251138Z 2512/2612 VRB03KT P6SM SKC PROB30 2609/2612 2SM BR RMK NXT FCST BY 251800Z<br><br>
<br><br>
KIAG 251253Z 00000KT 10SM CLR 23/19 A3011 RMK AO2 SLP193 T02330189 $<br><br>
KIAG 251230Z 00000KT 10SM CLR 22/18 A3011 RMK AO2 T02170183 $<br><br>
KIAG 251153Z COR 00000KT 6SM HZ CLR 19/17 A3011 RMK AO2 SLPNO T01940167 10211 20178 $<br><br>
KIAG 251202Z 2512/2612 00000KT 6SM BR SCT250 FM251300 15004KT P6SM SCT250 FM251900 05007KT P6SM SCT250 FM260100 VRB03KT P6SM SCT250 FM260700 VRB03KT 4SM BR SCT250 FM260900 VRB03KT 2SM BR SCT250<br><br>
<br><br>
KBUF 251254Z 19003KT 8SM BKN260 21/18 A3012 RMK AO2 SLP195 T02110183<br><br>
KBUF 251154Z 15004KT 7SM BKN250 19/18 A3011 RMK AO2 SLP194 T01940178 10206 20183 53009<br><br>
KBUF 251120Z 2512/2612 14004KT P6SM SCT250 FM251900 08006KT P6SM SCT250 FM260200 VRB03KT P6SM SCT250 FM260400 13004KT P6SM SCT250 FM260700 16004KT 6SM BR SCT250<br><br>
<br><br>
CYYZ 251300Z 03002KT 15SM BKN250 25/19 A3010 RMK CS5 CONTRAILS SLP190 DENSITY ALT 1700FT<br><br>
CYYZ 251200Z 31002KT 15SM SCT220 BKN270 22/18 A3009 RMK CI3CC2 SLP189 DENSITY ALT 1400FT<br><br>
TAF CYYZ 251138Z 2512/2618 VRB03KT P6SM SKC FM251700 15008KT P6SM SCT240 BECMG 2600/2602 VRB03KT BECMG 2614/2616 17007KT RMK NXT FCST BY 251500Z<br><br>
<br><br>
CYOO 251300Z AUTO 02002KT 9SM CLR 23/19 A3010 RMK SLP192 DENSITY ALT 1200FT<br><br>
CYOO 251255Z AUTO 03002KT 7SM CLR 23/18 A3010 RMK SLP192 DENSITY ALT 1200FT<br><br>
CYOO 251252Z AUTO 02002KT 5SM HZ CLR 23/18 A3010 RMK SLP192 DENSITY ALT 1200FT<br><br>
CYOO 251236Z AUTO 01002KT 6SM HZ CLR 22/18 A3010 RMK SLP192 DENSITY ALT 1100FT<br><br>
CYOO 251235Z AUTO 01002KT 5SM HZ CLR 22/18 A3010 RMK SLP192 DENSITY ALT 1100FT<br><br>
CYOO 251200Z AUTO 01004KT 9SM CLR 19/17 A3010 RMK SLP192 DENSITY ALT 800FT<br><br>
CYOO 251129Z AUTO 01004KT 6SM BR CLR 17/16 A3009 RMK SLP190 DENSITY ALT 600FT<br><br>
CYOO 251119Z AUTO 02004KT 3SM BR CLR 17/16 A3009 RMK SLP189 DENSITY ALT 600FT<br><br>
CYOO has no TAF <br><br>
<br><br>
CYTR 251300Z 00000KT 15SM FEW250 23/21 A3010 RMK CI2 SLP192<br><br>
CYTR 251200Z CCA 04002KT 10SM FEW250 20/19 A3010 RMK CI2 VIS LWR E SLP191<br><br>
TAF CYTR 251130Z 2512/2612 VRB03KT P6SM SKC TEMPO 2512/2513 4SM BR FM251600 20009KT P6SM SCT250 BECMG 2522/2524 VRB03KT FM260300 VRB03KT 6SM BR BKN250 TEMPO 2603/2612 3SM BR RMK NXT FCST BY 251800Z<br><br>
<br><br>
