RETRIEVED AT : May 23 2020 01:05 Local <br>
  RETRIEVED AT: May 23 2020 05:05 UTC<br><br>
CYSN has no TAF <br><br>
<br><br>
CYHM 230422Z 24003KT 10SM -RA FEW005 OVC048 16/16 A3002 RMK ST1SC7 SLP165 DENSITY ALT 1100FT<br><br>
CYHM 230400Z 22004KT 15SM FEW005 OVC040 16/16 A3001 RMK ST1SC7 SLP164 DENSITY ALT 1000FT<br><br>
TAF AMD CYHM 230149Z 2301/2324 20008KT P6SM SCT020 OVC060 TEMPO 2301/2308 21/2SM -SHRA BR BKN020 OVC040 FM230800 28005KT P6SM SCT015 BKN030 TEMPO 2308/2312 BKN015 BECMG 2312/2314 FEW040 FM231600 06010KT P6SM SCT040 TEMPO 2320/2323 P6SM -SHRA BKN040 RMK NXT FCST BY 230600Z<br><br>
<br><br>
KIAG 230453Z AUTO 00000KT 10SM -RA FEW050 OVC075 17/16 A3000 RMK AO2 RAB22 SLP157 P0000 T01720161 402500089<br><br>
KIAG 230353Z AUTO 33004KT 10SM BKN050 OVC070 18/16 A3000 RMK AO2 SLP154 T01830156<br><br>
KIAG 230253Z 2303/2324 25006KT P6SM OVC050 FM230500 VRB03KT P6SM -SHRA OVC040 FM231100 VRB03KT P6SM VCSH BKN025 FM231600 05006KT P6SM BKN035 FM232000 07009KT P6SM SCT040<br><br>
<br><br>
KBUF 230500Z 00000KT 3SM RA BR FEW004 SCT055 OVC070 17/16 A3001 RMK AO2 P0002 T01720161<br><br>
KBUF 230454Z 00000KT 3SM RA BR SCT049 OVC075 17/16 A3001 RMK AO2 SLP158 P0059 T01720161 402610128<br><br>
KBUF 230356Z 19003KT 1 3/4SM -RA BR FEW003 BKN041 OVC050 17/17 A3001 RMK AO2 P0002 T01720167<br><br>
KBUF 230354Z 19003KT 3SM -RA BR FEW003 BKN049 OVC075 17/17 A3001 RMK AO2 SLP161 P0005 T01720167<br><br>
KBUF 230335Z 17004KT 6SM -RA BR FEW005 BKN060 OVC070 18/17 A3001 RMK AO2 P0000 T01780167<br><br>
KBUF 230409Z 2304/2324 24005KT 2SM -RA BR FEW003 OVC040 FM230700 VRB03KT 4SM -SHRA BR OVC007 FM231100 VRB03KT P6SM VCSH BKN015 FM231600 03006KT P6SM BKN035 FM232100 06009KT P6SM SCT040<br><br>
<br><br>
CYYZ 230400Z VRB02KT 15SM FEW210 17/10 A3000 RMK CI2 SLP159 DENSITY ALT 900FT<br><br>
TAF CYYZ 230238Z 2303/2406 12006KT P6SM BKN080 FM230900 32006KT P6SM SCT080 BKN140 BECMG 2310/2312 36006KT FM231500 07005KT P6SM SKC BECMG 2316/2318 12010KT FM240000 11008KT P6SM SCT060 BKN180 FM240300 13006KT P6SM SCT020 OVC040 BECMG 2404/2406 08006KT RMK NXT FCST BY 230600Z<br><br>
<br><br>
CYOO 230400Z AUTO 00000KT 9SM FEW210 BKN240 14/10 A3000 RMK SLP162<br><br>
TAF CYOO 230142Z 2302/2314 VRB03KT P6SM FEW250 BECMG 2312/2314 15006KT RMK FCST BASED ON AUTO OBS. NXT FCST BY 230800Z<br><br>
<br><br>
CYTR 230400Z 00000KT 15SM FEW230 13/08 A2998 RMK CI1 SLP154<br><br>
TAF CYTR 222330Z 2300/2324 22005KT P6SM SCT180 BECMG 2300/2302 VRB03KT FM231200 VRB03KT P6SM SKC BECMG 2315/2317 20010KT RMK NXT FCST BY 230600Z<br><br>
<br><br>
