RETRIEVED AT : Sep 24 2017 07:10 Local <br>
  RETRIEVED AT: Sep 24 2017 11:10 UTC<br><br>
CYSN 241100Z 19004KT 8SM SKC 18/17 A3014 RMK SLP206 DENSITY ALT 500FT<br><br>
CYSN has no TAF <br><br>
<br><br>
CYHM 241100Z 22002KT 12SM MIFG FEW100 FEW240 17/16 A3016 RMK AC1CI1 AC TR CI TR SLP213 DENSITY ALT 900FT<br><br>
CYHM 241000Z 25002KT 15SM MIFG FEW100 17/17 A3015 RMK AC1 AC TR SLP207 DENSITY ALT 1000FT<br><br>
TAF CYHM 240538Z 2406/2506 VRB03KT P6SM SKC FM241700 05007KT P6SM FEW050 BECMG 2421/2423 VRB03KT RMK NXT FCST BY 241200Z<br><br>
<br><br>
KIAG 241053Z 00000KT 8SM BCFG CLR 18/16 A3015 RMK AO2 SLP207 T01830161<br><br>
KIAG 241035Z AUTO 00000KT 3SM BR CLR 19/17 A3015 RMK AO2 T01890167<br><br>
KIAG 241024Z AUTO 00000KT 1 3/4SM R28R/6000VP6000FT HZ CLR 19/16 A3015 RMK AO2 VIS 3/4V5 T01890161<br><br>
KIAG 240953Z AUTO 00000KT 8SM CLR 19/17 A3014 RMK AO2 SLP201 T01890167<br><br>
KIAG 240858Z 2409/2506 20004KT 6SM BR SKC FM241400 23005KT P6SM SKC FM241700 01008KT P6SM SKC FM250100 17003KT P6SM SKC<br><br>
<br><br>
KBUF 241054Z 14004KT 10SM CLR 18/16 A3017 RMK AO2 SLP212 T01780156<br><br>
KBUF 240954Z 15004KT 10SM CLR 18/16 A3015 RMK AO2 SLP208 T01830156<br><br>
KBUF 240858Z 2409/2506 20004KT P6SM SKC FM241400 24005KT P6SM SKC FM241700 25008KT P6SM SKC FM250100 16004KT P6SM SKC<br><br>
<br><br>
CYYZ 241100Z 33005KT 15SM FEW250 22/18 A3014 RMK CI1 CI TR SLP207 DENSITY ALT 1300FT<br><br>
CYYZ 241000Z 28005KT 15SM FEW030 20/17 A3013 RMK SF1 SLP203 DENSITY ALT 1100FT<br><br>
TAF CYYZ 240838Z 2409/2512 32005KT P6SM SKC FM241500 26008KT P6SM FEW050 BECMG 2502/2504 33005KT BECMG 2510/2512 VRB03KT RMK NXT FCST BY 241200Z<br><br>
<br><br>
CYOO 241100Z AUTO 00000KT 8SM CLR 17/16 A3014 RMK SLP206 DENSITY ALT 500FT<br><br>
CYOO 241000Z AUTO 00000KT 9SM CLR 18/16 A3013 RMK SLP203 DENSITY ALT 600FT<br><br>
CYOO has no TAF <br><br>
<br><br>
CYTR 241100Z 30002KT 6SM BR MIFG FEW160 18/18 A3012 RMK AC1 SLP198<br><br>
CYTR 241000Z 31003KT 6SM BR MIFG FEW250 18/18 A3011 RMK CI1 SLP197<br><br>
TAF CYTR 240530Z 2406/2506 VRB03KT P6SM SKC TEMPO 2406/2412 2SM BR BECMG 2414/2416 20008KT FM250000 VRB03KT P6SM SKC RMK NXT FCST BY 241200Z<br><br>
<br><br>
