RETRIEVED AT : Sep 06 2019 19:05 Local <br>
  RETRIEVED AT: Sep 06 2019 23:05 UTC<br><br>
CYSN 062200Z 06005KT 15SM SCT052 BKN096 17/17 A2987 RMK SC3AC4 SLP116 DENSITY ALT 800FT<br><br>
TAF CYSN 061938Z 0620/0701 05010KT P6SM FEW025 BKN060 OVC100 TEMPO 0620/0621 P6SM -SHRA FM062100 04008KT P6SM BKN080 BECMG 0623/0701 VRB03KT RMK NXT FCST WILL BE ISSUED AT 071245Z<br><br>
<br><br>
CYHM 062200Z 04009KT 15SM FEW020 SCT062 BKN085 BKN110 17/14 A2989 RMK CU2SC2AC2AC1 SLP123 DENSITY ALT 1300FT<br><br>
TAF AMD CYHM 062108Z 0621/0718 05010KT P6SM FEW020 BKN050 TEMPO 0621/0623 BKN020 OVC050 BECMG 0700/0702 VRB03KT FM070600 VRB03KT P6SM BKN030 FM070900 VRB03KT 6SM BR FEW008 BKN015 PROB30 0709/0713 11/2SM BR FM071500 27008KT P6SM BKN020 FM071700 28012KT P6SM BKN030 RMK NXT FCST BY 070000Z<br><br>
<br><br>
KIAG 062253Z 03004KT 10SM OVC095 17/14 A2988 RMK AO2 SLP120 T01670139<br><br>
KIAG 062153Z 03007KT 10SM OVC100 17/14 A2987 RMK AO2 RAB2056E26 SLP119 P0000 T01670139<br><br>
KIAG 062108Z 0621/0718 03008KT P6SM BKN080 FM070100 02004KT P6SM SCT080 FM071000 29004KT P6SM SCT060 FM071100 29005KT P6SM BKN045<br><br>
<br><br>
KBUF 062254Z 04005KT 10SM FEW045 BKN100 OVC130 17/13 A2988 RMK AO2 SLP119 OCNL BINOVC T01670133<br><br>
KBUF 062154Z 03009KT 10SM FEW045 OVC100 17/13 A2987 RMK AO2 RAE23 SLP115 P0000 T01720133<br><br>
KBUF 062108Z 0621/0718 03008KT P6SM FEW045 BKN060 FM070200 01004KT P6SM SCT080 FM071100 26004KT P6SM BKN050 FM071300 27005KT P6SM BKN030<br><br>
<br><br>
CYYZ 062200Z 05009KT 15SM FEW014 BKN080 OVC090 17/15 A2989 RMK CF1AC6AC2 CF TR SLP123 DENSITY ALT 1000FT<br><br>
CYYZ 062152Z 05012KT 15SM FEW015 BKN080 OVC095 17/14 A2989 RMK CF1AC6AC2 CF TR SLP124 DENSITY ALT 1000FT<br><br>
CYYZ 062118Z 06010KT 15SM -RA FEW030 BKN080 OVC100 17/14 A2989 RMK CU1AC7AC1 CU TR SLP124 DENSITY ALT 1000FT<br><br>
TAF CYYZ 062039Z 0621/0724 07012KT P6SM FEW030 BKN060 FM070300 01008KT P6SM SCT030 BKN060 FM070900 33007KT 6SM BR BKN020 PROB30 0709/0712 11/2SM BR FM071500 31010KT P6SM BKN030 FM071900 30012G22KT P6SM -SHRA BKN040 FM072300 30012KT P6SM SCT040 RMK NXT FCST BY 070000Z<br><br>
<br><br>
CYOO 062200Z AUTO 36010KT 9SM OVC080 16/14 A2990 RMK SLP127 DENSITY ALT 600FT<br><br>
CYOO 062135Z AUTO 36007KT 9SM OVC085 16/14 A2989 RMK SLP126 DENSITY ALT 600FT<br><br>
CYOO 062114Z AUTO 34010KT 9SM -RA OVC095 17/14 A2989 RMK SLP125 DENSITY ALT 700FT<br><br>
TAF CYOO 061938Z 0620/0708 VRB03KT P6SM OVC090 TEMPO 0620/0621 P6SM -SHRA OVC070 FM062100 01006KT P6SM BKN050 RMK FCST BASED ON AUTO OBS. NXT FCST BY 070200Z<br><br>
<br><br>
CYTR 062241Z CCA 17004KT 15SM -SHRA BKN066 OVC100 19/15 A2988 RMK AC5AC3 PCPN VRY LGT SLP119<br><br>
CYTR 062200Z 18004KT 15SM FEW030 BKN060 OVC100 19/15 A2987 RMK SC1SC7AC1 SLP117<br><br>
TAF CYTR 061732Z 0618/0718 09005KT P6SM FEW030 SCT120 TEMPO 0620/0622 P6SM -SHRA BKN030 OVC120 FM062200 03008KT P6SM BKN050 OVC080 FM070400 34005KT P6SM SCT020 BKN050 PROB30 0706/0710 3/4SM BR RMK NXT FCST BY 070000Z<br><br>
<br><br>
