RETRIEVED AT : Oct 21 2018 23:05 Local <br>
  RETRIEVED AT: Oct 22 2018 03:05 UTC<br><br>
CYSN has no TAF <br><br>
<br><br>
CYHM 220200Z 23006KT 15SM OVC042 03/M02 A3016 RMK SC8 SLP223<br><br>
TAF CYHM 212339Z 2200/2224 25008KT P6SM OVC030 FM220500 24008KT P6SM BKN030 BKN080 FM221000 25008KT P6SM FEW030 SCT100 FM221600 24010G20KT P6SM SCT060 BECMG 2222/2224 24008KT RMK NXT FCST BY 220600Z<br><br>
<br><br>
KIAG 220253Z 25011KT 10SM OVC040 03/M03 A3017 RMK AO2 SLP230 T00331028 53014<br><br>
KIAG 220153Z 26010KT 10SM OVC035 03/M03 A3015 RMK AO2 SLP223 T00331033<br><br>
KIAG 220244Z 2203/2224 27011G17KT P6SM OVC035 FM220800 22005KT P6SM BKN040 FM221400 20007KT P6SM BKN015 FM221600 21009KT P6SM VCSH BKN020 FM222000 22009KT P6SM BKN020<br><br>
<br><br>
KBUF 220254Z 27012KT 10SM BKN043 03/M03 A3017 RMK AO2 SLP224 T00331028 53012<br><br>
KBUF 220154Z 28008KT 10SM OVC040 03/M03 A3016 RMK AO2 SLP220 T00331028<br><br>
KBUF 220244Z 2203/2224 27010G16KT P6SM OVC040 FM220800 22004KT P6SM BKN035 FM221200 20009KT P6SM VCSH BKN012 FM222000 22012G19KT P6SM BKN025 FM222300 22009KT P6SM BKN025<br><br>
<br><br>
CYYZ 220200Z 25010KT 15SM OVC040 03/M02 A3015 RMK SC8 SLP216<br><br>
TAF CYYZ 220238Z 2203/2306 25010KT P6SM OVC040 TEMPO 2203/2208 P6SM -SHRASN BKN020 OVC040 FM220800 26008KT P6SM BKN040 BKN080 FM221000 26008KT P6SM FEW030 SCT080 BECMG 2215/2217 25010G20KT FM222100 25012KT P6SM BKN040 BECMG 2222/2224 24006KT BECMG 2301/2303 VRB03KT RMK NXT FCST BY 220600Z<br><br>
<br><br>
CYOO 220200Z AUTO 28005KT 9SM OVC048 03/M01 A3013 RMK SLP210<br><br>
CYOO has no TAF <br><br>
<br><br>
CYTR 220200Z 27004KT 15SM OVC036 04/M02 A3012 RMK SC8 SLP204<br><br>
TAF CYTR 212330Z 2200/2224 30012KT P6SM BKN040 BKN200 BECMG 2200/2202 VRB03KT BECMG 2216/2218 22010KT RMK NXT FCST BY 220600Z<br><br>
<br><br>
