RETRIEVED AT : May 23 2020 13:05 Local <br>
  RETRIEVED AT: May 23 2020 17:05 UTC<br><br>
CYSN 231600Z 22006KT 5SM BR FEW010 BKN038 OVC064 19/18 A3007 RMK SC2SC4SC2 SLP185 DENSITY ALT 700FT<br><br>
TAF AMD CYSN 231626Z 2316/2401 VRB03KT 5SM BR FEW010 BKN040 BECMG 2316/2317 P6SM NSW FM231700 05008KT P6SM BKN040 BECMG 2322/2324 VRB03KT RMK NXT FCST BY 232000Z<br><br>
<br><br>
CYHM 231600Z VRB02KT 15SM FEW018 BKN058 BKN250 22/18 A3007 RMK CU1SC5CI1 SLP182 DENSITY ALT 1700FT<br><br>
TAF CYHM 231138Z 2312/2412 VRB03KT P6SM FEW020 BKN100 BECMG 2313/2315 23006KT FM231800 10008KT P6SM -SHRA BKN040 PROB30 2318/2324 4SM TSRA BKN030CB FM240000 12006KT P6SM SCT040 BECMG 2401/2403 VRB03KT FM240600 VRB03KT P6SM SKC PROB40 2406/2412 3/4SM BR RMK NXT FCST BY 231800Z<br><br>
<br><br>
KIAG 231653Z 00000KT 9SM SCT015 20/17 A3007 RMK AO2 RAE00 SLP182 P0000 T02000167<br><br>
KIAG 231553Z 00000KT 6SM -RA BKN050 OVC055 18/16 A3008 RMK AO2 RAB48 SLP187 P0000 T01830156<br><br>
KIAG 231343Z 2314/2412 VRB03KT 6SM BR SCT004 BKN035 OVC060 TEMPO 2314/2316 4SM BR FM231600 35004KT P6SM SCT035 BKN050 FM232000 03005KT P6SM BKN050 FM240600 10005KT P6SM SCT050 FM240900 13005KT P6SM SCT045<br><br>
<br><br>
KBUF 231654Z 20004KT 10SM BKN004 BKN015 BKN055 17/16 A3008 RMK AO2 RAB06E46 SLP186 P0002 T01720161<br><br>
KBUF 231624Z 21006KT 4SM -RA BR SCT006 BKN015 OVC037 16/15 A3010 RMK AO2 RAB06 P0001 T01610150<br><br>
KBUF 231601Z 22007KT 10SM BKN006 OVC043 17/14 A3010 RMK AO2 T01670144<br><br>
KBUF 231554Z 21007KT 10SM OVC004 17/14 A3010 RMK AO2 SLP191 T01670144<br><br>
KBUF 231612Z 2316/2412 23008KT 5SM -SHRA BKN007 FM231800 23008KT P6SM VCSH SCT007 BKN050 FM232300 VRB04KT P6SM BKN050<br><br>
<br><br>
CYYZ 231600Z 15007KT 100V170 15SM FEW140 FEW260 23/12 A3007 RMK AC1CI1 CI TR SLP182 DENSITY ALT 1500FT<br><br>
TAF CYYZ 231438Z 2315/2418 VRB03KT P6SM FEW150 FM231700 13010KT P6SM SCT050 FM240000 15008KT P6SM -SHRA OVC030 BECMG 2404/2406 08005KT FM240800 VRB03KT 11/2SM BR BKN006 FM241300 15012KT P6SM SCT006 BKN020 FM241600 17012G22KT P6SM FEW020 OVC030 RMK NXT FCST BY 231800Z<br><br>
<br><br>
TAF CYOO 231349Z 2314/2402 VRB03KT P6SM SKC FM231700 15007KT P6SM SCT040 RMK FCST BASED ON AUTO OBS. NXT FCST BY 232000Z<br><br>
<br><br>
CYTR 231600Z 12004KT 15SM FEW040 FEW220 25/12 A3006 RMK CF1CI2 CUFRA TR SLP179<br><br>
TAF CYTR 231130Z 2312/2412 VRB03KT P6SM FEW100 SCT220 FM231300 VRB03KT P6SM SKC BECMG 2315/2317 20010KT BECMG 2402/2404 05005KT FM241000 09005KT P6SM SCT080 BKN150 RMK NXT FCST BY 231800Z<br><br>
<br><br>
