RETRIEVED AT : Mar 13 2020 16:05 Local <br>
  RETRIEVED AT: Mar 13 2020 20:05 UTC<br><br>
CYSN 131900Z 27016G25KT 15SM BKN058 06/M02 A2994 RMK SC7 SLP143<br><br>
TAF CYSN 131940Z 1320/1401 27015G25KT P6SM BKN050 RMK NXT FCST WILL BE ISSUED AT 141245Z<br><br>
<br><br>
CYHM 131900Z 26024G32KT 15SM FEW040 BKN054 05/M04 A2994 RMK CF1SC6 SLP146<br><br>
TAF CYHM 131740Z 1318/1418 26018G32KT P6SM BKN040 BECMG 1322/1324 27015G25KT FM140900 29010KT P6SM BKN025 RMK NXT FCST BY 140000Z<br><br>
<br><br>
KIAG 131953Z 24012KT 10SM OVC040 04/M01 A2998 RMK AO2 PK WND 24027/1854 SLP160 T00391011<br><br>
KIAG 131853Z 25020G29KT 10SM BKN035 OVC042 04/M01 A2994 RMK AO2 PK WND 26031/1755 SLP145 T00441011<br><br>
KIAG 131734Z 1318/1418 24013G38KT P6SM BKN045 OVC060 FM140100 26016G30KT P6SM FEW250 FM141100 28009KT P6SM SCT080 FM141300 28010G18KT P6SM SCT060 FM141500 28012KT P6SM SCT035<br><br>
<br><br>
KBUF 131954Z 24023G34KT 10SM FEW023 BKN043 BKN060 04/M02 A2999 RMK AO2 PK WND 24039/1933 SLP158 T00391017<br><br>
KBUF 131854Z 24023G40KT 10SM FEW023 BKN046 BKN060 04/M02 A2994 RMK AO2 PK WND 23041/1841 SLP142 T00441017<br><br>
KBUF 131734Z 1318/1418 24024G40KT P6SM SCT030 BKN040 FM131900 24025G40KT P6SM BKN035 FM132300 25018G30KT P6SM FEW250 FM140700 27010G23KT P6SM SCT060 FM141400 27010G16KT P6SM BKN035<br><br>
<br><br>
CYYZ 131900Z 28025G33KT 230V290 15SM VCSH FEW045 BKN062 05/M06 A2992 RMK CU2SC5 SLP138<br><br>
TAF CYYZ 131740Z 1318/1424 27020G38KT P6SM BKN040 BECMG 1323/1401 28020G30KT FM140600 29018G28KT P6SM BKN030 FM141500 32012KT P6SM BKN025 BKN200 BECMG 1420/1422 35009KT BECMG 1422/1424 01015KT RMK NXT FCST BY 132100Z<br><br>
<br><br>
CYOO 131900Z AUTO 26019G26KT 9SM OVC060 05/M04 A2988 RMK SLP124<br><br>
TAF CYOO 131939Z 1320/1408 26020G30KT P6SM SCT020 BKN030 TEMPO 1320/1408 BKN020 OVC030 BECMG 1401/1403 27015G25KT RMK FCST BASED ON AUTO OBS. NXT FCST BY 140200Z<br><br>
<br><br>
CYTR 131900Z 28015G27KT 15SM BKN040 06/M02 A2982 RMK SC7 SLP100<br><br>
TAF CYTR 131730Z 1318/1418 27020G35KT P6SM BKN025 TEMPO 1318/1322 P6SM -SHRA BKN020 FM132200 27020G35KT P6SM BKN040 FM141000 29015G25KT P6SM SCT040 BECMG 1411/1413 29010KT RMK NXT FCST BY 140000Z<br><br>
<br><br>
