RETRIEVED AT : Oct 08 2017 17:10 Local <br>
  RETRIEVED AT: Oct 08 2017 21:10 UTC<br><br>
CYSN 082100Z 21009KT 15SM BKN250 22/15 A2988 RMK CI7 SLP118 DENSITY ALT 1300FT<br><br>
CYSN 082000Z 20011KT 15SM FEW030 BKN250 23/15 A2988 RMK SC1CI6 SLP120 DENSITY ALT 1400FT<br><br>
TAF CYSN 081938Z 0820/0901 23010G20KT P6SM FEW030 BECMG 0820/0822 21010KT BECMG 0900/0901 18005KT RMK NXT FCST WILL BE ISSUED AT 091245Z<br><br>
<br><br>
CYHM 082100Z 20009KT 15SM FEW035 BKN250 20/15 A2989 RMK CU1CI7 CU TR SLP121 DENSITY ALT 1700FT<br><br>
CYHM 082000Z 22004KT 190V260 15SM FEW035 BKN250 22/14 A2989 RMK CU1CI7 CU TR SLP120 DENSITY ALT 1900FT<br><br>
TAF CYHM 081739Z 0818/0918 25013G23KT P6SM BKN030 BECMG 0819/0821 21010KT FM090000 22010KT P6SM SKC BECMG 0900/0902 13005KT FM090300 14007KT P6SM BKN050 OVC160 FM090500 05012KT 4SM -RA BR BKN006 OVC020 FM090700 05012KT 3/4SM RA BR VV002 FM091400 04012G22KT 2SM -RA BR OVC008 FM091700 03010KT 6SM BR OVC010 RMK NXT FCST BY 090000Z<br><br>
<br><br>
KIAG 082053Z 22010KT 10SM CLR 22/14 A2990 RMK AO2 SLP121 T02170139 57000<br><br>
KIAG 081953Z 22012KT 10SM SCT027 23/14 A2990 RMK AO2 SLP120 T02280144<br><br>
KIAG 081720Z 0818/0918 25013G20KT P6SM SCT025 BKN035 FM082200 23007KT P6SM SCT250 FM090400 VRB03KT 5SM RA OVC040 FM090600 09005KT 3SM +RA OVC025 FM090900 08010KT 3SM +RA OVC003 FM091600 34009KT P6SM SCT003 OVC012<br><br>
<br><br>
KBUF 082054Z 24013KT 10SM FEW025 FEW045 SCT150 BKN200 BKN250 19/15 A2992 RMK AO2 SLP128 T01940150 50001<br><br>
KBUF 081954Z 22012KT 10SM FEW025 SCT045 SCT150 BKN200 BKN250 20/14 A2992 RMK AO2 SLP129 T02000144<br><br>
KBUF 081720Z 0818/0918 25015G22KT P6SM SCT025 BKN045 FM082000 24010KT P6SM SCT200 FM090300 10004KT 5SM RA OVC040 FM090600 08006KT 3SM +RA OVC020 FM091100 10006KT 3SM +RA OVC003 FM091700 34008KT P6SM SCT003 OVC012<br><br>
<br><br>
CYYZ 082100Z 17009KT 15SM FEW035 BKN260 23/13 A2986 RMK CF1CI7 CF TR SLP111 DENSITY ALT 1700FT<br><br>
CYYZ 082000Z 26003KT 15SM FEW035 BKN260 24/10 A2986 RMK CF1CI5 CF TR SLP113 DENSITY ALT 1800FT<br><br>
TAF CYYZ 082038Z 0821/0924 22010KT P6SM SCT030 BECMG 0900/0902 23005KT FM090500 10008KT 6SM -RA BR SCT008 OVC025 FM090700 09010KT 2SM RA BR OVC006 PROB30 0909/0914 3/4SM -RA BR OVC003 FM091400 04012KT 5SM -RA BR BKN008 OVC020 FM091700 04008KT P6SM OVC012 FM092000 33010KT P6SM BKN030 FM092300 VRB03KT P6SM FEW030 RMK NXT FCST BY 090000Z<br><br>
<br><br>
CYOO 082100Z AUTO 22006KT 9SM CLR 21/13 A2987 RMK SLP116 DENSITY ALT 1300FT<br><br>
CYOO 082000Z AUTO 21013G19KT 9SM CLR 22/14 A2987 RMK SLP114 DENSITY ALT 1300FT<br><br>
CYOO has no TAF <br><br>
<br><br>
CYTR 082100Z 23007G16KT 15SM FEW030 BKN250 21/15 A2987 RMK SC1CI6 SLP114<br><br>
CYTR 082000Z 23013G18KT 15SM FEW030 FEW250 21/16 A2986 RMK SC1CI2 SLP112<br><br>
TAF AMD CYTR 081818Z 0818/0918 24012G22KT P6SM SCT025 TEMPO 0818/0820 BKN020 BECMG 0818/0820 24012KT FM082000 24012KT P6SM SCT025 BECMG 0823/0901 VRB03KT FM090200 24005KT P6SM SCT020 BKN220 FM090800 04008KT 3SM -SHRA BR SCT008 BKN020 OVC160 TEMPO 0908/0916 2SM -SHRA BR BKN008 OVC020 FM091600 01012KT P6SM SCT010 OVC020 TEMPO 0916/0918 5SM -SHRA BR OVC010 RMK NXT FCST BY 090000Z<br><br>
<br><br>
