RETRIEVED AT : Oct 15 2017 09:10 Local <br>
  RETRIEVED AT: Oct 15 2017 13:10 UTC<br><br>
CYSN 151300Z 21020G33KT 12SM FEW070 SCT140 BKN250 23/18 A2971 RMK AC2AC2CI3 SLP060 DENSITY ALT 1600FT<br><br>
CYSN 151200Z 21016G22KT 12SM BKN073 OVC140 22/17 A2973 RMK AC6AC2 SLP068 DENSITY ALT 1400FT<br><br>
TAF CYSN 151238Z 1513/1601 21012G22KT P6SM SCT020 BKN070 BKN140 TEMPO 1513/1517 BKN020 OVC050 BECMG 1513/1515 22020G35KT FM151700 22025G40KT P6SM BKN030 BKN060 TEMPO 1519/1522 6SM -SHRA BR OVC020 PROB30 1519/1522 VRB30G45KT 2SM TSRA BR OVC015CB FM152200 26020G35KT P6SM BKN025 TEMPO 1522/1601 BKN020 RMK NXT FCST BY 152000Z<br><br>
<br><br>
CYHM 151300Z 21018G24KT 15SM SCT022 BKN035 OVC070 21/18 A2971 RMK SC3SC3AC2 SLP060 DENSITY ALT 1900FT<br><br>
CYHM 151200Z 21016G21KT 15SM BKN030 BKN068 20/17 A2972 RMK SC5AC2 SLP066 DENSITY ALT 1800FT<br><br>
TAF CYHM 151143Z 1512/1612 20010G20KT WS005/22035KT P6SM SCT015 BKN070 TEMPO 1512/1518 BKN015 OVC050 BECMG 1513/1515 22020G35KT FM151800 23025G40KT P6SM -SHRA OVC025 PROB30 1518/1521 VRB30G50KT 2SM +TSRA BR OVC020CB FM152100 24020G35KT P6SM BKN025 BECMG 1523/1524 29018G30KT BECMG 1603/1604 31012KT FM161000 31008KT P6SM SKC RMK NXT FCST BY 151800Z<br><br>
<br><br>
KIAG 151253Z 21016G23KT 10SM BKN036 BKN070 23/17 A2974 RMK AO2 PK WND 21026/1157 SLP067 T02280167<br><br>
KIAG 151153Z 21018KT 10SM BKN033 BKN070 22/16 A2976 RMK AO2 SLP074 70003 T02220156 10222 20172 56024<br><br>
KIAG 151120Z 1512/1612 19013G23KT P6SM BKN070 FM151400 21020G31KT P6SM BKN060 FM151800 21024G35KT P6SM BKN050 FM152000 23026G42KT 3SM SHRA OVC015 FM152200 26024G38KT P6SM SCT035 FM160200 30016G26KT P6SM BKN025 FM160800 31012KT P6SM BKN035<br><br>
<br><br>
KBUF 151254Z 20014G24KT 10SM BKN040 BKN046 BKN075 BKN180 BKN230 BKN280 22/17 A2976 RMK AO2 SLP075 T02170167<br><br>
KBUF 151154Z 20017G23KT 10SM FEW035 BKN065 BKN120 BKN280 21/16 A2978 RMK AO2 PK WND 20026/1100 SLP080 60000 T02110161 10211 20161 58023<br><br>
KBUF 151120Z 1512/1612 20015G25KT P6SM BKN070 FM151400 21020G29KT P6SM BKN060 FM151800 21024G35KT P6SM BKN050 FM152000 23026G42KT 3SM SHRA OVC015 FM152200 26024G38KT P6SM SCT035 FM160200 29016G26KT P6SM BKN030 FM160800 31012KT P6SM BKN030<br><br>
<br><br>
CYYZ 151300Z 18008KT 15SM FEW032 BKN220 18/17 A2968 RMK SC1CI5 SLP050 DENSITY ALT 1400FT<br><br>
CYYZ 151200Z 19008KT 12SM BKN030 BKN200 17/16 A2970 RMK SC5CC2 SLP059 DENSITY ALT 1200FT<br><br>
TAF CYYZ 151143Z 1512/1618 17008KT WS005/21030KT P6SM BKN100 TEMPO 1512/1517 BKN012 OVC050 BECMG 1513/1515 22020G30KT FM151700 23025G40KT P6SM -SHRA OVC025 PROB30 1517/1520 VRB35G50KT 2SM +TSRA BR OVC020CB FM152100 26025G40KT P6SM SCT025 OVC100 BECMG 1600/1601 31018G28KT FM160500 33012G22KT P6SM OVC020 BECMG 1609/1610 33008KT FM161400 32012G22KT P6SM FEW040 RMK NXT FCST BY 151500Z<br><br>
<br><br>
CYOO 151300Z AUTO 18005KT 9SM BKN026 OVC036 18/16 A2969 RMK SLP056 DENSITY ALT 1100FT<br><br>
CYOO 151200Z AUTO 14003KT 100V160 9SM SCT028 BKN070 BKN098 OVC190 16/15 A2971 RMK SLP064 DENSITY ALT 900FT<br><br>
CYOO has no TAF <br><br>
<br><br>
CYTR 151300Z 20010KT 12SM BKN035 OVC074 19/16 A2972 RMK SC6AC2 SLP064<br><br>
CYTR 151200Z 19006KT 12SM BKN034 OVC073 17/15 A2975 RMK SC6AC2 SLP076<br><br>
TAF CYTR 151130Z 1512/1612 VRB03KT P6SM SCT015 OVC030 TEMPO 1512/1518 5SM -SHRA BR OVC015 BECMG 1512/1514 22015G25KT FM151800 24020G35KT P6SM SCT010 OVC025 TEMPO 1518/1524 3SM -SHRA BR OVC010 PROB30 1519/1522 VRB35G50KT 1SM TSRA BR BKN005 OVC010CB FM160000 24022G38KT P6SM BKN030 BECMG 1602/1604 28020G30KT BECMG 1606/1608 32010G20KT RMK NXT FCST BY 151800Z<br><br>
<br><br>
