RETRIEVED AT : Oct 20 2018 09:05 Local <br>
  RETRIEVED AT: Oct 20 2018 13:05 UTC<br><br>
CYSN 201200Z 25010KT 15SM FEW020 FEW080 FEW250 09/06 A2966 RMK CU1AC1CI1 CU TR AC TR CI TR SLP045<br><br>
TAF CYSN 201241Z 2013/2101 26012G22KT P6SM FEW020 FEW080 FM201700 27012G22KT P6SM BKN030 BKN050 TEMPO 2017/2022 P6SM -SHRA FM202200 30010G20KT P6SM BKN040 RMK NXT FCST BY 202000Z<br><br>
<br><br>
CYHM 201242Z 24010KT 15SM FEW008 SCT030 BKN038 08/07 A2967 RMK CF1CU3SC3 SLP053<br><br>
CYHM 201200Z 24010KT 15SM FEW030 SCT062 SCT070 08/07 A2966 RMK CU2SC1AC1 SLP050<br><br>
TAF CYHM 201138Z 2012/2112 26012G22KT P6SM SCT020 TEMPO 2012/2017 BKN020 FM201700 27012G22KT P6SM BKN030 BKN050 TEMPO 2017/2021 P6SM -SHRA FM202100 30010KT P6SM -SHRA BKN040 FM202300 34012G22KT P6SM SCT020 BKN050 TEMPO 2023/2102 P6SM -SHRA FM210200 34012KT P6SM BKN030 FM210500 34008KT P6SM BKN030 TEMPO 2109/2112 P6SM -SHSN BKN020 RMK NXT FCST BY 201800Z<br><br>
<br><br>
KIAG 201253Z 27008KT 10SM CLR 09/05 A2967 RMK AO2 SLP053 T00890050<br><br>
KIAG 201153Z 26008KT 10SM CLR 08/04 A2966 RMK AO2 SLP049 60007 70008 T00780044 10106 20078 52020<br><br>
KIAG 201120Z 2012/2112 26008KT P6SM SCT025 FM201300 27019KT P6SM BKN025 FM201500 27015G21KT P6SM BKN040 TEMPO 2016/2018 5SM -SHRA OVC025 FM201800 30015KT P6SM BKN060 TEMPO 2018/2022 4SM -SHRA OVC040 FM202200 30015KT P6SM BKN060 FM210000 34015G24KT P6SM OVC050 FM210700 33015G23KT P6SM OVC035<br><br>
<br><br>
KBUF 201254Z 28008KT 10SM FEW017 FEW050 FEW140 SCT200 10/06 A2968 RMK AO2 SLP052 T01000061 $<br><br>
KBUF 201154Z 26008KT 10SM FEW017 SCT050 SCT140 08/07 A2967 RMK AO2 SLP049 60016 70016 T00830067 10111 20083 53018 $<br><br>
KBUF 201153Z 2012/2112 27013KT P6SM SCT015 FM201400 27018KT P6SM BKN035 TEMPO 2017/2019 5SM -SHRA OVC025 FM201900 28014KT P6SM BKN035 TEMPO 2019/2021 5SM -SHRA OVC025 FM202100 30013KT P6SM VCSH OVC050 FM210000 34012G21KT P6SM OVC045 FM210400 32011G19KT P6SM VCSH OVC035<br><br>
<br><br>
CYYZ 201200Z 30004KT 15SM FEW015 FEW090 07/04 A2963 RMK CF1AC1 CF TR SLP037<br><br>
TAF CYYZ 201138Z 2012/2118 29012KT P6SM FEW030 TEMPO 2012/2013 P6SM -SHRA BKN030 FM201300 29012KT P6SM FEW030 TEMPO 2013/2017 BKN030 FM201700 28012G22KT P6SM BKN030 BKN050 TEMPO 2017/2023 P6SM -SHRA BECMG 2018/2020 32012KT FM202300 34018G28KT P6SM SCT030 BKN140 FM210600 35015G28KT P6SM SCT030 FM210900 34012G22KT P6SM BKN040 TEMPO 2109/2115 P6SM -SHSN BECMG 2109/2111 34012KT FM211500 33008KT P6SM BKN040 RMK NXT FCST BY 201500Z<br><br>
<br><br>
CYOO 201200Z AUTO 24004KT 9SM BKN033 07/05 A2961 RMK SLP031<br><br>
CYOO has no TAF <br><br>
<br><br>
CYTR 201200Z 26011G17KT 15SM FEW014 08/04 A2956 RMK SF1 SLP013<br><br>
TAF CYTR 201130Z 2012/2112 27015G25KT P6SM BKN030 FM201800 28020G30KT P6SM FEW030 SCT200 BECMG 2021/2023 31008KT FM210200 34008KT P6SM BKN040 BKN200 RMK NXT FCST BY 201800Z<br><br>
<br><br>
