RETRIEVED AT : May 30 2020 01:05 Local <br>
  RETRIEVED AT: May 30 2020 05:05 UTC<br><br>
CYSN has no TAF <br><br>
<br><br>
CYHM 300400Z 26006KT 15SM SKC 12/10 A2994 RMK SLP139<br><br>
TAF CYHM 292354Z 3000/3024 29012KT P6SM FEW015 BKN050 TEMPO 3000/3003 BKN015 FM300300 29012KT P6SM FEW050 BECMG 3004/3006 29008KT FM300600 25005KT P6SM SKC FM300900 25006KT P6SM FEW010 SCT020 TEMPO 3009/3012 BKN010 FM301500 29015KT P6SM BKN020 BECMG 3015/3017 BKN030 FM301700 30018KT P6SM BKN040 FM302000 31020KT P6SM SCT050 TEMPO 3021/3024 BKN050 RMK NXT FCST BY 300600Z<br><br>
<br><br>
KIAG 300453Z AUTO 29009KT 10SM CLR 13/11 A2993 RMK AO2 SLP137 T01280106 402390128 /<br><br>
KIAG 300353Z AUTO 28013KT 10SM FEW026 FEW033 14/11 A2992 RMK AO2 SLP130 T01390111 $<br><br>
KIAG 300254Z 3003/3024 31007KT P6SM BKN040 OVC070 FM300800 23007KT P6SM BKN060 TEMPO 3008/3011 4SM BR FM301500 26010G17KT P6SM VCSH BKN035 FM302300 30012G18KT P6SM SCT100<br><br>
<br><br>
KBUF 300454Z 28009KT 10SM FEW029 13/11 A2994 RMK AO2 SLP137 T01330111 402390133 $<br><br>
KBUF 300354Z 26009KT 10SM SCT023 SCT028 BKN060 14/12 A2992 RMK AO2 SLP130 T01440122 $<br><br>
KBUF 300325Z 26006KT 10SM BKN025 BKN039 BKN070 14/12 A2991 RMK AO2 T01440122 $<br><br>
KBUF 300254Z 3003/3024 28010KT P6SM SCT020 OVC040 FM300800 24007KT P6SM BKN060 TEMPO 3008/3011 4SM BR FM301200 23008KT P6SM BKN025 FM301500 24012G19KT P6SM VCSH BKN035 FM302200 28011G18KT P6SM SCT050<br><br>
<br><br>
CYYZ 300400Z 28009KT 15SM FEW065 13/11 A2991 RMK SC1 SC TR SLP129<br><br>
TAF CYYZ 300238Z 3003/3106 29012KT P6SM FEW040 FM300900 24005KT P6SM SCT020 TEMPO 3010/3013 BKN020 FM301400 29010G20KT P6SM SCT030 BECMG 3016/3018 29015G25KT BKN030 FM302000 32018KT P6SM BKN050 FM302300 34012KT P6SM BKN030 FM310300 33010KT P6SM SCT025 TEMPO 3103/3106 BKN025 RMK NXT FCST BY 300600Z<br><br>
<br><br>
CYOO 300424Z AUTO 29010G16KT 9SM SCT020 BKN026 OVC040 15/12 A2988 RMK SLP122 DENSITY ALT 500FT<br><br>
CYOO 300419Z AUTO 30010G16KT 9SM FEW019 BKN024 BKN030 OVC040 15/12 A2988 RMK SLP122 DENSITY ALT 500FT<br><br>
CYOO 300413Z AUTO 30008G16KT 9SM SCT019 BKN026 OVC040 15/12 A2988 RMK SLP120 DENSITY ALT 500FT<br><br>
CYOO 300400Z AUTO 30011G18KT 9SM BKN019 BKN023 BKN042 15/12 A2988 RMK SLP118 DENSITY ALT 500FT<br><br>
TAF CYOO 300138Z 3002/3014 28012KT P6SM BKN025 TEMPO 3002/3004 BKN020 FM300400 30012KT P6SM FEW050 FM301000 26005KT P6SM BKN020 BECMG 3012/3014 24010KT RMK FCST BASED ON AUTO OBS. NXT FCST BY 300800Z<br><br>
<br><br>
CYTR 300400Z 30010G16KT 15SM FEW015 SCT025 BKN085 15/13 A2980 RMK SC2SC2AC2 SLP092<br><br>
TAF AMD CYTR 300413Z 3004/3024 30010KT P6SM FEW025 SCT030 BKN090 TEMPO 3004/3012 5SM -DZ BR FEW003 BKN012 OVC030 PROB30 3004/3012 2SM -DZ BR BKN003 OVC012 FM301200 25008KT P6SM -SHRA FEW015 BKN040 FM301500 22010KT P6SM -SHRA BKN015 OVC040 FM302100 28012G22KT P6SM SCT015 BKN040 RMK NXT FCST BY 300600Z<br><br>
<br><br>
