RETRIEVED AT : Jun 08 2019 21:05 Local <br>
  RETRIEVED AT: Jun 09 2019 01:05 UTC<br><br>
CYSN 090000Z 07009KT 15SM BKN250 20/07 A3013 RMK CI5 SLP204 DENSITY ALT 800FT<br><br>
TAF CYSN 081938Z 0820/0901 05015KT P6SM FEW250 BECMG 0823/0901 09008KT RMK NXT FCST WILL BE ISSUED AT 091245Z<br><br>
<br><br>
CYHM 090000Z 04013G19KT 15SM FEW170 BKN250 17/03 A3015 RMK AC2CI4 SLP213 DENSITY ALT 1000FT<br><br>
TAF CYHM 082338Z 0900/0924 05012G22KT P6SM BKN250 BECMG 0902/0904 04010KT FM091500 09010G20KT P6SM SCT180 BKN250 BECMG 0922/0924 11010KT RMK NXT FCST BY 090600Z<br><br>
<br><br>
KIAG 090053Z 08008KT 10SM CLR 18/07 A3015 RMK AO2 SLP207 T01830072<br><br>
KIAG 082353Z 07011KT 10SM CLR 22/07 A3014 RMK AO2 SLP206 T02220072 10261 20222 55003<br><br>
KIAG 082334Z 0900/0924 06008KT P6SM SCT250 FM090300 09005KT P6SM SCT250 FM090900 13004KT P6SM SCT250 FM091500 13010KT P6SM BKN250 FM092200 12010KT P6SM BKN060<br><br>
<br><br>
KBUF 090054Z 06008KT 10SM SCT200 BKN300 20/07 A3015 RMK AO2 SLP209 T02000072<br><br>
KBUF 082354Z 05010KT 10SM SCT200 BKN300 23/08 A3015 RMK AO2 SLP207 T02280078 10267 20228 55001<br><br>
KBUF 082334Z 0900/0924 06008KT P6SM SCT250 FM090300 09006KT P6SM SCT250 FM090900 13006KT P6SM SCT250 FM091500 12010KT P6SM BKN250 FM092200 12010KT P6SM BKN060<br><br>
<br><br>
CYYZ 090000Z 08017G23KT 15SM BKN250 21/M01 A3016 RMK CI5 SLP214 DENSITY ALT 1200FT<br><br>
TAF CYYZ 082338Z 0900/1006 09015G25KT P6SM SCT250 BECMG 0901/0903 08010KT FM090900 06005KT P6SM BKN250 BECMG 0914/0916 11010G20KT BECMG 0920/0922 09010KT FM100400 09008KT P6SM SCT050 BKN120 OVC200 RMK NXT FCST BY 090300Z<br><br>
<br><br>
CYOO 090000Z AUTO 12004KT 9SM CLR 22/03 A3018 RMK SLP220 DENSITY ALT 1000FT<br><br>
TAF CYOO 081938Z 0820/0908 11010G20KT P6SM SKC BECMG 0822/0824 07008KT RMK FCST BASED ON AUTO OBS. NXT FCST BY 090200Z<br><br>
<br><br>
CYTR 090000Z 00000KT 15SM FEW200 24/07 A3018 RMK CI1 SLP222<br><br>
TAF CYTR 082330Z 0900/0924 10005KT P6SM FEW200 FM090600 07005KT P6SM SKC BECMG 0913/0915 13008KT BECMG 0916/0918 13008G18KT RMK NXT FCST BY 090600Z<br><br>
<br><br>
