RETRIEVED AT : Jul 15 2019 21:24 Local <br>
  RETRIEVED AT: Jul 16 2019 01:24 UTC<br><br>
CYSN 160100Z 17005KT 15SM BKN140 BKN220 23/13 A3001 RMK AC5CI2 LAST STFD OBS/NEXT 161100 UTC SLP164 DENSITY ALT 1200FT<br><br>
CYSN 160000Z 19008KT 15SM SCT150 BKN220 25/14 A3001 RMK AC4CI2 SLP162 DENSITY ALT 1500FT<br><br>
TAF CYSN 151938Z 1520/1601 36008KT P6SM FEW040 BKN250 BECMG 1523/1601 VRB03KT RMK NXT FCST WILL BE ISSUED AT 161245Z<br><br>
<br><br>
CYHM 160100Z 20006KT 15SM FEW062 SCT110 BKN200 OVC240 21/13 A3003 RMK SC2AC2CC3CI1 SLP168 DENSITY ALT 1600FT<br><br>
CYHM 160000Z 18007KT 15SM SCT140 BKN180 BKN220 23/13 A3003 RMK AC4AC2CI1 SLP167 DENSITY ALT 1800FT<br><br>
TAF CYHM 152343Z 1600/1624 20008KT P6SM FEW060 BKN250 FM160200 VRB03KT P6SM SCT060 BKN140 TEMPO 1602/1607 P6SM -SHRA BKN060 BKN140 FM161000 20006KT P6SM BKN120 BECMG 1613/1615 23012KT FM161700 23015G25KT P6SM BKN050 FM161900 23015G25KT P6SM -SHRA BKN040 BKN090 RMK NXT FCST BY 160600Z<br><br>
<br><br>
KIAG 160053Z 19007KT 10SM CLR 23/11 A3004 RMK AO2 SLP168 T02280111<br><br>
KIAG 152353Z 20008KT 10SM CLR 24/11 A3004 RMK AO2 SLP168 T02440111 10278 20244 56009<br><br>
KIAG 152320Z 1600/1624 22006KT P6SM SCT200 FM160200 19005KT P6SM BKN200 FM160600 19004KT P6SM VCSH BKN080 FM161100 21009KT P6SM SCT080 SCT250 FM161500 23015G23KT P6SM SCT050 SCT250<br><br>
<br><br>
KBUF 160054Z 18005KT 10SM FEW130 FEW230 BKN290 22/13 A3005 RMK AO2 SLP172 T02170133<br><br>
KBUF 152354Z 21007KT 10SM FEW100 FEW230 BKN300 24/10 A3005 RMK AO2 SLP172 T02390100 10272 20239 56010<br><br>
KBUF 152320Z 1600/1624 22006KT P6SM SCT200 FM160200 19005KT P6SM BKN200 FM160600 19005KT P6SM VCSH BKN080 FM161100 22010KT P6SM SCT080 SCT250 FM161500 23015G23KT P6SM SCT050 SCT250<br><br>
<br><br>
CYYZ 160100Z 15010KT 15SM SCT130 BKN160 24/17 A3001 RMK AC3AC4 SLP162 DENSITY ALT 1700FT<br><br>
CYYZ 160000Z 15010G17KT 15SM SCT130 BKN180 BKN250 24/17 A3000 RMK AC3AC3CI1 SLP159 DENSITY ALT 1700FT<br><br>
TAF CYYZ 152343Z 1600/1706 15008G18KT P6SM BKN170 BKN210 FM160200 VRB03KT P6SM SCT060 BKN120 TEMPO 1602/1608 P6SM -SHRA BKN060 BKN120 FM161100 18006KT P6SM BKN120 BECMG 1613/1615 24012KT FM161700 24015G25KT P6SM BKN050 FM161900 24015G28KT P6SM -SHRA BKN040 BKN090 FM170000 23012G22KT P6SM -SHRA BKN020 BKN040 OVC090 FM170500 21008KT 4SM -SHRA BR BKN008 OVC020 RMK NXT FCST BY 160300Z<br><br>
<br><br>
CYOO 160100Z AUTO 12006KT 9SM OVC140 22/15 A3001 RMK SLP164 DENSITY ALT 1200FT<br><br>
CYOO 160000Z AUTO 12005KT 9SM FEW110 SCT130 BKN150 22/14 A3002 RMK SLP165 DENSITY ALT 1200FT<br><br>
TAF CYOO 151942Z 1520/1608 18006KT P6SM BKN250 FM160300 06005KT P6SM BKN120 BKN230 TEMPO 1605/1608 P6SM -SHRA BKN080 BKN120 RMK FCST BASED ON AUTO OBS. NXT FCST BY 160200Z<br><br>
<br><br>
CYTR 160100Z 20003KT 15SM FEW110 SCT250 21/16 A3002 RMK AC2CI2 SLP165<br><br>
CYTR 160000Z 21005KT 15SM FEW110 BKN250 22/15 A3003 RMK AC2CI4 SLP168<br><br>
TAF CYTR 152330Z 1600/1624 22006KT P6SM SCT110 OVC230 FM160800 VRB03KT P6SM SCT040 OVC100 TEMPO 1608/1614 P6SM -SHRA SCT012 BKN040 OVC100 BECMG 1614/1616 22010KT FM161800 22012G22KT P6SM SCT050 TEMPO 1620/1624 P6SM -SHRA RMK NXT FCST BY 160600Z<br><br>
<br><br>
