RETRIEVED AT : Mar 14 2020 07:05 Local <br>
  RETRIEVED AT: Mar 14 2020 11:05 UTC<br><br>
CYSN has no TAF <br><br>
<br><br>
CYHM 141000Z 29013G21KT 15SM FEW020 FEW210 M00/M05 A3032 RMK CF1CI2 CF TR SLP278<br><br>
TAF CYHM 140538Z 1406/1506 27010G20KT P6SM FEW040 FM141200 29010KT P6SM BKN025 BECMG 1422/1424 34008KT SCT030 BKN120 FM150300 03010KT P6SM BKN030 OVC120 RMK NXT FCST BY 141200Z<br><br>
<br><br>
KIAG 141053Z 31013KT 10SM CLR 00/M05 A3034 RMK AO2 SLP288 T00001050<br><br>
KIAG 140953Z AUTO 29011KT 10SM CLR M01/M04 A3032 RMK AO2 SLP279 T10061044<br><br>
KIAG 140816Z 1408/1506 28012KT P6SM SCT040 FM141600 29012KT P6SM BKN040 FM142100 31006KT P6SM OVC150<br><br>
<br><br>
KBUF 141054Z 27007KT 10SM SCT027 00/M05 A3034 RMK AO2 SLP282 T00001050<br><br>
KBUF 141044Z 26008KT 10SM BKN027 00/M05 A3033 RMK AO2 T00001050<br><br>
KBUF 140954Z 26009KT 10SM FEW040 01/M05 A3031 RMK AO2 SLP272 T00061050<br><br>
KBUF 141051Z 1411/1506 26008KT P6SM BKN025 FM141400 25012KT P6SM BKN040 FM141900 25010KT P6SM BKN150 FM150100 36003KT P6SM OVC150<br><br>
<br><br>
CYYZ 141000Z 31020KT 15SM BKN028 01/M05 A3032 RMK SC7 SLP274<br><br>
TAF CYYZ 140838Z 1409/1512 30018G28KT P6SM SCT030 TEMPO 1409/1412 BKN030 FM141200 31012KT P6SM BKN030 FM141500 31012KT P6SM FEW030 FM142100 36008KT P6SM FEW030 BKN140 FM150000 36012KT P6SM BKN150 FM150800 02012KT P6SM SKC RMK NXT FCST BY 141200Z<br><br>
<br><br>
CYOO 141000Z AUTO 30016G26KT 9SM OVC027 01/M04 A3029 RMK SLP264<br><br>
TAF CYOO 140738Z 1408/1420 27010G20KT P6SM SCT040 TEMPO 1408/1410 BKN040 FM141000 29010KT P6SM BKN030 TEMPO 1410/1415 BKN020 FM141600 30012KT P6SM FEW030 SCT180 RMK FCST BASED ON AUTO OBS. NXT FCST BY 141400Z<br><br>
<br><br>
CYTR 141000Z 30019G25KT 15SM BKN028 01/M05 A3024 RMK SC5 SLP244<br><br>
TAF CYTR 140530Z 1406/1506 27020G35KT P6SM FEW050 BECMG 1408/1410 29015G25KT BECMG 1411/1413 29010KT FM150000 31010KT P6SM FEW040 SCT170 BECMG 1502/1504 02010KT RMK NXT FCST BY 141200Z<br><br>
<br><br>
