RETRIEVED AT : Mar 23 2020 03:05 Local <br>
  RETRIEVED AT: Mar 23 2020 07:05 UTC<br><br>
CYSN has no TAF <br><br>
<br><br>
CYHM 230649Z 05005KT 2 1/4SM -SN OVC020 M01/M02 A3029 RMK SC8 SLP268<br><br>
CYHM 230633Z 05006KT 2 1/4SM -SN OVC014 M01/M03 A3029 RMK SC8 SLP269<br><br>
CYHM 230620Z 04005KT 2 1/4SM -SN OVC030 M01/M03 A3030 RMK SC8 SLP272<br><br>
CYHM 230600Z 04006KT 4SM -SN OVC027 M01/M04 A3031 RMK SC8 SLP275<br><br>
TAF CYHM 230538Z 2306/2406 05012KT P6SM -SN OVC040 TEMPO 2306/2307 11/2SM -SN OVC020 PROB30 2306/2307 P6SM -FZRA FM230700 05010KT 3/4SM -SN VV005 TEMPO 2307/2309 3SM -SN SCT005 OVC010 FM230900 05010KT 3/4SM -SN VV005 TEMPO 2309/2312 3SM -RASN SCT005 OVC008 FM231200 05010KT 3/4SM -RASN BR OVC003 PROB30 2312/2315 1/8SM -SNRA FG VV001 FM231500 04007KT 1SM -RA BR OVC003 FM232300 04005KT 1SM -DZ BR OVC003 PROB30 2323/2406 1/8SM FG VV001 RMK NXT FCST BY 231200Z<br><br>
<br><br>
KIAG 230653Z AUTO 13003KT 4SM HZ OVC033 01/M04 A3031 RMK AO2 SLP277 T00061039<br><br>
KIAG 230640Z AUTO 14005KT 4SM HZ OVC029 01/M04 A3031 RMK AO2 T00061044<br><br>
KIAG 230553Z AUTO 12006KT 10SM OVC047 01/M07 A3033 RMK AO2 SLP283 T00061072 10006 21011 56021<br><br>
KIAG 230704Z 2307/2406 14005KT 4SM -SN OVC035 FM230900 15008KT P6SM VCSH OVC025 FM231300 16009KT 5SM -RA BR OVC015 FM232000 20004KT P6SM VCSH OVC012 FM232300 VRB03KT P6SM OVC007<br><br>
<br><br>
KBUF 230654Z 18005KT 9SM -SN BKN030 OVC039 04/M02 A3030 RMK AO2 SNB09 SLP268 P0000 T00391017<br><br>
KBUF 230554Z 13006KT 10SM OVC044 02/M07 A3033 RMK AO2 SLP279 T00171072 10017 20000 56017<br><br>
KBUF 230703Z 2307/2406 17007KT 6SM -RASN OVC025 FM230900 15009KT P6SM VCSH OVC025 FM231200 17012KT 5SM -SHRA BR OVC025 FM231600 19006KT 5SM -RA BR OVC015 FM232100 23004KT P6SM VCSH OVC015 FM240000 VRB03KT P6SM OVC007<br><br>
<br><br>
CYYZ 230646Z 13006KT 2 1/2SM -SN FEW009 OVC015 01/M01 A3032 RMK SF2SC6 SLP275<br><br>
CYYZ 230630Z 11008G15KT 2 1/2SM -SN OVC017 02/M03 A3032 RMK SC8 SLP277<br><br>
CYYZ 230616Z 13004KT 10SM -SN OVC023 02/M03 A3033 RMK SC8 SLP279<br><br>
CYYZ 230600Z 10008G17KT 15SM FEW030 OVC051 01/M04 A3033 RMK CF1SC7 SLP279<br><br>
TAF CYYZ 230538Z 2306/2412 09012KT P6SM -RASN SCT040 OVC080 TEMPO 2306/2308 2SM -SN OVC040 FM230800 09010KT 1SM -SN VV009 TEMPO 2308/2313 3SM -RASN SCT009 OVC015 FM231300 09010KT 1SM -RA BR OVC003 FM232100 06008KT 2SM -DZ BR OVC003 FM240200 36008KT 6SM BR FEW003 BKN020 PROB40 2402/2406 VRB03KT 1/8SM FG VV001 FM240600 34008KT P6SM FEW003 SCT080 RMK NXT FCST BY 230900Z<br><br>
<br><br>
CYOO 230600Z AUTO 09013G19KT 9SM BKN095 OVC120 M00/M07 A3034 RMK SLP284<br><br>
TAF CYOO 230140Z 2302/2314 08010KT P6SM BKN140 OVC170 FM230600 09012KT P6SM FEW020 OVC080 TEMPO 2306/2308 2SM -SN BKN020 OVC080 FM230800 09010KT 11/2SM -SN BKN005 OVC010 FM231200 10012KT 2SM -RASN BR BKN005 OVC010 RMK FCST BASED ON AUTO OBS. NXT FCST BY 230800Z<br><br>
<br><br>
CYTR 230600Z 05006KT 15SM SCT050 OVC140 M02/M09 A3042 RMK SC3AC5 SLP307<br><br>
TAF CYTR 230530Z 2306/2406 06008KT P6SM BKN050 OVC120 BECMG 2307/2309 14012G22KT FM230900 14012G22KT 6SM -RA BR SCT012 OVC025 TEMPO 2309/2311 3SM -SNRA BR BKN012 OVC025 FM231100 14012G22KT 5SM -SNRA BR SCT008 OVC012 TEMPO 2311/2316 2SM -SN OVC008 FM231600 14012G22KT 2SM -RASN BR OVC008 FM232300 14010KT 2SM -DZ BR OVC006 PROB30 2323/2404 1SM -DZ BR OVC005 BECMG 2404/2406 01005KT RMK NXT FCST BY 231200Z<br><br>
<br><br>
