RETRIEVED AT : Jun 02 2018 08:06 Local <br>
  RETRIEVED AT: Jun 02 2018 12:06 UTC<br><br>
CYSN has no TAF <br><br>
<br><br>
CYHM 021100Z 01010KT 15SM BKN013 14/11 A2996 RMK SC7 SLP145 DENSITY ALT 800FT<br><br>
TAF CYHM 021138Z 0212/0312 01010G20KT P6SM BKN012 TEMPO 0212/0215 BKN025 FM021500 05015KT P6SM BKN030 TEMPO 0215/0218 BKN020 FM030000 05008KT P6SM SCT040 FM030500 06012KT P6SM FEW050 FM030800 07010KT P6SM BKN030 RMK NXT FCST BY 021800Z<br><br>
<br><br>
KIAG 021120Z 0212/0312 03010KT P6SM OVC023 FM021400 04009KT P6SM BKN035 FM021700 05009KT P6SM SCT035 FM030000 08005KT P6SM SKC FM030700 06004KT P6SM FEW250 FM030900 07005KT P6SM FEW035<br><br>
<br><br>
KBUF 021120Z 0212/0312 04009KT P6SM OVC020 FM021600 05009KT P6SM BKN035 FM021800 05009KT P6SM SCT035 FM030100 07005KT P6SM FEW250 FM030900 08005KT P6SM FEW040<br><br>
<br><br>
CYYZ 021100Z 36013KT 15SM BKN017 BKN024 14/10 A2998 RMK SC5SC2 PRESRR SLP152 DENSITY ALT 600FT<br><br>
TAF CYYZ 021138Z 0212/0318 01012KT P6SM SCT015 BKN030 TEMPO 0212/0215 BKN015 BECMG 0213/0215 04010KT FM022000 14007KT P6SM SCT050 BECMG 0302/0304 04005KT FM030600 05005KT P6SM SKC FM031200 08010KT P6SM SCT020 BKN025 FM031700 10010G20KT 5SM -SHRA BR OVC020 PROB30 0317/0318 VRB20G30KT 1SM +TSRA BR BKN007 OVC030CB RMK NXT FCST BY 021500Z<br><br>
<br><br>
CYOO has no TAF <br><br>
<br><br>
CYTR 021100Z 02010KT 15SM BKN017 13/09 A2995 RMK SC7 SLP143<br><br>
TAF CYTR 021130Z 0212/0312 02010KT P6SM SCT015 BKN050 TEMPO 0212/0214 BKN015 BKN050 FM021400 03012KT P6SM SCT030 FM022000 04012KT P6SM SKC BECMG 0304/0306 07010KT FM030900 07010KT P6SM SCT060 RMK NXT FCST BY 021800Z<br><br>
<br><br>
