RETRIEVED AT : Nov 12 2017 10:10 Local <br>
  RETRIEVED AT: Nov 12 2017 15:10 UTC<br><br>
CYSN 121500Z 18006KT 15SM SCT056 OVC071 05/M02 A3036 RMK SC4AC4 SLP287<br><br>
CYSN 121400Z 17006KT 15SM OVC055 03/M03 A3036 RMK SC8 SLP287<br><br>
TAF CYSN 121338Z 1214/1302 16005KT P6SM OVC060 BECMG 1216/1218 27005KT FM122100 27005KT P6SM OVC030 TEMPO 1221/1223 P6SM -RA FM122300 VRB03KT 6SM -RA BR OVC015 TEMPO 1223/1302 OVC025 PROB30 1301/1302 OVC009 RMK NXT FCST BY 122000Z<br><br>
<br><br>
CYHM 121500Z VRB02KT 15SM SCT048 OVC058 02/M04 A3034 RMK SC3SC5 SLP287<br><br>
CYHM 121400Z 23002KT 15SM BKN054 OVC077 01/M04 A3034 RMK SC7AC1 SLP286<br><br>
TAF CYHM 121138Z 1212/1312 VRB03KT P6SM OVC040 FM121700 23005KT P6SM BKN040 OVC060 FM121900 23005KT P6SM -RA OVC040 TEMPO 1219/1222 5SM -RASN FM122200 05005KT 4SM -RASN BKN015 OVC025 FM130100 04005KT 3SM -SNRA OVC008 PROB30 1301/1304 2SM -SNRA BR OVC005 FM130400 03005KT 2SM -SNRA BR OVC005 FM131000 VRB03KT 2SM -DZ BR OVC003 PROB30 1310/1312 2SM -FZDZ BR RMK NXT FCST BY 121800Z<br><br>
<br><br>
KIAG 121453Z 17005KT 10SM SCT055 OVC070 04/M06 A3035 RMK AO2 SLP293 T00391061 58001 $<br><br>
KIAG 121353Z 16006KT 10SM BKN055 OVC080 03/M07 A3036 RMK AO2 SLP296 T00331067 $<br><br>
KIAG 121501Z 1215/1312 17005KT P6SM OVC060 FM130000 VRB03KT P6SM VCSH OVC045 FM130300 VRB03KT 5SM -RASN OVC035 FM130700 VRB03KT P6SM OVC030<br><br>
<br><br>
KBUF 121454Z 16004KT 10SM BKN055 OVC100 02/M08 A3036 RMK AO2 SLP289 T00171078 58001<br><br>
KBUF 121354Z 17005KT 10SM BKN045 BKN060 OVC150 01/M08 A3037 RMK AO2 SLP292 T00061078<br><br>
KBUF 121501Z 1215/1312 16004KT P6SM OVC060 FM130000 00000KT P6SM VCSH OVC045 FM130300 00000KT 5SM -RASN OVC045 FM130700 VRB03KT P6SM OVC035<br><br>
<br><br>
CYYZ 121500Z 18003KT 15SM OVC047 03/M04 A3035 RMK SC8 SLP286<br><br>
CYYZ 121400Z 00000KT 15SM FEW045 OVC050 02/M05 A3035 RMK SC2SC6 SLP287<br><br>
TAF CYYZ 121438Z 1215/1318 VRB03KT P6SM OVC050 FM121600 15005KT P6SM OVC050 TEMPO 1220/1301 6SM -RASN FM130100 20007KT 4SM -SNRA OVC025 TEMPO 1301/1304 P6SM -RASN PROB30 1301/1304 2SM -SN OVC015 FM130400 VRB03KT 3SM -SNRA BR FEW008 OVC015 PROB30 1304/1310 2SM -SN BR OVC008 FM131000 29005KT P6SM BKN010 OVC050 FM131400 27008KT P6SM BKN015 RMK NXT FCST BY 121800Z<br><br>
<br><br>
CYOO 121500Z AUTO VRB02KT 9SM OVC042 02/M03 A3037 RMK SLP291<br><br>
CYOO 121400Z AUTO 07004KT 9SM OVC044 01/M04 A3036 RMK SLP290<br><br>
CYOO has no TAF <br><br>
<br><br>
CYTR 121500Z 07003KT 15SM OVC048 01/M05 A3039 RMK SC8 SLP296<br><br>
CYTR 121400Z 03005KT 15SM BKN050 OVC120 00/M06 A3039 RMK SC7AC1 SLP297<br><br>
TAF CYTR 121130Z 1212/1312 VRB03KT P6SM OVC060 FM122000 17005KT P6SM SCT030 BKN060 BECMG 1223/1301 06004KT FM130700 06006KT P6SM -RASN BKN020 OVC040 RMK NXT FCST BY 121800Z<br><br>
<br><br>
