RETRIEVED AT : Oct 22 2018 05:05 Local <br>
  RETRIEVED AT: Oct 22 2018 09:05 UTC<br><br>
CYSN has no TAF <br><br>
<br><br>
CYHM 220800Z 20004KT 15SM BKN042 OVC100 03/M01 A3010 RMK SC6AC2 SLP201<br><br>
TAF CYHM 220541Z 2206/2306 24005KT P6SM BKN040 BKN090 TEMPO 2206/2211 SCT040 BKN090 FM221100 25005KT P6SM FEW040 SCT080 BECMG 2215/2217 24010G20KT FM221700 24010G20KT P6SM FEW030 SCT050 BECMG 2222/2224 23006KT BECMG 2300/2302 VRB03KT RMK NXT FCST BY 221200Z<br><br>
<br><br>
KIAG 220853Z AUTO 23003KT 10SM BKN050 OVC065 04/M01 A3011 RMK AO2 SLP206 T00391011 58013<br><br>
KIAG 220753Z AUTO 20007KT 10SM SCT048 BKN060 OVC100 03/M02 A3013 RMK AO2 SLP214 T00331017<br><br>
KIAG 220528Z 2206/2306 24007KT P6SM SCT050 OVC100 FM220800 20005KT P6SM BKN090 FM221200 18007KT P6SM BKN060 FM221700 22011G18KT P6SM BKN035 FM230200 VRB03KT P6SM BKN040<br><br>
<br><br>
KBUF 220854Z 18006KT 10SM BKN028 BKN035 OVC045 03/01 A3012 RMK AO2 SLP206 T00330011 58010<br><br>
KBUF 220836Z 18007KT 10SM BKN027 OVC035 04/01 A3013 RMK AO2 T00390011<br><br>
KBUF 220754Z 19006KT 10SM BKN032 OVC060 04/M01 A3013 RMK AO2 SLP210 T00391011<br><br>
KBUF 220528Z 2206/2306 24007KT P6SM BKN035 OVC050 FM220900 20005KT P6SM BKN040 FM221200 19009KT P6SM BKN035 FM221600 22011G19KT P6SM BKN060 FM222200 22007KT P6SM BKN040<br><br>
<br><br>
CYYZ 220800Z 18003KT 15SM SCT050 BKN090 OVC110 04/M02 A3010 RMK SC3AC3AC2 SLP199<br><br>
TAF CYYZ 220838Z 2209/2312 VRB03KT P6SM SCT050 BKN090 TEMPO 2209/2211 BKN050 OVC090 FM221100 24005KT P6SM SCT040 TEMPO 2211/2216 BKN040 BECMG 2216/2218 25010G20KT FM222100 25012KT P6SM BKN040 BECMG 2223/2301 25006KT FM230600 VRB03KT P6SM SCT040 FM230900 VRB03KT P6SM FEW020 BKN040 TEMPO 2310/2312 6SM -SHRA BR FEW006 BKN020 OVC040 RMK NXT FCST BY 221200Z<br><br>
<br><br>
CYOO 220800Z AUTO 00000KT 9SM OVC110 03/M01 A3009 RMK SLP197<br><br>
CYOO has no TAF <br><br>
<br><br>
CYTR 220800Z 25003KT 15SM OVC057 03/M01 A3011 RMK SC8 SLP201<br><br>
TAF CYTR 220530Z 2206/2306 26005KT P6SM OVC030 TEMPO 2209/2216 SCT030 BKN080 FM221600 22010KT P6SM BKN030 TEMPO 2216/2306 P6SM -SHRA BKN020 OVC030 BECMG 2300/2302 20005KT RMK NXT FCST BY 221200Z<br><br>
<br><br>
