RETRIEVED AT : May 17 2020 10:05 Local <br>
  RETRIEVED AT: May 17 2020 14:05 UTC<br><br>
CYSN 171300Z 09014KT 15SM FEW250 14/08 A3020 RMK CI1 SLP230<br><br>
TAF CYSN 171239Z 1713/1801 08012KT P6SM BKN220 BECMG 1715/1717 06015KT FM171800 04015KT P6SM BKN120 OVC200 FM172100 06015G25KT P6SM -RA BKN040 OVC080 TEMPO 1721/1801 2SM -RA BR BKN020 OVC040 RMK NXT FCST BY 172000Z<br><br>
<br><br>
TAF CYHM 171138Z 1712/1812 05015KT P6SM BKN200 FM171600 05015G25KT P6SM SCT040 BKN120 OVC200 FM172000 05015G25KT P6SM -RA SCT020 BKN040 OVC080 TEMPO 1720/1803 5SM -RA BR BKN020 OVC040 FM180300 04015G30KT 2SM -RA BR OVC006 RMK NXT FCST BY 171800Z<br><br>
<br><br>
KIAG 171353Z 08013G21KT 10SM CLR 15/08 A3019 RMK AO2 SLP226 T01500078 $<br><br>
KIAG 171253Z 08013G20KT 10SM CLR 13/07 A3020 RMK AO2 SLP231 T01280072 $<br><br>
KIAG 171120Z 1712/1812 07008KT P6SM SCT120 OVC250 FM171600 08012G20KT P6SM BKN100 FM172000 07012G20KT 6SM -SHRA OVC040 FM172300 08012KT 4SM -RA BR OVC025 FM180300 08012KT 4SM RA BR OVC015 FM180600 07014KT 2SM RA BR OVC007<br><br>
<br><br>
KBUF 171354Z 08011KT 10SM FEW150 FEW200 SCT290 16/08 A3019 RMK AO2 SLP223 T01560078<br><br>
KBUF 171254Z 08014KT 10SM FEW150 FEW200 SCT270 13/07 A3020 RMK AO2 SLP229 T01330067<br><br>
KBUF 171120Z 1712/1812 07008KT P6SM SCT120 OVC250 FM171600 08012G18KT P6SM BKN100 FM171900 08012G18KT 6SM -SHRA OVC040 FM172300 08012KT 4SM -RA BR OVC025 FM180200 08010KT 4SM RA BR OVC015 FM180600 08010KT 2SM RA BR OVC007<br><br>
<br><br>
CYYZ 171300Z 09011G18KT 15SM FEW180 BKN200 14/07 A3023 RMK AC1CS6 AC TR SLP240<br><br>
TAF CYYZ 171138Z 1712/1818 05010KT P6SM BKN150 OVC200 BECMG 1714/1716 09015G25KT FM172100 09015G25KT P6SM -RA BKN030 OVC070 TEMPO 1721/1803 3SM -RA BR BKN012 OVC030 FM180300 08015KT 2SM -RA BR OVC008 TEMPO 1803/1815 1SM -RA BR OVC004 BECMG 1812/1814 09020G35KT RMK NXT FCST BY 171500Z<br><br>
<br><br>
CYOO 171300Z AUTO 07009KT 9SM FEW200 SCT220 15/08 A3024 RMK SLP245<br><br>
TAF CYOO 171340Z 1714/1802 07009KT P6SM BKN200 FM171600 09012KT P6SM BKN150 FM180000 09012KT P6SM BKN050 OVC080 TEMPO 1800/1802 P6SM -RA SCT020 OVC050 RMK FCST BASED ON AUTO OBS. NXT FCST BY 172000Z<br><br>
<br><br>
CYTR 171300Z 06005KT 15SM FEW180 BKN220 14/07 A3028 RMK AC1CI6 SLP255<br><br>
TAF CYTR 171130Z 1712/1812 VRB03KT P6SM BKN220 BECMG 1716/1718 09010KT OVC150 FM172200 06008KT P6SM SCT060 OVC100 TEMPO 1722/1802 P6SM -RA BKN060 OVC100 FM180200 05005KT P6SM -RA SCT030 OVC050 TEMPO 1802/1809 5SM -RA BR BKN030 OVC050 FM180900 05010G20KT P6SM -RA SCT020 OVC050 TEMPO 1809/1812 5SM -RA BR BKN020 OVC050 RMK NXT FCST BY 171800Z<br><br>
<br><br>
