RETRIEVED AT : Sep 24 2017 06:10 Local <br>
  RETRIEVED AT: Sep 24 2017 10:10 UTC<br><br>
CYSN has no TAF <br><br>
<br><br>
CYHM 241000Z 25002KT 15SM MIFG FEW100 17/17 A3015 RMK AC1 AC TR SLP207 DENSITY ALT 1000FT<br><br>
CYHM 240900Z 28004KT 15SM R12/2800VP6000FT/D MIFG SKC 17/17 A3015 RMK SLP207 DENSITY ALT 1000FT<br><br>
TAF CYHM 240538Z 2406/2506 VRB03KT P6SM SKC FM241700 05007KT P6SM FEW050 BECMG 2421/2423 VRB03KT RMK NXT FCST BY 241200Z<br><br>
<br><br>
KIAG 240953Z AUTO 00000KT 8SM CLR 19/17 A3014 RMK AO2 SLP201 T01890167<br><br>
KIAG 240853Z AUTO 00000KT 7SM CLR 20/17 A3014 RMK AO2 SLP199 T02000167 53008<br><br>
KIAG 240858Z 2409/2506 20004KT 6SM BR SKC FM241400 23005KT P6SM SKC FM241700 01008KT P6SM SKC FM250100 17003KT P6SM SKC<br><br>
<br><br>
KBUF 240954Z 15004KT 10SM CLR 18/16 A3015 RMK AO2 SLP208 T01830156<br><br>
KBUF 240854Z 14004KT 10SM CLR 19/16 A3015 RMK AO2 SLP206 T01890156 53007<br><br>
KBUF 240858Z 2409/2506 20004KT P6SM SKC FM241400 24005KT P6SM SKC FM241700 25008KT P6SM SKC FM250100 16004KT P6SM SKC<br><br>
<br><br>
CYYZ 241000Z 28005KT 15SM FEW030 20/17 A3013 RMK SF1 SLP203 DENSITY ALT 1100FT<br><br>
CYYZ 240900Z 02003KT 15SM SKC 21/18 A3012 RMK SLP199 DENSITY ALT 1200FT<br><br>
TAF CYYZ 240838Z 2409/2512 32005KT P6SM SKC FM241500 26008KT P6SM FEW050 BECMG 2502/2504 33005KT BECMG 2510/2512 VRB03KT RMK NXT FCST BY 241200Z<br><br>
<br><br>
CYOO 241000Z AUTO 00000KT 9SM CLR 18/16 A3013 RMK SLP203 DENSITY ALT 600FT<br><br>
CYOO 240900Z AUTO VRB02KT 8SM CLR 18/16 A3012 RMK SLP200 DENSITY ALT 600FT<br><br>
CYOO has no TAF <br><br>
<br><br>
CYTR 241000Z 31003KT 6SM BR MIFG FEW250 18/18 A3011 RMK CI1 SLP197<br><br>
CYTR 240900Z 00000KT 6SM BR MIFG SKC 19/19 A3011 RMK SLP195<br><br>
TAF CYTR 240530Z 2406/2506 VRB03KT P6SM SKC TEMPO 2406/2412 2SM BR BECMG 2414/2416 20008KT FM250000 VRB03KT P6SM SKC RMK NXT FCST BY 241200Z<br><br>
<br><br>
