RETRIEVED AT : Sep 01 2017 20:10 Local <br>
  RETRIEVED AT: Sep 02 2017 00:10 UTC<br><br>
CYSN 020000Z 00000KT 15SM SCT180 BKN250 13/07 A3017 RMK AC3CI4 SLP219<br><br>
CYSN 012300Z 14002KT 15SM SCT180 BKN220 15/06 A3017 RMK AC3CI4 SLP219<br><br>
TAF CYSN 011938Z 0120/0201 03005KT P6SM BKN320 BECMG 0123/0201 14005KT RMK NXT FCST WILL BE ISSUED AT 021245Z<br><br>
<br><br>
CYHM 020000Z 10005KT 15SM BKN250 12/07 A3018 RMK CI6 CONTRAILS SLP224<br><br>
CYHM 012300Z 10004KT 15SM SCT180 BKN250 14/08 A3018 RMK AC3CI4 SLP224<br><br>
TAF CYHM 012339Z 0200/0224 06007KT P6SM BKN240 BECMG 0213/0215 11015KT FM022000 12015KT P6SM -SHRA BKN025 OVC140 FM022300 13010KT 6SM -RA BR OVC010 RMK NXT FCST BY 020600Z<br><br>
<br><br>
KIAG 012353Z 13005KT 10SM CLR 14/05 A3017 RMK AO2 SLP223 T01390050 10172 20139 56009<br><br>
KIAG 012253Z 09004KT 10SM CLR 16/04 A3018 RMK AO2 SLP224 T01560044<br><br>
KIAG 012329Z 0200/0224 10004KT P6SM SCT250 FM020100 VRB03KT P6SM SCT250 FM020500 12004KT P6SM SCT250 FM021400 11008KT P6SM SCT250 FM022100 13010KT P6SM OVC070 FM022300 14009KT P6SM OVC040<br><br>
<br><br>
KBUF 012354Z 10003KT 10SM SCT200 BKN250 13/05 A3018 RMK AO2 SLP223 T01330050 10172 20133 55007<br><br>
KBUF 012254Z 07006KT 10SM SCT200 BKN250 14/04 A3018 RMK AO2 SLP222 T01440044<br><br>
KBUF 012329Z 0200/0224 08005KT P6SM SCT250 FM020500 11004KT P6SM SCT250 FM021500 12008KT P6SM BKN250 FM021900 13009KT P6SM BKN140 FM022000 13010KT P6SM OVC100 FM022300 14008KT P6SM OVC040<br><br>
<br><br>
CYYZ 020000Z 15004KT 15SM BKN210 14/07 A3017 RMK CI6 SLP221<br><br>
CYYZ 012300Z 15006KT 15SM BKN210 15/07 A3017 RMK CI5 SLP221<br><br>
TAF CYYZ 012339Z 0200/0306 14005KT P6SM BKN240 BECMG 0200/0202 33005KT BECMG 0213/0215 12015KT FM022300 16010KT P6SM -SHRA BKN030 OVC100 FM030500 14008KT 3SM -SHRA BR OVC007 RMK NXT FCST BY 020300Z<br><br>
<br><br>
CYOO 020000Z AUTO 30003KT 9SM CLR 15/06 A3017 RMK SLP220<br><br>
CYOO 012300Z AUTO 30005KT 9SM CLR 16/06 A3017 RMK SLP219<br><br>
CYOO has no TAF <br><br>
<br><br>
CYTR 020000Z 23005KT 15SM SCT250 16/10 A3016 RMK CI3 SLP215<br><br>
CYTR 012300Z 20009KT 15SM BKN250 17/10 A3016 RMK CI5 SLP215<br><br>
TAF CYTR 012330Z 0200/0224 20008KT P6SM BKN250 BECMG 0200/0202 VRB03KT BECMG 0216/0218 14008KT FM022200 14008KT P6SM BKN120 RMK NXT FCST BY 020600Z<br><br>
<br><br>
