RETRIEVED AT : Oct 20 2018 07:05 Local <br>
  RETRIEVED AT: Oct 20 2018 11:05 UTC<br><br>
CYSN has no TAF <br><br>
<br><br>
CYHM 201000Z 25009KT 15SM FEW025 FEW055 FEW085 08/06 A2964 RMK SC1SC1AC1 SC TR SC TR AC TR SLP041<br><br>
CYHM 200932Z 26011KT 15SM FEW015 FEW030 FEW085 08/06 A2963 RMK CF1SC1AC1 AC TR SLP038<br><br>
TAF AMD CYHM 200617Z 2006/2106 23015G25KT 5SM -RA BR OVC009 TEMPO 2006/2009 P6SM NSW OVC025 FM200900 26012G22KT P6SM BKN020 TEMPO 2009/2011 SCT020 FM201100 26012G22KT P6SM SCT020 TEMPO 2011/2017 BKN020 FM201700 27015G25KT P6SM -SHRA BKN030 BKN050 BECMG 2020/2022 30010G20KT FM202300 34012G22KT P6SM SCT030 BKN050 BECMG 2102/2104 35012KT RMK NXT FCST BY 201200Z<br><br>
<br><br>
KIAG 201053Z 26008KT 10SM CLR 08/06 A2964 RMK AO2 SLP044 T00780061<br><br>
KIAG 201032Z AUTO 27010KT 10SM FEW018 08/07 A2964 RMK AO2 T00830067<br><br>
KIAG 200953Z AUTO 27014G23KT 10SM BKN018 BKN024 09/07 A2962 RMK AO2 PK WND 24027/0857 SLP035 T00940072<br><br>
KIAG 200908Z 2009/2106 25016G27KT P6SM SCT017 BKN022 OVC090 FM201200 26018G28KT P6SM VCSH BKN025 FM201700 28015G21KT P6SM VCSH BKN040 FM210000 34015G24KT P6SM BKN045<br><br>
<br><br>
KBUF 201101Z 27011G18KT 10SM FEW017 09/07 A2965 RMK AO2 T00940072 $<br><br>
KBUF 201054Z 27008KT 10SM FEW015 BKN019 09/08 A2965 RMK AO2 SLP042 T00940078 $<br><br>
KBUF 200954Z 26013KT 10SM BKN016 BKN024 OVC060 10/08 A2963 RMK AO2 RAE48 SLP034 P0000 T01000083 $<br><br>
KBUF 200913Z 25013G22KT 10SM -RA SCT010 BKN018 OVC025 11/09 A2961 RMK AO2 P0000 T01060094 $<br><br>
KBUF 200908Z 2009/2106 24018G25KT P6SM -RA OVC008 FM201200 25015G26KT P6SM BKN020 FM201400 26014G23KT P6SM VCSH BKN035 FM202300 31012G19KT P6SM BKN040<br><br>
<br><br>
CYYZ 201000Z 29013KT 15SM FEW035 FEW100 08/05 A2960 RMK CF1AC1 CF TR SLP027<br><br>
TAF CYYZ 200839Z 2009/2112 27015G25KT P6SM SCT050 BKN100 TEMPO 2009/2010 BKN020 BKN050 FM201100 28015G28KT P6SM BKN020 TEMPO 2011/2013 SCT020 FM201300 28015G28KT P6SM BKN030 TEMPO 2013/2017 SCT030 FM201700 28015G28KT P6SM -SHRA BKN030 BKN050 BECMG 2018/2020 32015KT FM202300 34018G28KT P6SM SCT030 BKN050 FM210600 34015G25KT P6SM BKN040 BECMG 2108/2110 34015KT RMK NXT FCST BY 201200Z<br><br>
<br><br>
CYOO 201000Z AUTO 26007KT 9SM CLR 09/05 A2957 RMK SLP018<br><br>
CYOO has no TAF <br><br>
<br><br>
CYTR 201000Z 23010G16KT 15SM FEW014 SCT055 09/07 A2952 RMK SF1SC4 SLP999<br><br>
TAF AMD CYTR 200736Z 2007/2106 24015G25KT P6SM SCT008 OVC025 TEMPO 2007/2010 5SM -SHRA BR BKN008 OVC025 FM201000 27015G25KT P6SM BKN030 TEMPO 2010/2012 P6SM -SHRA FM201800 28020G30KT P6SM FEW030 SCT200 BECMG 2021/2023 31008KT FM210200 34008KT P6SM BKN040 BKN200 RMK NXT FCST BY 201200Z<br><br>
<br><br>
