RETRIEVED AT : Jul 02 2018 03:03 Local <br>
  RETRIEVED AT: Jul 02 2018 07:03 UTC<br><br>
CYSN has no TAF <br><br>
<br><br>
CYHM 020600Z 18007KT 15SM SKC 23/20 A2995 RMK SLP138 DENSITY ALT 1900FT<br><br>
TAF CYHM 020538Z 0206/0306 17007KT P6SM FEW200 FM021200 23010G20KT P6SM SCT050 FM021600 24010G20KT P6SM -SHRA BKN050 PROB30 0216/0223 VRB20G30KT 1SM +TSRA BR BKN015 OVC030CB FM022300 30010KT P6SM BKN060 FM030200 31005KT P6SM SCT060 FM030500 VRB03KT P6SM SKC RMK NXT FCST BY 021200Z<br><br>
<br><br>
KIAG 020653Z AUTO 20007KT 10SM CLR 26/19 A2995 RMK AO2 SLP132 T02610194<br><br>
KIAG 020553Z AUTO 19006KT 10SM CLR 27/19 A2996 RMK AO2 SLP135 T02670194 10322 20261 58002<br><br>
KIAG 020524Z 0206/0306 19005KT P6SM SKC FM021100 20009KT P6SM SCT250 FM021500 22014G21KT P6SM SCT050 BKN120 FM022000 23013G20KT P6SM SCT200 FM030000 27009KT P6SM SCT250<br><br>
<br><br>
KBUF 020654Z 17005KT 10SM CLR 24/19 A2997 RMK AO2 SLP142 T02440194<br><br>
KBUF 020554Z 16006KT 10SM CLR 26/19 A2998 RMK AO2 SLP145 T02560194 10306 20256 58001<br><br>
KBUF 020524Z 0206/0306 18006KT P6SM SKC FM021100 20009KT P6SM SCT250 FM021500 23014G21KT P6SM SCT050 BKN120 FM022000 23013G20KT P6SM SCT200 FM030000 25009KT P6SM SCT250<br><br>
<br><br>
CYYZ 020600Z 15003KT 15SM SKC 26/20 A2992 RMK SLP131 DENSITY ALT 2000FT<br><br>
TAF CYYZ 020538Z 0206/0312 17007KT P6SM SKC FM021200 23010G20KT P6SM SCT070 FM021500 24012G22KT P6SM -SHRA BKN050 PROB40 0216/0223 VRB20G30KT 1SM +TSRA BR BKN015 OVC030CB FM022300 29012KT P6SM FEW050 FM030200 32005KT P6SM SKC BECMG 0308/0310 VRB03KT RMK NXT FCST BY 020900Z<br><br>
<br><br>
CYOO 020600Z AUTO 10004KT 9SM CLR 22/19 A2993 RMK SLP135 DENSITY ALT 1300FT<br><br>
CYOO has no TAF <br><br>
<br><br>
TAF CYTR 020530Z 0206/0306 VRB03KT 5SM BR FEW050 TEMPO 0206/0212 2SM BR PROB30 0206/0210 3/4SM BR FM021200 20008KT P6SM SCT060 BECMG 0214/0216 23015G25KT FM021800 23015G25KT P6SM SCT030 BKN080 TEMPO 0218/0222 P6SM -SHRA BKN030 PROB30 0218/0222 4SM TSRA BR OVC030CB FM022200 24015G25KT P6SM SCT030 BKN080 BECMG 0222/0224 24012KT BECMG 0302/0304 32008KT RMK NXT FCST BY 021200Z<br><br>
<br><br>
