RETRIEVED AT : Oct 29 2017 08:10 Local <br>
  RETRIEVED AT: Oct 29 2017 12:10 UTC<br><br>
CYSN 291200Z 11006KT 10SM -RA SCT040 OVC076 06/04 A2981 RMK SC3AC5 PRESFR SLP099<br><br>
CYSN 291100Z 13005KT 15SM -RA OVC041 06/04 A2983 RMK SC8 SLP106<br><br>
CYSN has no TAF <br><br>
<br><br>
CYHM 291200Z 05004KT 15SM OVC040 04/02 A2981 RMK SC8 SLP104<br><br>
CYHM 291100Z 31002KT 15SM OVC040 04/02 A2982 RMK SC8 SLP105<br><br>
TAF CYHM 291138Z 2912/3012 VRB03KT P6SM OVC040 PROB30 2912/2914 1SM BR BKN004 FM291400 VRB03KT P6SM BKN030 TEMPO 2914/2918 BKN020 FM291800 35008KT P6SM BKN030 BECMG 3006/3008 31015KT RMK NXT FCST BY 291800Z<br><br>
<br><br>
