RETRIEVED AT : Oct 15 2017 03:10 Local <br>
  RETRIEVED AT: Oct 15 2017 07:10 UTC<br><br>
CYSN has no TAF <br><br>
<br><br>
CYHM 150700Z 12005KT 10SM -RA OVC060 15/15 A2988 RMK SC8 SLP120 DENSITY ALT 1000FT<br><br>
CYHM 150600Z 08006KT 1 1/2SM -DZ BR BKN001 OVC072 15/15 A2993 RMK FG2SF4AC2 PRESFR SLP135 DENSITY ALT 1000FT<br><br>
CYHM 150547Z 06006KT 2SM -DZ BR SCT001 OVC050 15/15 A2994 RMK FG1SF2SC5 PRESFR SLP140 DENSITY ALT 1000FT<br><br>
TAF AMD CYHM 150607Z 1506/1606 08006KT 11/2SM BR BKN003 OVC070 TEMPO 1506/1508 6SM BR SCT003 BKN070 FM150800 19010KT 6SM BR SCT090 BKN200 TEMPO 1508/1511 2SM BR FM151100 21015KT WS005/22035KT P6SM SCT008 BKN025 TEMPO 1511/1518 5SM -DZ -RA BR BKN008 OVC020 BECMG 1513/1515 22020G35KT FM151800 23025G40KT P6SM -SHRA OVC025 PROB30 1518/1521 VRB30G50KT 2SM +TSRA BR OVC020CB FM152100 24020G35KT P6SM BKN025 BECMG 1523/1524 29018G30KT BECMG 1603/1604 31012KT RMK NXT FCST BY 151200Z<br><br>
<br><br>
KIAG 150553Z AUTO 15005KT 7SM FEW080 OVC100 17/14 A2995 RMK AO2 SLP142 60003 T01720139 10172 20167 56031<br><br>
KIAG 150520Z 1506/1606 13007KT P6SM BKN090 WS020/22040KT FM150900 20012G19KT P6SM SCT090 BKN200 WS020/22050KT FM151400 21020G31KT P6SM BKN060 FM151800 21024G35KT P6SM BKN050 FM152000 23026G42KT 3SM SHRA OVC015 FM152200 26024G38KT P6SM BKN040 FM160200 29018G28KT P6SM BKN025<br><br>
<br><br>
KBUF 150654Z 15005KT 10SM FEW100 OVC140 17/14 A2993 RMK AO2 SLP132 T01670139<br><br>
KBUF 150554Z 17006KT 10SM FEW080 OVC110 17/14 A2996 RMK AO2 SLP145 60000 T01670144 10172 20161 56029<br><br>
KBUF 150520Z 1506/1606 14007KT P6SM BKN090 WS020/22040KT FM150900 20013G21KT P6SM SCT090 BKN200 WS020/22050KT FM151400 21020G31KT P6SM BKN060 FM151800 21024G35KT P6SM BKN050 FM152000 23026G42KT 3SM SHRA OVC015 FM152200 25024G38KT P6SM BKN040 FM160200 28018G28KT P6SM BKN025<br><br>
<br><br>
CYYZ 150700Z 14007KT 6SM -RA BR FEW008 BKN033 OVC082 15/14 A2989 RMK SF1SC4AC3 SLP124 DENSITY ALT 800FT<br><br>
CYYZ 150600Z 12009KT 110V180 6SM -RA BR FEW006 BKN024 OVC110 15/14 A2992 RMK SF2SC3AC3 PRESFR SLP134 DENSITY ALT 800FT<br><br>
TAF CYYZ 150539Z 1506/1612 14005KT 6SM -RA BR SCT006 OVC040 TEMPO 1506/1507 4SM -DZ BR BKN006 OVC040 FM150800 15005KT 6SM BR BKN040 OVC100 FM151100 19010KT WS005/21030KT P6SM BKN015 OVC030 TEMPO 1511/1518 5SM -DZ -RA BR BKN008 OVC015 BECMG 1514/1515 22020G35KT FM151800 22025G40KT P6SM -SHRA OVC025 PROB30 1518/1521 VRB30G50KT 2SM +TSRA BR OVC020CB FM152100 25025G40KT P6SM BKN025 BECMG 1600/1601 31018G28KT FM160500 33012G22KT P6SM BKN015 BECMG 1609/1610 33008KT RMK NXT FCST BY 150900Z<br><br>
<br><br>
CYOO 150700Z AUTO 11008KT 5SM -RA BR BKN005 OVC110 16/15 A2990 RMK SLP126 DENSITY ALT 600FT<br><br>
CYOO 150653Z AUTO 11006KT 5SM -RA BR BKN005 OVC110 16/15 A2990 RMK SLP126 DENSITY ALT 600FT<br><br>
CYOO 150648Z AUTO 12007KT 5SM BR BKN005 OVC110 16/15 A2990 RMK SLP127 DENSITY ALT 600FT<br><br>
CYOO 150643Z AUTO 12008G17KT 5SM -RA BR BKN005 OVC110 16/15 A2990 RMK PRESFR SLP127 DENSITY ALT 600FT<br><br>
CYOO 150600Z AUTO 12006KT 3SM -RA BR FEW075 OVC095 15/15 A2995 RMK PCPN 0.5MM PAST HR SLP143 DENSITY ALT 500FT<br><br>
CYOO 150531Z AUTO 11006KT 5SM -RA BR SCT006 BKN060 OVC089 15/15 A2996 RMK SLP148 DENSITY ALT 500FT<br><br>
CYOO 150527Z AUTO 11005KT 5SM -RA BR BKN006 BKN060 OVC089 15/15 A2996 RMK SLP148 DENSITY ALT 500FT<br><br>
CYOO has no TAF <br><br>
<br><br>
CYTR 150700Z 00000KT 5SM -RA BR BKN012 OVC033 16/15 A2994 RMK SF5SC3 SLP141<br><br>
CYTR 150600Z 09002KT 4SM -RA BR BKN012 OVC042 16/15 A2998 RMK SF5SC3 SLP152<br><br>
TAF CYTR 150530Z 1506/1606 VRB03KT 2SM -RA BR OVC008 TEMPO 1506/1509 P6SM -RA SCT008 OVC015 FM150900 12008KT P6SM SCT020 OVC030 TEMPO 1509/1518 5SM -SHRA BR OVC020 BECMG 1512/1514 22015G25KT FM151800 24020G35KT P6SM SCT010 OVC025 TEMPO 1518/1524 3SM -SHRA BR OVC010 PROB30 1519/1522 VRB35G50KT 1SM TSRA BR BKN005 OVC010CB FM160000 24022G38KT P6SM BKN030 BECMG 1602/1604 28020G30KT RMK NXT FCST BY 151200Z<br><br>
<br><br>
