RETRIEVED AT : Nov 11 2017 20:10 Local <br>
  RETRIEVED AT: Nov 12 2017 01:10 UTC<br><br>
CYSN 120100Z 06002KT 15SM OVC180 M01/M08 A3040 RMK AC8 SLP300<br><br>
CYSN 120000Z 08008KT 15SM OVC180 M01/M09 A3040 RMK AC8 SLP302<br><br>
TAF CYSN 111938Z 1120/1202 13012KT P6SM FEW030 FM120100 14012KT P6SM BKN120 RMK NXT FCST WILL BE ISSUED AT 121345Z<br><br>
<br><br>
CYHM 120100Z 08006KT 15SM OVC160 M02/M09 A3037 RMK AC8 SLP299<br><br>
CYHM 120000Z 08005KT 15SM OVC160 M02/M09 A3038 RMK AC8 SLP302<br><br>
TAF CYHM 112338Z 1200/1224 11012KT P6SM FEW030 BKN240 FM120200 VRB03KT P6SM BKN060 OVC240 FM121700 08005KT P6SM -SHRASN OVC030 FM121900 05005KT P6SM -SHRA BKN015 OVC030 FM122300 05005KT 6SM -SHRA BR OVC010 PROB30 1223/1224 OVC008 RMK NXT FCST BY 120600Z<br><br>
<br><br>
KIAG 120053Z 10005KT 10SM CLR M01/M09 A3038 RMK AO2 SLP306 T10061094 $<br><br>
KIAG 112353Z 09007KT 10SM CLR M01/M09 A3039 RMK AO2 SLP310 T10061094 10028 21006 58012 $<br><br>
KIAG 112320Z 1200/1224 11007KT P6SM BKN200 FM120100 12006KT P6SM BKN140 FM120300 15005KT P6SM BKN120 FM120800 18005KT P6SM OVC070 FM121600 18005KT P6SM BKN045 FM122000 VRB03KT P6SM OVC040<br><br>
<br><br>
KBUF 120054Z 12007KT 10SM BKN180 M01/M09 A3037 RMK AO2 SLP297 T10061094<br><br>
KBUF 112354Z 08007KT 10SM BKN180 M01/M09 A3039 RMK AO2 SLP302 T10061089 10017 21006 56012<br><br>
KBUF 112320Z 1200/1224 11006KT P6SM BKN200 FM120300 17004KT P6SM BKN140 FM120500 18004KT P6SM BKN110 FM120900 18004KT P6SM OVC070 FM121600 18004KT P6SM BKN045 FM121900 VRB03KT P6SM OVC040<br><br>
<br><br>
CYYZ 120100Z 14005KT 15SM FEW100 BKN180 00/M09 A3038 RMK AC1AS5 SLP300<br><br>
CYYZ 120000Z 14005KT 15SM BKN200 M00/M09 A3041 RMK CI6 SLP308<br><br>
TAF CYYZ 112338Z 1200/1306 11007KT P6SM SCT030 BKN150 FM120400 VRB03KT P6SM BKN060 FM121600 15005KT P6SM OVC030 TEMPO 1216/1222 P6SM -RASN FM122200 VRB03KT 6SM -RASN BR OVC025 FM130200 VRB03KT 4SM -RASN BR OVC010 PROB30 1304/1306 OVC008 RMK NXT FCST BY 120300Z<br><br>
<br><br>
CYOO 120100Z AUTO 11005KT 9SM BKN130 BKN170 M00/M06 A3041 RMK SLP308<br><br>
CYOO 120000Z AUTO 11009KT 9SM BKN170 BKN190 M01/M06 A3042 RMK SLP310<br><br>
CYOO has no TAF <br><br>
<br><br>
CYTR 120100Z 06003KT 15SM BKN120 BKN220 M03/M07 A3046 RMK AC6CI2 SLP321<br><br>
CYTR 120000Z 12005KT 15SM SCT120 BKN220 M02/M08 A3048 RMK AC4CI3 SLP328<br><br>
TAF CYTR 112330Z 1200/1224 10005KT P6SM FEW030 BKN120 OVC220 FM121200 VRB03KT P6SM SCT030 BKN060 OVC100 BECMG 1213/1215 11008KT RMK NXT FCST BY 120600Z<br><br>
<br><br>
