RETRIEVED AT : Sep 01 2018 22:05 Local <br>
  RETRIEVED AT: Sep 02 2018 02:05 UTC<br><br>
CYSN 020100Z 21011KT 15SM BKN056 BKN250 25/21 A3007 RMK SC5CI2 LAST STFD OBS / NEXT 021100 UTC SLP184 DENSITY ALT 1400FT<br><br>
CYSN has no TAF <br><br>
<br><br>
CYHM 020100Z 17012G17KT 15SM FEW042 BKN055 BKN070 24/20 A3009 RMK SC2SC3AC2 SLP188 DENSITY ALT 1800FT<br><br>
TAF CYHM 012338Z 0200/0224 20007KT P6SM SCT030 FM020600 20010KT P6SM -SHRA BKN050 TEMPO 0207/0209 P6SM VCTS BKN020CB FM020900 23010KT P6SM SCT010 BKN030 TEMPO 0212/0214 P6SM VCTS BKN020CB FM021500 22010G20KT P6SM -SHRA BKN025 PROB30 0217/0219 VRB15G25KT 1SM +TSRA BR BKN015 OVC030CB FM021900 27008KT P6SM SCT050 RMK NXT FCST BY 020600Z<br><br>
<br><br>
KIAG 020153Z 21011KT 10SM -RA FEW039 FEW090 23/20 A3010 RMK AO2 WSHFT 0101 RAB50 SLP189 P0000 T02330200<br><br>
KIAG 020121Z 23012KT 10SM FEW055 24/19 A3010 RMK AO2 WSHFT 0101 LTG DSNT S T02390194<br><br>
KIAG 020053Z 14003KT 10SM CLR 26/19 A3009 RMK AO2 LTG DSNT SW SLP182 T02560189<br><br>
KIAG 012336Z 0200/0224 19006KT P6SM SCT250 FM020100 19010KT P6SM VCSH BKN080 FM020500 20011G18KT P6SM VCSH BKN070 FM021400 23014G22KT P6SM VCSH BKN045 FM021700 23016G25KT P6SM SCT100<br><br>
<br><br>
KBUF 020154Z 23006KT 10SM FEW090 BKN230 23/21 A3012 RMK AO2 RAB24E46 SLP195 P0000 T02330211<br><br>
KBUF 020054Z 15008KT 10SM FEW080 BKN230 27/18 A3010 RMK AO2 LTG DSNT SW SLP189 T02670183<br><br>
KBUF 020106Z 0201/0224 16008KT P6SM BKN250 TEMPO 0201/0202 25010G20KT FM020200 19010KT P6SM VCSH BKN040 TEMPO 0202/0203 6SM -SHRA FM021100 21012G18KT P6SM VCSH BKN060 FM021400 23015G22KT P6SM VCSH BKN045 FM021700 24016G25KT P6SM BKN060 FM021900 24016G25KT P6SM SCT130<br><br>
<br><br>
CYYZ 020100Z 14005KT 15SM BKN270 24/21 A3007 RMK CI6 SLP182 DENSITY ALT 1600FT<br><br>
TAF CYYZ 012338Z 0200/0306 16010KT P6SM FEW040 BECMG 0201/0203 20008KT FM020600 22008KT P6SM -SHRA BKN040 PROB30 0207/0209 VRB15G25KT 2SM +TSRA BR BKN020CB FM020900 23008KT P6SM SCT010 BKN025 FM021200 23010KT P6SM -SHRA BKN015 TEMPO 0212/0214 P6SM VCTS BKN020CB FM021400 23012KT P6SM SCT015 BKN025 FM021700 23012G22KT P6SM -SHRA BKN030 PROB30 0217/0219 VRB15G25KT 1SM +TSRA BR BKN015 OVC030CB FM021900 26010G20KT P6SM BKN040 BECMG 0222/0224 26008KT SCT040 FM030200 VRB03KT P6SM SKC RMK NXT FCST BY 020300Z<br><br>
<br><br>
CYOO 020100Z AUTO 09005KT 9SM CLR 23/22 A3008 RMK SLP186 DENSITY ALT 1200FT<br><br>
CYOO has no TAF <br><br>
<br><br>
CYTR 020100Z 16005KT 15SM FEW210 24/21 A3010 RMK CI2 SLP192<br><br>
TAF CYTR 012330Z 0200/0224 15005KT P6SM FEW180 OVC200 FM020800 18005KT P6SM BKN030 OVC080 TEMPO 0208/0213 5SM -SHRA BR BKN012 OVC030 PROB30 0209/0213 2SM TSRA BR BKN008 OVC020CB FM021300 18005KT P6SM BKN030 OVC080 TEMPO 0213/0219 5SM -SHRA BR BKN012 OVC030 BECMG 0214/0216 22010G20KT FM021900 24010G20KT P6SM SCT020 OVC030 TEMPO 0219/0224 P6SM -SHRA OVC020 RMK NXT FCST BY 020600Z<br><br>
<br><br>
