RETRIEVED AT : Feb 21 2020 10:05 Local <br>
  RETRIEVED AT: Feb 21 2020 15:05 UTC<br><br>
CYSN 211400Z 24012G20KT 15SM FEW030 M05/M13 A3049 RMK SC1 SC TR SLP331<br><br>
TAF CYSN 211338Z 2114/2202 24010KT P6SM FEW030 BECMG 2116/2118 24015G25KT BECMG 2120/2122 24020G30KT RMK NXT FCST BY 212000Z<br><br>
<br><br>
CYHM 211400Z 24014KT 15SM FEW020 M08/M13 A3046 RMK CU1 CU TR SLP332<br><br>
TAF CYHM 211138Z 2112/2212 24008KT P6SM SKC BECMG 2113/2115 24012G22KT BECMG 2117/2119 23018G28KT FM220400 24015KT P6SM SKC FM220900 24015KT P6SM OVC020 RMK NXT FCST BY 211800Z<br><br>
<br><br>
KIAG 211453Z 24016KT 10SM CLR M04/M13 A3047 RMK AO2 SLP337 T10391133 58004<br><br>
KIAG 211353Z 25016KT 10SM CLR M06/M13 A3048 RMK AO2 SLP341 T10611128<br><br>
KIAG 211427Z 2114/2212 24014G22KT P6SM SKC FM211600 23018G26KT P6SM SCT030 FM220400 24016G24KT P6SM SKC<br><br>
<br><br>
KBUF 211454Z 24015G26KT 10SM FEW028 M03/M11 A3046 RMK AO2 PK WND 24026/1447 SLP329 T10331111 58005<br><br>
KBUF 211354Z 26011KT 10SM FEW026 M04/M12 A3047 RMK AO2 SLP332 T10441122<br><br>
KBUF 211427Z 2114/2212 24012KT P6SM SCT025 FM211600 24016G24KT P6SM BKN030 FM212100 24016G24KT P6SM SCT035<br><br>
<br><br>
CYYZ 211400Z 21007KT 15SM SKC M06/M11 A3044 RMK SLP320<br><br>
TAF CYYZ 211438Z 2115/2218 24010G20KT P6SM SKC BECMG 2117/2119 24015G25KT FM220600 24010G20KT P6SM SKC FM220900 24010G20KT P6SM OVC020 FM221500 23015G25KT P6SM BKN020 RMK NXT FCST BY 211800Z<br><br>
<br><br>
CYOO 211400Z AUTO 23008KT 9SM CLR M07/M12 A3044 RMK SLP319<br><br>
TAF CYOO 211338Z 2114/2202 25005KT P6SM SKC BECMG 2116/2118 25010G20KT FM212100 25015G25KT P6SM SKC RMK FCST BASED ON AUTO OBS. NXT FCST BY 212000Z<br><br>
<br><br>
CYTR 211400Z 25011KT 15SM FEW035 M05/M10 A3044 RMK SC1 SLP315<br><br>
TAF CYTR 211130Z 2112/2212 24008KT P6SM FEW040 BECMG 2115/2117 25012G22KT BECMG 2119/2121 24015G25KT FM220000 25012KT P6SM FEW030 FM220800 26008KT P6SM BKN030 RMK NXT FCST BY 211800Z<br><br>
<br><br>
