RETRIEVED AT : Apr 06 2018 07:05 Local <br>
  RETRIEVED AT: Apr 06 2018 11:05 UTC<br><br>
CYSN has no TAF <br><br>
<br><br>
CYHM 061000Z 17006KT 15SM BKN070 M02/M03 A2983 RMK AS7 FROIN SLP113<br><br>
TAF AMD CYHM 061022Z 0610/0706 17005KT P6SM SCT030 BKN070 TEMPO 0611/0612 3SM -SN BKN008 OVC020 FM061200 17005KT 1SM -SN BR OVC005 TEMPO 0612/0614 3SM -SN SCT005 OVC015 FM061400 16008KT 2SM -SNRA -DZ BR OVC007 TEMPO 0614/0616 P6SM NSW SCT007 OVC020 PROB30 0614/0615 2SM -FZDZ BR FM061600 24015G25KT 4SM -SHSNRA BKN020 FM061800 25020G30KT P6SM -SHRASN OVC030 FM062200 25020G35KT P6SM BKN050 FM070000 25020G35KT 11/2SM -SHSN VV015 FM070200 29018G28KT P6SM SCT030 BKN080 FM070400 28015G25KT P6SM FEW030 RMK NXT FCST BY 061200Z<br><br>
<br><br>
KIAG 061053Z 00000KT 10SM OVC070 M01/M05 A2984 RMK AO2 SLP120 T10111050 $<br><br>
KIAG 060953Z AUTO 00000KT 10SM SCT110 M02/M07 A2987 RMK AO2 SLP130 T10221067 $<br><br>
KIAG 061015Z 0610/0706 17008KT P6SM SCT040 BKN110 FM061200 21012KT 2SM -SN OVC015 FM061600 21013G31KT P6SM OVC007 FM061900 26025G44KT P6SM BKN015 FM070300 27019G30KT P6SM BKN050<br><br>
<br><br>
KBUF 061054Z 16007KT 10SM OVC070 M01/M06 A2984 RMK AO2 SLP115 T10111056 $<br><br>
KBUF 060954Z 14005KT 10SM SCT120 M02/M07 A2987 RMK AO2 SLP125 T10171067 $<br><br>
KBUF 061015Z 0610/0706 17008KT P6SM SCT040 BKN110 FM061200 21011KT 2SM -SN OVC015 FM061600 21013G31KT P6SM OVC007 FM061900 26025G44KT P6SM BKN015 FM070300 27019G30KT P6SM BKN050<br><br>
<br><br>
CYYZ 061000Z 21004KT 15SM SCT140 BKN170 M02/M06 A2984 RMK AS4AS3 SLP113<br><br>
TAF CYYZ 060838Z 0609/0712 18005KT P6SM BKN140 FM061100 VRB03KT P6SM BKN040 OVC100 TEMPO 0611/0613 3SM -SN SCT008 BKN020 OVC040 FM061300 11005KT 11/2SM -SN BR OVC006 TEMPO 0613/0616 3SM -SNRA SCT006 OVC020 FM061600 VRB03KT 4SM -SHRASN BKN012 OVC050 BECMG 0616/0618 23010G20KT FM062100 26025G38KT P6SM BKN040 BKN070 FM062300 27025G35KT 4SM -SHSN BKN030 OVC070 PROB30 0623/0701 11/2SM -SHSN FM070100 29020G35KT P6SM FEW025 BKN100 FM070300 29020G35KT P6SM FEW020 FEW100 BECMG 0704/0706 29018G28KT FM070900 30012G22KT P6SM BKN030 RMK NXT FCST BY 061200Z<br><br>
<br><br>
CYOO 061000Z AUTO 12002KT 9SM SCT140 BKN170 M01/M06 A2985 RMK SLP116<br><br>
CYOO has no TAF <br><br>
<br><br>
CYTR 061000Z 18006KT 15SM SCT059 BKN140 M00/M05 A2990 RMK SC4AS2 SLP130<br><br>
TAF CYTR 060535Z 0606/0706 28005KT P6SM FEW040 FM060800 20008KT P6SM BKN040 BKN180 FM061300 18010KT 4SM -SN BKN020 OVC040 FM061500 15010KT 11/2SM -SN OVC008 FM061800 17010KT 6SM -SHRASN BR BKN015 OVC030 BECMG 0618/0620 24025G35KT FM062000 24025G40KT P6SM -SHRA SCT015 BKN030 FM070200 28020G35KT P6SM FEW030 RMK NXT FCST BY 061200Z<br><br>
<br><br>
