RETRIEVED AT : Oct 10 2017 05:10 Local <br>
  RETRIEVED AT: Oct 10 2017 09:10 UTC<br><br>
CYSN has no TAF <br><br>
<br><br>
CYHM 100900Z 25006KT 1/4SM R12/1400FT/N FG SKC 14/14 A3006 RMK FG6 SLP182<br><br>
CYHM 100800Z 25008KT 1/8SM R12/1600FT/N FG SKC 14/14 A3006 RMK FG7 SLP179 DENSITY ALT 800FT<br><br>
