RETRIEVED AT : Oct 28 2018 20:05 Local <br>
  RETRIEVED AT: Oct 29 2018 00:05 UTC<br><br>
CYSN 282300Z 12003KT 15SM OVC042 06/05 A2964 RMK SC8 SLP043<br><br>
TAF AMD CYSN 282121Z 2821/2901 19006KT P6SM FEW008 BKN050 TEMPO 2821/2823 3SM -RA BR BKN008 OVC012 FM282300 VRB03KT P6SM -RA OVC025 TEMPO 2823/2901 5SM -SHRA BR BKN008 OVC015 RMK NXT FCST WILL BE ISSUED AT 291245Z<br><br>
<br><br>
CYHM 282300Z 17003KT 15SM -RA OVC029 05/04 A2963 RMK SC8 PCPN VRY LGT SLP043<br><br>
TAF CYHM 282338Z 2900/2924 VRB03KT P6SM OVC030 TEMPO 2900/2903 5SM -RA BR OVC020 FM290300 35008KT P6SM OVC025 FM290500 31008KT P6SM SCT010 BKN050 FM291100 27010KT P6SM -SHRA SCT020 BKN030 BECMG 2915/2917 27015G25KT FM291700 27015G25KT P6SM BKN025 FM292100 29015G25KT P6SM FEW030 SCT090 RMK NXT FCST BY 290600Z<br><br>
<br><br>
KIAG 282353Z 15006KT 8SM BKN020 OVC040 05/04 A2965 RMK AO2 SLP051 60001 T00500039 10056 20044 50001<br><br>
KIAG 282348Z 15005KT 9SM BKN022 OVC040 05/04 A2965 RMK AO2<br><br>
KIAG 282253Z 13005KT 10SM SCT024 BKN040 OVC060 05/03 A2965 RMK AO2 SLP051 T00500033<br><br>
KIAG 282248Z 14005KT 10SM SCT024 BKN040 OVC060 05/03 A2965 RMK AO2<br><br>
KIAG 282241Z 15004KT 10SM BKN024 BKN040 OVC060 05/03 A2965 RMK AO2 T00500033<br><br>
KIAG 282330Z 2900/2924 VRB04KT 6SM -RA OVC025 FM290300 00000KT P6SM VCSH OVC012 FM290800 32005KT 5SM -RA BR OVC007 FM291100 27009KT P6SM OVC015 FM291500 27014G24KT P6SM VCSH OVC025 FM292000 28017G24KT P6SM BKN035<br><br>
<br><br>
KBUF 282354Z 12005KT 6SM -RA FEW008 BKN015 OVC028 05/05 A2966 RMK AO2 SLP047 P0001 60009 T00500050 10056 20044 56001<br><br>
KBUF 282328Z 14005KT 4SM -RA BKN012 BKN028 OVC042 05/05 A2966 RMK AO2 P0001 T00500050<br><br>
KBUF 282313Z 12006KT 2SM -RA BKN012 OVC019 05/05 A2965 RMK AO2 P0000 T00500050<br><br>
KBUF 282254Z 10004KT 3SM -RA FEW006 BKN015 OVC023 05/05 A2966 RMK AO2 SLP048 P0002 T00500050<br><br>
KBUF 282236Z 12005KT 5SM -RA FEW004 BKN015 OVC025 05/04 A2965 RMK AO2 P0001 T00500044<br><br>
KBUF 282214Z 14005KT 2SM -RA FEW004 BKN014 OVC025 05/04 A2965 RMK AO2 P0000 T00500044<br><br>
KBUF 282330Z 2900/2924 VRB04KT 2SM -RA BR OVC012 FM290300 VRB03KT 6SM -RA BR OVC015 FM290500 00000KT P6SM VCSH OVC015 FM290800 VRB03KT 5SM -RA BR OVC007 FM291100 27008KT P6SM VCSH OVC015 FM291600 27014G23KT P6SM VCSH OVC025 FM292200 28015G25KT P6SM OVC035<br><br>
<br><br>
CYYZ 282300Z 17005KT 15SM FEW020 OVC028 05/03 A2964 RMK SF1SC8 SF TR SLP044<br><br>
TAF CYYZ 282338Z 2900/3006 VRB03KT P6SM OVC025 TEMPO 2900/2904 P6SM -SHRA OVC015 FM290400 VRB03KT P6SM SCT020 OVC050 TEMPO 2904/2911 SCT020 OVC050 BECMG 2905/2907 30007KT FM291100 24008KT P6SM -SHRASN BKN015 OVC050 FM291400 29010G20KT P6SM -SHRA BKN015 OVC030 FM291700 29015G25KT P6SM BKN030 FM291900 29015G25KT P6SM SCT030 BKN100 FM300000 29012G25KT P6SM FEW030 SCT100 BECMG 3003/3005 28012KT FEW030 RMK NXT FCST BY 290300Z<br><br>
<br><br>
CYOO 282300Z AUTO 11002KT 9SM OVC032 04/04 A2965 RMK SLP047<br><br>
CYOO has no TAF <br><br>
<br><br>
CYTR 282300Z 00000KT 15SM FEW008 OVC016 04/04 A2968 RMK SF1SC8 SLP054<br><br>
CYTR 282250Z 00000KT 15SM FEW008 OVC016 04/04 A2967 RMK SF1SC8 SLP051<br><br>
CYTR 282227Z 00000KT 15SM -DZ FEW008 OVC016 04/04 A2967 RMK SF1SC8 PCPN VRY LGT SLP052<br><br>
TAF CYTR 282330Z 2900/2924 VRB03KT P6SM SCT008 OVC025 TEMPO 2900/2903 2SM -RA BR OVC008 FM290300 VRB03KT P6SM SCT020 BKN050 TEMPO 2903/2914 5SM -RA BR OVC020 FM291400 27005KT 5SM -RASN BR BKN006 OVC020 TEMPO 2914/2917 P6SM NSW SCT006 OVC020 FM291700 29010KT P6SM SCT015 OVC030 TEMPO 2917/2924 P6SM -RASN RMK NXT FCST BY 290600Z<br><br>
<br><br>
