RETRIEVED AT : Mar 06 2020 11:05 Local <br>
  RETRIEVED AT: Mar 06 2020 16:05 UTC<br><br>
CYSN 061531Z 04013KT 4SM -SN OVC012 01/01 A2987 RMK SC8 SLP122<br><br>
CYSN 061500Z 03007KT 1SM -SN OVC006 01/01 A2986 RMK SN4SC4 SLP118<br><br>
TAF CYSN 061341Z 0614/0702 24005KT 3SM -SN OVC010 TEMPO 0614/0616 1/2SM SN VV005 FM061600 01012KT P6SM OVC030 TEMPO 0616/0618 5SM -RASN BR OVC008 FM061800 03018G28KT P6SM OVC030 TEMPO 0618/0702 5SM -RA BR OVC015 RMK NXT FCST BY 062000Z<br><br>
<br><br>
CYHM 061500Z 36009KT 2 1/2SM -SN BKN005 OVC028 M01/M02 A2988 RMK SC5SC3 SLP131<br><br>
CYHM 061444Z 36009KT 2 1/2SM -SN OVC005 M01/M02 A2988 RMK SC8 SLP130<br><br>
TAF AMD CYHM 061145Z 0612/0712 01008KT 1SM -SN BKN007 OVC015 TEMPO 0612/0618 3SM -SN OVC015 PROB40 0612/0616 3/4SM -SN VV002 FM061800 04012G22KT 4SM -SNRA BR OVC015 TEMPO 0618/0624 P6SM -RASN OVC025 BECMG 0620/0622 02015G25KT FM070000 01012G22KT P6SM OVC012 BECMG 0703/0705 36012KT FEW012 RMK NXT FCST BY 061800Z<br><br>
<br><br>
KIAG 061600Z 00000KT 2SM SN BR BKN012 OVC022 00/M01 A2988 RMK AO2 P0000 T00001006<br><br>
KIAG 061553Z 00000KT 2SM SN BR BKN006 OVC024 00/M01 A2987 RMK AO2 SLP130 P0002 T00001006<br><br>
KIAG 061545Z 00000KT 2SM R28R/5500VP6000FT SN BR BKN006 OVC024 00/M01 A2987 RMK AO2 P0002 T00001006<br><br>
KIAG 061520Z 03005KT 2SM R28R/2800V5000FT SN BR BKN012 OVC017 00/M01 A2986 RMK AO2 P0001 T00001011<br><br>
KIAG 061453Z 36004KT 2SM SN BR BKN016 OVC039 01/M01 A2985 RMK AO2 SLP122 P0000 60000 T00061011 51019<br><br>
KIAG 061426Z 34007KT 2SM SN BR BKN016 OVC040 00/M02 A2984 RMK AO2 P0000 T00001017<br><br>
KIAG 061502Z 0615/0712 36006KT 6SM -SN OVC035 TEMPO 0615/0616 2SM -SHSN BKN015 FM061600 36012KT 6SM -SHRASN SCT015 OVC025 TEMPO 0617/0621 3SM -SHSN FM062100 36014G26KT 2SM -SHSN OVC007 FM070100 36014G24KT 4SM BR VCSH OVC015 FM070400 36012G22KT P6SM BKN025 FM070800 36010G17KT P6SM BKN035<br><br>
<br><br>
KBUF 061554Z 27005KT 1 1/2SM -SN BR BKN005 OVC014 01/M01 A2987 RMK AO2 SLP123 CIG 003V008 P0002 T00061006<br><br>
KBUF 061540Z 26005KT 1 1/2SM R23/5500VP6000FT -SN BR BKN004 BKN014 OVC029 01/M01 A2987 RMK AO2 P0002 T00061006<br><br>
KBUF 061528Z 24007KT 2SM R23/6000VP6000FT -SN BR BKN004 BKN014 OVC029 01/M01 A2986 RMK AO2 P0002 T00061006<br><br>
KBUF 061521Z 23007KT 2SM R23/4500VP6000FT -SN BR FEW004 BKN014 OVC029 01/M01 A2986 RMK AO2 P0002 T00061011<br><br>
KBUF 061512Z 22005KT 1SM R23/3000V4500FT -SN BR VV014 01/M01 A2986 RMK AO2 P0001 T00061011<br><br>
KBUF 061501Z 25005KT 1/2SM R23/3500VP6000FT SN VV009 01/M02 A2985 RMK AO2 P0000 T00111017<br><br>
KBUF 061456Z 26004KT 3/4SM R23/P6000FT -SN BKN014 BKN029 OVC045 01/M02 A2985 RMK AO2 P0000 T00111017<br><br>
KBUF 061454Z 26004KT 1 1/2SM -SN FEW014 BKN029 OVC045 01/M02 A2985 RMK AO2 SLP117 P0000 60000 T00111017 51020<br><br>
KBUF 061506Z 0615/0712 25006KT 1 1/2SM -SN SCT015 BKN025 TEMPO 0615/0616 1/2SM SN BKN007 FM061600 30008KT 6SM -SHRASN SCT015 OVC025 TEMPO 0617/0621 3SM -SHSN FM062100 01014G26KT 2SM -SHSN OVC007 FM070200 36012G20KT 4SM BR VCSH OVC015 FM070600 36010KT P6SM BKN025<br><br>
<br><br>
CYYZ 061539Z 04009KT 3/4SM R33L/5000FT/U R06R/3500V5000FT/D R06L/2600V4500FT/N R05/5500FT/U -SN VV009 M00/M01 A2993 RMK SN8 SLP142<br><br>
CYYZ 061500Z 05010G16KT 1 1/4SM R06L/5500VP6000FT/N -SN VV008 M00/M02 A2991 RMK SN8 SLP137<br><br>
CYYZ 061441Z 04014KT 1 1/2SM -SN VV009 00/M02 A2991 RMK SN8 SLP135<br><br>
CYYZ 061431Z 05014KT 2 1/2SM -SN BKN019 OVC031 00/M02 A2990 RMK SC5SC3 SLP133<br><br>
TAF AMD CYYZ 061557Z 0615/0718 06008KT 3/4SM -SN VV007 TEMPO 0615/0618 3SM -SN OVC030 FM061800 02012G22KT P6SM -RASN OVC015 TEMPO 0618/0621 3SM -SNRA BR BECMG 0619/0621 01017G27KT FM070000 01017G27KT P6SM BKN015 OVC040 BECMG 0701/0703 01012G22KT FM070400 36012KT P6SM SCT030 FM071400 34005KT P6SM SKC BECMG 0715/0717 VRB03KT RMK NXT FCST BY 061800Z<br><br>
<br><br>
CYOO 061500Z AUTO 04013G21KT 9SM OVC060 02/M03 A2990 RMK SLP131<br><br>
TAF CYOO 061345Z 0614/0702 04010G20KT P6SM OVC050 TEMPO 0614/0617 5SM -SN FM061700 01012G22KT P6SM -RASN OVC015 TEMPO 0617/0702 5SM -SN BR RMK FCST BASED ON AUTO OBS. NXT FCST BY 062000Z<br><br>
<br><br>
CYTR 061500Z 06012G21KT 15SM FEW030 FEW130 BKN210 03/M02 A2992 RMK SC1AC2CI5 SLP135<br><br>
TAF CYTR 061130Z 0612/0712 07008G18KT P6SM BKN120 BECMG 0614/0616 05012G22KT FM061600 05012G22KT P6SM BKN025 OVC080 TEMPO 0616/0623 5SM -SHSNRA BKN020 OVC080 BECMG 0618/0620 04018G28KT FM062300 03018G28KT P6SM BKN025 OVC080 BECMG 0702/0704 01015KT FM070500 01015KT P6SM SCT025 FM070800 36008KT P6SM SKC RMK NXT FCST BY 061800Z<br><br>
<br><br>
