RETRIEVED AT : Mar 08 2020 14:05 Local <br>
  RETRIEVED AT: Mar 08 2020 18:05 UTC<br><br>
CYSN 081700Z 22020G27KT 15SM FEW100 FEW200 09/M01 A3033 RMK AC1CI1 SLP275<br><br>
TAF CYSN 081238Z 0813/0901 22015G25KT P6SM FEW120 SCT250 FM081900 22018G30KT P6SM SCT230 BECMG 0822/0824 22012G22KT RMK NXT FCST BY 082000Z<br><br>
<br><br>
CYHM 081700Z 22014G21KT 15SM FEW250 08/M01 A3031 RMK CI1 SLP272<br><br>
TAF CYHM 081738Z 0818/0918 22015G28KT P6SM FEW260 FM090200 23015KT P6SM SCT150 BKN240 FM091500 23018G30KT P6SM BKN260 RMK NXT FCST BY 090000Z<br><br>
<br><br>
KIAG 081753Z 23021KT 10SM CLR 09/M02 A3031 RMK AO2 PK WND 23028/1700 SLP276 T00891022 10094 20022 58019<br><br>
KIAG 081653Z 24020G27KT 10SM CLR 08/M02 A3034 RMK AO2 PK WND 24029/1619 SLP285 T00831022<br><br>
KIAG 081733Z 0818/0918 23017G28KT P6SM FEW200 FM090100 21012G21KT P6SM SCT100 WS015/23045KT FM091400 22017G28KT P6SM SCT150<br><br>
<br><br>
KBUF 081754Z 24018G28KT 10SM FEW200 FEW250 09/M04 A3033 RMK AO2 PK WND 25028/1746 SLP276 T00941044 10094 20044 58017<br><br>
KBUF 081654Z 23020G29KT 10SM FEW200 FEW250 FEW290 08/M04 A3035 RMK AO2 PK WND 25033/1628 SLP285 T00831044<br><br>
KBUF 081733Z 0818/0918 23019G31KT P6SM FEW200 FM090000 21013G19KT P6SM SCT150 WS015/22045KT FM091400 23018G30KT P6SM SCT120<br><br>
<br><br>
CYYZ 081700Z 20015KT 180V250 15SM FEW260 10/M02 A3028 RMK CI2 SLP262<br><br>
TAF CYYZ 081738Z 0818/0924 21015G25KT P6SM SCT250 FM090000 21012G22KT P6SM SCT150 BKN250 BECMG 0901/0903 20012KT FM091500 22015G25KT P6SM BKN250 FM092200 22015G25KT P6SM BKN100 BKN230 RMK NXT FCST BY 082100Z<br><br>
<br><br>
CYOO 081700Z AUTO 22012G17KT 9SM CLR 07/M01 A3030 RMK SLP266<br><br>
TAF CYOO 081338Z 0814/0902 22006KT P6SM FEW100 BKN240 BECMG 0815/0817 22010G20KT FM081900 22012G22KT P6SM SCT230 FM090100 23010G20KT P6SM BKN150 BKN230 RMK FCST BASED ON AUTO OBS. NXT FCST BY 082000Z<br><br>
<br><br>
CYTR 081700Z 22011KT 15SM FEW200 06/01 A3031 RMK CI2 SLP268<br><br>
TAF CYTR 081730Z 0818/0918 22012KT P6SM FEW200 BECMG 0818/0820 23012G22KT FM090000 24012KT P6SM BKN120 FM091000 24015KT P6SM BKN080 BKN240 BECMG 0913/0915 24015G25KT RMK NXT FCST BY 090000Z<br><br>
<br><br>
