RETRIEVED AT : Mar 28 2020 14:05 Local <br>
  RETRIEVED AT: Mar 28 2020 18:05 UTC<br><br>
CYSN 281700Z 01009KT 3SM -RA BR OVC008 06/06 A2989 RMK SC8 SLP126<br><br>
CYSN 281642Z 02006KT 4SM -RA BR BKN007 OVC040 06/06 A2990 RMK SC6SC2 PRESRR SLP130<br><br>
TAF CYSN 281238Z 2813/2901 07008KT P6SM OVC080 TEMPO 2813/2815 5SM -SHRA BR BKN007 OVC050 FM281500 07010KT P6SM -RA FEW007 OVC030 TEMPO 2815/2817 3SM -RA BR BKN005 OVC015 FM281700 07012KT P6SM FEW006 OVC012 TEMPO 2817/2822 5SM -DZ BR BKN006 OVC010 FM282200 07012KT 6SM -DZ OVC008 TEMPO 2822/2901 3SM -RA -DZ BR OVC005 RMK NXT FCST BY 282000Z<br><br>
<br><br>
CYHM 281748Z 03016G23KT 5/8SM R12/P6000FT/N BR OVC002 04/04 A2986 RMK FG4SF4 VIS SW 1 SLP120<br><br>
CYHM 281736Z 05016G21KT 3/4SM R12/P6000FT/N -RA BR OVC002 04/04 A2984 RMK FG3SF5 SLP115<br><br>
CYHM 281724Z 05016G22KT 2SM -RA BR OVC002 04/03 A2985 RMK CF8 VIS SW 3 SLP119<br><br>
CYHM 281700Z 05018G24KT 2 1/2SM -RA BR OVC002 04/03 A2985 RMK CF8 PRESFR SLP118<br><br>
CYHM 281628Z 03017KT 2 1/2SM -RA BR OVC002 03/03 A2989 RMK CF8 SLP132<br><br>
TAF CYHM 281738Z 2818/2918 04015G25KT 2SM -RA BR BKN003 OVC006 TEMPO 2818/2820 6SM -DZ BR OVC008 FM282000 04015G25KT 2SM -DZ BR OVC003 TEMPO 2820/2906 6SM BR OVC006 FM290600 04015G25KT 3/4SM -RA BR OVC002 TEMPO 2906/2912 3SM SHRA BR OVC005 FM291200 06008KT 1/4SM -RA FG VV001 PROB30 2913/2916 1SM +TSRA BR OVC002CB FM291600 22012KT 5SM -SHRA BR OVC008 BECMG 2916/2918 23018G28KT RMK NXT FCST BY 290000Z<br><br>
<br><br>
KIAG 281753Z 12012KT 9SM -RA FEW008 BKN028 OVC075 09/08 A2985 RMK AO2 SLP116 P0003 60032 T00940083 10094 20056 58019<br><br>
KIAG 281740Z 11010KT 6SM -RA BR FEW009 SCT030 OVC075 09/08 A2986 RMK AO2 P0003 T00940083<br><br>
KIAG 281653Z 11009KT 5SM -RA BR SCT070 OVC090 08/07 A2987 RMK AO2 SLP126 P0012 T00830072<br><br>
KIAG 281644Z 12009KT 4SM -RA BR SCT070 OVC090 08/07 A2988 RMK AO2 P0011 T00780072<br><br>
KIAG 281614Z 07007KT 2 1/2SM RA BR SCT041 BKN048 OVC075 07/06 A2990 RMK AO2 P0006 T00720061<br><br>
KIAG 281720Z 2818/2918 10009KT 5SM -RA BR OVC025 FM282000 10008KT P6SM OVC015 FM290400 09005KT P6SM -SHRA OVC007 FM290900 12007KT 4SM RA BR OVC005 FM291400 15012G19KT 6SM -SHRA BR OVC012 WS015/20045KT FM291700 18016G23KT P6SM OVC035 WS015/20045KT<br><br>
<br><br>
KBUF 281754Z 09011KT 10SM -RA BKN030 OVC040 09/07 A2987 RMK AO2 SLP118 P0001 60044 T00890067 10094 20078 56013<br><br>
KBUF 281654Z 08011KT 6SM -RA BR FEW007 FEW027 OVC040 09/07 A2987 RMK AO2 PRESFR SLP121 P0018 T00890072<br><br>
KBUF 281642Z 07010KT 3SM R23/6000VP6000FT -RA BR FEW007 SCT027 OVC040 09/07 A2989 RMK AO2 P0014 T00890072<br><br>
KBUF 281608Z 10008KT 4SM -RA BR FEW007 BKN026 OVC040 09/07 A2989 RMK AO2 P0004 T00940072<br><br>
KBUF 281720Z 2818/2918 08010KT 6SM -RA BR OVC025 FM282100 09008KT P6SM OVC015 FM290400 11005KT P6SM -SHRA OVC007 FM290900 16013KT 4SM RA BR OVC007 FM291400 17016G24KT 6SM -SHRA BR OVC015 WS015/20045KT FM291700 18015G25KT P6SM OVC035 WS015/20045KT<br><br>
<br><br>
CYYZ 281737Z 07015G21KT 15SM FEW008 BKN018 OVC060 05/03 A2991 RMK CF1SC6SC1 SLP134<br><br>
CYYZ 281700Z 08016KT 10SM -RA FEW010 BKN017 OVC055 05/03 A2992 RMK CF1SC6SC1 SLP138<br><br>
TAF CYYZ 281738Z 2818/2924 08015G25KT P6SM -RA OVC040 TEMPO 2818/2820 5SM -RA BR OVC015 FM282000 08015G25KT P6SM OVC015 TEMPO 2820/2903 5SM -DZ BR BKN007 OVC015 FM290300 08015G25KT 5SM -DZ BR OVC006 TEMPO 2903/2907 P6SM NSW OVC010 FM290700 08015G25KT 11/2SM -RA BR OVC003 TEMPO 2907/2914 5SM SHRA BR OVC006 FM291400 09012KT 1SM -RA BR OVC002 PROB30 2914/2916 1SM +TSRA BR OVC002CB FM291700 23015KT 5SM -SHRA BR BKN008 OVC015 BECMG 2917/2919 24020G35KT FM291900 24020G35KT P6SM -SHRA BKN020 BKN040 RMK NXT FCST BY 282100Z<br><br>
<br><br>
CYOO 281744Z AUTO 09015KT 9SM BKN020 BKN028 OVC085 06/03 A2991 RMK SLP136<br><br>
CYOO 281735Z AUTO 09013G20KT 9SM -RA BKN020 BKN065 OVC085 07/03 A2992 RMK SLP138<br><br>
CYOO 281700Z AUTO 09014G20KT 9SM -RA OVC070 06/02 A2994 RMK SLP146<br><br>
TAF CYOO 281338Z 2814/2902 07010KT P6SM OVC100 FM281800 07012KT P6SM FEW025 OVC070 TEMPO 2818/2821 P6SM -RA BKN020 OVC040 FM282100 07012G22KT P6SM OVC015 TEMPO 2821/2902 4SM -DZ BR BKN007 OVC012 RMK FCST BASED ON AUTO OBS. NXT FCST BY 282000Z<br><br>
<br><br>
CYTR 281700Z 09004KT 15SM BKN045 OVC080 06/M01 A3000 RMK SC5AC3 WND ESTD SLP164<br><br>
TAF CYTR 281730Z 2818/2918 09008KT P6SM BKN050 OVC080 BECMG 2818/2820 P6SM -RA BKN025 OVC050 FM282000 09010KT P6SM -RA BKN025 OVC050 TEMPO 2820/2824 6SM -RA BR BKN020 OVC050 FM290000 09012KT 6SM -RA BR BKN015 OVC030 TEMPO 2900/2903 5SM -RA -DZ BR OVC008 FM290300 10012KT 5SM -RA BR BKN006 OVC030 FM290900 10015KT 3SM RA BR BKN005 OVC030 PROB30 2909/2914 1SM -TSRA BR BKN005 OVC030CB RMK NXT FCST BY 290000Z<br><br>
<br><br>
