RETRIEVED AT : May 24 2020 00:05 Local <br>
  RETRIEVED AT: May 24 2020 04:05 UTC<br><br>
CYSN has no TAF <br><br>
<br><br>
CYHM 240300Z 11003KT 15SM FEW076 17/16 A3006 RMK AC2 SLP178 DENSITY ALT 1100FT<br><br>
TAF CYHM 232338Z 2400/2424 16005KT P6SM FEW040 BKN250 FM240200 05005KT P6SM FEW020 BKN040 FM240700 06005KT 6SM BR FEW005 OVC012 TEMPO 2408/2412 2SM BR OVC005 FM241400 18015KT P6SM BKN030 FM241900 23015KT P6SM -SHRA BKN040 PROB30 2420/2423 4SM TSRA BKN030CB RMK NXT FCST BY 240600Z<br><br>
<br><br>
KIAG 240353Z AUTO 14003KT 9SM BKN080 OVC100 16/14 A3006 RMK AO2 SLP179 T01610144<br><br>
KIAG 240253Z 18004KT 10SM FEW095 18/16 A3006 RMK AO2 SLP180 T01780156 51013<br><br>
KIAG 240308Z 2403/2424 18004KT P6SM FEW100 BKN250 FM240800 14005KT P6SM BKN100 FM241200 17008KT P6SM SCT200 FM241500 19010KT P6SM SCT120<br><br>
<br><br>
KBUF 240354Z 12004KT 10SM OVC090 17/14 A3007 RMK AO2 SLP182 T01720144<br><br>
KBUF 240254Z 18003KT 10SM SCT080 BKN200 17/14 A3007 RMK AO2 SLP182 T01670144 51012<br><br>
KBUF 240308Z 2403/2424 18003KT P6SM SCT080 BKN250 FM240500 12004KT P6SM SCT080 BKN250 FM240900 15006KT P6SM BKN090 FM241300 17010KT P6SM SCT200 FM241800 19008KT P6SM SCT120<br><br>
<br><br>
CYYZ 240300Z 14003KT 15SM SKC 19/14 A3005 RMK SLP178 DENSITY ALT 1100FT<br><br>
TAF CYYZ 240238Z 2403/2506 14006KT P6SM SCT060 BKN240 BECMG 2404/2406 BKN060 FM240600 08008KT P6SM SCT012 OVC040 TEMPO 2406/2414 4SM -SHRA BR SCT008 OVC012 PROB30 2410/2412 2SM BR OVC008 FM241400 16008KT P6SM SCT030 FM241800 17012KT P6SM -SHRA BKN030 PROB30 2421/2424 2SM TSRA BR BKN020CB FM250000 16006KT P6SM -SHRA SCT012 OVC040 PROB30 2500/2503 11/2SM TSRA BR OVC008 RMK NXT FCST BY 240600Z<br><br>
<br><br>
CYOO 240300Z AUTO 35002KT 9SM CLR 16/13 A3007 RMK SLP184 DENSITY ALT 500FT<br><br>
TAF CYOO 240140Z 2402/2414 VRB03KT P6SM SCT060 FM240800 08005KT P6SM FEW012 OVC025 TEMPO 2408/2414 5SM -SHRA BR OVC012 RMK FCST BASED ON AUTO OBS. NXT FCST BY 240800Z<br><br>
<br><br>
CYTR 240300Z 00000KT 15SM FEW250 15/11 A3008 RMK CI2 SLP187<br><br>
TAF CYTR 232330Z 2400/2424 VRB03KT P6SM BKN240 FM241000 09005KT P6SM FEW020 SCT150 BKN240 FM241600 13008KT P6SM BKN040 BKN070 BECMG 2419/2421 13008G18KT RMK NXT FCST BY 240600Z<br><br>
<br><br>
