RETRIEVED AT : Oct 30 2017 07:10 Local <br>
  RETRIEVED AT: Oct 30 2017 11:10 UTC<br><br>
CYSN 301100Z 29019G38KT 15SM BKN025 07/02 A2941 RMK SC7 SLP962<br><br>
CYSN has no TAF <br><br>
<br><br>
CYHM 301100Z 27014G20KT 15SM FEW015 FEW030 SCT045 04/00 A2946 RMK CU1SC1SC2 CU TR SLP982<br><br>
CYHM 301000Z 28014G23KT 15SM FEW026 SCT050 BKN200 05/00 A2945 RMK SC1SC2CC4 SLP981<br><br>
TAF CYHM 300538Z 3006/3106 31012G22KT P6SM SCT030 OVC060 FM301300 28020G30KT P6SM BKN060 BECMG 3015/3017 25020G35KT FM301900 24020G35KT 6SM -SHRA BR OVC025 TEMPO 3019/3022 OVC020 BECMG 3022/3024 25018G28KT FM310300 25020G30KT P6SM BKN040 RMK NXT FCST BY 301200Z<br><br>
<br><br>
KIAG 301053Z 28018G28KT 10SM OVC030 07/00 A2941 RMK AO2 PK WND 29033/0957 SLP964 T00720000<br><br>
KIAG 301031Z AUTO 28019G27KT 10SM BKN030 BKN034 OVC046 08/01 A2940 RMK AO2 PK WND 29033/0957 T00780006<br><br>
KIAG 301003Z AUTO 29021G33KT 10SM BKN026 BKN035 OVC044 08/01 A2940 RMK AO2 PK WND 29033/0957 T00780011<br><br>
KIAG 300953Z AUTO 29020G34KT 10SM SCT026 BKN036 OVC043 08/02 A2940 RMK AO2 PK WND 29036/0943 SLP961 T00780017<br><br>
KIAG 300943Z AUTO 29025G36KT 10SM SCT026 OVC036 08/02 A2939 RMK AO2 PK WND 29036/0943 T00780017<br><br>
KIAG 300523Z 3006/3106 33016G23KT P6SM OVC045 FM301000 30019G34KT P6SM BKN045 FM301600 26022G41KT P6SM BKN250 FM301800 26023G41KT P6SM BKN040 FM302300 26021G30KT P6SM BKN200<br><br>
<br><br>
KBUF 301054Z 28018G28KT 10SM FEW030 OVC046 06/01 A2940 RMK AO2 PK WND 29033/1021 SLP961 T00610006<br><br>
KBUF 301013Z 28017G28KT 10SM FEW027 SCT034 OVC041 06/01 A2939 RMK AO2 PK WND 28030/0958 T00610011<br><br>
KBUF 300954Z 28020G29KT 10SM BKN022 OVC029 06/02 A2939 RMK AO2 PK WND 28029/0954 SLP957 T00610022<br><br>
KBUF 300523Z 3006/3106 32013G20KT P6SM OVC045 FM301000 29016G30KT P6SM BKN045 FM302000 25025G44KT 4SM RA OVC007 FM310200 25020G28KT P6SM BKN040 FM310400 25019G28KT P6SM SCT120<br><br>
<br><br>
CYYZ 301100Z 30020G27KT 15SM FEW020 FEW050 BKN200 05/01 A2939 RMK CU1SC1CI3 SLP958<br><br>
CYYZ 301000Z 30021G27KT 15SM FEW020 FEW049 BKN200 BKN220 06/00 A2939 RMK CF1SC2CC3CI2 CF TR SLP956<br><br>
TAF CYYZ 300838Z 3009/3112 31025G35KT P6SM SCT020 OVC060 TEMPO 3009/3012 BKN020 BECMG 3012/3014 27025G35KT FM302000 26020G30KT P6SM OVC030 TEMPO 3020/3024 P6SM -SHRA FM310100 24015G25KT P6SM BKN040 RMK NXT FCST BY 301200Z<br><br>
<br><br>
CYOO 301100Z AUTO 29018G28KT 9SM FEW018 SCT026 OVC032 06/03 A2931 RMK SLP929<br><br>
CYOO 301000Z AUTO 30016G23KT 9SM BKN032 OVC190 07/01 A2930 RMK SLP925<br><br>
CYOO has no TAF <br><br>
<br><br>
CYTR 301100Z 29016G29KT 10SM -RA OVC021 06/04 A2914 RMK SC8 SLP872<br><br>
CYTR 301038Z 30021G30KT 7SM -SHRA OVC021 06/04 A2912 RMK SC8 PCPN VRY LGT SLP865<br><br>
CYTR 301000Z 30021G32KT 6SM -SHRA BR BKN012 OVC037 05/04 A2912 RMK SF6SC2 /R10/ SLP863<br><br>
TAF CYTR 300530Z 3006/3106 33015G25KT 4SM -RA BR BKN005 OVC012 TEMPO 3006/3009 6SM -RA BR SCT005 BKN012 OVC020 PROB30 3006/3008 2SM RA BR BKN002 OVC005 FM300900 30018G28KT 6SM -RA BR SCT008 BKN012 OVC020 TEMPO 3009/3012 P6SM NSW SCT012 BKN020 BECMG 3010/3012 28020G35KT FM301200 28020G35KT P6SM SCT020 BKN040 TEMPO 3012/3014 BKN020 OVC040 BECMG 3019/3021 24015G25KT FM302100 24015G25KT P6SM SCT040 BECMG 3021/3023 24012KT FM310200 24010KT P6SM FEW040 RMK NXT FCST BY 301200Z<br><br>
<br><br>
