RETRIEVED AT : Sep 02 2018 10:05 Local <br>
  RETRIEVED AT: Sep 02 2018 14:05 UTC<br><br>
CYSN 021342Z 22012KT 10SM -SHRA BKN018 25/23 A3013 RMK CU7 SLP202 DENSITY ALT 1400FT<br><br>
CYSN 021300Z 22013G20KT 12SM BKN016 OVC060 25/22 A3012 RMK SC6SC2 SLP201 DENSITY ALT 1400FT<br><br>
TAF AMD CYSN 021311Z 0213/0301 22012KT P6SM SCT020 BKN060 TEMPO 0213/0218 P6SM -SHRA BKN020 OVC060 FM021800 23012G22KT P6SM BKN040 FM022200 21008KT P6SM SCT060 BECMG 0223/0301 VRB03KT RMK NXT FCST BY 022000Z<br><br>
<br><br>
CYHM 021300Z 24007KT 15SM -SHRA BKN009 BKN150 23/22 A3014 RMK SC6AC1 CVCTV CLD EMBD PCPN VRY LGT SLP205 DENSITY ALT 1700FT<br><br>
CYHM 021219Z 22009KT 15SM -SHRA BKN012 BKN150 23/22 A3014 RMK SC6AC1 CVCTV CLD EMBD SLP206 DENSITY ALT 1600FT<br><br>
TAF AMD CYHM 021321Z 0213/0312 24007KT P6SM SCT008 BKN040 TEMPO 0213/0215 P6SM -SHRA BKN008 BKN130 FM021500 22010G20KT P6SM SCT030 SCT140 PROB30 0217/0221 VRB15G25KT 1SM +TSRA BR BKN015 OVC030CB FM030000 22008KT P6SM FEW040 RMK NXT FCST BY 021800Z<br><br>
<br><br>
KIAG 021353Z COR 23010G18KT 10SM VCTS OVC014 24/21 A3016 RMK AO2 LTG DSNT SW SLP206 T02390211 TS SW MOV E<br><br>
KIAG 021350Z 22014G19KT 10SM VCTS OVC014 24/21 A3015 RMK AO2 LTG DSNT SW<br><br>
KIAG 021253Z 23010KT 10SM OVC016 24/21 A3015 RMK AO2 SLP203 T02440211<br><br>
KIAG 021235Z 22010KT 10SM BKN017 BKN065 24/21 A3015 RMK AO2 T02390211<br><br>
KIAG 021324Z 0213/0312 23012KT P6SM VCSH OVC015 FM021700 23016G24KT P6SM SCT200 FM030000 22010KT P6SM SCT200 FM030600 21008KT P6SM SCT050<br><br>
<br><br>
KBUF 021354Z 22014G22KT 10SM FEW012 OVC018 24/21 A3017 RMK AO2 LTG DSNT N SLP213 T02440211<br><br>
KBUF 021254Z 22012G19KT 10SM BKN020 BKN140 BKN200 24/21 A3016 RMK AO2 SLP207 T02440211<br><br>
KBUF 021229Z 20013KT 10SM BKN020 BKN140 24/21 A3015 RMK AO2 T02390206<br><br>
KBUF 021325Z 0213/0312 22012G20KT P6SM VCSH BKN020 FM021400 23013G21KT P6SM -RA BKN025 FM021700 24016G24KT P6SM SCT200 FM030000 23010KT P6SM SCT200 FM030600 20006KT P6SM SCT050<br><br>
<br><br>
CYYZ 021300Z 24009G15KT 15SM FEW015 SCT025 BKN065 BKN180 25/22 A3012 RMK CF2SC2SC1AC2 SLP198 DENSITY ALT 1600FT<br><br>
TAF CYYZ 021138Z 0212/0318 21008KT P6SM SCT030 BKN130 TEMPO 0212/0215 BKN020 BKN130 FM021500 23010G20KT P6SM SCT030 SCT140 PROB30 0217/0221 VRB15G25KT 1SM +TSRA BR BKN015 OVC030CB FM030000 23010KT P6SM SCT040 FM030600 24008KT P6SM FEW050 FM031600 24012G22KT P6SM -SHRA BKN040 RMK NXT FCST BY 021500Z<br><br>
<br><br>
CYOO 021300Z AUTO 22007KT 190V250 9SM SCT014 BKN060 OVC073 23/22 A3012 RMK SLP198 DENSITY ALT 1300FT<br><br>
CYOO 021255Z AUTO 21007KT 9SM BKN014 OVC070 23/22 A3012 RMK SLP198 DENSITY ALT 1200FT<br><br>
CYOO 021228Z AUTO 22005KT 180V250 9SM SCT016 BKN075 OVC092 23/23 A3011 RMK SLP195 DENSITY ALT 1300FT<br><br>
CYOO has no TAF <br><br>
<br><br>
CYTR 021332Z 23008G15KT 15SM BKN017 OVC079 25/22 A3012 RMK SC6AC2 SLP200<br><br>
CYTR 021300Z 22011KT 15SM FEW065 BKN090 25/22 A3010 RMK SC2AC6 SLP193<br><br>
TAF CYTR 021130Z 0212/0312 19005KT P6SM FEW030 BKN090 OVC120 BECMG 0212/0213 23010KT FM021300 23010KT P6SM SCT020 BKN030 OVC090 TEMPO 0213/0219 P6SM -SHRA BKN020 OVC030 BECMG 0214/0216 22010G20KT FM030000 24006KT P6SM SCT030 BKN060 RMK NXT FCST BY 021800Z<br><br>
<br><br>
