RETRIEVED AT : May 30 2018 03:32 Local <br>
  RETRIEVED AT: May 30 2018 07:32 UTC<br><br>
CYSN has no TAF <br><br>
<br><br>
CYHM 300700Z 04011KT 15SM SCT250 16/11 A3000 RMK CI3 SLP157 DENSITY ALT 1100FT<br><br>
CYHM 300600Z 04010KT 15SM FEW250 17/10 A2999 RMK CI2 SLP156 DENSITY ALT 1100FT<br><br>
TAF CYHM 300538Z 3006/3106 04010KT P6SM FEW080 BKN250 BECMG 3012/3014 08010KT BECMG 3016/3018 14012KT FM302200 09012KT P6SM BKN080 BECMG 3100/3102 16008KT FM310300 16010KT P6SM BKN040 RMK NXT FCST BY 301200Z<br><br>
<br><br>
KIAG 300653Z AUTO 09007KT 10SM CLR 21/09 A2999 RMK AO2 SLP149 T02110094<br><br>
KIAG 300553Z AUTO 09010KT 10SM FEW070 BKN090 22/09 A2999 RMK AO2 SLP150 T02170094 10261 20211 56005<br><br>
KIAG 300531Z 3006/3106 09007KT P6SM SCT090 SCT250 FM301000 11004KT P6SM SCT060 SCT250 FM301300 16004KT P6SM SCT080 SCT250 FM301700 17008KT P6SM SCT250 FM310200 16012KT P6SM BKN100 FM310300 16012G20KT P6SM BKN080<br><br>
<br><br>
KBUF 300531Z 3006/3106 07009KT P6SM BKN080 BKN250 FM300900 12004KT P6SM SCT080 SCT250 FM301400 17008KT P6SM SCT250 FM302000 16012KT P6SM SCT200 FM310200 16014G22KT P6SM BKN100<br><br>
<br><br>
TAF CYYZ 300538Z 3006/3112 10008KT P6SM BKN260 BECMG 3013/3015 15010KT BECMG 3018/3020 11012KT FM302300 10012KT P6SM BKN090 BECMG 3100/3102 16005KT FM310500 17006KT P6SM BKN050 FM311100 16012KT 6SM -RA BR OVC020 RMK NXT FCST BY 300900Z<br><br>
<br><br>
CYOO 300700Z AUTO 08008KT 9SM CLR 19/08 A3002 RMK SLP165 DENSITY ALT 900FT<br><br>
CYOO 300600Z AUTO 08007KT 9SM CLR 19/09 A3003 RMK SLP169 DENSITY ALT 800FT<br><br>
CYOO has no TAF <br><br>
<br><br>
CYTR 300700Z 04004KT 15SM BKN260 14/09 A3003 RMK CI6 SLP171<br><br>
CYTR 300600Z 01004KT 15SM BKN260 15/09 A3004 RMK CI6 SLP172<br><br>
TAF CYTR 300530Z 3006/3106 04005KT P6SM FEW260 BECMG 3013/3015 15006KT BECMG 3017/3019 22009KT FM310200 16010KT P6SM SCT060 RMK NXT FCST BY 301200Z<br><br>
<br><br>
