RETRIEVED AT : Jan 20 2019 13:05 Local <br>
  RETRIEVED AT: Jan 20 2019 18:05 UTC<br><br>
CYSN 201757Z 33016G24KT 3SM -SN DRSN SCT011 BKN018 M12/M16 A2989 RMK SC3SC4 SLP130<br><br>
CYSN 201700Z 33014G21KT 1 1/2SM -SN DRSN OVC019 M13/M15 A2989 RMK SN2SC6 SLP132<br><br>
TAF CYSN 201338Z 2014/2102 34015G25KT 11/2SM -SN OVC012 TEMPO 2014/2018 5SM -SN OVC025 FM201800 33012G22KT P6SM BKN030 TEMPO 2018/2024 21/2SM -SN RMK NXT FCST BY 202000Z<br><br>
<br><br>
CYHM 201700Z 33016G22KT 15SM FEW030 SCT090 M14/M19 A2989 RMK CU2AC1 SLP143<br><br>
TAF CYHM 201738Z 2018/2118 33015G25KT P6SM SCT050 BECMG 2023/2101 32012KT RMK NXT FCST BY 210000Z<br><br>
<br><br>
KIAG 201753Z 32018KT 2SM R28R/4500VP6000FT -SN OVC017 M14/M17 A2986 RMK AO2 SLP138 P0000 60000 T11391167 11128 21139 51012 $<br><br>
KIAG 201704Z 33014KT 3/4SM R28R/3500VP6000FT -SN SCT014 OVC024 M13/M16 A2986 RMK AO2 P0000 T11331161 $<br><br>
KIAG 201658Z 33015KT 1 1/4SM R28R/3500VP6000FT -SN SCT016 OVC024 M13/M16 A2986 RMK AO2 P0000 T11331161<br><br>
KIAG 201653Z 33014KT 3/4SM R28R/2000VP6000FT -SN VV009 M13/M16 A2986 RMK AO2 SLP136 P0000 T11331161<br><br>
KIAG 201610Z 34016G22KT 3/4SM R28R/3500V5000FT -SN BR VV009 M13/M16 A2985 RMK AO2 P0000 T11331156<br><br>
KIAG 201739Z 2018/2118 33014G22KT 2SM -SN SCT015 OVC025 FM202200 32014G22KT 4SM -SN BKN025 FM210300 33014G24KT 2SM -SN BLSN BKN015 FM211200 33014G24KT P6SM VCSH BKN025<br><br>
<br><br>
KBUF 201801Z 30012KT 1 1/2SM -SN OVC022 M13/M16 A2984 RMK AO2 P0000 T11281161<br><br>
KBUF 201754Z COR 30012KT 5SM -SN FEW017 BKN022 OVC029 M13/M17 A2984 RMK AO2 SLP119 P0000 60004 4/013 933012 T11281167 11128 21133 51012<br><br>
KBUF 201742Z 31011G19KT 3SM R23/6000VP6000FT -SN BKN019 OVC025 M13/M17 A2984 RMK AO2 P0000 T11281167<br><br>
KBUF 201723Z 32011G19KT 2 1/2SM -SN BKN022 OVC043 M13/M16 A2983 RMK AO2 P0000 T11281161<br><br>
KBUF 201703Z 32015KT 4SM -SN FEW021 OVC044 M13/M17 A2983 RMK AO2 P0000 T11331172<br><br>
KBUF 201654Z 32014KT 3SM R23/5500VP6000FT -SN FEW021 BKN027 OVC046 M13/M17 A2983 RMK AO2 SLP119 P0000 T11331172<br><br>
KBUF 201629Z 33010G21KT 3SM R23/5000VP6000FT -SN FEW016 BKN021 BKN065 M13/M17 A2983 RMK AO2 P0000 T11331167<br><br>
KBUF 201739Z 2018/2118 32014G20KT 4SM -SN BKN025 TEMPO 2018/2021 2SM -SN BKN025 FM210000 32012G20KT 6SM -SHSN SCT025 BKN040 FM210400 31012G18KT P6SM VCSH BKN025 FM211500 31012G18KT P6SM SCT025 BKN040<br><br>
<br><br>
CYYZ 201700Z 33021G30KT 15SM R33L/5500VP6000FT/U DRSN FEW055 M15/M20 A2990 RMK SC1 OCNL BLSN SLP142<br><br>
CYYZ 201642Z 33027KT 15SM R33L/3000VP6000FT/U BLSN FEW055 M15/M21 A2990 RMK SC1 VIS 1 S-NW SLP141<br><br>
TAF CYYZ 201738Z 2018/2124 34020G30KT P6SM FEW060 BECMG 2100/2102 34025G35KT FM210400 34020G30KT P6SM SKC BECMG 2116/2118 32015G25KT RMK NXT FCST BY 202100Z<br><br>
<br><br>
TAF AMD CYOO 201711Z 2017/2102 32015G25KT P6SM SKC TEMPO 2017/2019 5SM BLSN RMK FCST BASED ON AUTO OBS. NXT FCST BY 202000Z<br><br>
<br><br>
CYTR 201739Z 34007KT 12SM FEW015 BKN024 M15/M21 A2982 RMK SC1SC7 SLP106<br><br>
CYTR 201700Z 33013KT 7SM BKN025 BKN250 M16/M21 A2981 RMK SC6CI2 SLP105<br><br>
CYTR 201644Z 34013KT 7SM SCT025 BKN250 M16/M21 A2980 RMK SC4CI2 SLP102<br><br>
CYTR 201614Z 34011G18KT 6SM -SN BKN025 M16/M21 A2981 RMK SC7 SLP102<br><br>
TAF CYTR 201730Z 2018/2118 33015G25KT P6SM SCT025 BKN250 TEMPO 2018/2112 3SM -SHSN BLSN BKN025 BECMG 2104/2106 33012G22KT FM211200 33012G22KT P6SM SKC RMK NXT FCST BY 210000Z<br><br>
<br><br>
