RETRIEVED AT : Jun 20 2020 13:05 Local <br>
  RETRIEVED AT: Jun 20 2020 17:05 UTC<br><br>
TAF CYSN 201238Z 2013/2101 19006KT P6SM FEW060 BECMG 2015/2017 32006KT BECMG 2023/2101 14006KT RMK NXT FCST BY 202000Z<br><br>
<br><br>
TAF CYHM 201138Z 2012/2112 VRB03KT P6SM FEW100 TEMPO 2012/2014 BKN100 FM201400 26008KT P6SM SCT060 PROB30 2018/2023 2SM TSRA BR BKN060CB FM210000 23007KT P6SM SCT060 BECMG 2102/2104 20005KT FM210900 20006KT P6SM SKC RMK NXT FCST BY 201800Z<br><br>
<br><br>
KIAG 201459Z 2015/2112 22006KT P6SM SCT250 FM201600 23006KT P6SM SCT050 SCT100 TEMPO 2017/2021 BKN050 FM202100 32004KT P6SM SCT050 BKN250 FM210000 VRB04KT P6SM SCT050 BKN250<br><br>
<br><br>
KBUF 201459Z 2015/2112 23006KT P6SM BKN050 FM202300 17004KT P6SM SCT050 BKN250 FM210600 18004KT P6SM FEW250<br><br>
<br><br>
TAF CYYZ 201438Z 2015/2118 VRB03KT P6SM FEW060 BECMG 2015/2017 16012KT FM201800 16012KT P6SM SCT060 TEMPO 2018/2024 P6SM VCTS BKN060CB FM210200 11007KT P6SM FEW060 FM210600 13006KT P6SM FEW030 BECMG 2114/2116 15010KT FEW060 RMK NXT FCST BY 201800Z<br><br>
<br><br>
TAF CYOO 201338Z 2014/2102 VRB03KT P6SM SKC FM201500 18008KT P6SM SCT060 BECMG 2100/2102 VRB03KT RMK FCST BASED ON AUTO OBS. NXT FCST BY 202000Z<br><br>
<br><br>
TAF CYTR 201130Z 2012/2112 VRB03KT P6SM FEW012 FEW070 TEMPO 2012/2017 BKN070 BECMG 2015/2017 20010KT FM210000 VRB03KT P6SM SKC PROB30 2106/2110 1SM BR RMK NXT FCST BY 201800Z<br><br>
<br><br>
