RETRIEVED AT : Mar 08 2020 03:05 Local <br>
  RETRIEVED AT: Mar 08 2020 07:05 UTC<br><br>
CYSN has no TAF <br><br>
<br><br>
CYHM 080600Z 22009KT 15SM BKN080 BKN150 M02/M04 A3035 RMK AC5AC2 SLP290<br><br>
TAF CYHM 080539Z 0806/0906 22010KT P6SM BKN100 BKN250 FM081200 22010KT P6SM SKC BECMG 0814/0816 23015G25KT BECMG 0820/0822 23018G30KT FM090000 22012G22KT P6SM BKN150 RMK NXT FCST BY 081200Z<br><br>
<br><br>
KIAG 080653Z AUTO 21008KT 10SM OVC090 00/M03 A3037 RMK AO2 SLP297 T00001033<br><br>
KIAG 080553Z AUTO 20009KT 10SM CLR M01/M04 A3037 RMK AO2 SLP298 T10111039 11011 21017 58012<br><br>
KIAG 080535Z 0806/0906 22011G17KT P6SM SCT100 FM081300 23015G22KT P6SM FEW200 FM081800 23015G28KT P6SM SKC FM090000 22010G19KT P6SM FEW250 FM090100 22010G19KT P6SM SCT200 WS020/23040KT<br><br>
<br><br>
KBUF 080654Z 19006KT 10SM SCT090 SCT130 M01/M07 A3038 RMK AO2 SLP297 T10111067<br><br>
KBUF 080554Z 20008KT 10SM FEW150 M02/M07 A3038 RMK AO2 SLP296 T10171072 11006 21017 58012<br><br>
KBUF 080535Z 0806/0906 21009KT P6SM SCT150 FM081500 24012G22KT P6SM SCT150 FM082300 21009KT P6SM FEW250 FM090100 21010G17KT P6SM SCT250 FM090200 21010G18KT P6SM SCT200 WS020/23040KT<br><br>
<br><br>
CYYZ 080600Z 18012KT 15SM BKN090 01/M05 A3033 RMK AC6 SLP280<br><br>
TAF CYYZ 080539Z 0806/0912 17010KT P6SM BKN100 BKN160 FM081200 25012KT P6SM SKC BECMG 0812/0814 24010G20KT FM081800 22012G25KT P6SM SKC BECMG 0820/0822 22015G25KT FM090000 24012G22KT P6SM BKN150 BECMG 0906/0908 23010G20KT FM090900 23012KT P6SM BKN100 RMK NXT FCST BY 080900Z<br><br>
<br><br>
CYOO 080600Z AUTO 22005KT 9SM OVC100 00/M03 A3035 RMK TS/LTNG TEMPO UNAVBL SLP286<br><br>
TAF CYOO 080138Z 0802/0814 23005KT P6SM FEW150 BKN180 FM080600 24008KT P6SM SCT090 BKN140 RMK FCST BASED ON AUTO OBS. NXT FCST BY 080800Z<br><br>
<br><br>
CYTR 080600Z 23009KT 15SM FEW075 OVC090 01/M01 A3035 RMK AC2AC6 SLP284<br><br>
TAF CYTR 080530Z 0806/0906 24010KT P6SM BKN080 BKN130 FM081500 24012KT P6SM SCT200 BECMG 0817/0819 23012G22KT BECMG 0822/0824 24010KT FM090300 24010KT P6SM BKN120 RMK NXT FCST BY 081200Z<br><br>
<br><br>
