RETRIEVED AT : Feb 29 2020 12:05 Local <br>
  RETRIEVED AT: Feb 29 2020 17:05 UTC<br><br>
CYSN 291600Z 31010KT 15SM BKN026 BKN097 M08/M14 A2998 RMK SC5AC2 SLP159<br><br>
TAF CYSN 291340Z 2914/0102 30008KT P6SM BKN030 BKN180 TEMPO 2914/2918 4SM -SN BKN020 BKN180 BECMG 2916/2918 27012G22KT FM291800 27012G22KT P6SM BKN030 BKN070 TEMPO 2918/0102 4SM -SN BKN020 BKN070 RMK NXT FCST BY 292000Z<br><br>
<br><br>
CYHM 291600Z 30010KT 15SM FEW025 FEW068 BKN085 BKN250 M08/M15 A2995 RMK CU1AC1AC5CI2 CU TR AC TR SLP159<br><br>
TAF CYHM 291138Z 2912/0112 29008KT P6SM BKN030 BKN080 FM291700 28010G20KT P6SM -SHSN BKN030 TEMPO 2917/2924 5SM -SHSN OVC020 FM010000 27010KT P6SM SCT040 FM011000 25008KT P6SM BKN040 RMK NXT FCST BY 291800Z<br><br>
<br><br>
KIAG 291653Z 29006KT 9SM -SN BKN030 M08/M13 A2997 RMK AO2 SLP169 P0000 T10831128<br><br>
KIAG 291600Z 31010KT 9SM -SN BKN030 M09/M14 A2996 RMK AO2 P0000 T10891139<br><br>
KIAG 291553Z 30011KT 5SM -SN BLSN BKN014 M09/M13 A2996 RMK AO2 SLP167 P0000 T10891133<br><br>
KIAG 291504Z 2915/0112 32008KT 5SM -SN BKN014 FM291700 29013G19KT P6SM VCSH OVC030 FM292000 29014G20KT P6SM BKN030 FM010100 27013KT P6SM BKN035<br><br>
<br><br>
KBUF 291654Z 26013KT 9SM -SN BKN025 OVC032 M07/M13 A2996 RMK AO2 SNB00 SLP158 P0000 T10721133 $<br><br>
KBUF 291554Z 28010KT 10SM BKN025 BKN035 M08/M14 A2996 RMK AO2 SNE44 SLP156 P0000 T10781139 $<br><br>
KBUF 291510Z 27008KT 3SM R23/3500VP6000FT -SN BKN019 BKN027 OVC033 M08/M13 A2994 RMK AO2 TWR VIS 5 P0000 T10831128 $<br><br>
KBUF 291504Z 2915/0112 30010KT 6SM -SN BKN024 BKN040 FM292000 27010KT P6SM VCSH SCT025 BKN035 FM010000 27014KT P6SM BKN035<br><br>
<br><br>
CYYZ 291644Z 30020KT 260V010 15SM FEW030 BKN260 M08/M16 A2996 RMK CF1CI4 WSHFT 1630 SLP156<br><br>
CYYZ 291600Z 13004KT 15SM FEW040 FEW260 M10/M16 A2996 RMK CF1CI1 CF TR SLP158<br><br>
TAF AMD CYYZ 291648Z 2916/0118 29015G25KT P6SM FEW030 BKN260 FM291700 29012G25KT P6SM BKN030 BKN080 TEMPO 2917/2924 5SM -SHSN BKN020 OVC030 BECMG 2922/2924 31012KT FM010000 31012KT P6SM BKN030 FM010800 31006KT P6SM SCT040 FM011500 21010KT P6SM BKN040 RMK NXT FCST BY 291800Z<br><br>
<br><br>
CYOO 291600Z AUTO VRB04KT 9SM CLR M11/M16 A2996 RMK SLP158<br><br>
TAF CYOO 291340Z 2914/0102 30006KT P6SM SCT060 BKN080 TEMPO 2914/2917 P6SM -SN BKN030 BKN080 BECMG 2914/2916 31010G20KT FM291700 30010G20KT P6SM -SHSN BKN030 BKN080 TEMPO 2917/2924 5SM -SHSN BKN020 OVC030 FM010000 31010KT P6SM BKN030 BKN070 RMK FCST BASED ON AUTO OBS. NXT FCST BY 292000Z<br><br>
<br><br>
CYTR 291600Z 29011KT 15SM FEW070 SCT250 M12/M17 A2994 RMK AC1CI4 SLP145<br><br>
TAF CYTR 291130Z 2912/0112 31005KT P6SM FEW070 FM291700 29010KT P6SM SCT030 BKN080 BECMG 0100/0102 30005KT FM010500 VRB03KT P6SM SKC RMK NXT FCST BY 291800Z<br><br>
<br><br>
