RETRIEVED AT : Sep 02 2017 08:10 Local <br>
  RETRIEVED AT: Sep 02 2017 12:10 UTC<br><br>
CYSN 021200Z 12006KT 15SM SCT250 11/06 A3015 RMK CI3 SLP214<br><br>
CYSN 021100Z 11003KT 15SM BKN250 06/04 A3016 RMK CI5 SLP215<br><br>
CYSN has no TAF <br><br>
<br><br>
CYHM 021200Z 09010KT 15SM SCT250 11/05 A3015 RMK CI3 SLP215<br><br>
CYHM 021100Z 07009KT 15SM BKN250 07/04 A3015 RMK CI5 SLP216<br><br>
TAF CYHM 021138Z 0212/0312 07010KT P6SM BKN250 BECMG 0217/0219 10015KT FM022000 12015KT P6SM -SHRA BKN025 OVC140 FM022300 12010KT 6SM -RA BR OVC012 FM030700 18012KT 3SM -SHRA BR OVC008 FM031100 27010G20KT 6SM -SHRA BR BKN008 OVC020 RMK NXT FCST BY 021800Z<br><br>
<br><br>
KIAG 021153Z 09004KT 10SM CLR 09/05 A3016 RMK AO2 SLP219 T00940050 10094 20067 56005<br><br>
KIAG 021053Z 09003KT 10SM CLR 07/03 A3016 RMK AO2 SLP219 T00670033<br><br>
KIAG 021120Z 0212/0312 11007KT P6SM SCT250 FM022100 14011KT P6SM OVC070 FM022300 13008KT P6SM OVC045 FM030200 13006KT P6SM -RA OVC035 FM030400 14006KT 4SM RA OVC030 FM031000 17006KT 2SM +RA OVC020<br><br>
<br><br>
KBUF 021154Z 10008KT 10SM FEW150 SCT200 BKN250 11/04 A3016 RMK AO2 SLP214 T01060044 10106 20061 56007<br><br>
KBUF 021054Z 12006KT 10SM SCT160 BKN220 BKN270 08/04 A3016 RMK AO2 SLP216 T00780039<br><br>
KBUF 021120Z 0212/0312 11006KT P6SM BKN250 FM022000 15010KT P6SM BKN100 FM022100 15011G17KT P6SM OVC060 FM030000 12006KT P6SM -RA OVC035 FM030400 VRB03KT 4SM RA OVC035 FM031000 18005KT 2SM +RA OVC025<br><br>
<br><br>
CYYZ 021200Z 02003KT 15SM FEW030 FEW260 10/07 A3016 RMK SC1CI2 SC TR SLP218<br><br>
CYYZ 021100Z 03005KT 15SM FEW150 FEW250 08/05 A3017 RMK AC1CI1 CI TR SLP221<br><br>
TAF CYYZ 021138Z 0212/0318 03005KT P6SM FEW150 SCT250 BECMG 0213/0215 12015KT FM022300 16010KT P6SM -SHRA OVC025 FM030500 14008KT 3SM -SHRA BR OVC007 FM031100 28010KT P6SM -SHRA OVC010 FM031400 28012G22KT P6SM BKN030 BKN080 PROB30 0316/0318 VRB15G25KT 3SM SHRA BR OVC020 RMK NXT FCST BY 021500Z<br><br>
<br><br>
CYOO 021200Z AUTO 09004KT 9SM CLR 12/07 A3018 RMK SLP222<br><br>
CYOO 021100Z AUTO 06006KT 9SM CLR 10/05 A3018 RMK SLP222<br><br>
CYOO has no TAF <br><br>
<br><br>
CYTR 021200Z 05005KT 15SM FEW028 FEW250 09/07 A3021 RMK SC1CI2 SLP231<br><br>
CYTR 021100Z 04005KT 15SM FEW028 FEW250 06/05 A3020 RMK SC1CI2 SLP231<br><br>
TAF CYTR 021130Z 0212/0312 04005KT P6SM FEW025 FEW250 BECMG 0214/0216 14008KT FM022000 14008KT P6SM BKN220 BECMG 0223/0301 BKN120 FM030400 14010KT P6SM BKN050 TEMPO 0304/0307 P6SM -SHRA FM030700 14012KT 6SM -RA BR SCT015 OVC030 FM030900 14012KT 3SM -RA BR SCT008 OVC015 RMK NXT FCST BY 021800Z<br><br>
<br><br>
