RETRIEVED AT : Jun 16 2019 07:05 Local <br>
  RETRIEVED AT: Jun 16 2019 11:05 UTC<br><br>
CYSN has no TAF <br><br>
<br><br>
CYHM 161000Z 06012KT 15SM FEW014 BKN022 12/10 A2983 RMK SF2SC5 SLP104<br><br>
TAF CYHM 160538Z 1606/1706 05008KT 6SM BR OVC010 TEMPO 1606/1610 11/2SM -DZ BR OVC005 PROB40 1606/1609 3/4SM -RA -DZ BR OVC003 FM161000 04012KT P6SM FEW005 OVC012 TEMPO 1610/1612 5SM -DZ BR BKN005 OVC012 FM161400 04012KT P6SM BKN020 OVC050 FM161600 06012KT P6SM BKN025 FM170500 03005KT P6SM BKN120 RMK NXT FCST BY 161200Z<br><br>
<br><br>
KIAG 161053Z 06007KT 10SM OVC014 13/12 A2983 RMK AO2 SLP103 T01280117<br><br>
KIAG 160953Z AUTO 06006KT 10SM OVC012 13/12 A2983 RMK AO2 SLP103 T01280117<br><br>
KIAG 160903Z 1609/1706 04006KT P6SM OVC012 FM161200 05008KT P6SM OVC007 FM161700 05008KT P6SM BKN015 FM162000 05007KT P6SM SCT025 BKN120<br><br>
<br><br>
KBUF 161054Z 05007KT 1 1/2SM -RA BR OVC002 14/13 A2983 RMK AO2 SLP100 P0001 T01390133<br><br>
KBUF 161029Z 04008KT 2SM -RA BR OVC002 14/13 A2983 RMK AO2 P0000 T01390133<br><br>
KBUF 161001Z 04007KT 3SM -RA BR OVC002 14/13 A2982 RMK AO2 P0000 T01390133<br><br>
KBUF 160954Z 04009KT 2 1/2SM -RA BR OVC002 14/13 A2982 RMK AO2 RAB12 SLP099 P0000 T01390133<br><br>
KBUF 160946Z 05006KT 2 1/2SM -RA BR OVC002 14/13 A2983 RMK AO2 RAB12 P0000 T01390133<br><br>
KBUF 160931Z 04007KT 1 1/4SM -RA BR OVC002 14/13 A2983 RMK AO2 RAB12 P0000 T01440133<br><br>
KBUF 160903Z 1609/1706 04006KT 1SM -DZ BR OVC002 FM161400 05008KT P6SM OVC007 FM161700 05008KT P6SM BKN015 FM162100 05007KT P6SM SCT025 BKN120<br><br>
<br><br>
CYYZ 161000Z 06007KT 15SM FEW040 FEW085 SCT250 11/10 A2985 RMK SC1AC1CI2 SLP110<br><br>
TAF CYYZ 160839Z 1609/1712 06010KT P6SM BKN050 BECMG 1612/1614 08010KT FM170000 14005KT P6SM FEW050 BECMG 1700/1702 32005KT RMK NXT FCST BY 161200Z<br><br>
<br><br>
CYOO 161000Z AUTO 01008KT 9SM CLR 10/08 A2985 RMK SLP111<br><br>
TAF CYOO 160738Z 1608/1620 01005KT P6SM BKN100 FM161500 08010KT P6SM SKC BECMG 1618/1620 16008KT RMK FCST BASED ON AUTO OBS. NXT FCST BY 161400Z<br><br>
<br><br>
CYTR 161000Z 35002KT 15SM FEW100 FEW240 09/08 A2987 RMK AC1CI2 SLP117<br><br>
TAF CYTR 160530Z 1606/1706 VRB03KT P6SM FEW050 BKN240 PROB30 1606/1609 1SM BR FM161300 04010KT P6SM SCT240 FM161800 21010KT P6SM SCT030 BECMG 1623/1701 VRB03KT RMK NXT FCST BY 161200Z<br><br>
<br><br>
