RETRIEVED AT : Mar 21 2020 10:05 Local <br>
  RETRIEVED AT: Mar 21 2020 14:05 UTC<br><br>
CYSN 211300Z 01010KT 15SM BKN022 M05/M09 A3053 RMK SC7 SLP346<br><br>
TAF CYSN 211238Z 2113/2201 35010KT P6SM BKN025 TEMPO 2113/2116 BKN020 FM211600 01010KT P6SM SCT020 TEMPO 2116/2118 BKN020 FM211800 01010KT P6SM SKC RMK NXT FCST BY 212000Z<br><br>
<br><br>
CYHM 211300Z 01012KT 15SM FEW020 M06/M12 A3051 RMK SC1 SLP346<br><br>
TAF CYHM 211138Z 2112/2212 01010KT P6SM FEW030 FM211400 03012KT P6SM SKC FM220200 02008KT P6SM SKC BECMG 2210/2212 06012KT RMK NXT FCST BY 211800Z<br><br>
<br><br>
KIAG 211353Z 01007KT 3SM -SN OVC017 M06/M09 A3054 RMK AO2 SLP359 P0000 T10561089<br><br>
KIAG 211253Z 02011KT 4SM -SN OVC022 M05/M09 A3051 RMK AO2 SNB49 SLP349 P0000 T10501094<br><br>
KIAG 211404Z 2114/2212 02008KT 6SM -SHSN OVC025 FM211600 36009KT P6SM SCT035 FM211700 36009KT P6SM SKC FM220000 03005KT P6SM SKC<br><br>
<br><br>
KBUF 211354Z 04007KT 10SM OVC024 M04/M10 A3052 RMK AO2 SLP346 T10391100<br><br>
KBUF 211254Z 35007KT 10SM OVC022 M04/M09 A3049 RMK AO2 SLP336 T10391094<br><br>
KBUF 211404Z 2114/2212 02008KT P6SM OVC025 FM211600 36008KT P6SM SCT025 FM211900 35008KT P6SM SKC FM220000 03005KT P6SM SKC<br><br>
<br><br>
CYYZ 211300Z 02011G18KT 15SM SKC M08/M14 A3054 RMK SLP353<br><br>
TAF CYYZ 211138Z 2112/2218 35010G20KT P6SM SKC BECMG 2114/2116 01012KT FM220100 02008KT P6SM SKC FM221400 08012KT P6SM BKN020 BECMG 2215/2217 09015G25KT RMK NXT FCST BY 211500Z<br><br>
<br><br>
CYOO 211300Z AUTO 36011G19KT 9SM CLR M08/M12 A3054 RMK SLP350<br><br>
TAF CYOO 211343Z 2114/2202 36010G20KT P6SM SKC BECMG 2115/2117 35010KT FM220000 36008KT P6SM SCT170 RMK FCST BASED ON AUTO OBS. NXT FCST BY 212000Z<br><br>
<br><br>
CYTR 211300Z 36007KT 15SM SKC M07/M13 A3054 RMK SLP348<br><br>
TAF CYTR 211130Z 2112/2212 35008KT P6SM SKC FM211700 35008KT P6SM SCT200 BECMG 2204/2206 03005KT RMK NXT FCST BY 211800Z<br><br>
<br><br>
