RETRIEVED AT : Jun 20 2020 22:05 Local <br>
  RETRIEVED AT: Jun 21 2020 02:05 UTC<br><br>
CYSN has no TAF <br><br>
<br><br>
TAF CYHM 202339Z 2100/2124 VRB03KT P6SM FEW060 PROB30 2100/2101 2SM TSRA BR BKN060CB FM210200 20005KT P6SM SKC FM211500 20012KT P6SM BKN080 PROB30 2118/2121 2SM TSRA BR BKN060 OVC080CB FM212100 20010KT P6SM SCT080 RMK NXT FCST BY 210600Z<br><br>
<br><br>
KIAG 210203Z 2102/2124 VRB03KT P6SM SCT250 FM211000 19006KT P6SM SCT200 FM211700 21010KT P6SM SCT050<br><br>
<br><br>
KBUF 210203Z 2102/2124 VRB03KT P6SM SCT250 FM211000 19006KT P6SM SCT200 FM211700 21008KT P6SM SCT050<br><br>
<br><br>
TAF CYYZ 202339Z 2100/2206 18008KT P6SM FEW070 TEMPO 2100/2102 P6SM -SHRA VCTS BKN070CB BECMG 2100/2102 14008KT FM210200 14008KT P6SM FEW060 FM210600 13006KT P6SM FEW030 BECMG 2114/2116 15010KT FEW060 FM211800 15012KT P6SM SCT080 TEMPO 2118/2121 P6SM VCTS BKN080CB FM220000 15008KT P6SM FEW080 BKN180 RMK NXT FCST BY 210300Z<br><br>
<br><br>
TAF CYOO 210142Z 2102/2114 VRB03KT P6SM SKC BECMG 2112/2114 16008KT RMK FCST BASED ON AUTO OBS. NXT FCST BY 210800Z<br><br>
<br><br>
TAF CYTR 202330Z 2100/2124 20008KT P6SM FEW060 SCT240 PROB30 2106/2110 1SM BR FM211400 20008KT P6SM FEW040 RMK NXT FCST BY 210600Z<br><br>
<br><br>
