RETRIEVED AT : Jul 04 2020 19:05 Local <br>
  RETRIEVED AT: Jul 04 2020 23:05 UTC<br><br>
CYSN 042200Z VRB05KT 15SM FEW230 30/12 A2995 RMK CI2 SLP142 DENSITY ALT 2100FT<br><br>
TAF CYSN 041938Z 0420/0501 03006KT P6SM SCT250 BECMG 0422/0424 VRB03KT RMK NXT FCST WILL BE ISSUED AT 051245Z<br><br>
<br><br>
CYHM 042200Z 29002KT 15SM FEW250 30/10 A2998 RMK CI1 SLP149 DENSITY ALT 2700FT<br><br>
TAF CYHM 041738Z 0418/0518 02008KT P6SM FEW050 SCT250 BECMG 0422/0424 VRB03KT BECMG 0513/0515 25007KT RMK NXT FCST BY 050000Z<br><br>
<br><br>
KIAG 042253Z 34005KT 10SM CLR 29/09 A2995 RMK AO2 SLP136 T02890094<br><br>
KIAG 042153Z VRB04KT 10SM CLR 29/09 A2996 RMK AO2 SLP140 T02940089<br><br>
KIAG 042135Z 0422/0518 32006KT P6SM FEW060 FEW250 FM050100 VRB03KT P6SM FEW060 FEW250 FM051500 25008KT P6SM FEW060 FEW150<br><br>
<br><br>
KBUF 042254Z 35005KT 10SM FEW260 31/08 A2996 RMK AO2 SLP139 T03060083<br><br>
KBUF 042154Z 32008KT 10SM FEW260 31/11 A2998 RMK AO2 SLP145 T03110106<br><br>
KBUF 042135Z 0422/0518 02008KT P6SM FEW060 FEW250 FM050100 VRB04KT P6SM FEW250 FM051500 24008KT P6SM FEW045 FEW100<br><br>
<br><br>
CYYZ 042200Z VRB02KT 15SM FEW250 30/10 A2995 RMK CI1 SLP141 DENSITY ALT 2400FT<br><br>
TAF CYYZ 042038Z 0421/0524 17008KT P6SM FEW250 BECMG 0423/0501 02008KT BECMG 0513/0515 28008KT RMK NXT FCST BY 050000Z<br><br>
<br><br>
CYOO 042200Z AUTO 22006KT 170V260 9SM CLR 28/10 A2995 RMK SLP143 DENSITY ALT 2000FT<br><br>
TAF CYOO 041938Z 0420/0508 17008KT P6SM FEW250 BECMG 0423/0501 35005KT RMK FCST BASED ON AUTO OBS. NXT FCST BY 050200Z<br><br>
<br><br>
CYTR 042200Z 21010KT 15SM SCT250 28/14 A2993 RMK CI3 SLP134<br><br>
TAF CYTR 041732Z 0418/0518 03005KT P6SM FEW250 BECMG 0418/0420 21008KT FM050200 35005KT P6SM SCT080 BECMG 0515/0517 25008KT RMK NXT FCST BY 050000Z<br><br>
<br><br>
