RETRIEVED AT : Mar 29 2020 18:05 Local <br>
  RETRIEVED AT: Mar 29 2020 22:05 UTC<br><br>
CYSN 292100Z 25020G36KT 15SM FEW050 BKN068 17/08 A2958 RMK SC1AC6 SLP018 DENSITY ALT 1100FT<br><br>
TAF CYSN 291938Z 2920/3001 21008KT P6SM SCT040 BECMG 2920/2921 23025G45KT FM300000 23018G30KT P6SM BKN030 RMK NXT FCST WILL BE ISSUED AT 301245Z<br><br>
<br><br>
CYHM 292139Z 24031G47KT 15SM FEW030 FEW044 BKN070 13/05 A2962 WS RWY24 RMK SF1SC2AC5 SF TR SLP037 DENSITY ALT 1100FT<br><br>
CYHM 292100Z 24036G45KT 15SM FEW030 FEW046 BKN076 14/06 A2959 RMK CF1SC2AC5 CF TR SLP025 DENSITY ALT 1300FT<br><br>
TAF CYHM 291738Z 2918/3018 21010G20KT P6SM BKN025 BKN240 TEMPO 2918/2919 3SM +TSRAGR BR BKN005 OVC015CB FM291900 23020G38KT P6SM SCT020 BKN040 TEMPO 2919/2922 BKN020 BKN040 FM292200 23020G32KT P6SM BKN030 BKN050 TEMPO 3000/3002 BKN020 OVC040 FM300200 23018G28KT P6SM -SHRA BKN020 OVC030 TEMPO 3002/3006 SCT020 OVC040 FM300600 23015G25KT P6SM -SHRA OVC015 BECMG 3014/3016 26015G25KT RMK NXT FCST BY 300000Z<br><br>
<br><br>
KIAG 292153Z 26024G39KT 10SM BKN055 BKN100 14/06 A2965 RMK AO2 PK WND 25039/2147 SLP044 T01440061<br><br>
KIAG 292053Z 22012KT 10SM BKN075 16/09 A2960 RMK AO2 RAE1955 SLP027 P0000 60004 T01610089 53039<br><br>
KIAG 292134Z 2922/3018 24015G35KT P6SM BKN050 FM300200 24018G32KT P6SM BKN080 FM300800 23018G29KT P6SM -SHRA OVC030 FM301200 23018G31KT 5SM -SHRA BR OVC015<br><br>
<br><br>
KBUF 292154Z 22020G27KT 10SM SCT070 SCT120 12/05 A2968 RMK AO2 PK WND 23036/2118 SLP054 T01170050<br><br>
KBUF 292054Z 23021G31KT 10SM SCT070 BKN120 14/06 A2963 RMK AO2 PK WND 21031/2046 SLP035 P0000 60020 T01390061 51048<br><br>
KBUF 292134Z 2922/3018 24023G38KT P6SM SCT100 FM300200 24018G32KT P6SM BKN040 FM300900 24020G30KT P6SM -SHRA OVC030 FM301200 24019G31KT 4SM -SHRA BR OVC015<br><br>
<br><br>
CYYZ 292100Z 25021G31KT 210V280 15SM SCT055 BKN080 16/07 A2956 RMK CF3AC4 SLP013 DENSITY ALT 1300FT<br><br>
CYYZ 292021Z 23018G36KT 15SM SCT045 BKN120 18/10 A2953 RMK SC4AC1 TCU EMBD SLP004 DENSITY ALT 1500FT<br><br>
TAF CYYZ 292038Z 2921/3024 23022G45KT P6SM SCT040 BECMG 2922/2924 23018G30KT FM300200 23015G25KT P6SM FEW020 BKN040 TEMPO 3002/3004 BKN020 OVC040 FM300400 23015G25KT P6SM -SHRA OVC015 TEMPO 3004/3006 OVC025 BECMG 3008/3010 24012G22KT FM301700 26015G25KT P6SM -SHRA OVC015 RMK NXT FCST BY 300000Z<br><br>
<br><br>
CYOO 292100Z AUTO 15010KT 140V220 9SM SCT095 15/13 A2956 RMK TS/LTNG TEMPO UNAVBL SLP012 DENSITY ALT 1000FT<br><br>
TAF CYOO 291938Z 2920/3008 09005KT WS005/24025KT P6SM SCT040 BKN120 TEMPO 2920/2921 BKN015 BKN030 BKN120 FM292100 23018G38KT P6SM SCT040 FM300000 23015G25KT P6SM BKN030 TEMPO 3002/3005 BKN020 FM300500 23012G22KT P6SM -SHRA OVC015 TEMPO 3005/3007 OVC025 RMK FCST BASED ON AUTO OBS. NXT FCST BY 300200Z<br><br>
<br><br>
CYTR 292128Z 29006KT 10SM FEW015 BKN055 BKN085 11/10 A2959 RMK SF2SC5AC1 SLP024<br><br>
CYTR 292100Z 19002KT 10SM -SHRA SCT010 BKN055 BKN080 11/10 A2957 RMK SF3SC3AC1 SLP017<br><br>
CYTR 292043Z 15006KT 7SM -SHRA SCT010 BKN030 BKN075 11/10 A2958 RMK SF3SC3AC1 SLP019<br><br>
CYTR 292026Z 13009KT 10SM TS FEW015 BKN031 BKN075 11/08 A2955 RMK SF2SC5AC1 CB DIST NE MOVG NE OCNL LTGCCCG PRESFR SLP007<br><br>
TAF AMD CYTR 292132Z 2921/3018 VRB03KT P6SM SCT010 BKN050 TEMPO 2921/2924 2SM -SHRA BR BKN010 OVC030 BECMG 2921/2923 23015G30KT FM300300 24015KT P6SM OVC020 FM300800 23012KT 6SM -RA BR OVC010 FM301300 23012G22KT 3SM -SHRA BR OVC008 RMK NXT FCST BY 300000Z<br><br>
<br><br>
