RETRIEVED AT : Sep 02 2017 13:10 Local <br>
  RETRIEVED AT: Sep 02 2017 17:10 UTC<br><br>
CYSN 021700Z 09010G15KT 070V150 15SM FEW140 BKN240 21/06 A3009 RMK AC1CI6 AC TR SLP190 DENSITY ALT 1000FT<br><br>
CYSN 021600Z 10008G15KT 070V130 15SM BKN240 20/07 A3012 RMK CI5 SLP200 DENSITY ALT 800FT<br><br>
TAF CYSN 021239Z 0213/0301 12008KT P6SM BKN250 BECMG 0217/0219 14012KT FM022100 14008KT P6SM BKN050 OVC120 TEMPO 0221/0301 P6SM -SHRA RMK NXT FCST BY 022000Z<br><br>
<br><br>
CYHM 021700Z 06010G17KT 15SM FEW040 BKN250 19/11 A3008 RMK SC1CI6 SC TR SLP189 DENSITY ALT 1300FT<br><br>
CYHM 021600Z 05011KT 15SM FEW150 BKN250 18/09 A3011 RMK AC1CI5 AC TR SLP199 DENSITY ALT 1200FT<br><br>
TAF CYHM 021138Z 0212/0312 07010KT P6SM BKN250 BECMG 0217/0219 10015KT FM022000 12015KT P6SM -SHRA BKN025 OVC140 FM022300 12010KT 6SM -RA BR OVC012 FM030700 18012KT 3SM -SHRA BR OVC008 FM031100 27010G20KT 6SM -SHRA BR BKN008 OVC020 RMK NXT FCST BY 021800Z<br><br>
<br><br>
KIAG 021653Z 08010KT 10SM CLR 22/05 A3009 RMK AO2 SLP193 T02170050<br><br>
KIAG 021553Z 08008KT 10SM CLR 19/05 A3013 RMK AO2 SLP204 T01890050<br><br>
KIAG 021511Z 0215/0312 13009KT P6SM SCT250 FM022100 14011KT P6SM OVC070 FM022300 13008KT P6SM OVC045 FM030200 13006KT P6SM -RA OVC035 FM030400 14006KT 4SM RA OVC030 FM031000 17006KT 2SM +RA OVC020<br><br>
<br><br>
KBUF 021654Z 13010KT 10SM FEW150 BKN200 BKN250 19/02 A3010 RMK AO2 SLP194 T01940017<br><br>
KBUF 021554Z 12011KT 10SM FEW150 SCT200 BKN250 20/01 A3012 RMK AO2 SLP201 T02000011<br><br>
KBUF 021511Z 0215/0312 12009KT P6SM FEW150 BKN250 FM022000 15010KT P6SM BKN100 FM022100 15011G17KT P6SM OVC060 FM030000 12006KT P6SM -RA OVC035 FM030400 VRB03KT 4SM RA OVC035 FM031000 18005KT 2SM +RA OVC025<br><br>
<br><br>
CYYZ 021700Z 09014G20KT 080V140 15SM FEW040 FEW140 SCT260 19/07 A3012 RMK CF1AC1CI3 CF TR AC TR SLP201 DENSITY ALT 1000FT<br><br>
CYYZ 021600Z 10013KT 090V150 15SM FEW150 FEW260 18/08 A3013 RMK AC1CI2 AC TR SLP207 DENSITY ALT 900FT<br><br>
TAF CYYZ 021438Z 0215/0318 12015KT P6SM FEW150 SCT250 FM022300 12008KT P6SM -SHRA OVC025 FM030500 14008KT 3SM -SHRA BR OVC007 FM031100 28010KT P6SM -SHRA OVC010 FM031400 28012G22KT P6SM BKN030 BKN080 PROB30 0316/0318 VRB15G25KT 3SM SHRA BR OVC020 RMK NXT FCST BY 021800Z<br><br>
<br><br>
CYOO 021700Z AUTO 12012G18KT 9SM CLR 18/10 A3014 RMK SLP211 DENSITY ALT 600FT<br><br>
CYOO 021600Z AUTO 12011G18KT 070V160 9SM FEW029 17/10 A3016 RMK SLP217 DENSITY ALT 500FT<br><br>
CYOO has no TAF <br><br>
<br><br>
CYTR 021700Z 12006KT 15SM FEW028 SCT250 19/10 A3017 RMK SC1CI3 SLP217<br><br>
CYTR 021600Z 14003KT 15SM FEW028 SCT250 18/11 A3019 RMK SC2CI2 SLP224<br><br>
TAF CYTR 021130Z 0212/0312 04005KT P6SM FEW025 FEW250 BECMG 0214/0216 14008KT FM022000 14008KT P6SM BKN220 BECMG 0223/0301 BKN120 FM030400 14010KT P6SM BKN050 TEMPO 0304/0307 P6SM -SHRA FM030700 14012KT 6SM -RA BR SCT015 OVC030 FM030900 14012KT 3SM -RA BR SCT008 OVC015 RMK NXT FCST BY 021800Z<br><br>
<br><br>
