RETRIEVED AT : Apr 04 2020 09:05 Local <br>
  RETRIEVED AT: Apr 04 2020 13:05 UTC<br><br>
CYSN 041200Z 28004KT 2SM BR OVC003 06/06 A3005 RMK SF8 SLP179<br><br>
TAF CYSN 041238Z 0413/0501 28005KT 2SM -DZ BR OVC002 TEMPO 0413/0415 P6SM NSW SCT002 OVC010 FM041500 30008KT P6SM BKN020 TEMPO 0415/0418 BKN025 FM041800 33008KT P6SM BKN025 TEMPO 0418/0501 BKN020 RMK NXT FCST BY 042000Z<br><br>
<br><br>
CYHM 041200Z 36003KT 290V020 10SM FEW003 BKN013 05/05 A3005 RMK SF1SC6 SLP182<br><br>
TAF CYHM 041139Z 0412/0512 VRB03KT P6SM FEW006 BKN010 OVC050 TEMPO 0412/0414 4SM -DZ BR OVC006 FM041400 VRB03KT P6SM BKN015 BKN050 TEMPO 0414/0417 SCT015 BKN050 FM041700 07006KT P6SM BKN025 FM042200 VRB03KT P6SM BKN030 BKN080 FM050300 22007KT P6SM -SHRA BKN030 OVC050 FM050700 25007KT P6SM BKN025 OVC050 FM051000 29008KT P6SM BKN010 OVC030 RMK NXT FCST BY 041800Z<br><br>
<br><br>
KIAG 041253Z 31005KT 2SM BR OVC002 06/06 A3005 RMK AO2 SLP187 T00560056<br><br>
KIAG 041250Z 30005KT 1 3/4SM BR OVC002 06/06 A3005 RMK AO2<br><br>
KIAG 041216Z 29003KT 1 1/4SM BR OVC002 06/05 A3004 RMK AO2 T00560050<br><br>
KIAG 041153Z 27003KT 1 1/2SM BR OVC002 06/05 A3004 RMK AO2 SLP182 70003 T00560050 10056 20050 53011<br><br>
KIAG 041146Z 26003KT 1 1/4SM BR OVC002 05/05 A3004 RMK AO2 T00500050<br><br>
KIAG 041120Z 0412/0512 30005KT 2SM BR OVC003 FM041400 24005KT 6SM BR OVC007 FM041600 24005KT P6SM OVC012 FM042100 VRB03KT P6SM BKN035 FM050900 28005KT P6SM VCSH OVC030<br><br>
<br><br>
KBUF 041301Z 27004KT 1 1/2SM R23/5500VP6000FT -DZ BR OVC003 06/05 A3006 RMK AO2 DZB01 P0000 T00610050<br><br>
KBUF 041254Z 27003KT 5SM BR OVC003 06/05 A3005 RMK AO2 SLP182 T00610050<br><br>
KBUF 041154Z 27003KT 3SM BR OVC002 06/05 A3004 RMK AO2 DZE49 SLP176 P0000 60002 70008 T00610050 10061 20050 53009<br><br>
KBUF 041120Z 0412/0512 22003KT 2SM -DZ BR OVC003 FM041500 22006KT P6SM OVC007 FM041700 24007KT P6SM BKN012 FM042300 VRB03KT P6SM SCT030 FM050200 VRB03KT P6SM BKN060<br><br>
<br><br>
CYYZ 041248Z VRB02KT 15SM FEW007 BKN019 07/06 A3006 RMK SF2SC5 SLP185<br><br>
CYYZ 041200Z 31006KT 270V360 15SM OVC015 06/05 A3005 RMK ST8 SLP182<br><br>
CYYZ 041149Z 32006KT 10SM OVC015 06/06 A3005 RMK ST8 SLP180<br><br>
TAF CYYZ 041139Z 0412/0518 33008KT P6SM FEW007 SCT015 OVC060 TEMPO 0412/0415 5SM BR BKN007 OVC015 FM041500 11008KT P6SM BKN015 OVC040 TEMPO 0415/0420 BKN025 OVC040 FM042000 14008KT P6SM BKN025 FM050000 13008KT P6SM BKN030 BKN100 FM050300 15008KT P6SM -SHRA BKN030 OVC080 FM050700 VRB03KT 4SM BR SCT006 OVC015 PROB40 0507/0509 2SM BR OVC006 FM050900 35008KT P6SM SCT008 BKN012 OVC040 PROB30 0509/0513 OVC008 FM051500 34015KT P6SM SCT015 RMK NXT FCST BY 041500Z<br><br>
<br><br>
CYOO 041200Z AUTO 34002KT 9SM BKN027 OVC034 06/06 A3004 RMK SLP179<br><br>
TAF AMD CYOO 041006Z 0410/0420 01005KT 5SM BR OVC020 TEMPO 0410/0414 P6SM NSW SCT020 OVC030 PROB30 0410/0414 3SM -DZ BR OVC007 FM041400 VRB03KT P6SM OVC015 TEMPO 0414/0420 BKN025 BECMG 0416/0418 19008KT RMK FCST BASED ON AUTO OBS. NXT FCST BY 041400Z<br><br>
<br><br>
CYTR 041200Z 07003KT 15SM BKN035 07/04 A3004 RMK SC7 SLP177<br><br>
TAF CYTR 041130Z 0412/0512 VRB03KT P6SM FEW015 BKN030 OVC100 TEMPO 0412/0419 BKN015 OVC030 BECMG 0417/0419 20008KT FM041900 20008KT P6SM SCT040 BECMG 0500/0502 VRB03KT FM050700 VRB03KT P6SM SCT040 OVC070 TEMPO 0507/0512 P6SM -SHRA OVC040 RMK NXT FCST BY 041800Z<br><br>
<br><br>
