RETRIEVED AT : Jun 18 2018 04:28 Local <br>
  RETRIEVED AT: Jun 18 2018 08:28 UTC<br><br>
CYSN has no TAF <br><br>
<br><br>
CYHM 180800Z 22006KT 15SM SCT260 22/20 A2993 RMK CI3 SLP133 DENSITY ALT 1800FT<br><br>
CYHM 180700Z 20005KT 15SM FEW260 22/20 A2994 RMK CI2 SLP137 DENSITY ALT 1800FT<br><br>
TAF CYHM 180538Z 1806/1906 23010KT P6SM SKC BECMG 1813/1815 25015G25KT FM181700 26018G28KT P6SM BKN050 PROB30 1817/1822 VRB20G30KT 1SM +TSRA BR BKN020 OVC050CB FM182200 29015G25KT P6SM -SHRA BKN070 PROB30 1822/1824 VRB20G30KT 1SM +SHRA BR BKN020 OVC050CB FM190000 32012G22KT P6SM BKN025 FM190200 32008KT P6SM FEW030 BECMG 1904/1906 02008KT RMK NXT FCST BY 181200Z<br><br>
<br><br>
KIAG 180753Z AUTO 22009KT 10SM CLR 25/18 A2993 RMK AO2 SLP128 T02500183<br><br>
KIAG 180653Z AUTO 21007KT 10SM FEW065 SCT085 25/18 A2995 RMK AO2 SLP133 T02500183<br><br>
KIAG 180540Z 1806/1906 21006KT P6SM BKN250 FM181200 22012KT P6SM FEW120 OVC200 FM181500 23014G22KT P6SM SCT050 OVC200 FM182200 24012G20KT 5SM +TSRA BKN050CB FM190100 26008KT P6SM VCSH BKN025 FM190400 33008KT P6SM BKN040<br><br>
<br><br>
KBUF 180754Z 23012KT 10SM FEW065 BKN250 27/19 A2995 RMK AO2 SLP136 T02670189<br><br>
KBUF 180654Z 20006KT 10SM FEW065 SCT250 24/19 A2997 RMK AO2 SLP142 T02440189<br><br>
KBUF 180540Z 1806/1906 20006KT P6SM BKN250 FM181000 23010KT P6SM FEW120 OVC200 FM181400 23015G25KT P6SM FEW120 OVC200 FM181700 24017G32KT P6SM SCT050 OVC250 FM182000 25015G25KT P6SM SCT050 BKN070 FM182300 23012G18KT 5SM +TSRA BKN050CB FM190200 26006KT P6SM VCSH BKN025<br><br>
<br><br>
CYYZ 180800Z 23007KT 15SM SCT095 BKN250 25/20 A2989 RMK AC4CI2 SLP120 DENSITY ALT 1900FT<br><br>
CYYZ 180700Z 24006KT 15SM BKN094 OVC250 25/20 A2991 RMK AC6CI2 SLP126 DENSITY ALT 1900FT<br><br>
TAF CYYZ 180538Z 1806/1912 24012KT P6SM FEW280 BECMG 1812/1814 27015G25KT FM181700 26015G25KT P6SM BKN050 PROB30 1817/1821 VRB20G30KT 1SM +TSRA BR BKN020 OVC050CB FM182100 29015G25KT P6SM -SHRA BKN070 PROB30 1821/1823 VRB20G30KT 1SM +SHRA BR BKN020 OVC050CB FM182300 31015G25KT P6SM FEW070 BECMG 1900/1902 35012G22KT BECMG 1904/1906 35012KT FM191100 02010KT P6SM SKC RMK NXT FCST BY 180900Z<br><br>
<br><br>
CYOO has no TAF <br><br>
<br><br>
CYTR 180800Z 21009KT 15SM FEW060 BKN250 22/17 A2987 RMK SC2CI5 SLP113<br><br>
CYTR 180700Z 22006KT 15SM SCT060 BKN250 21/16 A2989 RMK SC4CI2 SLP121<br><br>
TAF CYTR 180530Z 1806/1906 22008KT P6SM SCT160 FM181000 24012KT P6SM BKN050 BKN120 BECMG 1812/1814 24015G25KT FM181400 24015G25KT P6SM BKN030 OVC080 TEMPO 1814/1822 P6SM -SHRA PROB30 1817/1822 VRB20G35KT 2SM TSRA BR OVC020CB FM182200 25015G25KT P6SM SCT020 OVC120 TEMPO 1822/1902 5SM -SHRA BR BKN020 OVC120 FM190200 28010KT P6SM BKN050 BECMG 1902/1904 36008KT RMK NXT FCST BY 181200Z<br><br>
<br><br>
