RETRIEVED AT : Jul 05 2020 07:05 Local <br>
  RETRIEVED AT: Jul 05 2020 11:05 UTC<br><br>
CYSN has no TAF <br><br>
<br><br>
CYHM 051000Z 24002KT 15SM FEW080 FEW250 14/09 A3001 RMK AC1CI1 AC TR SLP160 DENSITY ALT 800FT<br><br>
TAF CYHM 050538Z 0506/0606 VRB03KT P6SM SKC BECMG 0514/0516 24007KT BECMG 0517/0519 30007KT FM060000 36007KT P6SM FEW080 FM060300 VRB03KT P6SM SKC RMK NXT FCST BY 051200Z<br><br>
<br><br>
KIAG 051053Z 00000KT 3SM HZ CLR 18/15 A3000 RMK AO2 SLP155 T01780150<br><br>
KIAG 050953Z AUTO 00000KT 4SM HZ CLR 16/13 A2999 RMK AO2 SLP153 T01610133<br><br>
KIAG 051029Z 0510/0606 00000KT 4SM HZ SCT250 FM051300 23005KT P6SM SCT250 FM051700 26008KT P6SM SCT250 FM052300 22005KT P6SM SCT250<br><br>
<br><br>
KBUF 051054Z 17004KT 10SM FEW120 FEW280 19/14 A3001 RMK AO2 SLP159 T01890144<br><br>
KBUF 050954Z 18004KT 9SM FEW110 FEW280 17/14 A3000 RMK AO2 SLP155 T01720139<br><br>
KBUF 050901Z 0509/0606 17004KT P6SM SCT250 FM051300 23006KT P6SM SCT250 FM051700 25010KT P6SM SCT250 FM052300 22005KT P6SM SCT250<br><br>
<br><br>
CYYZ 051000Z 32002KT 15SM FEW260 19/06 A2999 RMK CI2 SLP156 DENSITY ALT 1100FT<br><br>
TAF CYYZ 050839Z 0509/0612 34005KT P6SM FEW240 BECMG 0511/0513 24007KT BECMG 0515/0517 16010KT FM060100 36005KT P6SM SKC BECMG 0609/0611 07005KT RMK NXT FCST BY 051200Z<br><br>
<br><br>
CYOO 051000Z AUTO 36002KT 9SM CLR 17/12 A2997 RMK SLP150 DENSITY ALT 700FT<br><br>
TAF CYOO 050738Z 0508/0520 34007KT P6SM SKC FM051700 17010KT P6SM FEW080 RMK FCST BASED ON AUTO OBS. NXT FCST BY 051400Z<br><br>
<br><br>
CYTR 051040Z 12003KT 15SM FEW030 BKN120 18/15 A2996 RMK SC2AC3 SLP145<br><br>
CYTR 051026Z 00000KT 15SM -SHRA BKN120 18/14 A2997 RMK AC5 SLP150<br><br>
CYTR 051000Z 04003KT 15SM SCT120 SCT250 16/13 A2999 RMK AC3CI1 FST STFD OBS CI TR SLP156<br><br>
TAF AMD CYTR 050900Z 0509/0606 VRB03KT P6SM BKN080 BKN250 TEMPO 0509/0512 5SM SHRA BR BKN030 OVC100 PROB30 0509/0512 VRB15G25KT 2SM TSRA BR OVC030CB BECMG 0515/0517 23010KT FM052000 28010G20KT P6SM BKN030 BKN200 FM060300 33008KT P6SM SCT150 BKN250 RMK FCST BASED ON AUTO OBS 050900-051000Z. NXT FCST BY 051200Z<br><br>
<br><br>
