RETRIEVED AT : Mar 15 2020 17:05 Local <br>
  RETRIEVED AT: Mar 15 2020 21:05 UTC<br><br>
CYSN 152000Z 04011KT 15SM SKC 02/M13 A3063 RMK SLP377<br><br>
TAF CYSN 151938Z 1520/1601 04015KT P6SM SKC BECMG 1523/1601 08008KT RMK NXT FCST WILL BE ISSUED AT 161245Z<br><br>
<br><br>
CYHM 152000Z 07010G16KT 020V080 15SM SKC 02/M11 A3060 RMK SLP375<br><br>
TAF CYHM 151739Z 1518/1618 05010G20KT P6SM SKC BECMG 1523/1601 05010KT RMK NXT FCST BY 160000Z<br><br>
<br><br>
KIAG 152053Z 03012KT 10SM CLR 02/M12 A3060 RMK AO2 SLP376 T00171122 56009<br><br>
KIAG 151953Z 01011KT 10SM CLR 02/M09 A3060 RMK AO2 SLP378 T00221094<br><br>
KIAG 151720Z 1518/1618 05012KT P6SM SKC FM160000 10004KT P6SM SKC FM161400 13005KT P6SM SCT250<br><br>
<br><br>
KBUF 152054Z 02009KT 10SM FEW200 03/M12 A3058 RMK AO2 SLP364 T00331122 56009<br><br>
KBUF 151954Z 02007KT 10SM CLR 04/M10 A3058 RMK AO2 SLP365 T00391100<br><br>
KBUF 151720Z 1518/1618 01012KT P6SM SKC FM160000 08004KT P6SM SKC FM161400 14006KT P6SM SCT250<br><br>
<br><br>
CYYZ 152022Z 15011G17KT 15SM FEW230 02/M11 A3060 RMK CI1 CI TR SLP373<br><br>
CYYZ 152016Z 16013KT 15SM FEW230 03/M11 A3061 RMK CI1 CI TR WSHFT 2000 SLP374<br><br>
CYYZ 152000Z 11009G16KT 090V160 15SM FEW230 03/M11 A3062 RMK CI1 CI TR SLP377<br><br>
TAF CYYZ 152040Z 1521/1624 17010G20KT P6SM SKC TEMPO 1521/1523 35010G20KT BECMG 1523/1601 08008KT FM161100 10012KT P6SM SKC BECMG 1612/1614 11010G20KT BECMG 1623/1624 09008KT RMK NXT FCST BY 160000Z<br><br>
<br><br>
CYOO 152000Z AUTO 36007G15KT 290V030 9SM CLR 03/M14 A3063 RMK SLP379<br><br>
TAF CYOO 151938Z 1520/1608 08006KT P6SM SKC BECMG 1600/1602 VRB03KT BECMG 1604/1606 07008KT RMK FCST BASED ON AUTO OBS. NXT FCST BY 160200Z<br><br>
<br><br>
CYTR 152000Z 34009KT 15SM SKC 03/M15 A3063 RMK SLP379<br><br>
TAF CYTR 151730Z 1518/1618 05008KT P6SM SKC BECMG 1609/1611 SCT240 BECMG 1614/1616 10008KT RMK NXT FCST BY 160000Z<br><br>
<br><br>
