RETRIEVED AT : Jun 08 2019 18:05 Local <br>
  RETRIEVED AT: Jun 08 2019 22:05 UTC<br><br>
CYSN 082100Z 04011KT 15SM BKN250 23/08 A3014 RMK CI6 SLP209 DENSITY ALT 1100FT<br><br>
TAF CYSN 081938Z 0820/0901 05015KT P6SM FEW250 BECMG 0823/0901 09008KT RMK NXT FCST WILL BE ISSUED AT 091245Z<br><br>
<br><br>
CYHM 082100Z 04014G20KT 15SM BKN250 20/04 A3017 RMK CI6 SLP218 DENSITY ALT 1300FT<br><br>
TAF CYHM 081738Z 0818/0918 03010G20KT P6SM SCT250 BECMG 0819/0821 05012G22KT FM090300 04010KT P6SM BKN250 FM091500 09010G20KT P6SM SCT180 BKN250 RMK NXT FCST BY 090000Z<br><br>
<br><br>
KIAG 082153Z 05012KT 10SM CLR 24/06 A3014 RMK AO2 SLP207 T02440061<br><br>
KIAG 082053Z 06013KT 10SM CLR 25/08 A3015 RMK AO2 SLP210 T02500078 58003<br><br>
KIAG 082104Z 0821/0918 07013KT P6SM FEW250 FM090000 08009KT P6SM SCT250 FM090400 10006KT P6SM SCT250 FM091000 13006KT P6SM SCT250<br><br>
<br><br>
KBUF 082154Z 06013KT 10SM FEW200 SCT280 25/06 A3014 RMK AO2 SLP205 T02500061<br><br>
KBUF 082054Z 05016KT 10SM FEW200 SCT280 26/08 A3015 RMK AO2 SLP208 T02560078 58004<br><br>
KBUF 082104Z 0821/0918 07015G20KT P6SM SCT250 FM090000 07010KT P6SM SCT250 FM090400 10006KT P6SM SCT250 FM091000 13006KT P6SM SCT250 FM091500 13010G16KT P6SM SCT250<br><br>
<br><br>
CYYZ 082100Z 09012G19KT 15SM BKN250 23/M01 A3019 RMK CI5 SLP224 DENSITY ALT 1400FT<br><br>
TAF CYYZ 082038Z 0821/0924 09012G22KT P6SM SCT250 BECMG 0900/0902 08008KT FM090900 06005KT P6SM BKN250 BECMG 0914/0916 11010G20KT BECMG 0920/0922 09010KT RMK NXT FCST BY 090000Z<br><br>
<br><br>
CYOO 082100Z AUTO 13008KT 100V170 9SM CLR 23/01 A3020 RMK SLP226 DENSITY ALT 1100FT<br><br>
TAF CYOO 081938Z 0820/0908 11010G20KT P6SM SKC BECMG 0822/0824 07008KT RMK FCST BASED ON AUTO OBS. NXT FCST BY 090200Z<br><br>
<br><br>
CYTR 082100Z 12003KT 15SM FEW220 25/06 A3019 RMK CI1 SLP224<br><br>
TAF CYTR 081730Z 0818/0918 11008KT P6SM FEW220 BECMG 0818/0819 21010KT BECMG 0900/0901 08005KT FM091400 16005KT P6SM FEW280 RMK NXT FCST BY 090000Z<br><br>
<br><br>
