RETRIEVED AT : Mar 06 2020 23:05 Local <br>
  RETRIEVED AT: Mar 07 2020 04:05 UTC<br><br>
CYSN has no TAF <br><br>
<br><br>
CYHM 070300Z 35012G17KT 15SM FEW015 BKN037 M01/M05 A3025 RMK CF1SC7 CF TR SLP256<br><br>
TAF AMD CYHM 070108Z 0701/0724 01012G22KT P6SM OVC030 TEMPO 0701/0703 6SM -SN OVC012 FM070600 01010KT P6SM SCT020 FM071200 36006KT P6SM SKC FM071800 25009KT P6SM FEW120 BECMG 0722/0724 21009KT RMK NXT FCST BY 070600Z<br><br>
<br><br>
KIAG 070353Z 02011G20KT 10SM OVC033 M01/M05 A3025 RMK AO2 SLP258 T10061050<br><br>
KIAG 070253Z 02010KT 10SM OVC030 00/M04 A3022 RMK AO2 UPB0157E02B18E30SNE0157B02E18 SLP249 P0000 60000 T00001044 51021<br><br>
KIAG 070246Z 02012KT 10SM BKN030 OVC037 00/M04 A3022 RMK AO2 UPB0157E02B18E30SNE0157B02E18 P0000 T00001039<br><br>
KIAG 070230Z 0703/0724 01014G22KT 6SM -SHSN OVC025 FM070400 01014KT P6SM BKN025 FM070600 01012KT P6SM SCT040 FM071600 29006KT P6SM BKN100<br><br>
<br><br>
KBUF 070354Z 02008KT 10SM -SN FEW009 FEW030 OVC042 M01/M03 A3023 RMK AO2 SLP247 PCPN VRY LGT P0001 T10061033<br><br>
KBUF 070331Z 36008KT 8SM -SN FEW009 BKN031 OVC043 M01/M03 A3023 RMK AO2 P0001 T10061028<br><br>
KBUF 070306Z 01007G17KT 2 1/2SM -SN BR SCT009 OVC029 M01/M03 A3022 RMK AO2 P0000 T10061028<br><br>
KBUF 070254Z 01010G17KT 3SM -SN BR FEW007 BKN033 OVC043 M01/M03 A3021 RMK AO2 SLP240 P0000 60001 T10061028 53023<br><br>
KBUF 070213Z 36011G20KT 9SM -SN FEW007 BKN013 OVC024 00/M02 A3019 RMK AO2 P0000 T00001022<br><br>
KBUF 070345Z 0704/0724 01012KT P6SM BKN025 FM070600 36008KT P6SM SCT040 FM071700 25010KT P6SM BKN100<br><br>
<br><br>
CYYZ 070300Z 03014G21KT 15SM BKN035 OVC060 00/M06 A3027 RMK SC6SC2 SLP259<br><br>
TAF CYYZ 070238Z 0703/0806 02012G22KT P6SM BKN040 FM070600 36012G22KT P6SM SCT025 FM070900 36012KT P6SM SKC FM071500 35008KT P6SM FEW120 BECMG 0715/0717 23009KT RMK NXT FCST BY 070600Z<br><br>
<br><br>
CYOO 070300Z AUTO 01008KT 9SM FEW039 M01/M07 A3026 RMK SLP253<br><br>
TAF CYOO 070138Z 0702/0714 02010G20KT P6SM OVC030 BECMG 0704/0706 36010KT FM070600 36010KT P6SM FEW030 RMK FCST BASED ON AUTO OBS. NXT FCST BY 070800Z<br><br>
<br><br>
CYTR 070300Z 03011G18KT 15SM FEW024 SCT130 M01/M08 A3023 RMK SC1AC3 SLP241<br><br>
TAF CYTR 062330Z 0700/0724 03015G25KT P6SM OVC025 TEMPO 0700/0702 P6SM -SHSN OVC020 BECMG 0702/0704 01015KT FM070500 01012KT P6SM SCT025 FM070800 36008KT P6SM SKC BECMG 0718/0720 26008KT RMK NXT FCST BY 070600Z<br><br>
<br><br>
