RETRIEVED AT : Jul 05 2020 16:05 Local <br>
  RETRIEVED AT: Jul 05 2020 20:05 UTC<br><br>
CYSN 051900Z 32010KT 290V360 15SM SCT100 BKN200 32/14 A2996 RMK AC3CI3 SLP145 DENSITY ALT 2300FT<br><br>
TAF CYSN 051938Z 0520/0601 32008KT P6SM SCT250 BECMG 0523/0601 07006KT RMK NXT FCST WILL BE ISSUED AT 061245Z<br><br>
<br><br>
CYHM 051900Z 22007KT 15SM BKN280 32/13 A2999 RMK CI5 SLP153 DENSITY ALT 2800FT<br><br>
TAF CYHM 051738Z 0518/0618 VRB03KT P6SM FEW060 BKN250 BECMG 0601/0603 SKC FM060900 04008KT P6SM SCT090 RMK NXT FCST BY 060000Z<br><br>
<br><br>
KIAG 051953Z COR 31008KT 10SM CLR 31/14 A2997 RMK AO2 SLP142 T03110139<br><br>
KIAG 051853Z 33005KT 10SM CLR 31/14 A2998 RMK AO2 SLP144 T03110144<br><br>
KIAG 051838Z 0519/0618 23010KT P6SM SCT250 FM052200 24006KT P6SM SCT250 FM060100 18003KT P6SM SCT200 FM061500 05006KT P6SM SCT200<br><br>
<br><br>
KBUF 051954Z 26009KT 10SM FEW120 SCT180 BKN230 BKN270 32/12 A2998 RMK AO2 SLP147 T03220117<br><br>
KBUF 051854Z 25008KT 10SM SCT180 BKN230 BKN270 32/12 A2999 RMK AO2 SLP151 T03170122<br><br>
KBUF 051720Z 0518/0618 25010KT P6SM SCT250 FM060000 20004KT P6SM SCT200 FM061600 03005KT P6SM SCT050<br><br>
<br><br>
CYYZ 051900Z 20004G16KT 160V300 15SM FEW170 BKN230 32/09 A2996 RMK AC2CI5 SLP145 DENSITY ALT 2600FT<br><br>
TAF CYYZ 051738Z 0518/0624 27007KT P6SM FEW150 BKN250 BECMG 0601/0603 02006KT FM061300 10010KT P6SM SCT090 RMK NXT FCST BY 052100Z<br><br>
<br><br>
CYOO 051900Z AUTO 27007KT 210V350 9SM CLR 32/10 A2996 RMK SLP144 DENSITY ALT 2400FT<br><br>
TAF CYOO 051938Z 0520/0608 30007KT P6SM BKN250 BECMG 0523/0601 01005KT RMK FCST BASED ON AUTO OBS. NXT FCST BY 060200Z<br><br>
<br><br>
CYTR 051900Z 23007KT 15SM FEW040 OVC250 30/17 A2993 RMK SC1CS7 HALO SLP135<br><br>
TAF CYTR 051731Z 0518/0618 20008KT P6SM FEW040 OVC250 BECMG 0520/0522 28012KT FM060300 33006KT P6SM BKN150 BECMG 0607/0609 VRB03KT BECMG 0614/0616 21008KT RMK NXT FCST BY 060000Z<br><br>
<br><br>
