RETRIEVED AT : Nov 13 2017 06:10 Local <br>
  RETRIEVED AT: Nov 13 2017 11:10 UTC<br><br>
CYSN has no TAF <br><br>
<br><br>
CYHM 131100Z 31003KT 2SM -RA BR OVC004 01/01 A3032 RMK SC8 SLP278<br><br>
CYHM 131000Z 35003KT 2SM -RA BR OVC002 01/01 A3031 RMK SC8 SLP274<br><br>
TAF AMD CYHM 130705Z 1307/1406 04005KT 2SM -SNRA BR OVC004 TEMPO 1307/1310 6SM -RA BR SCT004 OVC020 FM131000 VRB03KT 2SM -DZ BR BKN005 OVC015 TEMPO 1310/1314 6SM BR SCT005 OVC015 PROB30 1311/1313 2SM -FZDZ BR FM131400 30007KT P6SM SCT015 BKN030 TEMPO 1314/1318 BKN015 BECMG 1404/1406 27005KT RMK NXT FCST BY 131200Z<br><br>
<br><br>
KIAG 131100Z AUTO 02003KT 7SM BKN019 BKN032 OVC041 02/00 A3032 RMK AO2 T00170000 $<br><br>
KIAG 131053Z AUTO 00000KT 7SM SCT019 BKN032 OVC040 02/00 A3032 RMK AO2 RAE27 SLP280 P0000 T00170000 $<br><br>
KIAG 130953Z AUTO 05003KT 7SM -RA BKN034 OVC046 02/M01 A3031 RMK AO2 SLP277 P0000 T00171006 $<br><br>
KIAG 130910Z 1309/1406 00000KT 5SM -RA BR OVC050 FM131300 VRB03KT P6SM OVC015 FM140500 VRB03KT P6SM OVC035<br><br>
<br><br>
KBUF 131054Z 00000KT 10SM -RASN OVC029 02/01 A3031 RMK AO2 SLP272 P0000 T00170006<br><br>
KBUF 130954Z 07003KT 9SM -RASN OVC033 01/01 A3030 RMK AO2 SLP268 P0001 T00110006<br><br>
KBUF 130910Z 1309/1406 00000KT P6SM -RASN OVC035 FM131300 VRB03KT P6SM OVC015 FM140400 VRB03KT P6SM OVC035<br><br>
<br><br>
CYYZ 131100Z 34005KT 8SM -RA BKN009 OVC019 02/01 A3033 RMK SF6SC2 SLP279<br><br>
CYYZ 131044Z 34006KT 8SM -RA BKN009 OVC021 02/01 A3033 RMK SF6SC2 SLP279<br><br>
CYYZ 131034Z 34006KT 8SM BKN009 OVC022 02/01 A3033 RMK SF6SC2 SLP278<br><br>
CYYZ 131000Z 01004KT 8SM SCT011 OVC024 02/01 A3032 RMK SF4SC4 SLP276<br><br>
CYYZ 130939Z 01004KT 8SM SCT012 BKN024 OVC041 02/01 A3032 RMK SF3SC2SC3 SLP276<br><br>
CYYZ 130926Z 01004KT 8SM -DZ SCT009 OVC038 02/01 A3032 RMK SF3SC5 SLP276<br><br>
TAF AMD CYYZ 131038Z 1310/1412 34006KT P6SM -DZ -RASN BKN009 OVC025 TEMPO 1310/1314 P6SM NSW SCT009 OVC025 FM131400 28008KT P6SM OVC030 TEMPO 1314/1320 OVC020 FM132000 VRB03KT P6SM BKN030 TEMPO 1320/1323 P6SM -SHRA BKN020 BECMG 1404/1406 30005KT RMK NXT FCST BY 131200Z<br><br>
<br><br>
CYOO 131100Z AUTO 01003KT 350V070 9SM -RA BKN014 BKN021 OVC033 02/02 A3034 RMK SLP280<br><br>
CYOO 131042Z AUTO 04002KT 6SM -RA BR OVC014 02/02 A3033 RMK SLP277<br><br>
CYOO 131032Z AUTO 02003KT 5SM -RA BR BKN014 OVC019 02/02 A3033 RMK SLP277<br><br>
CYOO 131000Z AUTO 01003KT 9SM -RA BKN020 BKN027 OVC033 02/02 A3033 RMK SLP277<br><br>
CYOO 130953Z AUTO 36003KT 9SM -RA BKN020 BKN027 OVC033 02/02 A3033 RMK SLP277<br><br>
CYOO has no TAF <br><br>
<br><br>
CYTR 131100Z 01002KT 8SM -RA BKN010 OVC019 01/01 A3036 RMK SF6SC2 SLP284<br><br>
CYTR 131018Z 03002KT 8SM -RA BKN010 BKN019 OVC041 01/00 A3035 RMK SF5SC2SC1 SLP283<br><br>
CYTR 131000Z 04002KT 8SM -RA SCT017 BKN041 OVC120 01/00 A3035 RMK SC4SC2AC2 SLP282<br><br>
TAF CYTR 130530Z 1306/1406 06005KT P6SM OVC050 FM130700 06005KT P6SM -RASN FEW020 OVC040 FM130900 05007KT 6SM -RASN BR SCT012 OVC030 TEMPO 1309/1315 BKN012 OVC030 FM131500 05007KT P6SM SCT012 OVC030 TEMPO 1315/1322 BKN012 OVC030 FM132200 04004KT P6SM FEW020 OVC040 RMK NXT FCST BY 131200Z<br><br>
<br><br>
