RETRIEVED AT : Oct 20 2018 19:46 Local <br>
  RETRIEVED AT: Oct 20 2018 23:46 UTC<br><br>
CYSN 202300Z 17009KT 8SM -SHRA OVC026 07/07 A2965 RMK CU8 SLP043<br><br>
CYSN 202254Z 17005KT 110V220 8SM SHRA OVC026 07/07 A2965 RMK CU8 SLP044<br><br>
CYSN 202224Z 24005KT 15SM OVC045 07/06 A2963 RMK CU8 SLP038<br><br>
CYSN 202200Z 24008KT 8SM -SHRA OVC037 07/06 A2963 RMK CU8 SLP036<br><br>
TAF CYSN 201938Z 2020/2101 27008KT P6SM BKN030 BKN050 TEMPO 2020/2023 P6SM -SHRA BECMG 2023/2101 36010G20KT RMK NXT FCST WILL BE ISSUED AT 211245Z<br><br>
<br><br>
CYHM 202300Z 30005KT 290V360 15SM -SHRA BKN029 OVC051 06/05 A2966 RMK SC5SC3 CVCTV CLD EMBD SLP051<br><br>
CYHM 202200Z 32006KT 4SM -SHRA BR FEW019 OVC031 05/05 A2964 RMK CU1SC7 SLP043<br><br>
TAF AMD CYHM 202234Z 2022/2118 31010KT P6SM BKN030 BKN050 TEMPO 2022/2101 4SM -SHRA BR BKN020 OVC030 FM210200 32012G22KT P6SM BKN030 FM211100 30010G20KT P6SM SCT030 FM211600 29010G20KT P6SM BKN040 RMK NXT FCST BY 210000Z<br><br>
<br><br>
KIAG 202253Z 26007KT 10SM -RA FEW036 OVC060 07/04 A2965 RMK AO2 RAB04 SLP047 P0001 T00670039<br><br>
KIAG 202153Z 22006KT 10SM SCT039 BKN050 OVC070 08/04 A2963 RMK AO2 SLP038 T00830044<br><br>
KIAG 202113Z 2021/2118 30010KT P6SM -SHRA BKN060 FM202200 34009KT 6SM -RA OVC040 FM210100 35012G18KT P6SM OVC040 FM210600 32015G21KT P6SM VCSH BKN040 FM211400 31014G20KT P6SM BKN040<br><br>
<br><br>
KBUF 202254Z 20007KT 10SM BKN060 OVC075 06/05 A2965 RMK AO2 SLP045 T00610050 $<br><br>
KBUF 202154Z 19011KT 10SM FEW030 OVC070 07/06 A2963 RMK AO2 RAE06 SLP037 P0000 T00670056 $<br><br>
KBUF 202113Z 2021/2118 28010KT P6SM -SHRA BKN040 FM202300 34009KT 6SM -RA OVC035 FM210200 35012G18KT P6SM OVC040 FM210600 32015G21KT P6SM VCSH BKN040 FM211400 31014G20KT P6SM BKN040<br><br>
<br><br>
CYYZ 202300Z 35017KT 15SM SCT050 BKN075 08/00 A2966 RMK SC4AC3 SLP050<br><br>
CYYZ 202200Z 01013KT 15SM VCSH SCT050 BKN075 BKN100 10/M01 A2962 RMK SC3AC3AC1 VCSH SW SLP035<br><br>
TAF CYYZ 202038Z 2021/2124 35010KT P6SM SCT050 BKN140 BECMG 2100/2102 35018G28KT FM210800 34012KT P6SM BKN030 TEMPO 2109/2114 P6SM -SHSN FM211500 33010G20KT P6SM BKN030 FM211700 32012G22KT P6SM BKN040 BECMG 2119/2121 29010G20KT RMK NXT FCST BY 210000Z<br><br>
<br><br>
CYOO 202300Z AUTO 34009KT 9SM FEW110 BKN190 OVC210 08/00 A2966 RMK SLP047<br><br>
CYOO 202200Z AUTO 33010G16KT 9SM BKN200 09/M00 A2962 RMK SLP036<br><br>
CYOO has no TAF <br><br>
<br><br>
CYTR 202300Z 30006KT 15SM FEW040 BKN100 08/M02 A2963 RMK SC1AC6 SLP038<br><br>
CYTR 202200Z 29005KT 15SM FEW030 BKN100 OVC200 10/M02 A2960 RMK SC1AC7CI1 SLP027<br><br>
TAF CYTR 201734Z 2018/2118 28018G28KT P6SM FEW030 SCT200 BECMG 2021/2023 31008KT FM210200 34010KT P6SM BKN040 BKN200 RMK NXT FCST BY 210000Z<br><br>
<br><br>
