RETRIEVED AT : Jun 06 2020 15:05 Local <br>
  RETRIEVED AT: Jun 06 2020 19:05 UTC<br><br>
TAF CYSN 061240Z 0613/0701 32006KT P6SM FEW060 FM061800 30007KT P6SM BKN070 TEMPO 0618/0621 P6SM -SHRA BECMG 0618/0620 31015G25KT FM062100 31015G25KT P6SM SCT060 TEMPO 0621/0623 P6SM -SHRA RMK NXT FCST BY 062000Z<br><br>
<br><br>
TAF CYHM 061739Z 0618/0718 31012G22KT P6SM BKN070 FM070000 33010G20KT P6SM SKC BECMG 0702/0704 36010KT FM071700 33010KT P6SM FEW050 RMK NXT FCST BY 070000Z<br><br>
<br><br>
KIAG 061723Z 0618/0718 32012KT P6SM SCT060 FM062000 30010KT P6SM VCSH BKN050 FM070000 34008KT P6SM SCT060 FM070400 34005KT P6SM BKN050 FM071200 36006KT P6SM SCT050<br><br>
<br><br>
KBUF 061816Z 0618/0718 23013KT P6SM SCT060 FM062000 24012KT P6SM VCSH BKN050 FM070000 32009KT P6SM SCT050 FM070400 34006KT P6SM BKN050 FM071200 01005KT P6SM SCT050<br><br>
<br><br>
TAF AMD CYYZ 061840Z 0618/0724 31012G22KT P6SM BKN070 TEMPO 0618/0620 P6SM -SHRA VCTS BKN070CB FM062000 31012G22KT P6SM BKN070 FM070000 36010G20KT P6SM SKC BECMG 0703/0705 36010KT RMK NXT FCST BY 062100Z<br><br>
<br><br>
TAF AMD CYOO 061851Z 0618/0702 30012G22KT P6SM SCT070 TEMPO 0618/0620 P6SM VCTS BKN070CB FM070000 33010G20KT P6SM BKN050 RMK FCST BASED ON AUTO OBS. NXT FCST BY 062000Z<br><br>
<br><br>
TAF AMD CYTR 061825Z 0618/0718 26010G20KT P6SM SCT060 TEMPO 0618/0620 2SM TSRA BR BKN020 OVC040CB FM062000 33012G22KT P6SM BKN040 TEMPO 0620/0701 5SM -SHRA BR PROB30 0620/0701 VRB15G25KT 2SM TSRA BR BKN020 OVC030CB FM070100 33008KT P6SM BKN050 FM070800 35005KT P6SM SCT050 RMK NXT FCST BY 070000Z<br><br>
<br><br>
