RETRIEVED AT : May 05 2018 15:05 Local <br>
  RETRIEVED AT: May 05 2018 19:05 UTC<br><br>
CYSN 051800Z 23016G24KT 15SM FEW120 BKN210 22/12 A2998 RMK AC1CI4 SLP153 DENSITY ALT 1200FT<br><br>
TAF CYSN 051238Z 0513/0601 21012KT P6SM BKN070 BECMG 0514/0516 24015KT FM052200 24012KT P6SM BKN080 TEMPO 0522/0601 P6SM -SHRA RMK NXT FCST BY 052000Z<br><br>
<br><br>
CYHM 051800Z 23019G26KT 15SM FEW060TCU BKN250 23/10 A2999 RMK TCU1CI6 TCU TR SLP159 DENSITY ALT 1800FT<br><br>
TAF CYHM 051738Z 0518/0618 24015G25KT P6SM FEW060 BKN220 TEMPO 0519/0524 P6SM -SHRA BKN060 PROB30 0520/0524 3SM TSRA BR BKN030 OVC060CB FM060000 23012KT P6SM SCT040 BKN080 BECMG 0606/0608 VRB03KT FM060900 22005KT P6SM FEW050 SCT100 FM061600 24008KT P6SM -SHRA SCT030 OVC100 RMK NXT FCST BY 060000Z<br><br>
<br><br>
KIAG 051853Z 24016G25KT 10SM CLR 24/06 A3000 RMK AO2 PK WND 24028/1836 SLP159 T02390061<br><br>
KIAG 051753Z 23020G29KT 10SM CLR 22/08 A3000 RMK AO2 PK WND 23030/1743 SLP160 T02220078 10228 20122 56013<br><br>
KIAG 051722Z 0518/0618 23018G27KT P6SM BKN200 FM052300 22009KT P6SM BKN250 FM060200 21005KT P6SM BKN250 FM060900 VRB03KT P6SM BKN090 FM061600 04005KT P6SM BKN080<br><br>
<br><br>
KBUF 051854Z 24015KT 10SM FEW070 SCT230 20/07 A3002 RMK AO2 SLP166 T02000072<br><br>
KBUF 051754Z 23018G25KT 10SM FEW100 BKN230 20/07 A3002 RMK AO2 PK WND 25027/1731 SLP167 T02000067 10200 20117 58013<br><br>
KBUF 051722Z 0518/0618 23018G25KT P6SM BKN200 FM052300 22009KT P6SM BKN250 FM060200 20005KT P6SM BKN250 FM060900 VRB03KT P6SM BKN090 FM061600 06005KT P6SM BKN090<br><br>
<br><br>
CYYZ 051800Z 25013G20KT 15SM FEW040 SCT250 24/10 A2995 RMK CU1CI2 SLP146 DENSITY ALT 1700FT<br><br>
TAF CYYZ 051738Z 0518/0624 24015G25KT P6SM FEW040 FM052000 23012G22KT P6SM FEW040 BKN070 TEMPO 0520/0524 P6SM -SHRA BKN040 BECMG 0522/0524 25015KT FM060500 33006KT P6SM FEW060 SCT120 FM061200 01005KT P6SM SCT040 BECMG 0613/0615 09008KT FM061900 10010KT P6SM -SHRA SCT050 BKN080 FM062200 34012G22KT P6SM -SHRA SCT015 OVC040 RMK NXT FCST BY 052100Z<br><br>
<br><br>
CYOO 051800Z AUTO 22013G20KT 9SM CLR 21/09 A2994 RMK SLP142 DENSITY ALT 1100FT<br><br>
CYOO has no TAF <br><br>
<br><br>
CYTR 051800Z 23018G25KT 15SM FEW059 BKN250 19/10 A2996 RMK SC2CI3 SLP147<br><br>
TAF CYTR 051730Z 0518/0618 23015G25KT P6SM SCT060 SCT250 FM051900 23015G25KT P6SM BKN060 BKN250 BECMG 0521/0523 20008KT FM060200 20005KT P6SM FEW060 BKN250 FM061200 04008KT P6SM FEW050 SCT250 RMK NXT FCST BY 060000Z<br><br>
<br><br>
