RETRIEVED AT : Jun 23 2019 19:05 Local <br>
  RETRIEVED AT: Jun 23 2019 23:05 UTC<br><br>
CYSN 232200Z 21007KT 15SM SCT250 26/12 A2993 RMK CI4 SLP137 DENSITY ALT 1700FT<br><br>
TAF CYSN 231938Z 2320/2401 33008KT P6SM FEW050 BECMG 2323/2324 23005KT SKC RMK NXT FCST WILL BE ISSUED AT 241245Z<br><br>
<br><br>
CYHM 232200Z 20010KT 15SM SCT270 25/12 A2995 RMK CI3 SLP142 DENSITY ALT 2100FT<br><br>
TAF CYHM 231738Z 2318/2418 VRB03KT P6SM FEW050 BECMG 2318/2320 19010KT BECMG 2400/2402 06005KT FM241200 06008KT P6SM -SHRA BKN080 OVC120 FM241400 17012G22KT P6SM -SHRA OVC030 RMK NXT FCST BY 240000Z<br><br>
<br><br>
KIAG 232253Z 25006KT 10SM CLR 24/09 A2994 RMK AO2 SLP138 T02440094<br><br>
KIAG 232153Z 25008KT 10SM CLR 25/11 A2995 RMK AO2 SLP141 T02500106<br><br>
KIAG 232109Z 2321/2418 25006KT P6SM SKC FM240000 22004KT P6SM SCT250 FM240500 16004KT P6SM SCT250 FM241000 14004KT P6SM BKN200 FM241500 14007KT P6SM VCSH OVC090<br><br>
<br><br>
KBUF 232254Z 25009KT 10SM FEW250 FEW300 25/10 A2994 RMK AO2 SLP136 T02500100<br><br>
KBUF 232154Z VRB03KT 10SM FEW250 SCT300 26/08 A2996 RMK AO2 SLP142 T02560083<br><br>
KBUF 232109Z 2321/2418 25007KT P6SM SKC FM240000 22004KT P6SM SCT250 FM240500 15004KT P6SM SCT250 FM241000 14006KT P6SM BKN200 FM241500 15007KT P6SM VCSH OVC090<br><br>
<br><br>
CYYZ 232200Z 17018KT 15SM FEW050 FEW270 25/12 A2993 RMK CF1CI1 CF TR SLP135 DENSITY ALT 1900FT<br><br>
TAF CYYZ 232039Z 2321/2424 15010G20KT P6SM FEW050 BECMG 2400/2402 20005KT BECMG 2404/2406 VRB03KT FM241100 11005KT P6SM BKN180 BECMG 2412/2414 11012KT FM241800 12012KT P6SM -SHRA BKN050 RMK NXT FCST BY 240000Z<br><br>
<br><br>
CYOO 232200Z AUTO 21009G15KT 9SM CLR 25/07 A2993 RMK SLP135 DENSITY ALT 1600FT<br><br>
TAF CYOO 231938Z 2320/2408 22015KT P6SM SKC BECMG 2323/2401 VRB03KT RMK FCST BASED ON AUTO OBS. NXT FCST BY 240200Z<br><br>
<br><br>
CYTR 232200Z 22011G17KT 15SM SCT250 25/11 A2990 RMK CI4 SLP126<br><br>
TAF CYTR 231730Z 2318/2418 20012KT P6SM FEW050 FEW250 BECMG 2400/2402 VRB03KT FM241500 15008KT P6SM FEW050 SCT200 RMK NXT FCST BY 240000Z<br><br>
<br><br>
