RETRIEVED AT : Apr 05 2020 16:05 Local <br>
  RETRIEVED AT: Apr 05 2020 20:05 UTC<br><br>
CYSN 051900Z 34008KT 15SM FEW030 SCT250 10/04 A3009 RMK SC1CI2 SLP193<br><br>
TAF CYSN 051938Z 0520/0601 34008KT P6SM FEW030 BECMG 0522/0524 02006KT RMK NXT FCST WILL BE ISSUED AT 061245Z<br><br>
<br><br>
CYHM 051900Z 33007KT 260V360 15SM FEW040 FEW180 SCT250 12/01 A3008 RMK SC1AC1CI3 SC TR AC TR SLP190<br><br>
TAF CYHM 051739Z 0518/0618 32007KT P6SM FEW025 SCT120 BECMG 0519/0521 05008KT FM060400 VRB03KT P6SM SKC BECMG 0614/0616 23007KT RMK NXT FCST BY 060000Z<br><br>
<br><br>
KIAG 051953Z 33010KT 10SM CLR 10/02 A3008 RMK AO2 SLP194 T01000022<br><br>
KIAG 051853Z 34010KT 10SM BKN030 09/02 A3009 RMK AO2 SLP196 T00940022<br><br>
KIAG 051736Z 0518/0618 31010KT P6SM SCT028 BKN035 FM052000 31009KT P6SM SCT035 BKN200 FM052300 32006KT P6SM FEW250 FM061400 23004KT P6SM SCT250 FM061700 25005KT P6SM SCT250<br><br>
<br><br>
KBUF 051954Z 31008KT 10SM BKN032 BKN050 BKN200 11/02 A3007 RMK AO2 SLP187 T01110022<br><br>
KBUF 051912Z 29006KT 10SM BKN030 BKN045 BKN200 11/03 A3008 RMK AO2 T01110028<br><br>
KBUF 051854Z 31010KT 10SM BKN029 BKN045 11/03 A3008 RMK AO2 SLP190 T01060028<br><br>
KBUF 051736Z 0518/0618 30010KT P6SM SCT017 OVC024 FM051900 30009KT P6SM SCT025 OVC070 FM052100 31009KT P6SM BKN090 FM052300 31006KT P6SM SCT250 FM060500 VRB03KT P6SM FEW250 FM061700 26005KT P6SM SCT250<br><br>
<br><br>
CYYZ 051900Z 04010G18KT 15SM FEW025 BKN250 11/02 A3008 RMK SC1CI4 SLP192<br><br>
TAF CYYZ 051739Z 0518/0624 34012KT P6SM SCT025 BECMG 0518/0520 36015KT FM060500 36008KT P6SM SKC BECMG 0609/0611 32008KT FM061600 15010KT P6SM SCT150 FM062100 15010KT P6SM BKN100 OVC200 RMK NXT FCST BY 052100Z<br><br>
<br><br>
CYOO 051900Z AUTO 33012G18KT 9SM BKN030 10/02 A3007 RMK SLP187<br><br>
TAF CYOO 051938Z 0520/0608 33015KT P6SM FEW030 BECMG 0600/0602 34008KT RMK FCST BASED ON AUTO OBS. NXT FCST BY 060200Z<br><br>
<br><br>
CYTR 051900Z 31009KT 15SM BKN030 BKN250 12/03 A3002 RMK SC6CI1 SLP170<br><br>
TAF CYTR 051730Z 0518/0618 29008KT P6SM BKN020 OVC070 TEMPO 0518/0520 BKN025 OVC070 FM052000 32010KT P6SM SCT025 FM060000 33008KT P6SM SKC BECMG 0608/0610 VRB03KT RMK NXT FCST BY 060000Z<br><br>
<br><br>
