RETRIEVED AT : Nov 05 2017 17:10 Local <br>
  RETRIEVED AT: Nov 05 2017 22:10 UTC<br><br>
CYSN 052200Z 19018G23KT 12SM -RA SCT025 OVC100 16/14 A2975 RMK SC4AC4 SLP076 DENSITY ALT 700FT<br><br>
CYSN 052100Z 19016G22KT 8SM -SHRA SCT025 OVC090 16/14 A2974 RMK SC3AC5 CVCTV CLD EMBD SLP072 DENSITY ALT 800FT<br><br>
TAF AMD CYSN 052121Z 0521/0602 19015G25KT P6SM -SHRA SCT020 OVC090 TEMPO 0521/0522 5SM -RA BR OVC020 FM052200 19015G25KT P6SM -SHRA OVC025 TEMPO 0522/0602 3SM SHRA BR BKN020 OVC150 PROB30 0522/0602 VRB20G35KT 21/2SM +TSRA BR BKN007CB RMK NXT FCST WILL BE ISSUED AT 061345Z<br><br>
<br><br>
CYHM 052200Z 19017G22KT 4SM -SHRA BR BKN004 OVC021 16/15 A2972 RMK SC7SC1 CVCTV CLD EMBD PRESFR SLP067 DENSITY ALT 1300FT<br><br>
CYHM 052137Z 20015KT 3SM -SHRA BR OVC004 16/15 A2975 RMK SC8 CVCTV CLD EMBD SLP077 DENSITY ALT 1300FT<br><br>
CYHM 052119Z 20016KT 7SM -SHRA BKN005 OVC018 16/15 A2975 RMK SC7SC1 CVCTV CLD EMBD SLP079 DENSITY ALT 1300FT<br><br>
CYHM 052100Z 20014G20KT 10SM -SHRA OVC008 16/15 A2975 RMK SC8 CVCTV CLD EMBD SLP078 DENSITY ALT 1300FT<br><br>
CYHM 052025Z 20014G21KT 12SM -SHRA OVC008 16/15 A2975 RMK SC8 CVCTV CLD EMBD SLP080 DENSITY ALT 1300FT<br><br>
TAF AMD CYHM 052017Z 0520/0618 20015G26KT P6SM OVC007 FM052100 21015G26KT P6SM -SHRA SCT007 OVC015 TEMPO 0521/0524 VRB20G35KT 1SM +TSRA BR BKN004 OVC015CB FM060000 23010KT 4SM -DZ BR OVC006 FM060400 30010KT 6SM BR SCT006 OVC010 FM061000 31007KT P6SM FEW008 BKN015 FM061200 31009KT P6SM SCT020 FM061500 31009G19KT P6SM FEW025 RMK NXT FCST BY 060000Z<br><br>
<br><br>
KIAG 052153Z 19012KT 10SM SCT027 OVC100 16/13 A2978 RMK AO2 LTG DSNT SE AND SW RAB2055E48 SLP085 P0002 T01610128<br><br>
KIAG 052053Z 19015KT 10SM SCT024 BKN030 BKN100 17/12 A2977 RMK AO2 LTG DSNT S AND SW RAB1958E08 SLP084 P0000 60003 T01670122 56015<br><br>
KIAG 052104Z 0521/0618 18012G18KT P6SM -RA OVC030 FM052200 19014G20KT 2SM +RA VCTS OVC015CB FM060200 20014G20KT 2SM +RA VCTS OVC007CB FM060300 20015KT 4SM -RA BR OVC012 FM060800 29010KT P6SM OVC012<br><br>
<br><br>
KBUF 052154Z 19012G20KT 10SM -RA BKN025 BKN048 OVC085 15/14 A2980 RMK AO2 LTG DSNT SE AND W TSB19E43 SLP094 OCNL LTGIC DSNT SE CB DSNT SE MOV E TS MOVD E P0006 T01500139 $<br><br>
KBUF 052144Z 19017G22KT 6SM +RA BR BKN025 BKN048 OVC085 15/14 A2980 RMK AO2 LTG DSNT SE TSB19E43 OCNL LTGIC DSNT SE CB DSNT SE MOV E TS MOVD E P0004 T01500139 $<br><br>
KBUF 052121Z 19014KT 10SM -TSRA BKN025CB OVC035 16/13 A2980 RMK AO2 LTG DSNT SE-SW TSB19 OCNL LTGIC VC S-SW TS VC S-SW MOV NE P0000 T01560133 $<br><br>
KBUF 052054Z 19013KT 10SM -RA BKN027 OVC035 16/13 A2980 RMK AO2 LTG DSNT S AND SW RAE02B50 SLP093 P0000 60001 T01560128 56010 $<br><br>
KBUF 052104Z 0521/0618 19012G18KT P6SM -RA OVC025 FM052200 19013KT 2SM +RA VCTS OVC015CB FM060200 19014G20KT 2SM +RA VCTS OVC007CB FM060500 22013KT 4SM -RA BR OVC012 FM061000 30012KT P6SM OVC015<br><br>
<br><br>
CYYZ 052200Z 16009KT 7SM -SHRA OVC009 16/15 A2970 RMK SF8 CVCTV CLD EMBD PRESFR SLP061 DENSITY ALT 1100FT<br><br>
CYYZ 052100Z 18007KT 8SM -SHRA OVC008 15/15 A2973 RMK SF8 CVCTV CLD EMBD SLP072 DENSITY ALT 1000FT<br><br>
CYYZ 052054Z 19008KT 8SM -SHRA OVC008 15/15 A2974 RMK SF8 CVCTV CLD EMBD SLP074 DENSITY ALT 1000FT<br><br>
CYYZ 052042Z 18008KT 9SM OVC007 15/15 A2974 RMK SF8 SLP075 DENSITY ALT 1000FT<br><br>
CYYZ 052012Z 15007KT 7SM OVC005 15/14 A2973 RMK SF8 CIG VRB 2-7 SLP073 DENSITY ALT 900FT<br><br>
TAF CYYZ 052038Z 0521/0624 17007KT P6SM OVC007 TEMPO 0521/0522 4SM -DZ -RA BR OVC004 FM052200 21010G20KT P6SM -SHRA SCT010 OVC025 TEMPO 0522/0601 VRB20G35KT 11/2SM +TSRA BR BKN006 OVC013CB FM060100 25008KT 6SM -DZ BR BKN008 OVC020 FM060600 31010KT P6SM BKN025 TEMPO 0606/0618 SCT012 FM061800 33010G20KT P6SM FEW030 FEW260 BECMG 0619/0621 36010KT RMK NXT FCST BY 060000Z<br><br>
<br><br>
CYOO 052200Z AUTO 17004KT 140V200 9SM -RA OVC015 13/12 A2974 RMK SLP075 DENSITY ALT 500FT<br><br>
CYOO 052146Z AUTO 13003KT 110V170 9SM -RA OVC015 13/12 A2974 RMK SLP076 DENSITY ALT 500FT<br><br>
CYOO 052100Z AUTO 15003KT 120V200 9SM OVC017 13/12 A2976 RMK SLP082<br><br>
CYOO 052020Z AUTO 14005KT 110V180 8SM SCT005 OVC013 12/11 A2976 RMK SLP083<br><br>
CYOO 052012Z AUTO 14005KT 110V200 7SM -RA SCT005 OVC013 12/11 A2977 RMK SLP084<br><br>
CYOO has no TAF <br><br>
<br><br>
CYTR 052200Z 18006KT 15SM -RA OVC023 13/11 A2979 RMK SC8 PCPN VRY LGT SLP089<br><br>
CYTR 052100Z 19007KT 15SM -RA OVC023 12/11 A2981 RMK SC8 PCPN VRY LGT SLP096<br><br>
CYTR 052036Z 19006KT 8SM -RA FEW007 OVC020 12/11 A2981 RMK SF1SC7 SLP098<br><br>
CYTR 052026Z 19005KT 5SM -RA BR FEW007 OVC020 12/11 A2981 RMK SF1SC7 SLP098<br><br>
TAF CYTR 051730Z 0518/0618 17012KT P6SM -RA SCT006 OVC015 TEMPO 0518/0523 2SM -RA BR OVC006 PROB30 0518/0519 VRB20G30KT 1SM TSRA BR BKN005 OVC040CB FM052300 19012G22KT 3SM -SHRA BR SCT005 OVC010 TEMPO 0523/0604 1SM +SHRA BR OVC005 PROB30 0523/0603 VRB20G35KT 3/4SM +TSRA BR BKN003 OVC030CB FM060400 20012KT 1SM -RA -DZ BR BKN004 OVC010 BECMG 0604/0606 25010KT FM060800 29010G20KT P6SM SCT012 BKN030 TEMPO 0608/0613 BKN012 OVC030 FM061500 29010G20KT P6SM SCT030 RMK NXT FCST BY 060000Z<br><br>
<br><br>
