RETRIEVED AT : May 23 2018 04:05 Local <br>
  RETRIEVED AT: May 23 2018 08:05 UTC<br><br>
CYSN has no TAF <br><br>
<br><br>
TAF CYHM 230538Z 2306/2406 32005KT P6SM BKN030 TEMPO 2306/2309 4SM BR BKN010 FM230900 32007KT 6SM BR SCT007 TEMPO 2309/2311 5SM BR BKN007 PROB30 2309/2311 1SM BR BKN003 FM231100 31010KT P6SM SKC BECMG 2316/2318 33015KT BECMG 2323/2401 36007KT FM240500 VRB03KT P6SM SKC RMK NXT FCST BY 231200Z<br><br>
<br><br>
KIAG 230753Z AUTO 32008KT 2SM BR OVC003 15/13 A2999 RMK AO2 SLP156 T01500128<br><br>
KIAG 230712Z AUTO 33006KT 2 1/2SM BR OVC003 15/13 A2998 RMK AO2 T01500128<br><br>
KIAG 230653Z AUTO 33009KT 2SM BR OVC002 15/13 A2997 RMK AO2 SLP150 T01500128<br><br>
KIAG 230642Z AUTO 33005KT 1 3/4SM BR OVC003 15/13 A2997 RMK AO2 T01500128<br><br>
KIAG 230633Z AUTO 32005KT 3SM BR OVC003 15/13 A2997 RMK AO2 CIG 002V007 T01500128<br><br>
KIAG 230622Z AUTO 32005KT 4SM HZ BKN005 OVC009 15/12 A2997 RMK AO2 CIG 003V006 T01500122<br><br>
KIAG 230609Z AUTO 33006KT 4SM BR BKN007 BKN029 OVC034 14/12 A2996 RMK AO2 CIG 004V010 T01440122<br><br>
KIAG 230708Z 2306/2406 32005KT 2SM BR BKN003 FM231300 27008KT P6SM SCT200 FM231700 27012KT P6SM FEW250 FM240400 VRB03KT P6SM FEW250<br><br>
<br><br>
KBUF 230754Z 25005KT 4SM BR OVC006 13/12 A2999 RMK AO2 CIG 005V010 SLP156 T01280122<br><br>
KBUF 230654Z 23005KT 4SM BR OVC007 12/12 A2998 RMK AO2 CIG 005V012 SLP151 T01220117<br><br>
KBUF 230542Z 2306/2406 26004KT 3SM BR BKN007 FM231200 24007KT 1/2SM FG BKN003 FM231400 25011KT 3SM BR SCT020 FM231500 25013KT P6SM SCT060 SCT250 FM232000 25015G20KT P6SM FEW200 FM240500 VRB03KT P6SM FEW200<br><br>
<br><br>
CYYZ 230700Z 34009G16KT 15SM BKN008 14/12 A2999 RMK SC7 SLP159<br><br>
TAF CYYZ 230538Z 2306/2412 33007KT P6SM SCT008 TEMPO 2306/2311 4SM BR BKN008 FM231100 32010KT P6SM SKC BECMG 2313/2315 35010G20KT BECMG 2323/2401 35007KT FM240500 VRB03KT P6SM SKC RMK NXT FCST BY 230900Z<br><br>
<br><br>
CYOO 230700Z AUTO 33008G15KT 9SM OVC008 13/12 A2997 RMK SLP153<br><br>
CYOO has no TAF <br><br>
<br><br>
TAF AMD CYTR 230707Z 2307/2406 VRB03KT 6SM BR SKC TEMPO 2307/2311 2SM BR OVC006 PROB40 2307/2311 1/4SM FG OVC002 FM231100 30005KT P6SM SKC TEMPO 2311/2312 3SM BR FM231600 21010KT P6SM FEW050 BECMG 2323/2401 32008KT BECMG 2403/2405 VRB03KT RMK NXT FCST BY 231200Z<br><br>
<br><br>
