RETRIEVED AT : Sep 03 2017 00:10 Local <br>
  RETRIEVED AT: Sep 03 2017 04:10 UTC<br><br>
CYSN has no TAF <br><br>
<br><br>
CYHM 030400Z 18008KT 15SM -RA OVC011 15/13 A2994 RMK SC8 SLP142 DENSITY ALT 900FT<br><br>
CYHM 030309Z 16009KT 15SM OVC012 15/13 A2996 RMK SC8 SLP147 DENSITY ALT 1000FT<br><br>
CYHM 030300Z 14007KT 15SM OVC015 15/13 A2996 RMK SC8 SLP148 DENSITY ALT 900FT<br><br>
TAF CYHM 022338Z 0300/0324 14010KT P6SM OVC030 TEMPO 0300/0303 P6SM -SHRA OVC020 FM030300 15008KT P6SM OVC015 TEMPO 0303/0305 5SM -SHRA BR FM030500 16008KT 3SM -RA BR OVC008 TEMPO 0305/0311 6SM -RA BR OVC010 BECMG 0308/0310 25006KT FM031100 27010G20KT P6SM SCT012 BKN080 FM031700 26015G25KT P6SM BKN040 FM032100 27015G25KT P6SM SCT050 BECMG 0322/0324 28010KT RMK NXT FCST BY 030600Z<br><br>
<br><br>
KIAG 030407Z AUTO 19008KT 10SM BKN029 OVC034 17/11 A2995 RMK AO2 T01670106<br><br>
KIAG 030353Z AUTO 19008KT 10SM FEW028 OVC034 17/11 A2996 RMK AO2 SLP146 T01670106<br><br>
KIAG 030253Z 19005KT 10SM OVC037 17/10 A2998 RMK AO2 SLP151 T01720100 58005<br><br>
KIAG 030234Z 0303/0324 13007KT P6SM OVC035 FM030400 16006KT P6SM -RA OVC025 FM031000 19008KT 5SM -RA OVC007 FM031200 22008KT 5SM -RA OVC012 FM031600 26012G19KT 6SM -RA OVC060 FM032000 27012G19KT P6SM OVC040<br><br>
<br><br>
KBUF 030354Z 20006KT 9SM -RA OVC038 14/12 A2997 RMK AO2 RAB28 SLP149 P0001 T01390122<br><br>
KBUF 030254Z 18004KT 10SM OVC038 16/10 A2999 RMK AO2 SLP154 T01560100 58007<br><br>
KBUF 030234Z 0303/0324 13006KT P6SM BKN035 FM030400 16006KT 6SM -RA OVC020 FM030900 19008KT P6SM OVC009 FM031100 20008KT 5SM -RA OVC015 FM031700 26014G20KT 6SM -RA OVC045 FM032200 25012G20KT P6SM BKN060<br><br>
<br><br>
CYYZ 030400Z 18004KT 130V200 15SM BKN019 OVC028 16/12 A2993 RMK SC7SC1 SLP138 DENSITY ALT 900FT<br><br>
CYYZ 030300Z 19007KT 15SM FEW030 OVC045 16/12 A2996 RMK SC1SC8 SC TR SLP147 DENSITY ALT 800FT<br><br>
TAF CYYZ 030238Z 0303/0406 16008KT P6SM SCT015 OVC040 TEMPO 0303/0306 P6SM -SHRA OVC015 FM030600 16010KT 3SM -RA BR OVC007 TEMPO 0306/0308 6SM -RA BR OVC012 PROB30 0308/0311 2SM TSRA BR OVC003CB FM031200 30010G20KT P6SM SCT010 OVC060 FM031400 29010G20KT P6SM BKN025 BKN080 FM031700 28012G22KT P6SM BKN040 PROB30 0317/0321 VRB15G25KT 3SM TSRA BR OVC020CB FM032300 29015KT P6SM FEW040 BECMG 0402/0404 28008KT RMK NXT FCST BY 030600Z<br><br>
<br><br>
CYOO 030400Z AUTO 20004KT 9SM OVC037 17/12 A2995 RMK SLP143 DENSITY ALT 800FT<br><br>
CYOO 030300Z AUTO 15005KT 120V180 9SM FEW027 BKN048 OVC090 18/11 A2997 RMK SLP150 DENSITY ALT 800FT<br><br>
CYOO has no TAF <br><br>
<br><br>
CYTR 030400Z 19010KT 15SM OVC027 17/11 A3000 RMK SC8 SLP160<br><br>
CYTR 030300Z 17007G20KT 15SM BKN031 OVC072 16/12 A3002 RMK SC6AC2 SLP167<br><br>
TAF CYTR 022330Z 0300/0324 12008KT P6SM SCT050 BKN120 FM030400 14010KT P6SM BKN050 TEMPO 0304/0307 P6SM -SHRA FM030700 14010KT 6SM -RA BR SCT015 OVC030 TEMPO 0307/0309 3SM -RA BR SCT008 OVC015 FM030900 14010KT 3SM -RA BR BKN008 OVC015 TEMPO 0309/0317 6SM -RA BR SCT008 OVC015 BECMG 0313/0315 22005KT FM031700 29012KT P6SM SCT015 BKN080 TEMPO 0317/0322 P6SM -SHRA RMK NXT FCST BY 030600Z<br><br>
<br><br>
