RETRIEVED AT : Mar 07 2020 09:05 Local <br>
  RETRIEVED AT: Mar 07 2020 14:05 UTC<br><br>
CYSN 071300Z 36007KT 15SM FEW020 M02/M08 A3047 RMK SC1 SC TR SLP325<br><br>
TAF CYSN 071338Z 0714/0802 36007KT P6SM FEW020 FM071800 29008KT P6SM SKC FM072100 24007KT P6SM FEW120 BECMG 0723/0801 20010KT RMK NXT FCST BY 072000Z<br><br>
<br><br>
CYHM 071300Z 29003KT 15SM FEW015 FEW220 M07/M11 A3046 RMK CF1CI1 CF TR CI TR SLP329<br><br>
TAF CYHM 071138Z 0712/0812 34008KT P6SM SKC FM071800 25009KT P6SM FEW120 BECMG 0722/0724 23012KT RMK NXT FCST BY 071800Z<br><br>
<br><br>
KIAG 071353Z 36007KT 10SM CLR M03/M09 A3047 RMK AO2 SLP335 T10281089<br><br>
KIAG 071253Z 35006KT 10SM CLR M04/M08 A3045 RMK AO2 SLP328 T10391083<br><br>
KIAG 071134Z 0712/0812 34006KT P6SM SKC FM071600 30006KT P6SM FEW250 FM071800 26007KT P6SM FEW250 FM072300 22010G17KT P6SM SCT250 FM080800 22014G25KT P6SM SCT200<br><br>
<br><br>
KBUF 071354Z 31007KT 10SM FEW025 M03/M08 A3046 RMK AO2 SLP326 T10281083<br><br>
KBUF 071254Z 34005KT 10SM FEW035 M03/M08 A3044 RMK AO2 SLP319 T10331078<br><br>
KBUF 071134Z 0712/0812 33006KT P6SM SKC FM071600 30007KT P6SM SKC FM071800 26008KT P6SM FEW250 FM072300 23010G18KT P6SM FEW250 FM080800 23014G25KT P6SM SCT250<br><br>
<br><br>
CYYZ 071300Z 04005KT 15SM FEW250 M06/M12 A3047 RMK CI1 CI TR SLP329<br><br>
TAF CYYZ 071138Z 0712/0818 32010KT P6SM SKC FM071700 24009KT P6SM FEW120 BECMG 0723/0801 24012KT FM081500 25010G20KT P6SM SKC RMK NXT FCST BY 071500Z<br><br>
<br><br>
CYOO 071300Z AUTO 36011KT 9SM CLR M07/M12 A3046 RMK SLP324<br><br>
TAF CYOO 071338Z 0714/0802 36010KT P6SM SKC BECMG 0716/0718 23009KT FM072100 23010KT P6SM FEW120 FM080000 20010KT P6SM BKN110 RMK FCST BASED ON AUTO OBS. NXT FCST BY 072000Z<br><br>
<br><br>
CYTR 071300Z 01008KT 15SM SKC M06/M13 A3045 RMK SLP318<br><br>
TAF CYTR 071130Z 0712/0812 35008KT P6SM SKC BECMG 0716/0718 26008KT FM072100 25008KT P6SM FEW110 BKN210 FM080100 24008KT P6SM SCT080 BKN100 FM080800 24008KT P6SM SCT170 BKN240 RMK NXT FCST BY 071800Z<br><br>
<br><br>
