RETRIEVED AT : Jun 02 2018 04:57 Local <br>
  RETRIEVED AT: Jun 02 2018 08:57 UTC<br><br>
CYSN has no TAF <br><br>
<br><br>
CYHM 020800Z 03009KT 15SM BKN017 15/12 A2990 RMK SC7 SLP126 DENSITY ALT 1000FT<br><br>
CYHM 020700Z 03010G15KT 15SM BKN022 16/12 A2990 RMK SC6 SLP126 DENSITY ALT 1100FT<br><br>
TAF CYHM 020538Z 0206/0306 01007KT P6SM FEW020 TEMPO 0206/0210 BKN020 FM021000 03010G20KT P6SM BKN030 TEMPO 0210/0215 BKN020 FM022100 06010G20KT P6SM SCT050 FM030500 06015KT P6SM FEW050 RMK NXT FCST BY 021200Z<br><br>
<br><br>
KIAG 020533Z 0206/0306 35010KT P6SM OVC019 FM020900 03010G17KT P6SM BKN020 FM021200 04010KT P6SM BKN025 FM021400 04009KT P6SM SCT030 FM021700 05009KT P6SM FEW250 FM030000 08005KT P6SM SKC<br><br>
<br><br>
KBUF 020854Z 02008KT 10SM OVC018 17/13 A2989 RMK AO2 SLP118 T01720133 53006<br><br>
KBUF 020754Z 02012KT 10SM OVC017 18/14 A2988 RMK AO2 SLP116 T01780144<br><br>
KBUF 020533Z 0206/0306 35009KT P6SM OVC014 FM020900 03010KT P6SM BKN020 FM021500 04009KT P6SM SCT025 FM021800 05009KT P6SM FEW250 FM030400 VRB03KT P6SM FEW250<br><br>
<br><br>
TAF CYYZ 020538Z 0206/0312 36012G22KT P6SM FEW200 FM020800 36010G20KT P6SM SCT020 TEMPO 0208/0210 BKN020 FM021000 01010G20KT P6SM BKN030 TEMPO 0210/0215 BKN020 FM021500 04010KT P6SM BKN040 FM022000 08007KT P6SM SCT050 BECMG 0223/0301 13007KT FM030600 09010KT P6SM SKC FM030900 08015KT P6SM BKN050 RMK NXT FCST BY 020900Z<br><br>
<br><br>
CYOO 020800Z AUTO 02011G16KT 9SM OVC040 15/11 A2991 RMK SLP128 DENSITY ALT 500FT<br><br>
CYOO 020700Z AUTO 01012G20KT 9SM SCT044 OVC055 16/12 A2989 RMK SLP122 DENSITY ALT 600FT<br><br>
CYOO has no TAF <br><br>
<br><br>
CYTR 020800Z 02013KT 15SM BKN045 14/10 A2990 RMK SC7 SLP125<br><br>
CYTR 020700Z 01009KT 15SM BKN045 15/11 A2988 RMK SC7 SLP118<br><br>
TAF CYTR 020530Z 0206/0306 02010KT P6SM BKN050 FM021400 03012KT P6SM SCT030 FM022000 04012KT P6SM SKC BECMG 0304/0306 07012KT RMK NXT FCST BY 021200Z<br><br>
<br><br>
