RETRIEVED AT : Oct 20 2018 23:05 Local <br>
  RETRIEVED AT: Oct 21 2018 03:05 UTC<br><br>
CYSN has no TAF <br><br>
<br><br>
CYHM 210200Z 32011KT 15SM FEW041 FEW064 OVC084 04/02 A2977 RMK SC1SC1AC6 SLP087<br><br>
CYHM 210137Z 32008KT 15SM FEW022 SCT041 BKN064 OVC100 05/04 A2976 RMK CF1SC2SC4AC1 SLP083<br><br>
TAF CYHM 202341Z 2100/2124 30005KT P6SM BKN030 BKN050 TEMPO 2100/2102 P6SM -SHRA BKN020 BKN050 FM210200 32012G22KT P6SM BKN030 TEMPO 2102/2106 BKN020 FM211100 30010G20KT P6SM SCT030 FM211600 29010G20KT P6SM BKN040 BECMG 2122/2124 27010KT RMK NXT FCST BY 210600Z<br><br>
<br><br>
KIAG 210253Z 35012KT 10SM OVC055 06/01 A2977 RMK AO2 RAE16 SLP091 P0000 60013 T00560006 51036<br><br>
KIAG 210153Z 33004KT 10SM -RA BKN036 OVC048 05/03 A2974 RMK AO2 WSHFT 0041 SLP078 P0009 T00500033<br><br>
KIAG 210250Z 2103/2124 34010G22KT P6SM VCSH OVC045 FM210900 33016G22KT P6SM -SHRASN OVC025 FM211600 31014KT P6SM -SHRASN OVC025 FM212200 28013KT P6SM BKN035 FM212300 28012KT P6SM BKN110<br><br>
<br><br>
KBUF 210254Z 35008KT 10SM OVC037 05/03 A2977 RMK AO2 RAE51 SLP083 P0006 60012 T00500028 53031<br><br>
KBUF 210154Z 32011KT 5SM +RA BR SCT010 OVC021 04/04 A2974 RMK AO2 RAB11 SLP074 P0006 T00440039<br><br>
KBUF 210133Z 33011G22KT 6SM RA BR BKN011 BKN024 OVC041 05/04 A2972 RMK AO2 RAB11 P0002 T00500039<br><br>
KBUF 210125Z 35018G22KT 7SM RA SCT011 BKN024 OVC050 06/04 A2972 RMK AO2 RAB11 P0000 T00610044<br><br>
KBUF 210250Z 2103/2124 35015G22KT P6SM VCSH OVC025 FM210900 33015KT P6SM -SHRA OVC007 FM211100 32014G20KT P6SM -SHRASN OVC007 FM212000 29014G20KT P6SM BKN035 FM212300 28010G17KT P6SM BKN120<br><br>
<br><br>
CYYZ 210200Z 35013G20KT 15SM BKN055 OVC120 06/M01 A2977 RMK SC7AC1 SLP086<br><br>
TAF CYYZ 210240Z 2103/2206 35015G28KT P6SM BKN050 BKN120 TEMPO 2104/2105 P6SM -SHRA FM210500 35015G25KT P6SM BKN050 FM210800 34012KT P6SM BKN030 TEMPO 2109/2114 P6SM -SHSN FM211500 33010G20KT P6SM BKN030 FM211700 32012G22KT P6SM BKN040 BECMG 2119/2121 29010G20KT RMK NXT FCST BY 210600Z<br><br>
<br><br>
CYOO 210200Z AUTO 33012G18KT 9SM FEW150 05/M01 A2975 RMK PRESRR SLP080<br><br>
CYOO has no TAF <br><br>
<br><br>
CYTR 210200Z 36010KT 15SM FEW050 FEW120 06/M03 A2971 RMK SC1AC2 SLP064<br><br>
TAF CYTR 202330Z 2100/2124 30006KT P6SM FEW040 BKN100 FM210400 34008KT P6SM BKN040 BKN100 FM211400 31010KT P6SM SCT040 SCT200 BECMG 2114/2116 31012G22KT BECMG 2121/2123 28005KT RMK NXT FCST BY 210600Z<br><br>
<br><br>
