RETRIEVED AT : Mar 14 2020 13:05 Local <br>
  RETRIEVED AT: Mar 14 2020 17:05 UTC<br><br>
CYSN 141600Z 31008KT 15SM OVC026 02/M03 A3043 RMK SC8 SLP311<br><br>
TAF CYSN 141238Z 1413/1501 30010KT P6SM BKN025 TEMPO 1413/1418 BKN020 FM141800 28008KT P6SM SCT025 BKN240 BECMG 1419/1421 FEW030 OVC140 FM150000 02008KT P6SM FEW040 OVC120 RMK NXT FCST BY 142000Z<br><br>
<br><br>
CYHM 141600Z 31008KT 15SM OVC024 02/M04 A3043 RMK SC8 SLP315<br><br>
TAF AMD CYHM 141510Z 1415/1512 33010KT P6SM BKN025 TEMPO 1415/1423 BKN020 FM142300 34008KT P6SM SCT030 BKN120 FM150300 03010KT P6SM BKN030 OVC120 FM150600 03010KT P6SM SCT030 BKN120 FM150900 03012KT P6SM SKC RMK NXT FCST BY 141800Z<br><br>
<br><br>
KIAG 141653Z 27005KT 10SM OVC024 01/M04 A3044 RMK AO2 SLP323 T00111039<br><br>
KIAG 141553Z 31008KT 10SM OVC024 01/M04 A3042 RMK AO2 SLP317 T00111039<br><br>
KIAG 141502Z 1415/1512 30010KT P6SM OVC025 FM141900 31006KT P6SM BKN150 FM150700 03006KT P6SM SCT150<br><br>
<br><br>
KBUF 141654Z 25008KT 10SM OVC024 02/M04 A3044 RMK AO2 SLP315 T00221039<br><br>
KBUF 141554Z 27006KT 10SM OVC024 02/M04 A3043 RMK AO2 SLP311 T00171039<br><br>
KBUF 141502Z 1415/1512 29008KT P6SM OVC025 FM141900 25010KT P6SM SCT030 BKN150 FM150100 36003KT P6SM OVC150 FM150700 03006KT P6SM SCT150<br><br>
<br><br>
CYYZ 141600Z 34008G16KT 15SM OVC025 02/M04 A3042 RMK SC8 SLP308<br><br>
TAF CYYZ 141438Z 1415/1518 32012G22KT P6SM BKN030 TEMPO 1415/1418 OVC020 BECMG 1415/1417 32012KT FM141800 31012KT P6SM SCT030 BKN240 FM142100 36008KT P6SM SCT030 BKN140 FM150000 36012KT P6SM BKN150 FM150800 02012KT P6SM SKC BECMG 1514/1516 08010KT RMK NXT FCST BY 141800Z<br><br>
<br><br>
CYOO 141600Z AUTO 32013G18KT 9SM SCT029 03/M03 A3040 RMK SLP301<br><br>
TAF CYOO 141338Z 1414/1502 31015G25KT P6SM BKN025 TEMPO 1414/1416 OVC020 FM141600 30012KT P6SM SCT020 TEMPO 1416/1418 BKN020 FM141800 30012KT P6SM FEW030 BKN160 RMK FCST BASED ON AUTO OBS. NXT FCST BY 142000Z<br><br>
<br><br>
CYTR 141600Z 32011KT 15SM FEW030 BKN250 04/M04 A3036 RMK SC1CI4 SLP284<br><br>
TAF CYTR 141130Z 1412/1512 29015G25KT P6SM BKN030 BECMG 1412/1414 29010KT SCT030 FM150000 31010KT P6SM FEW040 BKN160 BECMG 1502/1504 02010KT RMK NXT FCST BY 141800Z<br><br>
<br><br>
