RETRIEVED AT : Jun 01 2020 07:05 Local <br>
  RETRIEVED AT: Jun 01 2020 11:05 UTC<br><br>
CYSN has no TAF <br><br>
<br><br>
CYHM 011000Z 26007KT 15SM SCT080 SCT260 08/06 A3025 RMK AC3CI1 SLP247<br><br>
TAF CYHM 010538Z 0106/0206 25008KT P6SM SKC BECMG 0113/0115 25015KT FM011600 26015KT P6SM SCT080 BECMG 0200/0202 24010KT RMK NXT FCST BY 011200Z<br><br>
<br><br>
KIAG 011053Z 24005KT 10SM BKN085 09/07 A3023 RMK AO2 SLP244 T00890067<br><br>
KIAG 010953Z AUTO 23007KT 10SM SCT085 08/06 A3023 RMK AO2 SLP241 T00830061<br><br>
KIAG 010901Z 0109/0206 23006KT P6SM SCT060 BKN200 FM011100 28006KT P6SM SCT060 BKN250 FM011400 25012KT P6SM SCT200 FM011800 24016G23KT P6SM SCT200 FM020000 23012KT P6SM BKN200<br><br>
<br><br>
KBUF 011054Z 24011KT 10SM FEW080 BKN250 10/08 A3025 RMK AO2 SLP245 T01000083 $<br><br>
KBUF 010954Z 24009KT 10SM SCT080 BKN250 09/09 A3024 RMK AO2 SLP242 T00940089 $<br><br>
KBUF 010901Z 0109/0206 22010KT P6SM SCT060 BKN200 FM011200 27006KT P6SM SCT060 BKN250 FM011400 24012KT P6SM SCT200 FM011800 24018G25KT P6SM SCT200 FM020000 23012KT P6SM BKN200<br><br>
<br><br>
CYYZ 011000Z 29008KT 15SM FEW075 FEW200 SCT250 08/03 A3022 RMK AC1CS1CI2 SLP237<br><br>
TAF CYYZ 010841Z 0109/0212 28010KT P6SM FEW060 FM011500 27015G25KT P6SM SCT070 FM020300 22010KT P6SM FEW080 BKN140 FM020900 24008KT P6SM -SHRA BKN050 RMK NXT FCST BY 011200Z<br><br>
<br><br>
CYOO 011000Z AUTO 28005KT 9SM BKN190 BKN210 07/04 A3021 RMK SLP236<br><br>
TAF CYOO 010738Z 0108/0120 VRB03KT P6SM FEW120 SCT240 BECMG 0112/0114 22010KT FM011700 23012KT P6SM SCT070 RMK FCST BASED ON AUTO OBS. NXT FCST BY 011400Z<br><br>
<br><br>
CYTR 011000Z 03002KT 15SM FEW050 SCT200 06/05 A3021 RMK SC1CI2 SLP233<br><br>
TAF CYTR 010530Z 0106/0206 VRB03KT P6SM OVC050 TEMPO 0106/0108 P6SM -SHRA FM010800 VRB03KT P6SM FEW050 FM011400 24005KT P6SM BKN080 BECMG 0114/0116 24010G20KT BECMG 0119/0121 29015G25KT FM020000 30012G22KT P6SM BKN150 BECMG 0200/0202 30005KT RMK NXT FCST BY 011200Z<br><br>
<br><br>
