RETRIEVED AT : Sep 09 2018 13:05 Local <br>
  RETRIEVED AT: Sep 09 2018 17:05 UTC<br><br>
CYSN 091600Z 08011KT 15SM FEW025 FEW120 OVC240 14/08 A3021 RMK SC1AC1CI6 SLP232<br><br>
TAF CYSN 091238Z 0913/1001 08010G20KT P6SM FEW025 OVC250 BECMG 0914/0916 08015G25KT FM092100 09015G25KT P6SM -RA SCT030 OVC100 RMK NXT FCST BY 092000Z<br><br>
<br><br>
CYHM 091600Z 06017G26KT 15SM FEW030 OVC210 14/08 A3020 RMK SC1CC8 SC TR SLP230<br><br>
TAF CYHM 091138Z 0912/1012 08010KT P6SM FEW020 BKN240 BECMG 0912/0913 08015G25KT FM091600 08018G28KT P6SM FEW030 OVC200 FM092300 09018G28KT P6SM -RA BKN040 OVC100 FM100200 07015G25KT P6SM -RA BKN020 OVC060 FM100400 07015G25KT 5SM -RA BR BKN008 OVC015 FM100600 07015G25KT 2SM -RA BR OVC008 PROB30 1008/1012 1/4SM SHRA FG VV001 RMK NXT FCST BY 091800Z<br><br>
<br><br>
KIAG 091653Z 08012KT 10SM CLR 14/07 A3020 RMK AO2 SLP233 T01390072<br><br>
KIAG 091553Z 07013KT 10SM CLR 13/07 A3022 RMK AO2 SLP237 T01330067<br><br>
KIAG 091507Z 0915/1012 08014G20KT P6SM OVC150 FM092200 08010KT P6SM OVC120 FM100200 09011G17KT 6SM -RA OVC090 FM100500 09012G19KT 6SM -RA OVC035 FM100700 08013G20KT 1 1/2SM +RA BR OVC025<br><br>
<br><br>
KBUF 091654Z 08013G21KT 10SM FEW050 FEW100 BKN150 OVC200 14/07 A3020 RMK AO2 SLP227 T01440072<br><br>
KBUF 091554Z 08010KT 10SM FEW050 FEW100 BKN150 OVC200 13/07 A3021 RMK AO2 SLP232 T01330072<br><br>
KBUF 091507Z 0915/1012 08014G20KT P6SM OVC150 FM092200 09011KT P6SM OVC120 FM100100 09011G17KT 6SM -RA OVC090 FM100400 09012G19KT 6SM -RA OVC035 FM100600 08013G20KT 1 1/2SM +RA BR OVC020<br><br>
<br><br>
CYYZ 091600Z 08010G17KT 15SM FEW020 BKN032 OVC180 15/09 A3024 RMK CF1SC5AS3 CF TR SLP242<br><br>
TAF AMD CYYZ 091456Z 0915/1018 09012G22KT P6SM FEW030 OVC200 TEMPO 0915/0916 BKN020 FM091900 08015G25KT P6SM SCT030 OVC200 BECMG 0922/0924 08015KT FM100300 09012G22KT P6SM BKN030 OVC100 FM100600 10012G22KT P6SM -RA BKN020 OVC070 FM100800 10018G28KT 5SM -RA BR BKN008 OVC012 PROB30 1008/1014 2SM -RA BR BKN003 OVC008 FM101400 10018G28KT 5SM -DZ BR BKN006 OVC010 PROB30 1014/1018 BKN003 RMK NXT FCST BY 091800Z<br><br>
<br><br>
CYOO 091600Z AUTO 07013G25KT 9SM CLR 14/07 A3027 RMK SLP253<br><br>
CYOO has no TAF <br><br>
<br><br>
CYTR 091600Z 08010G15KT 15SM FEW030 SCT045 BKN100 BKN220 14/06 A3031 RMK SC1SC3AS3CI1 SLP266<br><br>
TAF CYTR 091130Z 0912/1012 04006KT P6SM BKN240 BECMG 0913/0915 07012G22KT BECMG 0922/0924 06010KT FM100400 12010KT P6SM FEW040 OVC150 FM101000 12010KT P6SM -RA BKN030 OVC060 RMK NXT FCST BY 091800Z<br><br>
<br><br>
