RETRIEVED AT : Nov 06 2017 01:10 Local <br>
  RETRIEVED AT: Nov 06 2017 06:10 UTC<br><br>
CYSN has no TAF <br><br>
<br><br>
CYHM 060600Z 29008KT 15SM FEW015 OVC023 11/10 A2978 RMK SC1SC7 SLP088<br><br>
CYHM 060500Z 30009G15KT 15SM FEW004 FEW010 OVC015 11/10 A2976 RMK SF1SC1SC6 SLP081 DENSITY ALT 800FT<br><br>
CYHM 060454Z 31011G17KT 15SM FEW004 FEW010 OVC015 12/10 A2976 RMK SF1SC1SC6 SLP080 DENSITY ALT 800FT<br><br>
TAF CYHM 060539Z 0606/0706 30010G20KT P6SM SCT004 OVC015 TEMPO 0606/0610 4SM -DZ -RA BR BKN004 OVC015 FM061000 31010KT P6SM SCT008 OVC025 TEMPO 0610/0613 5SM BR BKN008 OVC020 FM061300 31010KT P6SM BKN025 TEMPO 0613/0617 OVC020 FM061700 32010KT P6SM BKN030 FM070200 33005KT P6SM FEW030 SCT140 RMK NXT FCST BY 061200Z<br><br>
<br><br>
KIAG 060606Z 23012KT 4SM -RA BKN010 OVC013 16/13 A2975 RMK AO2 CIG 006V011 P0000 T01610133<br><br>
KIAG 060553Z 23013KT 4SM -RA BKN009 OVC017 16/13 A2975 RMK AO2 RAB33 CIG 007V011 SLP076 P0000 60007 T01610133 10167 20161 51006<br><br>
KIAG 060549Z 24012KT 5SM -RA BKN011 OVC019 16/13 A2975 RMK AO2 RAB33 P0000<br><br>
KIAG 060453Z 21012KT 10SM OVC024 17/13 A2974 RMK AO2 RAE04 SLP071 P0000 T01670133 401670067<br><br>
KIAG 060538Z 0606/0706 21012KT P6SM OVC025 FM060800 31012KT P6SM OVC015 FM061000 33012G19KT P6SM OVC020 FM061800 31012KT P6SM BKN030 FM062000 32011KT P6SM BKN070 FM070100 33007KT P6SM SCT030<br><br>
<br><br>
KBUF 060554Z 21012KT 10SM OVC023 16/14 A2975 RMK AO2 RAE15B44E54 SLP074 P0000 60062 T01560139 10156 20144 55003 $<br><br>
KBUF 060509Z 20012KT 10SM -RA OVC029 16/13 A2975 RMK AO2 P0000 T01560133 $<br><br>
KBUF 060454Z 19010KT 10SM -RA OVC032 15/14 A2974 RMK AO2 SLP072 RAB0356 P0004 T01500139 401610061 $<br><br>
KBUF 060538Z 0606/0706 20012KT P6SM -RA OVC025 TEMPO 0606/0609 2SM -SHRA OVC007 FM060900 32010G18KT P6SM OVC007 TEMPO 0609/0610 4SM -SHRA OVC003 FM061200 32010G18KT P6SM VCSH OVC020 FM061400 31011G17KT P6SM BKN020 FM062100 32009KT P6SM BKN070 FM070400 33005KT P6SM SCT070<br><br>
<br><br>
CYYZ 060600Z 31013KT 15SM FEW010 BKN030 OVC042 12/09 A2976 RMK SF1SC4SC3 SLP080<br><br>
CYYZ 060500Z 31012G18KT 15SM OVC018 12/10 A2975 RMK SC8 PRESRR SLP077 DENSITY ALT 600FT<br><br>
CYYZ 060437Z 32018KT 10SM FEW006 OVC017 12/11 A2973 RMK SF2SC6 SLP071 DENSITY ALT 700FT<br><br>
CYYZ 060422Z 31018G31KT 200V340 5SM -RA BR BKN004 OVC014 14/13 A2972 RMK SF6SC2 WSHFT 0419 SLP066 DENSITY ALT 800FT<br><br>
TAF CYYZ 060539Z 0606/0712 31010G20KT P6SM SCT008 OVC025 TEMPO 0606/0611 5SM -DZ BR BKN008 OVC020 BECMG 0606/0608 31010KT FM061100 32010KT P6SM BKN025 TEMPO 0611/0614 OVC020 BECMG 0614/0615 33012G22KT FM061700 33012G22KT P6SM SCT030 BECMG 0622/0623 35010KT FM070400 29007KT P6SM FEW030 SCT140 RMK NXT FCST BY 060900Z<br><br>
<br><br>
CYOO 060600Z AUTO 33008KT 9SM OVC021 12/10 A2973 RMK SLP072<br><br>
CYOO 060536Z AUTO 33009G15KT 9SM FEW002 OVC019 12/10 A2973 RMK SLP070<br><br>
CYOO 060529Z AUTO 33009G16KT 6SM -RA BR SCT002 SCT007 OVC019 12/11 A2973 RMK SLP070<br><br>
CYOO 060527Z AUTO 33011G17KT 5SM -RA BR SCT002 SCT007 OVC019 12/11 A2973 RMK SLP070<br><br>
CYOO 060518Z AUTO 32014KT 3SM -RA BR BKN002 BKN007 OVC016 12/11 A2973 RMK WSHFT AT 0507Z PRESRR SLP071<br><br>
CYOO 060500Z AUTO 24006KT 3SM -RA BR OVC002 14/13 A2971 RMK SLP062 DENSITY ALT 700FT<br><br>
CYOO 060431Z AUTO 22009KT 5SM -RA BR OVC002 14/13 A2971 RMK SLP063 DENSITY ALT 600FT<br><br>
CYOO 060430Z AUTO 22008KT 5SM BR OVC002 14/13 A2971 RMK SLP063 DENSITY ALT 600FT<br><br>
CYOO has no TAF <br><br>
<br><br>
CYTR 060600Z 21005KT 3SM -DZ BR OVC004 13/13 A2971 RMK SF8 SLP063<br><br>
CYTR 060527Z 22006KT 3SM -DZ BR OVC003 13/12 A2971 RMK SF8 VIS VRB 2 1/4-4 CIG VRB 2-4 SLP065<br><br>
CYTR 060500Z 21008KT 4SM -RA BR OVC004 13/12 A2972 RMK SF8 VIS VRB 3-5 SLP065<br><br>
CYTR 060450Z 21008KT 4SM -RA BR OVC004 13/12 A2972 RMK SF8 VIS VRB 3-5 SLP066<br><br>
CYTR 060424Z 23007KT 6SM -DZ BR BKN007 OVC020 13/12 A2972 RMK SF6SC2 SLP068<br><br>
TAF CYTR 060530Z 0606/0706 21008KT 3SM -RA -DZ BR BKN004 OVC010 TEMPO 0606/0608 P6SM -RA -DZ SCT004 OVC010 FM060800 29010G20KT P6SM SCT012 BKN030 TEMPO 0608/0613 BKN012 OVC030 FM061500 30010G20KT P6SM SCT030 BECMG 0620/0622 32008KT SKC RMK NXT FCST BY 061200Z<br><br>
<br><br>
