RETRIEVED AT : May 13 2018 19:05 Local <br>
  RETRIEVED AT: May 13 2018 23:05 UTC<br><br>
CYSN 132200Z 35004KT 15SM FEW040 FEW250 14/09 A2997 RMK SC1CI2 SC TR SLP153<br><br>
TAF CYSN 131938Z 1320/1401 03010KT P6SM FEW040 FM140000 VRB03KT P6SM FEW020 RMK NXT FCST WILL BE ISSUED AT 141245Z<br><br>
<br><br>
CYHM 132200Z 05003KT 020V100 15SM FEW035 FEW150 FEW250 17/08 A2998 RMK CU1AC1CI1 CU TR AC TR SLP155 DENSITY ALT 1100FT<br><br>
TAF CYHM 131738Z 1318/1418 06010KT P6SM FEW030 FEW120 FM140300 VRB03KT P6SM FEW060 BECMG 1407/1408 21006KT FM141500 22010KT P6SM BKN020 BECMG 1416/1418 22010G20KT RMK NXT FCST BY 140000Z<br><br>
<br><br>
KIAG 132253Z 32005KT 10SM CLR 19/08 A2995 RMK AO2 SLP145 T01940078<br><br>
KIAG 132153Z 33007KT 10SM OVC039 21/09 A2996 RMK AO2 SLP149 T02060089<br><br>
KIAG 132104Z 1321/1418 35008KT P6SM SKC FM140000 VRB04KT P6SM SCT250 FM141100 22004KT P6SM SCT150 FM141700 22010KT P6SM BKN100<br><br>
<br><br>
KBUF 132254Z 21009KT 10SM BKN039 BKN220 19/12 A2996 RMK AO2 SLP144 T01940117<br><br>
KBUF 132154Z 22009KT 10SM SCT048 BKN220 22/12 A2996 RMK AO2 SLP146 T02170117<br><br>
KBUF 132104Z 1321/1418 21009KT P6SM SCT045 FM140000 21005KT P6SM SCT250 FM141100 21005KT P6SM SCT150 FM141600 24011KT P6SM BKN100<br><br>
<br><br>
CYYZ 132200Z 16009KT 15SM FEW230 15/05 A2997 RMK CI1 SLP151 DENSITY ALT 700FT<br><br>
TAF CYYZ 132038Z 1321/1424 15008KT P6SM SKC FM132300 18007KT P6SM FEW070 BECMG 1400/1402 22005KT BECMG 1410/1412 VRB03KT FM141600 22012KT P6SM BKN030 FM142200 24012KT P6SM SCT030 BKN080 RMK NXT FCST BY 140000Z<br><br>
<br><br>
CYOO 132200Z AUTO 16005KT 120V190 9SM CLR 17/06 A2996 RMK SLP150 DENSITY ALT 700FT<br><br>
CYOO has no TAF <br><br>
<br><br>
CYTR 132200Z 24007KT 15SM BKN240 19/09 A2995 RMK CI6 SLP145<br><br>
TAF CYTR 131730Z 1318/1418 13012KT P6SM FEW240 BECMG 1318/1320 24008KT FM140200 VRB03KT P6SM FEW030 BECMG 1413/1415 22010KT RMK NXT FCST BY 140000Z<br><br>
<br><br>
