RETRIEVED AT : Oct 06 2018 04:01 Local <br>
  RETRIEVED AT: Oct 06 2018 08:01 UTC<br><br>
CYSN has no TAF <br><br>
<br><br>
CYHM 060700Z 05008KT 15SM BKN014 OVC023 12/09 A3004 RMK CF6SC2 SLP176<br><br>
TAF AMD CYHM 060612Z 0606/0706 04007KT P6SM OVC025 TEMPO 0606/0610 4SM -RA -DZ BR SCT007 OVC020 FM061000 VRB03KT 1SM -DZ -RA BR BKN004 OVC007 TEMPO 0610/0615 3SM -RA BR SCT003 OVC007 FM061500 12007KT 2SM -DZ BR OVC004 TEMPO 0615/0618 6SM BR OVC008 FM061800 21010G20KT 5SM -SHRA BR OVC010 PROB30 0618/0622 VRB15G25KT 1SM +TSRA BR BKN007 OVC015CB FM070000 28012G22KT 6SM BR OVC010 FM070200 33010KT 5SM -RA BR BKN005 OVC100 FM070500 05007KT 6SM BR OVC010 RMK NXT FCST BY 061200Z<br><br>
<br><br>
KIAG 060753Z AUTO 10006KT 10SM OVC011 11/08 A3002 RMK AO2 SLP170 T01060078<br><br>
KIAG 060653Z AUTO 00000KT 10SM OVC014 11/07 A3005 RMK AO2 SLP182 T01110072<br><br>
KIAG 060651Z AUTO 07003KT 10SM OVC014 11/07 A3005 RMK AO2<br><br>
KIAG 060613Z AUTO 12004KT 10SM BKN017 OVC075 11/07 A3006 RMK AO2 T01060067<br><br>
KIAG 060540Z 0606/0706 10005KT P6SM OVC025 FM061000 VRB05KT P6SM VCSH OVC008 FM061400 20008KT 6SM -SHRA OVC025 FM061800 23014G22KT P6SM BKN040 FM062300 26008KT 5SM SHRA VCTS OVC015CB FM070500 30006KT P6SM VCSH OVC015<br><br>
<br><br>
KBUF 060754Z 10003KT 10SM OVC014 12/09 A3003 RMK AO2 SLP171 T01170094<br><br>
KBUF 060654Z 13003KT 10SM OVC014 11/09 A3005 RMK AO2 SLP178 T01110089<br><br>
KBUF 060540Z 0606/0706 06006KT P6SM OVC040 FM060700 VRB03KT P6SM OVC025 FM061000 VRB05KT P6SM VCSH OVC008 FM061400 22010KT 6SM -SHRA OVC025 FM061900 23015G25KT P6SM BKN040 FM070000 23010KT 5SM SHRA VCTS OVC015CB<br><br>
<br><br>
CYYZ 060700Z 01008KT 010V110 15SM FEW015 OVC020 11/07 A3006 RMK SC2SC6 SLP182<br><br>
TAF CYYZ 060538Z 0606/0712 10005KT P6SM SCT020 OVC030 TEMPO 0606/0609 5SM -RA BR SCT008 OVC020 FM060900 07007KT 2SM -DZ BR BKN005 OVC010 TEMPO 0609/0618 5SM -RA BR SCT005 OVC010 BECMG 0614/0616 13007KT FM061800 17010KT 3SM -DZ BR OVC006 PROB30 0620/0623 VRB15G25KT 1SM +TSRA BR BKN007 OVC015CB FM062300 18010KT 2SM -RA BR OVC005 PROB30 0700/0703 VRB15G25KT 1SM +TSRA BR BKN007 OVC015CB FM070300 35015KT 3SM -RA BR OVC007 FM070500 36012KT 5SM -RA -DZ BR SCT007 OVC015 FM071100 36010KT 6SM BR SCT020 BKN030 RMK NXT FCST BY 060900Z<br><br>
<br><br>
CYOO 060700Z AUTO 08007KT 9SM OVC026 10/04 A3008 RMK SLP190<br><br>
CYOO has no TAF <br><br>
<br><br>
CYTR 060700Z 05006KT 15SM OVC038 09/04 A3011 RMK SC8 SLP199<br><br>
TAF CYTR 060530Z 0606/0706 07005KT P6SM SCT020 OVC050 TEMPO 0608/0611 5SM -SHRA -DZ BR SCT008 OVC020 FM061100 06008KT P6SM -SHRA SCT008 OVC020 TEMPO 0611/0618 3SM -SHRA BR BKN008 OVC020 FM061800 13005KT 3SM -SHRA -DZ BR BKN006 OVC012 PROB30 0618/0621 VRB15G25KT 2SM TSRA BR BKN005 OVC010CB FM062100 22005KT 3SM -SHRA -DZ BR BKN005 OVC010 FM070100 VRB03KT 2SM SHRA BR OVC004 PROB30 0701/0706 VRB15G25KT 1SM TSRA BR BKN002 OVC010CB RMK NXT FCST BY 061200Z<br><br>
<br><br>
