RETRIEVED AT : Jun 28 2020 23:05 Local <br>
  RETRIEVED AT: Jun 29 2020 03:05 UTC<br><br>
CYSN has no TAF <br><br>
<br><br>
CYHM 290200Z 02006KT 15SM FEW085 22/15 A2984 RMK AC1 AC TR SLP105 DENSITY ALT 1900FT<br><br>
TAF CYHM 282338Z 2900/2924 33008KT P6SM SCT050 FM290200 02006KT P6SM FEW040 BECMG 2907/2909 VRB03KT FM291500 05007KT P6SM SCT050 RMK NXT FCST BY 290600Z<br><br>
<br><br>
KIAG 290253Z 19004KT 10SM CLR 19/18 A2984 RMK AO2 SLP100 T01940178 51014<br><br>
KIAG 290153Z 22005KT 10SM CLR 21/18 A2983 RMK AO2 SLP097 T02060178<br><br>
KIAG 290257Z 2903/2924 VRB03KT P6SM SKC FM291500 35008KT P6SM SCT250<br><br>
<br><br>
KBUF 290254Z 22005KT 10SM CLR 19/18 A2985 RMK AO2 SLP105 T01890178 52011 $<br><br>
KBUF 290154Z 22008KT 10SM FEW060 19/18 A2984 RMK AO2 SLP102 T01890178 $<br><br>
KBUF 290256Z 2903/2924 24006KT P6SM SKC FM290800 VRB04KT P6SM SKC FM291500 31008KT P6SM FEW250<br><br>
<br><br>
CYYZ 290200Z 35010G15KT 15SM FEW080 23/15 A2983 RMK AC1 AC TR SLP101 DENSITY ALT 1800FT<br><br>
TAF CYYZ 290239Z 2903/3006 35012KT P6SM FEW070 BECMG 2903/2905 01008KT FM291700 14010KT P6SM SCT050 FM300000 36012KT P6SM FEW060 BECMG 3004/3006 08007KT RMK NXT FCST BY 290600Z<br><br>
<br><br>
CYOO 290200Z AUTO 33007KT 9SM CLR 23/17 A2983 RMK SLP100 DENSITY ALT 1500FT<br><br>
TAF CYOO 290139Z 2902/2914 35007KT P6SM FEW050 RMK FCST BASED ON AUTO OBS. NXT FCST BY 290800Z<br><br>
<br><br>
CYTR 290200Z 00000KT 15SM FEW040 FEW110 21/17 A2979 RMK CU1AC2 TCU DIST SE SLP089<br><br>
TAF CYTR 282330Z 2900/2924 01010KT P6SM FEW040 SCT110 FM290200 VRB03KT P6SM FEW040 PROB30 2908/2911 2SM BR BECMG 2915/2917 22008KT FM291700 22008KT P6SM -SHRA BKN040 PROB30 2919/2924 VRB15G25KT 2SM TSRA BR OVC040CB RMK NXT FCST BY 290600Z<br><br>
<br><br>
