RETRIEVED AT : Oct 21 2018 18:05 Local <br>
  RETRIEVED AT: Oct 21 2018 22:05 UTC<br><br>
CYSN 212100Z 29014G22KT 15SM BKN051 06/M03 A3013 RMK SC7 SLP207<br><br>
TAF CYSN 211939Z 2120/2201 30010G20KT P6SM BKN040 TEMPO 2121/2201 P6SM -SHRA BKN020 BECMG 2122/2124 27010KT RMK NXT FCST WILL BE ISSUED AT 221245Z<br><br>
<br><br>
CYHM 212100Z 27012G18KT 15SM FEW028 BKN035 BKN043 05/M03 A3014 RMK CU1SC6SC1 SC TR SLP215<br><br>
TAF CYHM 211738Z 2118/2218 30010G20KT P6SM BKN040 TEMPO 2120/2124 P6SM -SHRA BKN020 BECMG 2122/2124 27010KT FM220000 27010KT P6SM BKN040 BKN120 BECMG 2202/2204 23010KT FM220800 25010KT P6SM SCT040 BKN100 FM221700 24012G22KT P6SM SCT060 RMK NXT FCST BY 220000Z<br><br>
<br><br>
KIAG 212153Z 27009KT 10SM OVC043 04/M03 A3012 RMK AO2 SLP213 T00441028<br><br>
KIAG 212053Z 29008KT 10SM OVC038 04/M03 A3013 RMK AO2 SLP215 T00441028 56008<br><br>
KIAG 212124Z 2121/2218 29013KT P6SM BKN035 FM220000 27009KT P6SM BKN050 FM220200 26008KT P6SM SCT050 FM220900 23006KT P6SM BKN040 FM221300 20010KT P6SM VCSH BKN035<br><br>
<br><br>
KBUF 212154Z 28009G16KT 10SM FEW042 BKN049 04/M03 A3013 RMK AO2 SLP210 T00441028<br><br>
KBUF 212054Z 29011KT 10SM BKN042 OVC047 04/M03 A3013 RMK AO2 SLP211 T00441033 56006<br><br>
KBUF 212124Z 2121/2218 29012KT P6SM BKN040 FM220000 27008KT P6SM BKN050 FM220300 25005KT P6SM SCT050 FM220800 21006KT P6SM BKN035 FM221200 21011KT P6SM VCSH BKN030<br><br>
<br><br>
CYYZ 212100Z 27014G22KT 15SM FEW038 BKN045 05/M04 A3012 RMK CF1SC7 CF TR SLP207<br><br>
TAF CYYZ 212038Z 2121/2224 30012G22KT P6SM BKN040 FM212300 29010G20KT P6SM BKN040 TEMPO 2123/2202 P6SM -SHRASN FM220200 25008KT P6SM BKN030 TEMPO 2204/2208 P6SM -SHSN FM220800 25010KT P6SM SCT040 BKN080 FM221200 24010KT P6SM FEW030 SCT080 FM222100 25012KT P6SM BKN050 BECMG 2222/2224 24007KT RMK NXT FCST BY 220000Z<br><br>
<br><br>
CYOO 212100Z AUTO 28009G15KT 9SM OVC046 05/M04 A3011 RMK SLP202<br><br>
CYOO has no TAF <br><br>
<br><br>
CYTR 212100Z 29008KT 15SM BKN048 OVC200 05/M05 A3010 RMK SC6CI2 SLP195<br><br>
TAF AMD CYTR 211807Z 2118/2218 30012G22KT P6SM SCT040 TEMPO 2118/2212 BKN040 BECMG 2200/2202 VRB03KT FM221200 25005KT P6SM BKN030 TEMPO 2216/2218 P6SM -SHRA RMK NXT FCST BY 220000Z<br><br>
<br><br>
