RETRIEVED AT : May 31 2020 23:05 Local <br>
  RETRIEVED AT: Jun 01 2020 03:05 UTC<br><br>
CYSN has no TAF <br><br>
<br><br>
CYHM 010200Z 27006KT 15SM FEW110 11/04 A3024 RMK AC2 SLP245<br><br>
TAF CYHM 312338Z 0100/0124 33007KT P6SM BKN060 TEMPO 0100/0103 SCT060 FM010300 24007KT P6SM SCT060 BECMG 0113/0115 25015KT RMK NXT FCST BY 010600Z<br><br>
<br><br>
KIAG 010253Z 22005KT 10SM SCT070 BKN100 10/07 A3024 RMK AO2 SLP244 60000 T01000067 53004<br><br>
KIAG 010153Z 23008KT 10SM BKN075 OVC095 11/07 A3023 RMK AO2 RAB26E37 SLP244 P0000 T01060067<br><br>
KIAG 010239Z 0103/0124 23010KT P6SM BKN070 FM010500 24007KT P6SM SCT070 FM011200 27010KT P6SM FEW250 FM011400 24015G25KT P6SM FEW250 FM012200 23012G20KT P6SM FEW250<br><br>
<br><br>
KBUF 010254Z 22008KT 10SM SCT070 OVC095 10/08 A3024 RMK AO2 SLP244 T01000078 50003 $<br><br>
KBUF 010154Z 23008KT 10SM BKN065 BKN080 10/07 A3024 RMK AO2 SLP245 T01000072 $<br><br>
KBUF 010239Z 0103/0124 23010KT P6SM BKN070 FM010600 24006KT P6SM SCT070 FM011200 27010KT P6SM FEW250 FM011400 26015G25KT P6SM FEW250 FM012200 24012G20KT P6SM FEW250<br><br>
<br><br>
CYYZ 010231Z 36012KT 15SM -SHRA BKN040 BKN110 12/04 A3023 RMK SC7AC1 AC TR WSHFT 0217 SLP241<br><br>
CYYZ 010212Z 28004KT 180V320 15SM -SHRA BKN065 12/03 A3023 RMK SC7 CVCTV CLD EMBD SLP242<br><br>
CYYZ 010200Z 18004KT 15SM BKN070 BKN110 13/03 A3022 RMK AC7AC1 AC TR SLP239<br><br>
TAF CYYZ 010238Z 0103/0206 VRB03KT P6SM BKN060 TEMPO 0103/0105 P6SM -SHRA FM010500 VRB03KT P6SM SCT060 BECMG 0105/0107 17008KT BECMG 0112/0114 28010KT FM011500 27015G25KT P6SM SCT070 FM020300 22010KT P6SM FEW080 BKN140 RMK NXT FCST BY 010600Z<br><br>
<br><br>
CYOO 010200Z AUTO 26003KT 210V290 9SM FEW070 10/01 A3022 RMK SLP237<br><br>
TAF CYOO 010142Z 0102/0114 30005KT P6SM SCT080 SCT120 TEMPO 0102/0106 BKN080 FM010800 VRB03KT P6SM FEW050 BECMG 0112/0114 22010KT RMK FCST BASED ON AUTO OBS. NXT FCST BY 010800Z<br><br>
<br><br>
CYTR 010200Z 30004KT 15SM FEW050 09/02 A3022 RMK SC1 SLP234<br><br>
TAF CYTR 312330Z 0100/0124 30010G20KT P6SM SCT060 FM010100 30008KT P6SM FEW100 BECMG 0104/0106 VRB03KT FM011400 24005KT P6SM BKN080 BECMG 0114/0116 24010G20KT BECMG 0119/0121 29012G22KT RMK NXT FCST BY 010600Z<br><br>
<br><br>
