RETRIEVED AT : Nov 13 2017 14:10 Local <br>
  RETRIEVED AT: Nov 13 2017 19:10 UTC<br><br>
CYSN 131900Z 29004KT 8SM BKN012 OVC027 05/03 A3036 RMK SF5SC3 SLP285<br><br>
CYSN 131800Z 31006KT 7SM OVC013 04/03 A3036 RMK SC8 SLP284<br><br>
TAF AMD CYSN 131611Z 1316/1402 VRB03KT P6SM OVC015 TEMPO 1316/1319 4SM BR OVC007 FM131900 30007KT P6SM OVC020 TEMPO 1319/1402 OVC030 RMK NXT FCST BY 132000Z<br><br>
<br><br>
CYHM 131900Z 26006KT 15SM SCT018 OVC038 05/01 A3035 RMK SC3SC5 SLP288<br><br>
CYHM 131800Z 29005KT 15SM FEW015 OVC042 05/02 A3035 RMK SC1SC7 SLP286<br><br>
TAF CYHM 131738Z 1318/1418 30005KT P6SM FEW012 OVC030 TEMPO 1318/1403 5SM BR BKN012 OVC030 FM140300 VRB03KT 4SM BR OVC015 TEMPO 1403/1416 P6SM NSW OVC025 FM141600 26006KT P6SM BKN025 RMK NXT FCST BY 140000Z<br><br>
<br><br>
