RETRIEVED AT : Oct 31 2017 10:10 Local <br>
  RETRIEVED AT: Oct 31 2017 14:10 UTC<br><br>
CYSN 311400Z 25012KT 15SM FEW028 BKN100 07/M00 A2991 RMK SC2AC4 SLP131<br><br>
CYSN 311300Z 23010KT 15SM FEW025 BKN086 06/M00 A2988 RMK SC1AC6 SLP122<br><br>
TAF CYSN 311240Z 3113/0101 24012G22KT P6SM SCT030 BKN080 BECMG 3115/3117 25020G30KT FM312100 25015G25KT P6SM SCT040 BECMG 0100/0101 24010KT RMK NXT FCST BY 312000Z<br><br>
<br><br>
CYHM 311400Z 26017G25KT 15SM FEW022 SCT026 SCT080 06/00 A2990 RMK CU1SC2AC1 AC TR SLP132<br><br>
CYHM 311300Z 25013G25KT 15SM FEW018 SCT060 BKN092 05/00 A2987 RMK CU1SC2AC3 SLP122<br><br>
TAF CYHM 311138Z 3112/0112 24015G25KT P6SM BKN030 TEMPO 3112/3116 BKN020 FM311600 25020G30KT P6SM BKN040 BECMG 3120/3121 23015KT BECMG 0100/0102 23008KT FM010600 20007KT P6SM BKN030 OVC150 TEMPO 0106/0112 5SM -SHRASN OVC020 RMK NXT FCST BY 311800Z<br><br>
<br><br>
KIAG 311353Z 25010G19KT 10SM OVC095 08/M01 A2990 RMK AO2 LTG DSNT S SLP134 T00781011<br><br>
KIAG 311253Z 23007KT 10SM OVC090 07/M01 A2988 RMK AO2 SLP127 T00671006<br><br>
KIAG 311120Z 3112/0112 25015KT P6SM BKN080 FM312200 26013KT P6SM FEW250 FM010100 25008KT P6SM BKN060<br><br>
<br><br>
KBUF 311354Z 20021G29KT 10SM -TSRA SCT015CB BKN045 BKN080 03/02 A2993 RMK AO2 PK WND 20029/1353 RAB46 TSB52 SLP140 OCNL LTGIC VC S TS VC S MOV E P0000 T00330017<br><br>
KBUF 311352Z 21022G28KT 10SM -TSRA SCT015CB BKN045 BKN080 04/02 A2993 RMK AO2 PK WND 21028/1351 RAB46 TSB52 OCNL LTGIC VC S TS VC S MOV E P0000<br><br>
KBUF 311254Z 21013G21KT 10SM FEW012 SCT018 BKN065 03/02 A2989 RMK AO2 SLP127 T00330017<br><br>
KBUF 311120Z 3112/0112 25015KT P6SM VCSH BKN025 FM311300 25014KT 4SM RA BKN007 FM311700 25017KT P6SM BKN025 FM311900 25016KT P6SM BKN200 FM010100 25008KT P6SM VCSH OVC040<br><br>
<br><br>
CYYZ 311400Z 25011G18KT 15SM VCSH BKN025 BKN045 05/01 A2988 RMK SC5SC2 SLP124<br><br>
CYYZ 311328Z 25019G25KT 5SM -RA FEW020 BKN035 BKN075 06/M00 A2986 RMK CF1SC5AC1 VIS LWR NW SLP119<br><br>
CYYZ 311300Z 24013G21KT 15SM FEW022 FEW028 SCT075 05/M00 A2985 RMK SF1SC2AC2 SF TR SH DIST W SLP114<br><br>
CYYZ 311248Z 24011G16KT 15SM VCSH FEW022 FEW030 SCT080 05/M00 A2984 RMK CF1SC2AC2 CF TR SLP111<br><br>
TAF AMD CYYZ 311349Z 3113/0118 25015G25KT P6SM SCT020 BKN050 TEMPO 3113/3116 5SM -SHRA BR BKN020 OVC050 FM311600 26020G30KT P6SM BKN040 BECMG 3121/3122 24012G22KT FM010200 23008KT P6SM SCT030 FM010600 20008KT P6SM BKN030 OVC150 TEMPO 0106/0115 5SM -SHRASN OVC020 RMK NXT FCST BY 311500Z<br><br>
<br><br>
CYOO 311400Z AUTO 25014G20KT 220V280 9SM BKN029 BKN065 07/00 A2985 RMK SLP115<br><br>
CYOO 311300Z AUTO 22010G16KT 9SM BKN075 06/00 A2983 RMK SLP106<br><br>
CYOO has no TAF <br><br>
<br><br>
CYTR 311400Z 25018G24KT 15SM SCT080 08/00 A2984 RMK AC3 SLP106<br><br>
CYTR 311300Z CCA 25015G21KT 15SM BKN072 07/00 A2981 RMK AC5 SLP098<br><br>
TAF AMD CYTR 311202Z 3112/0112 25015G25KT P6SM FEW060 FM311300 25022G35KT P6SM FEW025 BECMG 3118/3120 25015G25KT FM312100 25012G22KT P6SM BKN050 TEMPO 3121/3123 P6SM -SHRA BKN030 FM312300 26005KT P6SM SCT050 BKN200 BECMG 0100/0102 VRB03KT FM010500 VRB03KT P6SM SCT020 BKN050 TEMPO 0105/0112 5SM -SHRA BR BKN020 OVC050 BECMG 0107/0109 23005KT RMK NXT FCST BY 311800Z<br><br>
<br><br>
