RETRIEVED AT : Feb 23 2020 22:05 Local <br>
  RETRIEVED AT: Feb 24 2020 03:05 UTC<br><br>
CYSN 240200Z 20014KT 15SM FEW100 05/M05 A2991 RMK AC1 LAST STFD OBS/NEXT 241200 UTC SLP134<br><br>
CYSN has no TAF <br><br>
<br><br>
CYHM 240200Z 21009KT 15SM SKC 02/M05 A2991 RMK SLP139<br><br>
TAF CYHM 232338Z 2400/2424 22010G20KT P6SM FEW240 BECMG 2401/2403 23012KT FM241100 23008KT P6SM BKN015 BECMG 2417/2419 27006KT RMK NXT FCST BY 240600Z<br><br>
<br><br>
KIAG 240253Z 21006KT 10SM CLR 03/M06 A2993 RMK AO2 SLP148 T00281061 55001<br><br>
KIAG 240153Z 21013KT 10SM CLR 04/M06 A2992 RMK AO2 SLP144 T00441056<br><br>
KIAG 232339Z 2400/2424 20009KT P6SM FEW250 FM240200 21014G20KT P6SM FEW250 WS020/23045KT FM240500 22014G21KT P6SM FEW250 FM241400 25010KT P6SM BKN035<br><br>
<br><br>
KBUF 240254Z 20008KT 10SM CLR 03/M08 A2994 RMK AO2 SLP145 T00331078 55001<br><br>
KBUF 240154Z 20008KT 10SM CLR 03/M04 A2994 RMK AO2 SLP145 T00281044<br><br>
KBUF 232339Z 2400/2424 20007KT P6SM FEW250 FM240200 22011G17KT P6SM FEW250 WS020/24040KT FM240800 22012KT P6SM FEW250 FM241400 24013G20KT P6SM BKN035 FM242100 25006KT P6SM BKN035<br><br>
<br><br>
CYYZ 240200Z 21014G20KT 15SM SKC 05/M05 A2988 RMK SLP127<br><br>
TAF CYYZ 240238Z 2403/2506 21010G20KT P6SM SKC BECMG 2406/2408 23010KT FM241000 22008KT P6SM SCT020 FM241800 27008KT P6SM FEW030 FM250000 35007KT P6SM FEW030 BKN170 RMK NXT FCST BY 240600Z<br><br>
<br><br>
CYOO 240200Z AUTO 22005KT 9SM CLR 03/M02 A2989 RMK SLP130<br><br>
TAF CYOO 240138Z 2402/2414 22007KT P6SM SKC BECMG 2408/2410 25005KT RMK FCST BASED ON AUTO OBS. NXT FCST BY 240800Z<br><br>
<br><br>
CYTR 240200Z 19003KT 15SM BKN060 03/M02 A2991 RMK SC6 SLP133<br><br>
TAF CYTR 232330Z 2400/2424 VRB03KT P6SM BKN060 FM241200 25010KT P6SM SCT020 TEMPO 2412/2418 BKN020 BECMG 2415/2417 24010G20KT FM241800 24010KT P6SM FEW030 BKN210 RMK NXT FCST BY 240600Z<br><br>
<br><br>
