RETRIEVED AT : Nov 26 2018 03:35 Local <br>
  RETRIEVED AT: Nov 26 2018 08:35 UTC<br><br>
CYSN has no TAF <br><br>
<br><br>
CYHM 260800Z 05014KT 15SM FEW004 OVC072 03/02 A2973 RMK CF1AC8 CF TR SLP076<br><br>
CYHM 260700Z 05012KT 15SM SCT004 OVC130 03/03 A2975 RMK SC3AC5 SLP082<br><br>
TAF CYHM 260540Z 2606/2706 05008KT P6SM SCT025 OVC130 TEMPO 2606/2609 OVC020 FM260900 05010KT P6SM -RA BKN025 OVC060 TEMPO 2609/2611 5SM -RA BR OVC020 FM261100 05010G20KT 2SM -RA BR BKN005 OVC050 TEMPO 2611/2613 6SM -RA BR SCT005 OVC050 FM261300 06015G25KT 2SM -RA BR OVC003 PROB30 2613/2616 1/4SM -RA FG VV001 FM261800 06010KT 1SM -RA BR OVC003 BECMG 2619/2621 VRB03KT RMK NXT FCST BY 261200Z<br><br>
<br><br>
KIAG 260753Z AUTO 08008KT 10SM OVC110 04/01 A2975 RMK AO2 SLP085 T00390011 $<br><br>
KIAG 260653Z AUTO 07008KT 10SM CLR 03/01 A2977 RMK AO2 SLP090 T00330011 $<br><br>
KIAG 260525Z 2606/2706 09004KT P6SM OVC100 FM261200 08011G17KT 5SM -SHRA OVC050 FM261500 11012G19KT 4SM -SHRA BR OVC012 FM261800 17009KT 5SM -SHRA BR OVC020 FM262100 18008KT 4SM BR VCSH OVC015 FM270300 20005KT 4SM BR VCSH OVC015<br><br>
<br><br>
KBUF 260754Z 07008KT 10SM OVC120 04/01 A2975 RMK AO2 SLP079 T00390011<br><br>
KBUF 260654Z 07009KT 10SM OVC120 04/01 A2977 RMK AO2 SLP084 T00390011<br><br>
KBUF 260525Z 2606/2706 11004KT P6SM OVC100 FM261200 10011G17KT 5SM SHRA OVC050 FM261500 12011G19KT 5SM -SHRA BR OVC020 FM261800 18012G18KT 4SM -SHRA BR OVC020 FM270000 21007KT P6SM OVC020 FM270500 23005KT 3SM BR VCSH OVC015<br><br>
<br><br>
CYYZ 260800Z 06007KT 15SM FEW030 OVC095 04/M01 A2977 RMK SC2AS6 PRESFR SLP088<br><br>
CYYZ 260700Z 05005KT 15SM OVC028 04/M01 A2979 RMK SC8 SLP094<br><br>
TAF CYYZ 260540Z 2606/2712 VRB03KT P6SM OVC030 TEMPO 2606/2609 OVC020 FM260900 04008KT P6SM -RA BKN025 OVC070 TEMPO 2609/2611 3SM -SNRA SCT008 OVC020 PROB30 2609/2611 4SM -FZRA BR OVC008 FM261100 06010G20KT 4SM -RA BR BKN008 OVC020 TEMPO 2611/2614 6SM -RA BR SCT008 OVC020 PROB30 2612/2614 2SM -RA BR OVC003 FM261400 07015G25KT 1SM -RA BR OVC003 FM261700 08010G20KT 21/2SM -RA BR OVC005 TEMPO 2617/2623 1SM -RA BR OVC003 BECMG 2619/2621 08008KT FM262300 VRB03KT 3/4SM -RA BR OVC002 FM270300 25008KT 3SM -RA BR OVC006 FM270700 32015G30KT 4SM -RASN OVC012 FM270900 30015G25KT 2SM -SN OVC012 RMK NXT FCST BY 260900Z<br><br>
<br><br>
CYOO 260800Z AUTO 07007KT 9SM FEW029 SCT120 BKN140 OVC170 03/02 A2979 RMK SLP094<br><br>
CYOO 260700Z AUTO 07007KT 9SM OVC090 03/02 A2981 RMK PRESFR SLP100<br><br>
CYOO has no TAF <br><br>
<br><br>
CYTR 260800Z 00000KT 15SM OVC034 02/02 A2984 RMK SC8 SLP108<br><br>
CYTR 260700Z 04004KT 15SM OVC034 02/02 A2986 RMK SC8 SLP115<br><br>
TAF CYTR 260530Z 2606/2706 VRB03KT P6SM OVC030 FM260900 08005KT P6SM -RA SCT010 OVC025 TEMPO 2609/2611 3SM -RA BR OVC010 FM261100 09008KT 2SM RA BR OVC006 TEMPO 2611/2615 4SM -RA BR SCT006 OVC012 BECMG 2613/2615 09012G22KT FM261500 10012G22KT 2SM RA BR OVC005 TEMPO 2615/2701 4SM -RA BR SCT005 OVC010 FM270100 12010G20KT P6SM -RA SCT008 OVC015 TEMPO 2701/2706 4SM -RA BR BKN008 OVC015 RMK NXT FCST BY 261200Z<br><br>
<br><br>
