RETRIEVED AT : Oct 29 2018 04:05 Local <br>
  RETRIEVED AT: Oct 29 2018 08:05 UTC<br><br>
CYSN has no TAF <br><br>
<br><br>
CYHM 290700Z 30006KT 15SM FEW012 SCT024 OVC038 04/04 A2970 RMK SF1SC2SC5 SLP064<br><br>
TAF CYHM 290538Z 2906/3006 31006KT P6SM SCT015 OVC030 TEMPO 2906/2911 5SM -DZ -RA BR OVC015 FM291100 27010KT P6SM SCT020 BKN030 TEMPO 2911/2917 P6SM -SHRA OVC020 BECMG 2913/2915 27010G20KT FM291700 27015G30KT P6SM BKN025 OVC090 FM292100 29015G30KT P6SM FEW030 SCT100 BECMG 2923/3001 28012KT BECMG 3004/3006 28008KT RMK NXT FCST BY 291200Z<br><br>
<br><br>
KIAG 290753Z AUTO 30008KT 5SM -RA BR SCT008 BKN016 OVC021 06/04 A2968 RMK AO2 SLP059 P0004 T00560044<br><br>
KIAG 290734Z AUTO 30009KT 5SM -RA BR FEW008 BKN017 OVC038 06/04 A2967 RMK AO2 P0003 T00560044<br><br>
KIAG 290718Z AUTO 30007KT 5SM -RA BR FEW011 BKN017 OVC038 06/04 A2967 RMK AO2 P0002 T00560044<br><br>
KIAG 290712Z AUTO 30006KT 5SM -RA BR FEW017 OVC038 06/04 A2967 RMK AO2 P0001 T00560044<br><br>
KIAG 290653Z AUTO 31006KT 6SM -RA BR SCT017 BKN028 OVC037 06/04 A2967 RMK AO2 RAB27 SLP056 P0001 T00560039<br><br>
KIAG 290541Z 2906/3006 VRB03KT 6SM -SHRA OVC015 FM290800 32005KT 4SM -RA OVC007 FM291000 30007KT 6SM -SHRA OVC015 FM291500 27014G21KT 6SM -SHRA OVC020 FM292200 28017G24KT P6SM BKN035 FM300300 29010KT P6SM SCT080<br><br>
<br><br>
KBUF 290754Z 31008KT 9SM -RA FEW027 FEW035 OVC048 06/04 A2967 RMK AO2 RAB13 SLP052 P0001 T00560044<br><br>
KBUF 290725Z 31007KT 10SM -RA SCT014 BKN050 OVC070 06/05 A2967 RMK AO2 RAB13 P0000 T00560050<br><br>
KBUF 290705Z 32006KT 10SM BKN012 OVC024 06/05 A2966 RMK AO2 T00560050<br><br>
KBUF 290654Z 32005KT 10SM SCT010 SCT018 OVC023 06/05 A2966 RMK AO2 RAE03 SLP047 P0000 T00560050<br><br>
KBUF 290541Z 2906/3006 00000KT 6SM -SHRA OVC012 FM290800 VRB03KT 4SM -RA OVC007 FM291100 29006KT 6SM -SHRA OVC012 FM291500 27014G22KT P6SM -SHRA OVC012 FM292200 28015G25KT P6SM OVC035 FM300300 28009KT P6SM SCT060<br><br>
<br><br>
CYYZ 290700Z 32011KT 15SM FEW035 OVC073 04/02 A2969 RMK SC1AC7 SLP059<br><br>
TAF CYYZ 290538Z 2906/3012 34008KT P6SM FEW010 OVC025 TEMPO 2906/2913 P6SM -RA -DZ OVC010 FM291300 25008KT P6SM SCT015 OVC050 TEMPO 2913/2915 P6SM -SHRASN BKN015 OVC050 FM291500 29010G20KT P6SM SCT015 OVC050 TEMPO 2915/2917 P6SM -SHRA BKN015 OVC030 FM291700 29015G25KT P6SM BKN030 OVC100 FM292100 29015G25KT P6SM FEW030 SCT100 BECMG 3000/3002 29012KT RMK NXT FCST BY 290900Z<br><br>
<br><br>
CYOO 290736Z AUTO 28006KT 9SM FEW012 SCT019 OVC070 04/04 A2967 RMK SLP053<br><br>
CYOO 290714Z AUTO 29006KT 9SM SCT012 BKN017 OVC040 05/05 A2967 RMK SLP053<br><br>
CYOO 290700Z AUTO 27004KT 9SM FEW023 OVC040 05/05 A2967 RMK SLP052<br><br>
CYOO 290646Z AUTO 27003KT 6SM BR SCT021 OVC036 05/05 A2966 RMK SLP049<br><br>
CYOO 290639Z AUTO 28002KT 6SM BR BKN021 OVC034 05/05 A2966 RMK SLP049<br><br>
CYOO 290612Z AUTO 29002KT 4SM BR SCT009 BKN018 BKN026 OVC035 04/04 A2965 RMK SLP046<br><br>
CYOO 290608Z AUTO 30003KT 4SM BR SCT011 SCT020 BKN026 OVC035 05/05 A2965 RMK SLP046<br><br>
CYOO has no TAF <br><br>
<br><br>
CYTR 290753Z 32004KT 3SM -RA BR SCT003 OVC013 04/04 A2966 RMK SF3SC5 SLP046<br><br>
CYTR 290733Z 33004KT 3SM -RA BR FEW003 OVC022 04/04 A2965 RMK SF2SC6 SLP045<br><br>
CYTR 290700Z 00000KT 3SM -RA BR OVC046 03/03 A2965 RMK SC8 PCPN VRY LGT SLP044<br><br>
TAF AMD CYTR 290803Z 2908/3006 VRB03KT P6SM SCT010 BKN050 TEMPO 2908/2914 3SM -RA BR SCT003 OVC010 FM291400 27005KT 5SM -RA BR SCT006 OVC020 TEMPO 2914/2918 P6SM NSW FEW006 SCT020 OVC050 FM291800 29012KT P6SM SCT015 OVC030 BECMG 3003/3005 FEW015 SCT030 RMK NXT FCST BY 291200Z<br><br>
<br><br>
