RETRIEVED AT : Mar 01 2020 00:05 Local <br>
  RETRIEVED AT: Mar 01 2020 05:05 UTC<br><br>
CYSN has no TAF <br><br>
<br><br>
CYHM 010400Z 25006KT 15SM FEW240 M10/M13 A3006 RMK CI1 CI TR SLP197<br><br>
TAF CYHM 292339Z 0100/0124 27012G22KT P6SM FEW030 TEMPO 0100/0101 P6SM -SHSN BKN030 FM010100 27010KT P6SM SCT040 FM011500 23008KT P6SM FEW090 FM011800 20012KT P6SM SCT090 SCT170 FM012100 17012G22KT P6SM BKN050 BKN150 RMK NXT FCST BY 010600Z<br><br>
<br><br>
KIAG 010453Z AUTO 00000KT 10SM CLR M10/M13 A3009 RMK AO2 SLP213 T11001128 410501111<br><br>
KIAG 010353Z 22004KT 10SM SCT039 M08/M12 A3009 RMK AO2 SLP211 T10831122<br><br>
KIAG 010308Z 0103/0124 26008KT P6SM SCT050 FM011000 24006KT P6SM SCT250 FM011800 21010KT P6SM SCT120 FM012300 17008KT P6SM BKN090<br><br>
<br><br>
KBUF 010454Z 26004KT 10SM FEW046 M06/M12 A3009 RMK AO2 SLP202 T10611117 410441100 $<br><br>
KBUF 010354Z 25006KT 10SM SCT037 M05/M11 A3009 RMK AO2 SLP201 T10501111 $<br><br>
KBUF 010307Z 0103/0124 25008KT P6SM SCT035 BKN050 FM011000 25006KT P6SM SCT120 FM011800 21008KT P6SM SCT100 FM012300 17007KT P6SM BKN090<br><br>
<br><br>
CYYZ 010400Z 17006KT 15SM SKC M06/M11 A3007 RMK SLP195<br><br>
TAF CYYZ 010238Z 0103/0206 29008KT P6SM SKC FM011500 24008KT P6SM FEW080 BECMG 0116/0118 18010KT FM012100 17010KT P6SM BKN090 FM020300 16008KT P6SM BKN040 RMK NXT FCST BY 010600Z<br><br>
<br><br>
CYOO 010400Z AUTO 02002KT 9SM CLR M14/M15 A3008 RMK SLP199<br><br>
TAF CYOO 010138Z 0102/0114 32005KT P6SM FEW030 RMK FCST BASED ON AUTO OBS. NXT FCST BY 010800Z<br><br>
<br><br>
CYTR 010400Z 27002KT 15SM FEW080 M11/M15 A3008 RMK AC2 SLP192<br><br>
TAF CYTR 292330Z 0100/0124 28010KT P6SM SCT080 BKN250 BECMG 0101/0103 FEW080 SCT250 BECMG 0103/0105 VRB03KT FM011800 25008KT P6SM FEW250 BECMG 0122/0124 VRB03KT BKN080 RMK NXT FCST BY 010600Z<br><br>
<br><br>
