RETRIEVED AT : Jun 07 2019 11:05 Local <br>
  RETRIEVED AT: Jun 07 2019 15:05 UTC<br><br>
CYSN 071400Z 12002KT 15SM SCT250 21/12 A2999 RMK CI3 SLP158 DENSITY ALT 1000FT<br><br>
TAF CYSN 071239Z 0713/0801 21005KT P6SM SKC BECMG 0716/0718 35008KT BECMG 0722/0724 02005KT RMK NXT FCST BY 072000Z<br><br>
<br><br>
CYHM 071400Z 01006KT 15SM FEW250 21/09 A3001 RMK CI2 CONTRAILS SLP163 DENSITY ALT 1600FT<br><br>
TAF CYHM 071138Z 0712/0812 VRB03KT P6SM FEW200 FM071400 04007KT P6SM FEW240 BECMG 0717/0719 04012KT FM080300 03005KT P6SM SKC BECMG 0809/0811 05010KT RMK NXT FCST BY 071800Z<br><br>
<br><br>
KIAG 071453Z 00000KT 10SM CLR 21/12 A3001 RMK AO2 SLP163 T02060117 53006<br><br>
KIAG 071353Z 25003KT 10SM CLR 18/13 A3001 RMK AO2 SLP160 T01830133<br><br>
KIAG 071437Z 0715/0812 25003KT P6SM FEW250 FM071800 35007KT P6SM SCT250 FM072300 02004KT P6SM SCT250 FM080800 09004KT P6SM SCT250<br><br>
<br><br>
KBUF 071454Z 00000KT 10SM FEW039 FEW140 FEW260 21/11 A3002 RMK AO2 SLP163 T02110111 51004<br><br>
KBUF 071354Z 00000KT 10SM FEW140 FEW260 18/14 A3001 RMK AO2 SLP163 T01830139<br><br>
KBUF 071437Z 0715/0812 VRB03KT P6SM FEW250 FM080000 03003KT P6SM SCT250<br><br>
<br><br>
CYYZ 071400Z VRB05KT 15SM FEW250 22/09 A3000 RMK CI1 SLP158 DENSITY ALT 1400FT<br><br>
TAF CYYZ 071443Z 0715/0818 08006KT P6SM FEW250 BECMG 0715/0717 14007KT BECMG 0723/0801 02007KT FM081100 08012KT P6SM SKC BECMG 0814/0816 13010G20KT RMK NXT FCST BY 071800Z<br><br>
<br><br>
CYOO 071400Z AUTO 33010KT 310V010 9SM CLR 21/08 A2999 RMK SLP158 DENSITY ALT 1100FT<br><br>
TAF CYOO 071338Z 0714/0802 34007KT P6SM SKC BECMG 0715/0717 18007KT RMK FCST BASED ON AUTO OBS. NXT FCST BY 072000Z<br><br>
<br><br>
CYTR 071400Z 30007KT 15SM FEW250 21/11 A2997 RMK CI1 SLP151<br><br>
TAF CYTR 071130Z 0712/0812 VRB03KT P6SM SKC BECMG 0716/0718 21012KT BECMG 0800/0802 VRB03KT FM080400 04005KT P6SM SKC RMK NXT FCST BY 071800Z<br><br>
<br><br>
