RETRIEVED AT : Mar 07 2020 21:05 Local <br>
  RETRIEVED AT: Mar 08 2020 02:05 UTC<br><br>
CYSN 080100Z 22009KT 15SM FEW160 SCT250 M01/M04 A3041 RMK AC2CI1 SLP305<br><br>
TAF CYSN 071942Z 0720/0802 24007KT P6SM SKC FM080000 22010KT P6SM SCT120 RMK NXT FCST WILL BE ISSUED AT 081345Z<br><br>
<br><br>
CYHM 080100Z 22009KT 15SM FEW150 M01/M04 A3039 RMK AC1 SLP305<br><br>
TAF CYHM 072347Z 0800/0824 23007KT P6SM FEW120 FM081200 22010KT P6SM SKC BECMG 0814/0816 23015G25KT RMK NXT FCST BY 080600Z<br><br>
<br><br>
KIAG 080153Z 22011KT 10SM CLR M02/M04 A3041 RMK AO2 SLP314 T10171044<br><br>
KIAG 080053Z 22012KT 10SM CLR M02/M06 A3041 RMK AO2 SLP315 T10171056<br><br>
KIAG 072326Z 0800/0824 21014KT P6SM SCT250 FM080900 22010G18KT P6SM FEW200 FM081500 23016G35KT P6SM FEW250 FM082300 22015G29KT P6SM FEW250<br><br>
<br><br>
KBUF 080154Z 23011KT 10SM FEW150 SCT210 M01/M05 A3041 RMK AO2 SLP309 T10061050<br><br>
KBUF 080054Z 22011KT 10SM FEW150 FEW250 M01/M06 A3042 RMK AO2 SLP310 T10061056<br><br>
KBUF 072326Z 0800/0824 22014KT P6SM FEW250 FM080800 22010G20KT P6SM FEW250 FM081500 23016G35KT P6SM FEW250 FM082300 22013G24KT P6SM FEW250<br><br>
<br><br>
CYYZ 080100Z 17011KT 15SM FEW130 01/M08 A3037 RMK AC2 SLP295<br><br>
TAF CYYZ 072347Z 0800/0906 19010KT P6SM FEW250 FM081200 25010G20KT P6SM SKC FM081800 22012G22KT P6SM SKC RMK NXT FCST BY 080300Z<br><br>
<br><br>
CYOO 080100Z AUTO 23005KT 9SM FEW150 BKN180 01/M06 A3037 RMK SLP295<br><br>
TAF CYOO 080138Z 0802/0814 23005KT P6SM FEW150 BKN180 FM080600 24008KT P6SM SCT090 BKN140 RMK FCST BASED ON AUTO OBS. NXT FCST BY 080800Z<br><br>
<br><br>
CYTR 080100Z 26008KT 15SM FEW090 OVC110 M00/M06 A3039 RMK AC2AC6 SLP298<br><br>
TAF CYTR 072330Z 0800/0824 23010KT P6SM FEW130 SCT210 FM080300 26008KT P6SM SCT100 FM080800 26008KT P6SM SCT240 BECMG 0817/0819 24012G22KT SKC RMK NXT FCST BY 080600Z<br><br>
<br><br>
