RETRIEVED AT : Oct 16 2017 08:10 Local <br>
  RETRIEVED AT: Oct 16 2017 12:10 UTC<br><br>
CYSN 161200Z 34007KT 15SM BKN025 08/04 A3015 RMK SC6 SLP214<br><br>
CYSN 161100Z 35007KT 15SM OVC030 08/03 A3014 RMK SC8 SLP208<br><br>
CYSN has no TAF <br><br>
<br><br>
CYHM 161200Z 30004KT 15SM FEW020 FEW032 03/02 A3017 RMK CU1SC1 SLP225<br><br>
CYHM 161100Z 28005KT 15SM FEW028 FEW035 03/02 A3015 RMK CU1SC1 CU TR SC TR SLP217<br><br>
TAF AMD CYHM 161156Z 1612/1712 30008KT P6SM FEW030 BECMG 1614/1616 31010G20KT BECMG 1622/1624 30008KT FM170300 VRB03KT P6SM SKC BECMG 1708/1710 23010KT RMK NXT FCST BY 161800Z<br><br>
<br><br>
KIAG 161153Z 35007KT 10SM BKN026 OVC045 08/02 A3015 RMK AO2 SLP213 T00830022 10100 20083 53017<br><br>
KIAG 161133Z 34005KT 10SM BKN026 OVC037 08/02 A3014 RMK AO2 T00830022<br><br>
KIAG 161053Z 36007KT 10SM OVC046 08/02 A3013 RMK AO2 SLP205 T00830022<br><br>
KIAG 161132Z 1612/1712 36007KT P6SM BKN045 FM161500 31010KT P6SM SCT045 FM162200 29006KT P6SM FEW250 FM170100 VRB03KT P6SM FEW250<br><br>
<br><br>
KBUF 161154Z 34005KT 10SM BKN031 BKN047 07/03 A3014 RMK AO2 SLP209 70015 T00720028 10083 20067 53016<br><br>
KBUF 161054Z 34005KT 10SM FEW033 BKN045 07/03 A3012 RMK AO2 SLP203 T00720028 $<br><br>
KBUF 161132Z 1612/1712 34005KT P6SM BKN045 FM161400 32007KT P6SM SCT045 FM162100 31009KT P6SM FEW250 FM170000 VRB03KT P6SM FEW250<br><br>
<br><br>
CYYZ 161200Z 01005KT 15SM FEW018 SCT025 BKN035 05/01 A3017 RMK CU1SC3SC3 SLP221<br><br>
CYYZ 161100Z 33009KT 15SM FEW025 BKN030 05/01 A3015 RMK CU1SC5 SLP213<br><br>
TAF CYYZ 161138Z 1612/1718 34009KT P6SM BKN030 TEMPO 1612/1616 SCT030 FM161600 33012G22KT P6SM BKN030 FM162200 32010G20KT P6SM FEW040 BECMG 1623/1624 32010KT BECMG 1701/1703 VRB03KT FM170500 25008KT P6SM BKN030 FM171400 24010G20KT P6SM FEW030 BECMG 1717/1718 24018G28KT RMK NXT FCST BY 161500Z<br><br>
<br><br>
CYOO 161200Z AUTO 34007KT 9SM OVC046 04/01 A3016 RMK SLP218<br><br>
CYOO 161103Z AUTO 30004KT 9SM SCT023 SCT027 03/01 A3014 RMK SLP210<br><br>
CYOO 161102Z AUTO 30004KT 9SM BKN023 04/01 A3014 RMK SLP210<br><br>
CYOO 161101Z AUTO 30004KT 9SM SCT023 BKN027 04/01 A3014 RMK SLP210<br><br>
CYOO 161100Z AUTO 30004KT 9SM BKN023 04/01 A3014 RMK SLP210<br><br>
CYOO 161040Z AUTO 29004KT 9SM BKN023 BKN028 04/02 A3014 RMK SLP209<br><br>
CYOO has no TAF <br><br>
<br><br>
CYTR 161200Z 32006KT 15SM SCT022 BKN047 05/02 A3014 RMK SC4SC3 SLP208<br><br>
CYTR 161145Z 36004KT 15SM SCT022 BKN047 05/03 A3013 RMK SC4SC3 SLP206<br><br>
CYTR 161120Z 33004KT 15SM -SHRA BKN022 BKN047 05/02 A3013 RMK SC5SC2 SLP205<br><br>
CYTR 161100Z 30003KT 15SM BKN028 BKN047 05/01 A3012 RMK SC5SC2 SLP202<br><br>
TAF CYTR 161130Z 1612/1712 32005KT P6SM SCT020 BKN030 TEMPO 1612/1615 P6SM -SHRA BKN020 OVC030 BECMG 1613/1615 32012KT FM162000 32012KT P6SM SCT050 FM170000 30005KT P6SM FEW080 BECMG 1702/1704 VRB03KT FM170900 VRB03KT P6SM BKN020 OVC040 RMK NXT FCST BY 161800Z<br><br>
<br><br>
