RETRIEVED AT : May 22 2020 15:05 Local <br>
  RETRIEVED AT: May 22 2020 19:05 UTC<br><br>
CYSN 221800Z 01009KT 15SM BKN220 23/13 A3003 RMK CI5 SLP171 DENSITY ALT 1200FT<br><br>
TAF CYSN 221238Z 2213/2301 VRB03KT P6SM FEW250 FM221800 35008KT P6SM SCT080 BKN150 FM222000 02008KT P6SM SCT050 BKN080 TEMPO 2220/2301 P6SM -SHRA OVC050 RMK NXT FCST BY 222000Z<br><br>
<br><br>
CYHM 221800Z 06008KT 050V110 15SM SCT053 BKN210 23/13 A3005 RMK SC4CC2 SLP176 DENSITY ALT 1700FT<br><br>
TAF CYHM 221751Z 2218/2318 08005KT P6SM BKN230 FM222000 20010KT P6SM SCT060 BKN120 TEMPO 2220/2224 P6SM -SHRA SCT020 OVC060 FM230000 20008KT P6SM -SHRA FEW008 SCT015 OVC030 TEMPO 2300/2309 4SM -SHRA BR BKN015 OVC030 FM230900 28005KT P6SM SCT015 BKN030 TEMPO 2309/2313 BKN015 FM231600 10007KT P6SM BKN050 RMK NXT FCST BY 230000Z<br><br>
<br><br>
KIAG 221853Z 01009KT 10SM CLR 24/13 A3002 RMK AO2 SLP164 T02390133<br><br>
KIAG 221753Z 05008KT 10SM FEW049 24/13 A3003 RMK AO2 SLP170 T02440128 10244 20161 58020<br><br>
KIAG 221729Z 2218/2318 06007KT P6SM BKN070 FM230200 00000KT P6SM VCSH OVC025 FM230800 00000KT P6SM OVC012 FM231700 00000KT P6SM SCT025<br><br>
<br><br>
KBUF 221854Z VRB04KT 10SM FEW037 BKN055 BKN130 BKN180 BKN250 26/12 A3002 RMK AO2 SLP162 T02560117<br><br>
KBUF 221754Z 36004KT 10SM FEW037 BKN050 BKN130 BKN170 BKN250 25/12 A3004 RMK AO2 SLP169 T02500122 10256 20172 56022<br><br>
KBUF 221729Z 2218/2318 05005KT P6SM BKN050 TEMPO 2300/2302 5SM -SHRA OVC015 FM230200 00000KT 5SM BR OVC025 TEMPO 2302/2303 3SM -SHRA OVC015 FM230400 00000KT 4SM BR VCSH OVC015 FM230900 VRB03KT P6SM OVC007 FM231700 VRB03KT P6SM BKN025<br><br>
<br><br>
CYYZ 221800Z 13007KT 110V180 15SM FEW260 22/09 A3004 RMK CI1 SLP176 DENSITY ALT 1400FT<br><br>
TAF CYYZ 221751Z 2218/2324 15010KT P6SM FEW250 FM222100 17010KT P6SM SCT090 BKN200 BECMG 2303/2305 10005KT FM231100 02008KT P6SM SKC FM231600 15010KT P6SM FEW050 RMK NXT FCST BY 222100Z<br><br>
<br><br>
CYOO 221800Z AUTO 18007KT 140V210 9SM CLR 21/05 A3006 RMK SLP180 DENSITY ALT 1100FT<br><br>
TAF CYOO 221348Z 2214/2302 21007KT P6SM SKC FM221800 18008KT P6SM SCT150 BECMG 2223/2301 VRB03KT RMK FCST BASED ON AUTO OBS. NXT FCST BY 222000Z<br><br>
<br><br>
CYTR 221800Z 22009KT 15SM FEW240 21/10 A3005 RMK CI1 SLP178<br><br>
TAF CYTR 221730Z 2218/2318 22008KT P6SM SKC BECMG 2222/2224 VRB03KT FM230000 VRB03KT P6SM BKN220 FM231200 VRB03KT P6SM SKC BECMG 2315/2317 20010KT RMK NXT FCST BY 230000Z<br><br>
<br><br>
