RETRIEVED AT : Jun 15 2019 22:05 Local <br>
  RETRIEVED AT: Jun 16 2019 02:05 UTC<br><br>
CYSN 160100Z 24009KT 10SM BKN012 OVC029 17/17 A2984 RMK SC5SC3 LAST STFD OBS/NEXT 161100 UTC SLP106 DENSITY ALT 800FT<br><br>
CYSN 160036Z 24010G15KT 10SM BKN011 OVC037 17/17 A2983 RMK SC5SC3 SLP104 DENSITY ALT 800FT<br><br>
CYSN has no TAF <br><br>
<br><br>
CYHM 160100Z 22007KT 7SM -RA OVC005 17/17 A2985 RMK SC8 SLP109 DENSITY ALT 1300FT<br><br>
TAF AMD CYHM 160117Z 1601/1624 22008KT 6SM -SHRA BR OVC010 TEMPO 1601/1605 11/2SM -SHRA BR OVC005 BECMG 1601/1603 04008KT FM160500 04008KT 11/2SM -DZ BR OVC005 TEMPO 1605/1610 6SM -SHRA BR OVC010 PROB40 1605/1609 3/4SM -RA -DZ BR OVC003 FM161000 04012KT P6SM FEW005 OVC012 FM161600 04012KT P6SM BKN020 OVC050 FM162100 04010KT P6SM BKN030 OVC100 RMK NXT FCST BY 160600Z<br><br>
<br><br>
KIAG 160153Z 24006KT 4SM RA BR BKN006 OVC033 16/16 A2986 RMK AO2 SLP111 P0009 T01610156<br><br>
KIAG 160117Z 24009KT 6SM -RA BR OVC006 16/15 A2986 RMK AO2 P0001 T01610150<br><br>
KIAG 160053Z 23008KT 6SM RA BR OVC007 16/15 A2985 RMK AO2 CIG 005V011 SLP107 P0002 T01560150<br><br>
KIAG 160032Z 23009KT 10SM -RA BKN009 BKN038 OVC065 16/15 A2985 RMK AO2 P0001 T01610150<br><br>
KIAG 160014Z 23011KT 8SM -RA SCT008 BKN039 OVC065 16/15 A2985 RMK AO2 P0001 T01610150<br><br>
KIAG 152333Z 1600/1624 23014G22KT 6SM -SHRA BR OVC012 FM160100 24008KT 2SM -SHRA BR OVC007 FM160700 02005KT 2SM -RADZ BR OVC005 FM160800 04008KT P6SM OVC007 FM161400 04010G16KT P6SM OVC015 FM162200 04006KT P6SM BKN120<br><br>
<br><br>
KBUF 160154Z 24010KT 3SM RA BR OVC004 16/15 A2987 RMK AO2 SLP114 P0007 T01610150<br><br>
KBUF 160054Z 24009KT 4SM -RA BR BKN004 OVC010 17/16 A2986 RMK AO2 SLP111 P0010 T01670156<br><br>
KBUF 160019Z 24010KT 2SM RA BR OVC004 17/16 A2986 RMK AO2 CIG 003V008 P0007 T01670156<br><br>
KBUF 152333Z 1600/1624 23013G21KT 3SM -SHRA BR OVC005 FM160200 23010G17KT 2SM SHRA BR OVC005 FM160600 24004KT 2SM -RADZ BR OVC003 FM161000 05006KT P6SM OVC003 FM161600 05008KT P6SM BKN035<br><br>
<br><br>
CYYZ 160100Z VRB02KT 15SM SCT016 OVC031 17/15 A2984 RMK CU3SC5 SLP106 DENSITY ALT 1100FT<br><br>
TAF CYYZ 152338Z 1600/1706 24005KT P6SM FEW007 OVC025 TEMPO 1600/1602 4SM -RA -DZ BR BKN007 OVC015 FM160200 33008KT P6SM OVC015 TEMPO 1602/1604 2SM -SHRA BR BKN007 OVC012 FM160400 01006KT P6SM OVC030 TEMPO 1604/1606 2SM BR BKN007 OVC020 FM160800 02008KT P6SM OVC030 FM161400 08010KT P6SM BKN050 BKN250 FM170200 33006KT P6SM SCT100 RMK NXT FCST BY 160300Z<br><br>
<br><br>
CYOO 160154Z AUTO 35003KT 9SM SCT012 SCT030 BKN038 OVC060 15/14 A2985 RMK SLP112 DENSITY ALT 600FT<br><br>
CYOO 160100Z AUTO VRB02KT 9SM -RA FEW034 BKN050 OVC060 15/14 A2984 RMK SLP107 DENSITY ALT 600FT<br><br>
CYOO 160054Z AUTO VRB02KT 9SM -RA OVC050 15/14 A2984 RMK SLP106 DENSITY ALT 600FT<br><br>
TAF CYOO 160138Z 1602/1614 36005KT P6SM OVC040 TEMPO 1602/1604 5SM -RA BR SCT007 OVC020 FM160400 36005KT P6SM BKN060 FM161100 04006KT P6SM FEW060 BECMG 1612/1614 08010KT RMK FCST BASED ON AUTO OBS. NXT FCST BY 160800Z<br><br>
<br><br>
CYTR 160100Z 25005KT 15SM BKN040 BKN100 16/14 A2984 RMK SC5AC2 SLP105<br><br>
CYTR 160021Z 24008KT 15SM FEW012 BKN050 OVC150 16/14 A2983 RMK SF2SC5AC2 SLP105<br><br>
TAF CYTR 152330Z 1600/1624 23010G20KT P6SM SCT012 OVC050 TEMPO 1600/1602 5SM -SHRA BR OVC012 FM160200 VRB03KT P6SM BKN050 FM160400 VRB03KT P6SM SCT050 BKN240 PROB30 1604/1609 1SM BR FM161300 04010KT P6SM SCT240 BECMG 1618/1620 21010KT RMK NXT FCST BY 160600Z<br><br>
<br><br>
