RETRIEVED AT : Oct 02 2017 14:10 Local <br>
  RETRIEVED AT: Oct 02 2017 18:10 UTC<br><br>
CYSN 021800Z VRB06KT 15SM BKN250 22/06 A3036 RMK CI5 SLP284 DENSITY ALT 800FT<br><br>
CYSN 021700Z 15004KT 15SM BKN250 21/07 A3038 RMK CI5 SLP290 DENSITY ALT 600FT<br><br>
TAF CYSN 021240Z 0213/0301 11005KT P6SM SCT190 BECMG 0215/0217 06008KT RMK NXT FCST BY 022000Z<br><br>
<br><br>
CYHM 021800Z 06005KT 030V100 15SM SCT250 20/08 A3037 RMK CI3 SLP289 DENSITY ALT 1100FT<br><br>
CYHM 021700Z 06008KT 020V080 15SM FEW045 SCT250 19/08 A3038 RMK CU1CI3 CU TR CONTRAILS SLP293 DENSITY ALT 1000FT<br><br>
TAF CYHM 021742Z 0218/0318 06008KT P6SM FEW050 BECMG 0304/0306 14005KT BECMG 0312/0314 20008KT FM031700 21012KT P6SM SKC RMK NXT FCST BY 030000Z<br><br>
<br><br>
KIAG 021753Z VRB04KT 10SM CLR 22/03 A3038 RMK AO2 SLP290 T02220033 10222 20078 58006<br><br>
KIAG 021653Z 00000KT 10SM CLR 21/05 A3040 RMK AO2 SLP296 T02110050<br><br>
KIAG 021730Z 0218/0318 11004KT P6SM FEW200 FM030500 16005KT P6SM FEW200 FM031400 20008KT P6SM FEW250<br><br>
<br><br>
KBUF 021754Z 08003KT 10SM FEW160 FEW260 FEW310 22/04 A3038 RMK AO2 SLP290 T02220044 10222 20078 58007<br><br>
KBUF 021654Z VRB03KT 10SM FEW170 FEW270 SCT320 21/04 A3040 RMK AO2 SLP293 T02060039<br><br>
KBUF 021730Z 0218/0318 12004KT P6SM FEW200 FM030600 16006KT P6SM SKC FM031400 20008KT P6SM SKC<br><br>
<br><br>
