RETRIEVED AT : Apr 04 2020 11:05 Local <br>
  RETRIEVED AT: Apr 04 2020 15:05 UTC<br><br>
CYSN 041400Z 31007KT 3SM BR OVC002 07/07 A3007 RMK SF8 SLP187<br><br>
TAF CYSN 041238Z 0413/0501 28005KT 2SM -DZ BR OVC002 TEMPO 0413/0415 P6SM NSW SCT002 OVC010 FM041500 30008KT P6SM BKN020 TEMPO 0415/0418 BKN025 FM041800 33008KT P6SM BKN025 TEMPO 0418/0501 BKN020 RMK NXT FCST BY 042000Z<br><br>
<br><br>
CYHM 041400Z 03003KT 300V070 15SM OVC012 07/05 A3006 RMK SC8 SLP188<br><br>
TAF CYHM 041139Z 0412/0512 VRB03KT P6SM FEW006 BKN010 OVC050 TEMPO 0412/0414 4SM -DZ BR OVC006 FM041400 VRB03KT P6SM BKN015 BKN050 TEMPO 0414/0417 SCT015 BKN050 FM041700 07006KT P6SM BKN025 FM042200 VRB03KT P6SM BKN030 BKN080 FM050300 22007KT P6SM -SHRA BKN030 OVC050 FM050700 25007KT P6SM BKN025 OVC050 FM051000 29008KT P6SM BKN010 OVC030 RMK NXT FCST BY 041800Z<br><br>
<br><br>
KIAG 041453Z 29003KT 10SM BKN006 OVC011 07/06 A3007 RMK AO2 SLP192 T00720061 51006<br><br>
KIAG 041450Z 30005KT 10SM BKN006 OVC011 07/06 A3007 RMK AO2<br><br>
KIAG 041353Z 29004KT 4SM BR OVC004 06/06 A3007 RMK AO2 SLP191 T00610061<br><br>
KIAG 041319Z 31004KT 2SM BR OVC002 06/06 A3006 RMK AO2 T00610056<br><br>
KIAG 041306Z 30005KT 4SM BR OVC002 06/05 A3006 RMK AO2 T00610050<br><br>
KIAG 041120Z 0412/0512 30005KT 2SM BR OVC003 FM041400 24005KT 6SM BR OVC007 FM041600 24005KT P6SM OVC012 FM042100 VRB03KT P6SM BKN035 FM050900 28005KT P6SM VCSH OVC030<br><br>
<br><br>
KBUF 041454Z 22004KT 2SM R23/5000VP6000FT BR OVC004 07/06 A3007 RMK AO2 DZE46 SLP188 P0000 60000 T00720056 51012<br><br>
KBUF 041354Z 23004KT 1SM R23/4000VP6000FT -DZ BR OVC003 07/06 A3007 RMK AO2 DZB01 SLP188 P0000 T00670056<br><br>
KBUF 041321Z 25005KT 3/4SM R23/4000FT -DZ BR OVC003 07/06 A3006 RMK AO2 DZB01 P0000 T00670056<br><br>
KBUF 041120Z 0412/0512 22003KT 2SM -DZ BR OVC003 FM041500 22006KT P6SM OVC007 FM041700 24007KT P6SM BKN012 FM042300 VRB03KT P6SM SCT030 FM050200 VRB03KT P6SM BKN060<br><br>
<br><br>
CYYZ 041400Z 00000KT 15SM FEW009 BKN016 08/06 A3006 RMK CF1SC6 SLP187<br><br>
TAF CYYZ 041442Z 0415/0518 VRB03KT P6SM FEW009 BKN015 TEMPO 0415/0420 SCT015 BKN040 FM042000 14008KT P6SM BKN025 FM050000 13008KT P6SM BKN030 BKN100 FM050300 15008KT P6SM -SHRA BKN030 OVC080 FM050700 VRB03KT 4SM BR SCT006 OVC015 PROB40 0507/0509 2SM BR OVC006 FM050900 35008KT P6SM SCT008 BKN012 OVC040 PROB30 0509/0513 OVC008 FM051500 34015KT P6SM SCT015 RMK NXT FCST BY 041800Z<br><br>
<br><br>
CYOO 041400Z AUTO 10005KT 9SM BKN014 OVC018 07/06 A3007 RMK SLP188<br><br>
CYOO 041323Z AUTO VRB02KT 9SM BKN014 OVC029 07/06 A3006 RMK SLP185<br><br>
TAF CYOO 041338Z 0414/0502 VRB03KT P6SM BKN015 OVC030 TEMPO 0414/0416 SCT015 OVC030 FM041600 18007KT P6SM BKN030 RMK FCST BASED ON AUTO OBS. NXT FCST BY 042000Z<br><br>
<br><br>
CYTR 041400Z 11004KT 15SM BKN030 08/04 A3007 RMK SC7 SLP185<br><br>
TAF CYTR 041130Z 0412/0512 VRB03KT P6SM FEW015 BKN030 OVC100 TEMPO 0412/0419 BKN015 OVC030 BECMG 0417/0419 20008KT FM041900 20008KT P6SM SCT040 BECMG 0500/0502 VRB03KT FM050700 VRB03KT P6SM SCT040 OVC070 TEMPO 0507/0512 P6SM -SHRA OVC040 RMK NXT FCST BY 041800Z<br><br>
<br><br>
