RETRIEVED AT : Feb 29 2020 05:05 Local <br>
  RETRIEVED AT: Feb 29 2020 10:05 UTC<br><br>
CYSN has no TAF <br><br>
<br><br>
CYHM 290900Z 30010KT 15SM FEW040 OVC110 M10/M16 A2982 RMK SC1AS7 SLP115<br><br>
TAF AMD CYHM 290546Z 2906/0106 33008KT P6SM -SN BKN030 BKN060 TEMPO 2906/2908 2SM -SHSN OVC020 FM290800 33008KT P6SM SCT030 BKN080 FM291700 28010G20KT P6SM -SHSN BKN030 TEMPO 2917/2924 5SM -SHSN OVC020 FM010000 27010KT P6SM SCT040 RMK NXT FCST BY 291200Z<br><br>
<br><br>
KIAG 290953Z AUTO 34008KT 2SM -SN BR SCT015 OVC021 M09/M12 A2984 RMK AO2 SLP124 P0000 T10941117<br><br>
KIAG 290941Z AUTO 34011KT 1 3/4SM -SN BR BKN015 BKN022 OVC045 M09/M12 A2983 RMK AO2 P0000 T10941117<br><br>
KIAG 290928Z AUTO 33010KT 5SM -SN BR BKN015 BKN020 OVC041 M09/M11 A2983 RMK AO2 P0000 T10891111<br><br>
KIAG 290920Z AUTO 33008KT 7SM -SN SCT015 OVC035 M08/M11 A2982 RMK AO2 P0000 T10831111<br><br>
KIAG 290913Z AUTO 33011KT 3SM -SN SCT015 OVC028 M08/M11 A2982 RMK AO2 P0000 T10831111<br><br>
KIAG 290853Z AUTO 30012KT 1 3/4SM -SN OVC024 M08/M12 A2981 RMK AO2 SLP115 P0000 60000 T10831117 53004<br><br>
KIAG 290841Z AUTO 30011KT 3SM -SN OVC028 M08/M11 A2981 RMK AO2 P0000 T10831111<br><br>
KIAG 290813Z AUTO 30010KT 1 1/2SM -SN OVC019 M08/M11 A2981 RMK AO2 P0000 T10831111<br><br>
KIAG 290808Z AUTO 31012G21KT 1SM R28R/P6000FT -SN VV018 M08/M11 A2981 RMK AO2 P0000 T10831111<br><br>
KIAG 290929Z 2909/0106 33010KT 5SM -SN SCT025 BKN035 FM291300 30014G20KT P6SM VCSH BKN035 FM010100 27013KT P6SM BKN040<br><br>
<br><br>
KBUF 290958Z 29009KT 1 1/2SM -SN BKN021 OVC065 M08/M11 A2983 RMK AO2 P0000 T10831111<br><br>
KBUF 290954Z 29008KT 3SM -SN BKN028 OVC065 M08/M11 A2982 RMK AO2 SLP111 P0000 T10831111<br><br>
KBUF 290854Z 30010G19KT 4SM -SN OVC041 M08/M11 A2980 RMK AO2 SLP104 P0001 60004 T10781111 51007<br><br>
KBUF 290842Z 30008KT 4SM -SN OVC039 M08/M11 A2980 RMK AO2 P0001 T10781106<br><br>
KBUF 290826Z 31010KT 3SM -SN OVC025 M08/M11 A2980 RMK AO2 P0001 T10781106<br><br>
KBUF 290807Z 31009KT 1 3/4SM -SN OVC017 M08/M11 A2980 RMK AO2 P0001 T10781106<br><br>
KBUF 290929Z 2909/0106 30010KT 5SM -SN SCT025 BKN035 FM291200 29010KT 6SM -SN OVC035 FM291500 28012G18KT P6SM SCT025 BKN035 FM010000 27014KT P6SM BKN040<br><br>
<br><br>
CYYZ 290900Z 32009KT 290V020 15SM FEW025 SCT090 M12/M16 A2984 RMK SC1AC3 SLP117<br><br>
TAF CYYZ 290838Z 2909/0112 35006KT P6SM -SN BKN030 BKN100 BECMG 2909/2911 P6SM NSW FEW030 FM291700 29012G22KT P6SM -SHSN BKN030 TEMPO 2917/2924 5SM -SHSN OVC020 BECMG 2922/2924 31010KT FM010000 31012KT P6SM BKN030 FM010800 31006KT P6SM SCT040 RMK NXT FCST BY 291200Z<br><br>
<br><br>
CYOO 290900Z AUTO 29007KT 9SM CLR M15/M17 A2983 RMK SLP113<br><br>
TAF CYOO 290738Z 2908/2920 33008KT P6SM SCT060 BKN090 BECMG 2914/2916 31010G20KT FM291700 30010G20KT P6SM -SHSN BKN030 TEMPO 2917/2920 5SM -SHSN OVC020 RMK FCST BASED ON AUTO OBS. NXT FCST BY 291400Z<br><br>
<br><br>
CYTR 290900Z 30006KT 15SM FEW048 M13/M15 A2982 RMK SC1 SLP104<br><br>
TAF CYTR 290530Z 2906/0106 32006KT P6SM SCT050 FM291700 29010KT P6SM SCT030 BKN100 BECMG 0100/0102 30005KT FM010500 VRB03KT P6SM SKC RMK NXT FCST BY 291200Z<br><br>
<br><br>
