RETRIEVED AT : Sep 07 2018 18:05 Local <br>
  RETRIEVED AT: Sep 07 2018 22:05 UTC<br><br>
CYSN 072100Z 06007KT 15SM BKN250 22/17 A3016 RMK CI7 SLP215 DENSITY ALT 1000FT<br><br>
TAF CYSN 071938Z 0720/0801 03008KT P6SM FEW050 BKN250 RMK NXT FCST WILL BE ISSUED AT 081245Z<br><br>
<br><br>
CYHM 072100Z 08006KT 050V110 15SM FEW020 FEW100 BKN240 21/16 A3019 RMK CU1AC2CI4 CU TR SLP224 DENSITY ALT 1400FT<br><br>
TAF CYHM 071738Z 0718/0818 05010KT P6SM SCT030 BKN250 BECMG 0808/0810 03012KT BECMG 0814/0816 05012G22KT RMK NXT FCST BY 080000Z<br><br>
<br><br>
KIAG 072153Z 05006KT 10SM CLR 21/14 A3017 RMK AO2 SLP217 T02110144<br><br>
KIAG 072053Z 03010KT 10SM CLR 22/16 A3018 RMK AO2 SLP216 T02220156 56007<br><br>
KIAG 072107Z 0721/0818 03010KT P6SM BKN250 FM072200 03007KT P6SM SCT110 FM080700 03005KT P6SM BKN120 FM081100 05012G20KT P6SM BKN200<br><br>
<br><br>
KBUF 072154Z 02009KT 10SM FEW035 FEW120 BKN180 BKN260 22/15 A3017 RMK AO2 SLP216 T02170150<br><br>
KBUF 072054Z 02009KT 10SM FEW038 FEW100 SCT160 BKN260 23/16 A3017 RMK AO2 SLP212 T02280156 56010<br><br>
KBUF 072107Z 0721/0818 02009KT P6SM FEW040 FEW100 BKN250 FM080300 06004KT P6SM BKN120 FM081100 06010G16KT P6SM BKN120<br><br>
<br><br>
CYYZ 072100Z 35010G16KT 15SM FEW045 BKN210 23/08 A3018 RMK CU2CS5 SLP223 DENSITY ALT 1300FT<br><br>
TAF CYYZ 072038Z 0721/0824 35012KT P6SM FEW050 BKN250 BECMG 0805/0807 02010KT BECMG 0814/0816 07010KT RMK NXT FCST BY 080000Z<br><br>
<br><br>
CYOO 072100Z AUTO 34012G17KT 9SM CLR 22/09 A3018 RMK SLP221 DENSITY ALT 1100FT<br><br>
CYOO has no TAF <br><br>
<br><br>
CYTR 072100Z 36006KT 15SM FEW038 FEW200 BKN250 23/09 A3016 RMK CU1CS2CI4 SLP214<br><br>
TAF CYTR 071730Z 0718/0818 VRB03KT P6SM SCT030 BKN240 BECMG 0718/0720 32005KT FM080200 02005KT P6SM BKN030 BKN250 FM081200 02012G22KT P6SM SCT030 SCT250 RMK NXT FCST BY 080000Z<br><br>
<br><br>
