RETRIEVED AT : May 17 2020 20:05 Local <br>
  RETRIEVED AT: May 18 2020 00:05 UTC<br><br>
CYSN 172350Z 08009KT 10SM SCT070 OVC110 13/11 A3008 RMK AC4AC4 SLP188<br><br>
CYSN 172300Z 06009KT 8SM -RA FEW025 OVC067 13/11 A3009 RMK SC2AC6 SLP193<br><br>
TAF CYSN 171938Z 1720/1801 06010G20KT P6SM BKN120 OVC200 FM172100 06015G25KT P6SM -RA BKN040 OVC080 TEMPO 1721/1801 3SM -RA BR BKN020 OVC040 RMK NXT FCST WILL BE ISSUED AT 181245Z<br><br>
<br><br>
CYHM 172300Z 06016KT 15SM BKN018 OVC062 10/07 A3007 RMK SC7SC1 SLP190<br><br>
CYHM 172240Z 04015G20KT 15SM BKN018 OVC053 10/08 A3008 RMK SC7SC1 SLP193<br><br>
TAF CYHM 172343Z 1800/1824 05015G25KT P6SM BKN025 OVC050 TEMPO 1800/1804 4SM -RA BR BKN020 OVC040 FM180400 05020G30KT 11/2SM -RA BR OVC005 TEMPO 1804/1823 6SM -RA BR OVC010 FM182300 05015G25KT 6SM -RA BR BKN010 OVC025 RMK NXT FCST BY 180600Z<br><br>
<br><br>
KIAG 172353Z 08009KT 10SM SCT065 OVC100 12/09 A3009 RMK AO2 RAE37 SLP194 P0005 60011 T01220094 10172 20122 58006 $<br><br>
KIAG 172253Z 36007KT 10SM -RA FEW020 OVC055 13/09 A3012 RMK AO2 PRESRR SLP205 P0001 T01280094 $<br><br>
KIAG 172327Z 1800/1824 08012KT 6SM -RA OVC025 FM180300 08012KT 3SM RA BR OVC008 FM181500 09014KT 4SM -RA OVC012 FM182100 07014KT P6SM OVC015<br><br>
<br><br>
KBUF 172354Z 07010KT 3SM -RA BR FEW011 SCT055 OVC085 13/11 A3010 RMK AO2 SLP196 P0007 60023 T01280106 10183 20128 53003 $<br><br>
KBUF 172254Z 05009KT 10SM -RA FEW030 OVC043 13/11 A3008 RMK AO2 SLP189 P0001 T01330111 $<br><br>
KBUF 172327Z 1800/1824 07012KT 6SM -RA OVC040 FM180300 08010KT 5SM RA OVC012 FM180700 08012KT 3SM RA BR OVC008 FM181500 10014KT 4SM -RA OVC015 FM182100 08014KT P6SM OVC025<br><br>
<br><br>
CYYZ 172300Z 09010KT 15SM -RA SCT045 OVC094 14/07 A3011 RMK SC3AC5 SLP200<br><br>
TAF CYYZ 172343Z 1800/1906 09010KT P6SM BKN040 OVC090 TEMPO 1800/1805 4SM -SHRA BR OVC030 FM180500 08012KT 6SM -RA BR BKN012 OVC025 TEMPO 1805/1815 11/2SM -RA BR BKN006 OVC012 BECMG 1812/1814 09018G28KT FM181900 08015G25KT P6SM -SHRA SCT008 OVC020 FM190100 09015KT P6SM OVC030 RMK NXT FCST BY 180300Z<br><br>
<br><br>
CYOO 172300Z AUTO 12002KT 9SM SCT055 OVC100 16/07 A3013 RMK SLP206<br><br>
TAF CYOO 171942Z 1720/1808 09010G20KT P6SM OVC150 FM172300 09012KT P6SM BKN050 OVC080 TEMPO 1723/1804 5SM -RA BR BKN020 OVC050 FM180400 07012G22KT 3SM -RA BR OVC010 TEMPO 1804/1808 1SM RA BR OVC004 RMK FCST BASED ON AUTO OBS. NXT FCST BY 180200Z<br><br>
<br><br>
CYTR 172300Z 06008KT 15SM FEW050 OVC120 18/06 A3013 RMK SC2AC6 SLP206<br><br>
TAF CYTR 172330Z 1800/1824 06008KT P6SM FEW050 OVC120 TEMPO 1800/1803 P6SM -RA BKN050 OVC120 FM180300 05005KT P6SM -RA SCT030 OVC050 TEMPO 1803/1809 5SM -RA BR BKN030 OVC050 FM180900 05010G20KT P6SM -RA FEW008 SCT015 OVC050 TEMPO 1809/1814 5SM -RA BR FEW008 BKN015 OVC050 FM181400 06012G22KT P6SM FEW015 BKN030 OVC050 FM182000 06012G22KT P6SM SCT030 OVC150 RMK NXT FCST BY 180600Z<br><br>
<br><br>
