RETRIEVED AT : Feb 29 2020 18:05 Local <br>
  RETRIEVED AT: Feb 29 2020 23:05 UTC<br><br>
CYSN 292200Z 25006KT 15SM BKN035 BKN065 BKN090 M04/M09 A3001 RMK SC5SC1AC1 SLP168<br><br>
CYSN 292150Z 22004KT 15SM BKN037 M04/M08 A3001 RMK SC7 SLP168<br><br>
TAF CYSN 291952Z 2920/0102 29012G22KT P6SM -SHSN OVC030 TEMPO 2920/0102 11/2SM -SN BKN010 OVC030 RMK NXT FCST WILL BE ISSUED AT 011345Z<br><br>
<br><br>
CYHM 292200Z 28018KT 15SM SCT032 BKN037 BKN083 BKN100 M04/M11 A3000 RMK SC3SC2AC1AC1 SLP175<br><br>
CYHM 292143Z 29015G24KT 15SM FEW030 SCT035 BKN085 M05/M11 A2999 RMK CU2SC1AC2 SLP171<br><br>
TAF CYHM 291742Z 2918/0118 27010G20KT P6SM FEW025 SCT090 BKN220 TEMPO 2918/2924 5SM -SHSN BKN020 BKN090 FM010000 27010KT P6SM SCT040 FM011500 23008KT P6SM FEW090 RMK NXT FCST BY 010000Z<br><br>
<br><br>
KIAG 292253Z 26007KT 10SM BKN044 OVC085 M06/M09 A3001 RMK AO2 SNE21 SLP185 P0000 T10611089<br><br>
KIAG 292220Z 24005KT 5SM -SN BR FEW027 OVC035 M06/M08 A3000 RMK AO2 P0000 T10611078<br><br>
KIAG 292208Z 25006KT 2SM R28R/5000VP6000FT -SN BR SCT027 OVC034 M06/M08 A3000 RMK AO2 P0000 T10611083<br><br>
KIAG 292153Z 25006KT 1 1/2SM -SN FEW012 OVC017 M06/M09 A3000 RMK AO2 SLP180 P0000 T10611089<br><br>
KIAG 292023Z 2920/0118 31011KT 3SM -SN BKN024 OVC040 TEMPO 2920/2922 1/4SM +SN OVC008 FM292300 28013G22KT 5SM -SHSN BKN025 FM010000 28014G24KT P6SM VCSH BKN035 FM010700 25007KT P6SM BKN100<br><br>
<br><br>
KBUF 292254Z 25007KT 2 1/2SM -SN BR BKN030 BKN045 M06/M08 A3002 RMK AO2 SLP177 P0000 T10561078 $<br><br>
KBUF 292252Z 25006KT 2 1/2SM -SN BR BKN030 OVC045 M06/M08 A3001 RMK AO2 P0000 $<br><br>
KBUF 292239Z 26005KT 3SM -SN BKN026 BKN037 OVC045 M06/M08 A3001 RMK AO2 P0000 T10561083 $<br><br>
KBUF 292154Z 24008KT 1 1/2SM -SN SCT019 BKN024 OVC034 M06/M09 A3000 RMK AO2 SLP171 P0000 T10561089 $<br><br>
KBUF 292111Z 26007KT 2SM -SN BKN019 OVC026 M06/M09 A2999 RMK AO2 P0000 T10611094 $<br><br>
KBUF 292202Z 2922/0118 27015KT 6SM -SN BKN025 OVC030 TEMPO 2922/2924 1SM -SN OVC020 FM010000 26014KT 6SM -SHSN OVC030 FM010300 26012KT P6SM BKN035 FM011500 24010KT P6SM BKN200<br><br>
<br><br>
CYYZ 292200Z 29017KT 15SM FEW030 SCT085 BKN260 M04/M12 A2998 RMK CF1AC4CI2 CF TR SLP166<br><br>
TAF CYYZ 292038Z 2921/0124 30012G22KT P6SM BKN030 BKN230 TEMPO 2921/0101 5SM -SHSN BKN020 OVC040 BECMG 2922/2924 31012KT FM010100 31012KT P6SM SCT030 TEMPO 0101/0108 BKN030 BECMG 0103/0105 32006KT FM010800 31006KT P6SM SCT040 FM011500 24010KT P6SM BKN050 FM011800 20010KT P6SM SCT090 FM012100 17010KT P6SM BKN090 RMK NXT FCST BY 010000Z<br><br>
<br><br>
CYOO 292200Z AUTO 31007KT 9SM FEW085 OVC180 M07/M13 A2999 RMK SLP168<br><br>
TAF CYOO 291952Z 2920/0108 29012G22KT P6SM BKN030 BKN080 TEMPO 2920/2924 5SM -SHSN BKN020 OVC030 FM010000 31010KT P6SM BKN030 BKN070 FM010300 32005KT P6SM SCT030 BECMG 0104/0106 VRB03KT RMK FCST BASED ON AUTO OBS. NXT FCST BY 010200Z<br><br>
<br><br>
CYTR 292200Z 28013KT 15SM BKN110 BKN250 M08/M15 A2999 RMK AC5CI2 SLP161<br><br>
TAF CYTR 291730Z 2918/0118 30010KT P6SM FEW070 FEW250 BECMG 0103/0105 VRB03KT RMK NXT FCST BY 010000Z<br><br>
<br><br>
