RETRIEVED AT : May 31 2020 00:05 Local <br>
  RETRIEVED AT: May 31 2020 04:05 UTC<br><br>
CYSN has no TAF <br><br>
<br><br>
CYHM 310300Z 31008KT 15SM FEW030 FEW070 10/05 A3013 RMK SC1AC1 SC TR SLP207<br><br>
TAF CYHM 302338Z 3100/3124 33012G22KT P6SM FEW050 TEMPO 3101/3106 P6SM -SHRA BKN040 BECMG 3102/3104 31008KT FM311200 34010KT P6SM FEW020 BECMG 3116/3118 29012KT RMK NXT FCST BY 310600Z<br><br>
<br><br>
KIAG 310353Z AUTO 35005KT 10SM CLR 09/06 A3012 RMK AO2 SLP202 T00940056<br><br>
KIAG 310253Z 34005KT 10SM SCT085 11/06 A3011 RMK AO2 SLP200 T01110056 51017<br><br>
KIAG 310257Z 3103/3124 36005KT P6SM SCT060 BKN090 FM311500 34010G16KT P6SM FEW250 FM311700 31009KT P6SM FEW250 FM312000 28010KT P6SM SCT100<br><br>
<br><br>
KBUF 310354Z 36005KT 10SM FEW040 FEW085 09/06 A3012 RMK AO2 SLP201 T00940056 $<br><br>
KBUF 310254Z 34005KT 10SM BKN085 11/06 A3011 RMK AO2 SLP197 T01060056 51015 $<br><br>
KBUF 310257Z 3103/3124 33005KT P6SM SCT060 BKN080 FM311500 34010G16KT P6SM FEW250 FM311900 30011KT P6SM FEW250<br><br>
<br><br>
CYYZ 310300Z 32008KT 15SM SKC 10/05 A3012 RMK SLP202<br><br>
TAF CYYZ 310238Z 3103/0106 34010KT P6SM FEW060 FM310700 33010KT P6SM SCT030 FM311100 34012KT P6SM FEW030 FM311900 31015G25KT P6SM BKN060 BECMG 0100/0102 36008KT FM010200 36008KT P6SM FEW060 RMK NXT FCST BY 310600Z<br><br>
<br><br>
CYOO 310300Z AUTO 32005KT 9SM CLR 09/05 A3010 RMK SLP197<br><br>
TAF CYOO 310138Z 3102/3114 31008KT P6SM FEW020 TEMPO 3109/3112 BKN020 FM311200 34010G20KT P6SM FEW050 RMK FCST BASED ON AUTO OBS. NXT FCST BY 310800Z<br><br>
<br><br>
CYTR 310300Z 35006KT 15SM FEW028 09/05 A3009 RMK SC1 SLP192<br><br>
TAF CYTR 302330Z 3100/3124 30012G22KT P6SM FEW025 SCT080 BECMG 3100/3102 33008KT FEW080 FM310600 VRB03KT P6SM FEW020 SCT070 FM311200 34008KT P6SM SKC FM311600 30010KT P6SM FEW070 BECMG 3116/3118 30010G20KT RMK NXT FCST BY 310600Z<br><br>
<br><br>
