RETRIEVED AT : Oct 16 2017 19:10 Local <br>
  RETRIEVED AT: Oct 16 2017 23:10 UTC<br><br>
CYSN 162300Z 18004KT 15SM FEW035 07/02 A3025 RMK SC1 SC TR SLP247<br><br>
CYSN 162200Z VRB02KT 15SM FEW035 09/02 A3024 RMK SC1 SLP244<br><br>
TAF CYSN 161939Z 1620/1701 31008G18KT P6SM BKN040 BECMG 1620/1622 SCT040 FM170000 31011KT P6SM SKC RMK NXT FCST WILL BE ISSUED AT 171245Z<br><br>
<br><br>
CYHM 162300Z 31003KT 15SM FEW050 07/M02 A3025 RMK CU1 CU TR SLP253<br><br>
CYHM 162200Z 31006KT 15SM FEW050 09/M02 A3024 RMK CU1 CU TR SLP248<br><br>
TAF AMD CYHM 162111Z 1621/1718 31008G18KT P6SM FEW050 FM170000 30008KT P6SM FEW030 FM170300 VRB03KT P6SM SKC BECMG 1708/1710 23008KT FM171200 22008G18KT P6SM SKC BECMG 1713/1715 23015G25KT RMK NXT FCST BY 170000Z<br><br>
<br><br>
KIAG 162253Z 27005KT 10SM SCT038 07/00 A3025 RMK AO2 SLP251 T00670000 $<br><br>
KIAG 162153Z 31007KT 10SM BKN038 09/00 A3024 RMK AO2 SLP248 T00940000 $<br><br>
KIAG 162117Z 1621/1718 32008KT P6SM BKN035 FM170000 VRB03KT P6SM FEW250 FM170500 18004KT P6SM FEW250 FM171400 22011G20KT P6SM SCT250<br><br>
<br><br>
KBUF 162254Z 32004KT 10SM FEW045 07/01 A3025 RMK AO2 SLP249 T00670011<br><br>
KBUF 162154Z 32008KT 10SM FEW045 09/00 A3023 RMK AO2 SLP242 T00890000<br><br>
KBUF 162117Z 1621/1718 29007KT P6SM SCT050 FM170000 VRB03KT P6SM FEW250 FM171200 19008KT P6SM SCT030 FM171600 22015G24KT P6SM SCT030<br><br>
<br><br>
CYYZ 162300Z 36009KT 15SM SKC 07/M02 A3025 RMK SLP250<br><br>
CYYZ 162200Z 36009KT 15SM FEW040 09/M02 A3024 RMK CU1 SLP245<br><br>
TAF CYYZ 162038Z 1621/1724 34010G20KT P6SM FEW040 BECMG 1623/1624 32010KT BECMG 1701/1703 VRB03KT FM170500 25008KT P6SM FEW030 BECMG 1712/1714 24010G20KT FM171800 24017G27KT P6SM FEW040 SCT210 BECMG 1722/1724 25009G19KT RMK NXT FCST BY 170000Z<br><br>
<br><br>
CYOO 162300Z AUTO 33002KT 9SM CLR 06/M01 A3025 RMK SLP250<br><br>
CYOO 162200Z AUTO 34004KT 9SM CLR 07/M02 A3024 RMK SLP245<br><br>
CYOO has no TAF <br><br>
<br><br>
CYTR 162300Z 29004KT 15SM FEW058 05/M01 A3024 RMK SC1 SLP245<br><br>
CYTR 162200Z 30008KT 15SM SCT046 07/M02 A3023 RMK SC3 SLP240<br><br>
TAF CYTR 161730Z 1618/1718 33010KT P6SM SCT020 BKN030 FM170000 30005KT P6SM SCT050 BECMG 1702/1704 VRB03KT FM170900 VRB03KT P6SM BKN020 OVC040 BECMG 1710/1712 23010KT FM171500 23010G20KT P6SM SCT040 BECMG 1716/1718 23018G28KT RMK NXT FCST BY 170000Z<br><br>
<br><br>
