RETRIEVED AT : May 31 2020 22:05 Local <br>
  RETRIEVED AT: Jun 01 2020 02:05 UTC<br><br>
CYSN 010100Z 23008KT 15SM BKN085 12/07 A3022 RMK AC6 VIRGA LAST STFD OBS / NEXT 011100 UTC SLP236<br><br>
CYSN has no TAF <br><br>
<br><br>
CYHM 010100Z 25003KT 15SM BKN098 12/03 A3023 RMK AC5 SLP241<br><br>
TAF CYHM 312338Z 0100/0124 33007KT P6SM BKN060 TEMPO 0100/0103 SCT060 FM010300 24007KT P6SM SCT060 BECMG 0113/0115 25015KT RMK NXT FCST BY 010600Z<br><br>
<br><br>
KIAG 010153Z 23008KT 10SM BKN075 OVC095 11/07 A3023 RMK AO2 RAB26E37 SLP244 P0000 T01060067<br><br>
KIAG 010053Z 23007KT 10SM SCT065 OVC085 11/06 A3023 RMK AO2 SLP241 T01110061<br><br>
KIAG 312327Z 0100/0124 24010KT P6SM FEW035 BKN070 FM010500 27007KT P6SM SCT070 FM011200 27010KT P6SM FEW250 FM011400 24015G25KT P6SM FEW250 FM012200 23012G20KT P6SM FEW250<br><br>
<br><br>
KBUF 010154Z 23008KT 10SM BKN065 BKN080 10/07 A3024 RMK AO2 SLP245 T01000072 $<br><br>
KBUF 010054Z 24010KT 10SM SCT060 BKN090 10/07 A3024 RMK AO2 SLP243 T01000067 $<br><br>
KBUF 312327Z 0100/0124 24014KT P6SM FEW035 BKN070 FM010600 27006KT P6SM SCT070 FM011200 27010KT P6SM FEW250 FM011400 26015G25KT P6SM FEW250 FM012200 24012G20KT P6SM FEW250<br><br>
<br><br>
CYYZ 010100Z 31004KT 15SM BKN070 BKN110 13/01 A3021 RMK AC7AC1 AC TR SLP234<br><br>
CYYZ 010030Z 33005KT 15SM BKN065 BKN100 13/01 A3021 RMK SC6AC1 AC TR SLP234<br><br>
TAF AMD CYYZ 010016Z 0100/0206 34007KT P6SM SCT060 BKN100 TEMPO 0100/0104 P6SM -SHRA BKN060 BECMG 0101/0103 VRB03KT FM010400 VRB03KT P6SM SCT060 BECMG 0104/0106 22008KT BECMG 0108/0110 28007KT FM011500 27015G25KT P6SM SCT070 FM020300 20010KT P6SM FEW080 BKN140 RMK NXT FCST BY 010300Z<br><br>
<br><br>
CYOO 010100Z AUTO 31003KT 9SM FEW100 11/02 A3021 RMK SLP233<br><br>
TAF CYOO 010142Z 0102/0114 30005KT P6SM SCT080 SCT120 TEMPO 0102/0106 BKN080 FM010800 VRB03KT P6SM FEW050 BECMG 0112/0114 22010KT RMK FCST BASED ON AUTO OBS. NXT FCST BY 010800Z<br><br>
<br><br>
CYTR 010100Z 30007KT 15SM FEW050 11/02 A3020 RMK SC1 SLP229<br><br>
TAF CYTR 312330Z 0100/0124 30010G20KT P6SM SCT060 FM010100 30008KT P6SM FEW100 BECMG 0104/0106 VRB03KT FM011400 24005KT P6SM BKN080 BECMG 0114/0116 24010G20KT BECMG 0119/0121 29012G22KT RMK NXT FCST BY 010600Z<br><br>
<br><br>
