RETRIEVED AT : Mar 14 2020 01:05 Local <br>
  RETRIEVED AT: Mar 14 2020 05:05 UTC<br><br>
CYSN has no TAF <br><br>
<br><br>
CYHM 140400Z 27013KT 15SM FEW040 01/M05 A3023 RMK SC1 SLP246<br><br>
TAF CYHM 132339Z 1400/1424 27015G25KT P6SM BKN050 FM140900 29010KT P6SM BKN025 BECMG 1422/1424 34008KT RMK NXT FCST BY 140600Z<br><br>
<br><br>
KIAG 140453Z AUTO 27014KT 10SM CLR 01/M05 A3023 RMK AO2 PK WND 30027/0419 SLP249 T00111050 401170011<br><br>
KIAG 140353Z AUTO 29023G29KT 10SM SCT047 02/M05 A3021 RMK AO2 PK WND 28032/0342 SLP242 T00221050<br><br>
KIAG 140251Z 1403/1424 26014G23KT P6SM SCT050 FM140900 27010KT P6SM SCT040 FM141600 28013KT P6SM BKN250 FM142100 27009KT P6SM BKN150<br><br>
<br><br>
KBUF 140454Z 28012G22KT 10SM SCT042 SCT065 03/M05 A3023 RMK AO2 SLP245 T00281050 401280028<br><br>
KBUF 140354Z 28011G18KT 10SM FEW060 03/M04 A3021 RMK AO2 SLP236 T00331044<br><br>
KBUF 140251Z 1403/1424 25013G20KT P6SM SCT050 FM140900 26009KT P6SM SCT040 FM141600 25013KT P6SM BKN250 FM142100 25009KT P6SM BKN150<br><br>
<br><br>
CYYZ 140400Z 27013G21KT 15SM FEW060 02/M05 A3019 RMK SC1 SC TR SLP230<br><br>
TAF CYYZ 140238Z 1403/1506 27020G35KT P6SM SCT060 FM140600 29018G28KT P6SM BKN030 FM141200 32012KT P6SM BKN025 BKN200 BECMG 1420/1422 36009KT FM150300 36012KT P6SM BKN150 RMK NXT FCST BY 140600Z<br><br>
<br><br>
CYOO 140400Z AUTO 27010G15KT 9SM CLR 02/M04 A3015 RMK SLP217<br><br>
TAF CYOO 140138Z 1402/1414 27010G20KT P6SM BKN040 FM141000 29010KT P6SM BKN020 RMK FCST BASED ON AUTO OBS. NXT FCST BY 140800Z<br><br>
<br><br>
CYTR 140400Z 27021KT 15SM SKC 03/M06 A3009 RMK SLP193<br><br>
TAF CYTR 132330Z 1400/1424 27020G35KT P6SM BKN050 FM141000 29015G25KT P6SM SCT040 BECMG 1411/1413 29010KT RMK NXT FCST BY 140600Z<br><br>
<br><br>
