RETRIEVED AT : Sep 09 2019 05:19 Local <br>
  RETRIEVED AT: Sep 09 2019 09:19 UTC<br><br>
CYSN has no TAF <br><br>
<br><br>
CYHM 090900Z 03006KT 15SM FEW120 BKN190 11/09 A3023 RMK AC1AC6 SLP241<br><br>
CYHM 090800Z 03005KT 15SM SCT120 BKN190 11/08 A3024 RMK AC4AC3 SLP242<br><br>
TAF CYHM 090541Z 0906/1006 03007KT P6SM SCT040 BKN160 FM091200 03008KT P6SM BKN030 OVC100 FM092000 06010KT P6SM FEW040 BECMG 0923/1001 05006KT RMK NXT FCST BY 091200Z<br><br>
<br><br>
KIAG 090853Z AUTO A3023 RMK AO2 SLPNO 54000 PWINO RVRNO $<br><br>
KIAG 090753Z AUTO A3024 RMK AO2 SLPNO PWINO RVRNO $<br><br>
KIAG 090852Z 0909/1006 VRB03KT P6SM SCT040 BKN180 FM091700 08008KT P6SM SCT100 FM092300 05005KT P6SM FEW250 AMD NOT SKED<br><br>
<br><br>
KBUF 090854Z 04003KT 10SM BKN041 12/10 A3023 RMK AO2 SLP238 T01170100 56001<br><br>
KBUF 090754Z 00000KT 10SM BKN040 12/09 A3024 RMK AO2 SLP239 T01170094<br><br>
KBUF 090852Z 0909/1006 VRB04KT P6SM BKN035 FM091000 07007KT P6SM SCT035 BKN180 FM091700 05008KT P6SM SCT120 FM100300 09005KT P6SM FEW250<br><br>
<br><br>
CYYZ 090900Z 06011KT 15SM FEW045 BKN180 09/06 A3025 RMK SC1AC5 SC TR SLP248<br><br>
CYYZ 090800Z 07011KT 15SM FEW190 10/06 A3025 RMK AC2 SLP248<br><br>
TAF CYYZ 090838Z 0909/1012 07010KT P6SM FEW040 BKN190 FM091500 08009KT P6SM SCT030 BKN100 FM091800 13010KT P6SM BKN030 FM100000 13010KT P6SM SKC BECMG 1000/1002 05006KT FM100800 05005KT 6SM BR SKC RMK NXT FCST BY 091200Z<br><br>
<br><br>
CYOO 090900Z AUTO 01004KT 9SM BKN041 07/05 A3027 RMK SLP253<br><br>
CYOO 090800Z AUTO 36004KT 9SM BKN042 07/05 A3026 RMK SLP251<br><br>
TAF CYOO 090738Z 0908/0920 03007KT P6SM FEW030 SCT210 FM091200 05008KT P6SM SCT015 BKN140 TEMPO 0912/0916 BKN015 BECMG 0912/0914 08008KT FM091600 12007KT P6SM BKN030 RMK FCST BASED ON AUTO OBS. NXT FCST BY 091400Z<br><br>
<br><br>
CYTR 090900Z 03003KT 15SM FEW050 FEW150 07/06 A3028 RMK SC1AC2 SC TR SLP256<br><br>
CYTR 090800Z 07002KT 15SM FEW050 FEW150 08/06 A3027 RMK SC1AC1 AC TR SLP252<br><br>
TAF CYTR 090530Z 0906/1006 03004KT P6SM BKN050 FM091100 05006KT P6SM SCT040 BKN150 FM092100 21005KT P6SM FEW040 BECMG 1000/1002 VRB03KT RMK NXT FCST BY 091200Z<br><br>
<br><br>
