RETRIEVED AT : Oct 02 2017 10:10 Local <br>
  RETRIEVED AT: Oct 02 2017 14:10 UTC<br><br>
CYSN 021400Z 00000KT 15SM FEW250 16/10 A3038 RMK CI2 SLP292<br><br>
CYSN 021300Z 00000KT 15SM FEW200 12/08 A3038 RMK CC1 SLP291<br><br>
TAF CYSN 021240Z 0213/0301 11005KT P6SM SCT190 BECMG 0215/0217 06008KT RMK NXT FCST BY 022000Z<br><br>
<br><br>
CYHM 021400Z 07009KT 15SM FEW240 15/09 A3039 RMK CI1 SLP295<br><br>
CYHM 021300Z 05007KT 12SM FEW150 FEW240 12/10 A3038 RMK AC1CI1 AC TR CI TR SLP292<br><br>
TAF CYHM 021138Z 0212/0312 VRB03KT P6SM FEW240 BECMG 0215/0217 06007KT BECMG 0304/0306 14006KT RMK NXT FCST BY 021800Z<br><br>
<br><br>
KIAG 021353Z 00000KT 10SM CLR 14/08 A3039 RMK AO2 SLP297 T01440078<br><br>
KIAG 021253Z 00000KT 10SM CLR 11/07 A3038 RMK AO2 SLP294 T01060067<br><br>
KIAG 021130Z 0212/0312 VRB03KT P6SM FEW250 FM021300 12004KT P6SM FEW250 FM022000 08006KT P6SM FEW200 FM030200 12004KT P6SM FEW200 FM030600 17005KT P6SM SKC<br><br>
<br><br>
KBUF 021354Z 18003KT 10SM FEW170 FEW270 13/06 A3040 RMK AO2 SLP297 T01330061<br><br>
KBUF 021254Z 15004KT 10SM FEW170 FEW270 10/05 A3039 RMK AO2 SLP294 T01000050<br><br>
KBUF 021130Z 0212/0312 VRB03KT P6SM FEW250 FM021400 12005KT P6SM FEW250 FM022000 08005KT P6SM FEW200 FM030200 12005KT P6SM FEW200 FM030600 16006KT P6SM SKC<br><br>
<br><br>
CYYZ 021400Z 11008KT 15SM FEW180 FEW230 16/10 A3039 RMK AC1CI2 AC TR SLP296<br><br>
CYYZ 021300Z 04004KT 15SM FEW180 12/08 A3039 RMK AC1 SLP296<br><br>
TAF CYYZ 021138Z 0212/0318 VRB03KT P6SM FEW190 BECMG 0216/0218 12010KT BECMG 0300/0302 VRB03KT RMK NXT FCST BY 021500Z<br><br>
<br><br>
CYOO 021400Z AUTO 10009KT 9SM CLR 15/09 A3040 RMK SLP300<br><br>
CYOO 021300Z AUTO 04003KT 9SM FEW017 12/08 A3040 RMK SLP300<br><br>
CYOO has no TAF <br><br>
<br><br>
CYTR 021400Z 00000KT 15SM FEW250 12/08 A3044 RMK CI1 SLP310<br><br>
CYTR 021300Z 00000KT 15SM FEW250 08/07 A3042 RMK CI1 SLP305<br><br>
TAF CYTR 021130Z 0212/0312 VRB03KT P6SM FEW250 TEMPO 0212/0213 5SM BR FM021600 14008KT P6SM SCT250 BECMG 0300/0302 VRB03KT FM031000 18005KT 6SM BR FEW005 PROB30 0310/0312 3/4SM BR OVC005 RMK NXT FCST BY 021800Z<br><br>
<br><br>
