RETRIEVED AT : May 12 2018 10:05 Local <br>
  RETRIEVED AT: May 12 2018 14:05 UTC<br><br>
CYSN 121300Z 06005KT 15SM FEW045 OVC084 08/05 A3010 RMK SC2AC6 PRESRR SLP195<br><br>
CYSN 121222Z 06006KT 12SM FEW045 OVC090 08/04 A3008 RMK SC2AC6 SLP189<br><br>
TAF CYSN 121243Z 1213/1301 06008KT P6SM SCT040 OVC100 TEMPO 1213/1215 P6SM -SHRA BKN040 FM121500 03012KT P6SM BKN140 TEMPO 1215/1218 P6SM -SHRA BKN070 FM122000 03008KT P6SM FEW200 BECMG 1223/1301 VRB03KT RMK NXT FCST BY 122000Z<br><br>
<br><br>
CYHM 121300Z 05013G18KT 15SM FEW037 SCT050 OVC072 05/01 A3009 RMK SC2SC2AC4 SLP195<br><br>
TAF CYHM 121138Z 1212/1312 04012KT P6SM -SHRA OVC040 FM121400 05012KT P6SM BKN060 TEMPO 1214/1217 P6SM -SHRA FM121700 05015KT P6SM FEW030 SCT120 BKN250 BECMG 1218/1220 SKC BECMG 1222/1224 03007KT FM130900 04007KT P6SM FEW006 BKN140 PROB30 1309/1312 11/2SM BR BKN004 RMK NXT FCST BY 121800Z<br><br>
<br><br>
KIAG 121353Z 04008KT 10SM OVC037 11/04 A3008 RMK AO2 SLP191 T01060044<br><br>
KIAG 121253Z 07008KT 10SM OVC085 09/04 A3007 RMK AO2 RAE24 SLP190 P0000 T00940039<br><br>
KIAG 121120Z 1212/1312 05007KT P6SM -RA OVC060 FM121400 05007KT P6SM VCSH OVC045 FM121800 03009KT P6SM BKN080 FM122100 03007KT P6SM BKN150 FM130100 VRB03KT P6SM BKN250 FM130800 08004KT P6SM BKN120<br><br>
<br><br>
KBUF 121354Z 06011KT 10SM BKN032 OVC060 11/06 A3007 RMK AO2 RAB1257E11 SLP184 P0000 T01110056<br><br>
KBUF 121254Z 05008KT 10SM BKN032 BKN060 BKN080 10/06 A3007 RMK AO2 RAE18 SLP185 P0000 T01000056<br><br>
KBUF 121120Z 1212/1312 05007KT 6SM -RA OVC050 FM121400 06007KT P6SM VCSH OVC035 FM121800 04007KT P6SM OVC040 FM122000 03007KT P6SM BKN080 FM122300 03006KT P6SM BKN200 FM130200 VRB03KT P6SM BKN250 FM130800 09004KT P6SM BKN120<br><br>
<br><br>
CYYZ 121333Z 06007KT 15SM BKN089 09/M02 A3012 RMK AC7 PRESRR SLP204<br><br>
CYYZ 121300Z 05006KT 15SM -RA OVC090 09/M01 A3012 RMK AC8 PCPN VRY LGT SLP203<br><br>
CYYZ 121214Z 07007KT 15SM -RA OVC097 09/M01 A3010 RMK AC8 SLP199<br><br>
TAF CYYZ 121138Z 1212/1318 06005KT P6SM -SHRA OVC100 FM121400 06010KT P6SM BKN120 BECMG 1216/1218 11008KT FM121800 11008KT P6SM FEW080 SCT220 BECMG 1304/1306 35005KT FM131000 06005KT P6SM FEW006 PROB30 1310/1313 BKN006 BECMG 1313/1315 09010KT RMK NXT FCST BY 121500Z<br><br>
<br><br>
CYOO 121300Z AUTO 09007KT 050V120 9SM BKN110 OVC130 10/01 A3011 RMK SLP201<br><br>
CYOO has no TAF <br><br>
<br><br>
CYTR 121300Z 05004KT 15SM BKN120 BKN240 08/03 A3013 RMK AC5CI2 SLP206<br><br>
TAF CYTR 121130Z 1212/1312 06005KT P6SM BKN100 OVC240 FM121800 06005KT P6SM FEW260 BECMG 1218/1220 21008KT FM130000 21005KT P6SM SKC BECMG 1300/1302 VRB03KT RMK NXT FCST BY 121800Z<br><br>
<br><br>
