RETRIEVED AT : Oct 14 2017 23:10 Local <br>
  RETRIEVED AT: Oct 15 2017 03:10 UTC<br><br>
CYSN has no TAF <br><br>
<br><br>
CYHM 150300Z 08007KT 8SM FEW004 OVC070 15/14 A3003 RMK SF1AC8 SF TR SLP172 DENSITY ALT 800FT<br><br>
CYHM 150238Z 07007KT 5SM BR FEW003 OVC067 15/15 A3004 RMK SF1AC7 SLP176 DENSITY ALT 800FT<br><br>
CYHM 150223Z 07008KT 4SM -RA BR FEW003 OVC059 15/15 A3004 RMK SF2SC6 SLP176 DENSITY ALT 800FT<br><br>
CYHM 150200Z 09007KT 1 1/2SM -RA BR SCT003 OVC048 15/14 A3006 RMK FG2SF2SC4 PRESFR SLP180 DENSITY ALT 800FT<br><br>
CYHM 150138Z 09006KT 1 1/2SM -RA BR SCT003 OVC060 15/14 A3007 RMK FG2SF1SC5 SLP185 DENSITY ALT 800FT<br><br>
TAF CYHM 142338Z 1500/1524 05005KT 11/2SM -SHRA BR FEW015 OVC050 TEMPO 1500/1505 6SM BR BKN050 OVC120 FM150500 12005KT P6SM BKN090 OVC200 BECMG 1507/1509 19008KT FM151100 21015G25KT P6SM BKN020 BECMG 1513/1515 21020G35KT FM151800 22025G40KT P6SM -SHRA OVC025 PROB30 1518/1521 VRB30G50KT 2SM +TSRA BR OVC020CB FM152100 24020G35KT P6SM BKN025 RMK NXT FCST BY 150600Z<br><br>
<br><br>
KIAG 150253Z 08007KT 6SM -RA OVC075 17/14 A3005 RMK AO2 SLP174 P0003 60003 T01670139 56028<br><br>
KIAG 150153Z 11008KT 8SM -RA BKN075 OVC110 17/14 A3007 RMK AO2 RAB27 SLP181 P0000 T01670139<br><br>
KIAG 150259Z 1503/1524 07007KT P6SM -SHRA OVC060 FM150400 10008KT P6SM BKN060 WS020/19035KT FM151300 21019G28KT P6SM BKN025 FM151900 23026G44KT 4SM SHRA OVC025 FM152100 24026G47KT 5SM SHRA OVC015 FM152300 25024G44KT P6SM SCT025<br><br>
<br><br>
KBUF 150254Z 05007KT 9SM FEW080 BKN095 OVC110 16/14 A3005 RMK AO2 RAB0158E08 SLP174 P0000 60000 T01610144 56024<br><br>
KBUF 150154Z 07009KT 8SM SCT080 OVC120 16/14 A3006 RMK AO2 SLP180 T01610144<br><br>
KBUF 150259Z 1503/1524 05007KT P6SM BKN060 FM150700 17010KT P6SM SCT080 WS020/21035KT FM151100 20016G23KT P6SM BKN100 FM151400 21023G36KT P6SM BKN035 FM151900 22024G40KT P6SM VCSH OVC025 FM152000 23026G47KT 4SM SHRA OVC015 FM152300 25026G45KT P6SM SCT015<br><br>
<br><br>
CYYZ 150300Z 14008KT 6SM -RA BR BKN005 OVC017 15/15 A3003 RMK SF5SC3 PRESFR SLP171 DENSITY ALT 600FT<br><br>
CYYZ 150200Z 13005KT 5SM -RA BR SCT005 OVC038 15/15 A3006 RMK SF4SC4 SLP183 DENSITY ALT 600FT<br><br>
TAF CYYZ 150238Z 1503/1606 13005KT 21/2SM -RA BR BKN005 OVC025 TEMPO 1503/1505 6SM -RA BR BKN025 OVC040 PROB30 1503/1505 2SM -RA BR OVC003 FM150500 14005KT P6SM SCT005 OVC040 TEMPO 1505/1507 5SM -RA -DZ BR BKN005 OVC040 FM150800 15005KT 6SM BR BKN040 OVC100 FM151100 19010KT WS005/21030KT P6SM BKN015 OVC025 FM151400 22020G35KT P6SM OVC020 FM151800 22025G40KT P6SM -SHRA OVC025 PROB30 1518/1521 VRB30G50KT 2SM +TSRA BR OVC020CB FM152100 25025G40KT P6SM BKN025 BECMG 1601/1603 29018G28KT RMK NXT FCST BY 150600Z<br><br>
<br><br>
CYOO 150300Z AUTO 12006KT 4SM -RA BR OVC004 15/15 A3005 RMK SLP179<br><br>
CYOO 150237Z AUTO 11006KT 3SM -RA BR OVC004 15/15 A3007 RMK SLP184<br><br>
CYOO 150200Z AUTO 10007KT 2SM -RA BR BKN002 OVC046 15/15 A3007 RMK SLP185<br><br>
CYOO has no TAF <br><br>
<br><br>
CYTR 150300Z 10002KT 1 3/4SM -RA BR SCT010 OVC032 16/15 A3008 RMK SF4SC4 VIS VRB 1 1/4-2 1/4 SLP188<br><br>
CYTR 150200Z 00000KT 1 3/4SM -RA BR FEW006 BKN042 OVC110 16/15 A3010 RMK SF2SC3AC2 VIS VRB 1 1/4-2 1/4 SLP195<br><br>
CYTR 150140Z 00000KT 1 1/4SM -RA BR FEW025 BKN047 OVC110 15/15 A3011 RMK SC2SC3AC2 VIS VRB 3/4-1 3/4 SLP197<br><br>
