RETRIEVED AT : Aug 12 2018 17:25 Local <br>
  RETRIEVED AT: Aug 12 2018 21:25 UTC<br><br>
CYSN 122100Z 05009G16KT 15SM FEW040 FEW250 27/14 A3006 RMK CU1CI1 CU TR CI TR SLP180 DENSITY ALT 1700FT<br><br>
CYSN 122000Z 07008KT 15SM FEW040 FEW250 27/13 A3007 RMK CU1CI1 CU TR SLP183 DENSITY ALT 1700FT<br><br>
TAF CYSN 121938Z 1220/1301 04010KT P6SM FEW040 SCT240 BECMG 1223/1301 02006KT RMK NXT FCST WILL BE ISSUED AT 131245Z<br><br>
<br><br>
CYHM 122100Z 09009KT 15SM FEW050TCU FEW140 FEW250 27/14 A3009 RMK TCU1AC1CI2 TCU TR AC TR TCU N SLP190 DENSITY ALT 2100FT<br><br>
CYHM 122000Z 06008KT 15SM FEW048TCU FEW140 FEW250 27/15 A3010 RMK TCU1AC1CI2 TCU TR AC TR TCU N SLP192 DENSITY ALT 2100FT<br><br>
TAF CYHM 121744Z 1218/1318 04008KT P6SM SCT040 BECMG 1300/1302 VRB03KT FEW050 FM130800 VRB03KT P6SM FEW080 SCT200 FM131500 03008KT P6SM BKN060 RMK NXT FCST BY 130000Z<br><br>
<br><br>
KIAG 122053Z 04010KT 10SM CLR 28/09 A3007 RMK AO2 SLP180 T02780089 57011 $<br><br>
KIAG 121953Z 02010KT 10SM CLR 28/14 A3008 RMK AO2 SLP182 T02780139 $<br><br>
KIAG 122110Z 1221/1318 04007KT P6SM SCT045 FM130000 VRB03KT P6SM SCT250 FM131300 03005KT P6SM VCSH BKN060<br><br>
<br><br>
KBUF 122054Z 03009KT 10SM FEW060 FEW200 FEW250 28/13 A3007 RMK AO2 SLP179 T02780128 58012<br><br>
KBUF 121954Z 04007KT 10SM FEW060 FEW200 FEW250 28/13 A3008 RMK AO2 SLP182 T02780133<br><br>
KBUF 122110Z 1221/1318 04008KT P6SM SCT045 FM130100 VRB03KT P6SM SCT250 FM131300 05005KT P6SM VCSH BKN060<br><br>
<br><br>
CYYZ 122100Z 16008KT 100V170 15SM FEW055 FEW180 FEW260 27/15 A3008 RMK CU2AC1CI1 AC TR CI TR SLP186 DENSITY ALT 1900FT<br><br>
CYYZ 122000Z 16007KT 15SM VCSH FEW055 FEW260 27/15 A3009 RMK SC2CI1 CI TR VCSH W SLP189 DENSITY ALT 1900FT<br><br>
TAF CYYZ 122038Z 1221/1324 16008KT P6SM FEW060 TEMPO 1221/1223 P6SM VCTS SCT060CB BECMG 1223/1301 VRB03KT FM130300 32005KT P6SM FEW050 FM131200 34008KT P6SM BKN060 BECMG 1315/1317 12005KT FM131800 12008KT P6SM SCT050 TEMPO 1320/1324 P6SM VCTS BKN050CB RMK NXT FCST BY 130000Z<br><br>
<br><br>
CYOO 122100Z AUTO 12007KT 100V180 9SM CLR 26/16 A3009 RMK SLP188 DENSITY ALT 1600FT<br><br>
CYOO 122000Z AUTO 11007KT 080V150 9SM FEW065 27/16 A3009 RMK SLP190 DENSITY ALT 1600FT<br><br>
CYOO has no TAF <br><br>
<br><br>
CYTR 122100Z 00000KT 15SM FEW035 FEW095 SCT250 28/16 A3007 RMK SC2AC1CI2 SLP181<br><br>
CYTR 122000Z 01004KT 15SM FEW035 FEW095 SCT250 28/17 A3007 RMK CU2AC1CI2 SLP184<br><br>
TAF CYTR 121730Z 1218/1318 18005KT P6SM SCT040 TEMPO 1219/1302 P6SM -SHRA BKN040 BECMG 1222/1224 VRB03KT FM130200 VRB03KT P6SM SCT012 BKN030 FM131600 20005KT P6SM BKN040 RMK NXT FCST BY 130000Z<br><br>
<br><br>
