RETRIEVED AT : Jun 08 2019 08:05 Local <br>
  RETRIEVED AT: Jun 08 2019 12:05 UTC<br><br>
CYSN 081100Z 09004KT 15SM FEW250 14/14 A3013 RMK CI1 CI TR SLP204<br><br>
CYSN has no TAF <br><br>
<br><br>
CYHM 081100Z 03011G16KT 15SM FEW250 14/09 A3014 RMK CI1 SLP207<br><br>
TAF CYHM 081138Z 0812/0912 04012KT P6SM FEW250 BECMG 0815/0817 05012G22KT FM090400 05012KT P6SM FEW200 BECMG 0906/0908 04007KT RMK NXT FCST BY 081800Z<br><br>
<br><br>
KIAG 081153Z 09006KT 10SM CLR 16/11 A3015 RMK AO2 SLP209 T01610111 10161 20106 51019 $<br><br>
KIAG 081053Z 08005KT 10SM CLR 13/11 A3014 RMK AO2 SLP205 T01330106 $<br><br>
KIAG 081120Z 0812/0912 VRB03KT P6SM SKC FM081400 07010KT P6SM SKC FM090000 10008KT P6SM FEW250 FM090800 13005KT P6SM SCT250<br><br>
<br><br>
KBUF 081154Z 09005KT 10SM FEW200 FEW250 17/10 A3016 RMK AO2 SLP211 T01720100 10172 20117 51019<br><br>
KBUF 081054Z 07005KT 10SM FEW230 14/09 A3014 RMK AO2 SLP204 T01390089<br><br>
KBUF 081120Z 0812/0912 VRB03KT P6SM FEW250 FM081400 07010KT P6SM SKC FM090000 11006KT P6SM FEW250 FM090800 13005KT P6SM SCT250<br><br>
<br><br>
CYYZ 081100Z 09012G18KT 15SM FEW100 18/03 A3016 RMK AC1 AC TR SLP213 DENSITY ALT 800FT<br><br>
TAF CYYZ 081138Z 0812/0918 09012G22KT P6SM SKC BECMG 0900/0902 08010KT FM091000 07005KT P6SM SCT240 BECMG 0914/0916 13010G20KT RMK NXT FCST BY 081500Z<br><br>
<br><br>
CYOO 081100Z AUTO 07009KT 9SM CLR 17/03 A3016 RMK SLP215 DENSITY ALT 500FT<br><br>
TAF CYOO 080738Z 0808/0820 04007G17KT P6SM SKC BECMG 0811/0813 09012G22KT FM081700 11010G20KT P6SM SKC RMK FCST BASED ON AUTO OBS. NXT FCST BY 081400Z<br><br>
<br><br>
CYTR 081100Z 05006KT 15SM FEW250 14/07 A3019 RMK CI1 SLP224<br><br>
TAF CYTR 081130Z 0812/0912 05005KT P6SM SKC FM081400 09008KT P6SM SKC BECMG 0816/0818 21010KT BECMG 0900/0901 08005KT RMK NXT FCST BY 081800Z<br><br>
<br><br>
