RETRIEVED AT : May 16 2020 12:05 Local <br>
  RETRIEVED AT: May 16 2020 16:05 UTC<br><br>
CYSN 161515Z 01003KT 310V080 10SM FEW007 BKN016 13/11 A3019 RMK SF2SC5 SLP226<br><br>
CYSN 161500Z 35003KT 10SM BKN007 BKN015 12/11 A3020 RMK SF5SC2 SLP228<br><br>
TAF AMD CYSN 161405Z 1614/1701 35005KT 4SM BR OVC006 TEMPO 1614/1616 P6SM NSW OVC015 FM161600 36006KT P6SM SCT015 TEMPO 1616/1617 BKN015 FM161700 36006KT P6SM FEW040 BECMG 1620/1622 02006KT RMK NXT FCST BY 162000Z<br><br>
<br><br>
CYHM 161544Z 06005KT 020V090 15SM SCT013 SCT250 13/09 A3021 RMK SC3CI1 SLP236<br><br>
CYHM 161519Z 07005KT 020V110 15SM BKN010 12/10 A3020 RMK SC6 SLP233<br><br>
CYHM 161500Z 07006KT 020V110 15SM BKN009 11/09 A3019 RMK SC7 SLP230<br><br>
CYHM 161428Z 06006KT 030V090 15SM BKN006 OVC010 10/08 A3020 RMK SC7SC1 SLP231<br><br>
TAF AMD CYHM 161521Z 1615/1712 07006KT P6SM BKN009 TEMPO 1615/1616 SCT009 FM161600 05010KT P6SM SCT030 FM170100 06005KT P6SM SKC FM171000 06012KT P6SM SCT040 BKN200 RMK NXT FCST BY 161800Z<br><br>
<br><br>
KIAG 161553Z VRB03KT 10SM BKN021 14/09 A3020 RMK AO2 SLP231 T01440089<br><br>
KIAG 161537Z 00000KT 10SM SCT021 14/09 A3019 RMK AO2 T01440089<br><br>
KIAG 161453Z 07005KT 10SM BKN018 14/09 A3019 RMK AO2 SLP228 T01390089 51005<br><br>
KIAG 161419Z 07005KT 10SM BKN016 OVC031 13/09 A3019 RMK AO2 T01330094<br><br>
KIAG 161519Z 1615/1712 07006KT P6SM BKN020 FM161600 03006KT P6SM BKN035 FM162000 05006KT P6SM SCT250 FM170400 09004KT P6SM SCT250<br><br>
<br><br>
KBUF 161554Z 00000KT 10SM BKN018 15/09 A3020 RMK AO2 SLP228 T01500094<br><br>
KBUF 161504Z 08006KT 10SM BKN016 BKN032 13/09 A3019 RMK AO2 T01330089<br><br>
KBUF 161454Z 06006KT 10SM BKN014 BKN032 13/09 A3019 RMK AO2 SLP226 T01330089 51013<br><br>
KBUF 161409Z 07005KT 10SM BKN011 OVC026 12/09 A3019 RMK AO2 T01170089<br><br>
KBUF 161519Z 1615/1712 06006KT P6SM BKN020 FM161600 02004KT P6SM BKN040 FM162000 04006KT P6SM SCT250 FM170200 09006KT P6SM SCT250<br><br>
<br><br>
CYYZ 161500Z VRB03KT 15SM SCT022 14/08 A3019 RMK CF4 SLP227<br><br>
TAF CYYZ 161441Z 1615/1718 36008KT P6SM FEW015 FM161900 13008KT P6SM FEW040 BECMG 1701/1703 07007KT FM171100 08012KT P6SM SCT050 SCT180 RMK NXT FCST BY 161800Z<br><br>
<br><br>
CYOO 161500Z AUTO 18007KT 9SM BKN032 14/09 A3018 RMK SLP225<br><br>
TAF CYOO 161338Z 1614/1702 03006KT P6SM SKC FM161500 34006KT P6SM SCT030 BECMG 1618/1620 17005KT BECMG 1700/1702 VRB03KT RMK FCST BASED ON AUTO OBS. NXT FCST BY 162000Z<br><br>
<br><br>
CYTR 161500Z 03005KT 15SM OVC020 13/07 A3019 RMK SC8 SLP227<br><br>
TAF AMD CYTR 161454Z 1614/1712 01007KT P6SM BKN020 TEMPO 1614/1616 BKN025 FM161600 01005KT P6SM BKN025 BECMG 1617/1619 20008KT FM170200 VRB03KT P6SM FEW030 BECMG 1706/1708 04007KT RMK NXT FCST BY 161800Z<br><br>
<br><br>
