RETRIEVED AT : Oct 16 2017 06:10 Local <br>
  RETRIEVED AT: Oct 16 2017 10:10 UTC<br><br>
CYSN has no TAF <br><br>
<br><br>
CYHM 161000Z 30004KT 15SM FEW024 04/02 A3014 RMK SC1 SC TR SLP211<br><br>
CYHM 160900Z 29004KT 15SM FEW025 04/03 A3012 RMK SC1 SLP204<br><br>
TAF CYHM 160538Z 1606/1706 31010G20KT P6SM SCT025 TEMPO 1606/1612 BKN020 BECMG 1606/1608 32010KT FM161600 31010G20KT P6SM FEW030 BECMG 1622/1624 30008KT BECMG 1701/1703 VRB03KT RMK NXT FCST BY 161200Z<br><br>
<br><br>
KIAG 160953Z AUTO 36007KT 10SM BKN036 OVC045 09/02 A3011 RMK AO2 SLP200 T00890022<br><br>
KIAG 160853Z AUTO 36006KT 10SM OVC032 09/03 A3010 RMK AO2 SLP194 T00890028 53017<br><br>
KIAG 160831Z AUTO 35007KT 10SM OVC030 09/03 A3009 RMK AO2 T00890028<br><br>
KIAG 160824Z AUTO 36007KT 10SM OVC028 09/03 A3009 RMK AO2 T00890028<br><br>
KIAG 160901Z 1609/1706 36006KT P6SM OVC030 FM161400 31010KT P6SM BKN035 FM162000 30008KT P6SM SCT040 FM170200 VRB03KT P6SM SKC<br><br>
<br><br>
KBUF 160954Z 34005KT 10SM OVC033 08/03 A3011 RMK AO2 SLP199 T00780033 $<br><br>
KBUF 160947Z 32004KT 10SM OVC031 08/03 A3011 RMK AO2 T00780033 $<br><br>
KBUF 160901Z 34006KT 10SM OVC029 08/03 A3010 RMK AO2 T00780028 $<br><br>
KBUF 160854Z 34008KT 10SM OVC031 08/03 A3010 RMK AO2 SLP193 T00780033 53017 $<br><br>
KBUF 160901Z 1609/1706 34008KT P6SM OVC030 FM161400 32010KT P6SM BKN035 FM162000 30008KT P6SM SCT040 FM170000 VRB03KT P6SM SKC<br><br>
<br><br>
CYYZ 161000Z 32006KT 15SM FEW025 BKN035 05/02 A3013 RMK CU1SC5 CU TR SLP209<br><br>
CYYZ 160924Z 33007KT 15SM FEW034 BKN043 06/02 A3012 RMK CU1SC5 SLP203<br><br>
CYYZ 160907Z 33007KT 15SM -SHRA FEW024 BKN034 06/03 A3012 RMK CU2SC5 SLP202<br><br>
CYYZ 160900Z 32008KT 15SM FEW028 BKN041 06/03 A3011 RMK CU1SC6 SLP201<br><br>
TAF CYYZ 160838Z 1609/1712 34012KT P6SM BKN030 TEMPO 1609/1616 BKN020 FM161600 33012G22KT P6SM BKN030 FM162200 32010G20KT P6SM FEW040 BECMG 1623/1624 32010KT BECMG 1701/1703 VRB03KT FM170500 25008KT P6SM BKN030 RMK NXT FCST BY 161200Z<br><br>
<br><br>
CYOO 161000Z AUTO 28003KT 9SM BKN027 05/02 A3012 RMK SLP203<br><br>
CYOO 160900Z AUTO 34005KT 9SM FEW028 05/02 A3009 RMK SLP193<br><br>
CYOO has no TAF <br><br>
<br><br>
CYTR 161000Z 36005KT 15SM OVC028 05/01 A3010 RMK SC8 SLP194<br><br>
CYTR 160900Z 35007KT 15SM FEW028 05/01 A3007 RMK SC2 SLP185<br><br>
TAF CYTR 160530Z 1606/1706 32010G20KT P6SM SCT020 BKN030 TEMPO 1606/1615 BKN020 OVC030 BECMG 1613/1615 32012KT FM162000 32012KT P6SM SCT050 FM170000 30005KT P6SM FEW080 RMK NXT FCST BY 161200Z<br><br>
<br><br>
