RETRIEVED AT : Oct 30 2017 00:10 Local <br>
  RETRIEVED AT: Oct 30 2017 04:10 UTC<br><br>
CYSN has no TAF <br><br>
<br><br>
CYHM 300400Z 31009KT 15SM FEW026 BKN045 OVC180 06/03 A2953 RMK SC2SC4AC2 SLP005<br><br>
CYHM 300300Z 31012G18KT 15SM BKN032 OVC180 06/02 A2956 RMK SC6AC2 SLP016<br><br>
TAF CYHM 292338Z 3000/3024 35005KT P6SM SCT025 BKN050 BECMG 3005/3007 31015G25KT FM301200 27018G28KT P6SM FEW025 BECMG 3014/3016 25020G35KT FM302100 24020G35KT P6SM -SHRA OVC025 BECMG 3022/3024 25018G28KT RMK NXT FCST BY 300600Z<br><br>
<br><br>
KIAG 300353Z AUTO 33012KT 10SM FEW022 SCT030 OVC050 08/03 A2948 RMK AO2 SLP989 T00830028<br><br>
KIAG 300253Z 33013KT 10SM BKN043 08/03 A2950 RMK AO2 SLP997 T00780028 58033<br><br>
KIAG 300306Z 3003/3024 33013KT P6SM BKN045 FM301000 30019G28KT P6SM BKN045 FM301400 27020G32KT P6SM BKN050 FM301900 26023G38KT P6SM BKN060 FM302300 26021G30KT P6SM BKN140<br><br>
<br><br>
KBUF 300354Z 31010KT 10SM SCT022 OVC042 07/04 A2946 RMK AO2 SLP982 T00670039<br><br>
KBUF 300254Z 31010KT 10SM FEW020 BKN027 OVC042 07/04 A2948 RMK AO2 PRESFR SLP987 60000 T00670039 58035<br><br>
KBUF 300306Z 3003/3024 31010KT P6SM BKN025 OVC040 FM300900 29016G26KT P6SM OVC015 FM301400 27021G38KT P6SM SCT100 FM301700 25024G41KT P6SM BKN025 FM301900 25025G42KT 6SM -SHRA OVC025<br><br>
<br><br>
CYYZ 300400Z 32012G19KT 15SM FEW020 FEW033 OVC180 06/03 A2950 RMK CF1SC1AS7 CF TR SLP996<br><br>
CYYZ 300300Z 32014KT 15SM BKN033 OVC190 07/03 A2953 RMK SC5AS3 SLP005<br><br>
TAF CYYZ 300239Z 3003/3106 33015KT P6SM SCT040 BKN160 BECMG 3006/3008 33015G25KT BECMG 3012/3014 33020G35KT FM301600 27020G35KT P6SM BKN030 FM302200 26018G28KT P6SM -SHRA OVC030 BECMG 3100/3102 26015G25KT RMK NXT FCST BY 300600Z<br><br>
<br><br>
CYOO 300400Z AUTO 34013G21KT 9SM OVC060 07/02 A2946 RMK SLP980<br><br>
CYOO 300300Z AUTO 33010G25KT 9SM BKN055 BKN140 OVC180 06/03 A2947 RMK PRESFR SLP986<br><br>
CYOO 300244Z AUTO 34018KT 9SM FEW055 SCT140 OVC180 06/02 A2950 RMK PRESFR SLP994<br><br>
CYOO has no TAF <br><br>
<br><br>
CYTR 300400Z 33013G18KT 4SM SHRA BR BKN009 OVC047 06/05 A2936 RMK SF6SC2 PRESFR /R13/ SLP946<br><br>
CYTR 300300Z 34013KT 4SM SHRA BR BKN009 OVC047 06/06 A2945 RMK SF6SC2 SLP977<br><br>
CYTR 300230Z 34013KT 6SM SHRA BR BKN009 OVC047 06/06 A2945 RMK SF6SC2 SLP977<br><br>
TAF CYTR 292330Z 3000/3024 34010G20KT 4SM -RA BR BKN005 OVC030 TEMPO 3000/3004 P6SM -SHRA SCT005 BKN020 OVC050 FM300400 33015G25KT 4SM -RA BR BKN005 OVC012 TEMPO 3004/3009 P6SM -RA SCT005 BKN012 PROB30 3004/3008 2SM RA BR BKN002 FM300900 33015G25KT P6SM -RA SCT008 BKN012 OVC020 TEMPO 3009/3012 P6SM NSW SCT012 BKN020 FM301200 28022G32KT P6SM SCT020 BKN040 TEMPO 3012/3014 BKN020 OVC040 FM302100 26015KT P6SM SCT040 RMK NXT FCST BY 300600Z<br><br>
<br><br>
