RETRIEVED AT : Feb 23 2020 14:05 Local <br>
  RETRIEVED AT: Feb 23 2020 19:05 UTC<br><br>
CYSN 231800Z 23014G21KT 15SM BKN210 07/M05 A3000 RMK CI5 SLP164<br><br>
TAF AMD CYSN 231703Z 2317/2402 22015G25KT P6SM SCT180 RMK NXT FCST BY 232000Z<br><br>
<br><br>
CYHM 231800Z 20013KT 15SM SCT170 BKN250 07/M04 A2997 RMK AC3CI3 SLP158<br><br>
TAF CYHM 231742Z 2318/2418 22012G22KT P6SM FEW240 BECMG 2401/2403 23012KT FM241100 23008KT P6SM BKN015 RMK NXT FCST BY 240000Z<br><br>
<br><br>
KIAG 231853Z 23014KT 10SM CLR 07/M07 A2999 RMK AO2 PK WND 21027/1812 SLP168 T00671072<br><br>
KIAG 231753Z 22019G24KT 10SM CLR 06/M07 A3001 RMK AO2 PK WND 22027/1659 SLP175 T00611067 10067 20000 58017<br><br>
KIAG 231720Z 2318/2418 22016G24KT P6SM SCT250 FM232200 20012KT P6SM SCT050 FM240300 21016G24KT P6SM SCT200 FM241400 24012KT P6SM BKN025<br><br>
<br><br>
KBUF 231854Z 24013KT 10SM FEW140 BKN200 BKN250 07/M08 A3000 RMK AO2 SLP163 T00721083<br><br>
KBUF 231754Z 24015G22KT 10SM FEW120 BKN190 BKN240 07/M08 A3003 RMK AO2 PK WND 24030/1724 SLP173 T00721083 10078 21006 58014<br><br>
KBUF 231720Z 2318/2418 22016G24KT P6SM SCT250 FM232200 21010KT P6SM SCT050 FM240300 22014G22KT P6SM SCT200 FM241400 24012KT P6SM BKN025<br><br>
<br><br>
CYYZ 231800Z 18014KT 15SM SCT220 08/M04 A2997 RMK CI4 SLP155<br><br>
TAF CYYZ 231742Z 2318/2424 20012G22KT P6SM SCT240 BECMG 2401/2403 23012KT FM241000 22008KT P6SM BKN020 FM241800 27008KT P6SM SCT030 RMK NXT FCST BY 232100Z<br><br>
<br><br>
CYOO 231800Z AUTO 22010G17KT 9SM CLR 05/M03 A2999 RMK SLP163<br><br>
TAF CYOO 231339Z 2314/2402 VRB03KT P6SM BKN180 BECMG 2314/2316 22007KT BECMG 2317/2319 22008G18KT FM232100 20010G20KT P6SM SCT180 RMK FCST BASED ON AUTO OBS. NXT FCST BY 232000Z<br><br>
<br><br>
CYTR 231800Z 22012KT 15SM FEW180 OVC250 04/M02 A3002 RMK AC2CI6 SLP169<br><br>
TAF CYTR 231735Z 2318/2418 23012G22KT P6SM OVC220 FM240000 22006KT P6SM FEW040 BECMG 2405/2407 23010KT FEW020 FM241100 25008KT P6SM BKN020 BECMG 2415/2417 26010G20KT RMK NXT FCST BY 240000Z<br><br>
<br><br>
