RETRIEVED AT : Jun 12 2020 14:05 Local <br>
  RETRIEVED AT: Jun 12 2020 18:05 UTC<br><br>
TAF CYSN 121238Z 1213/1301 32010KT P6SM SCT090 BECMG 1214/1216 30012G22KT BECMG 1223/1301 35007KT RMK NXT FCST BY 122000Z<br><br>
<br><br>
TAF CYHM 121738Z 1218/1318 31010G20KT P6SM FEW040 FM130100 32008KT P6SM SKC BECMG 1304/1306 VRB03KT BECMG 1310/1312 04008KT RMK NXT FCST BY 130000Z<br><br>
<br><br>
KIAG 121720Z 1218/1318 30017G23KT P6SM FEW040 FM122100 31012KT P6SM SCT045 FM130000 33008KT P6SM FEW250 FM130500 36005KT P6SM FEW250 FM131200 03007KT P6SM FEW040<br><br>
<br><br>
KBUF 121720Z 1218/1318 24013G20KT P6SM SCT035 FM122100 29012KT P6SM SCT045 FM130000 32008KT P6SM FEW250 FM130300 35005KT P6SM FEW250 FM130900 02004KT P6SM FEW040<br><br>
<br><br>
TAF CYYZ 121738Z 1218/1324 31015G25KT P6SM FEW040 FM122000 32015KT P6SM SCT050 TEMPO 1220/1223 BKN050 FM122300 34012KT P6SM FEW100 BECMG 1300/1302 01010KT FM131200 01010KT P6SM SCT180 BECMG 1322/1324 VRB03KT RMK NXT FCST BY 122100Z<br><br>
<br><br>
TAF CYOO 121338Z 1214/1302 31012G22KT P6SM SCT100 BECMG 1300/1302 32008KT RMK FCST BASED ON AUTO OBS. NXT FCST BY 122000Z<br><br>
<br><br>
TAF CYTR 121730Z 1218/1318 29015G25KT P6SM FEW040 BECMG 1221/1223 30010KT FM130200 34008KT P6SM SCT040 BKN090 FM131100 01008KT P6SM BKN040 OVC180 RMK NXT FCST BY 130000Z<br><br>
<br><br>
