RETRIEVED AT : Mar 27 2020 19:05 Local <br>
  RETRIEVED AT: Mar 27 2020 23:05 UTC<br><br>
CYSN 272200Z 03008KT 15SM FEW240 07/01 A3001 RMK CI1 SLP168<br><br>
TAF CYSN 271939Z 2720/2801 01008KT P6SM FEW030 BECMG 2723/2724 07005KT RMK NXT FCST WILL BE ISSUED AT 281245Z<br><br>
<br><br>
CYHM 272200Z 05007KT 15SM FEW180 09/00 A3000 RMK AC1 SLP167<br><br>
TAF CYHM 271738Z 2718/2818 06008KT P6SM BKN015 BECMG 2718/2719 FEW015 FM280500 04012KT P6SM BKN150 FM281200 05015KT 5SM -SHRA BR OVC020 FM281400 05015KT 11/2SM -RA BR OVC006 RMK NXT FCST BY 280000Z<br><br>
<br><br>
KIAG 272253Z 03006KT 10SM CLR 08/01 A3002 RMK AO2 SLP175 T00780006<br><br>
KIAG 272153Z 03009KT 10SM CLR 09/02 A3000 RMK AO2 SLP169 T00890017<br><br>
KIAG 272125Z 2721/2818 02007KT P6SM SCT200 FM280300 09006KT P6SM BKN150 FM280900 10008KT P6SM OVC100 FM281500 11010KT 5SM -RA OVC025<br><br>
<br><br>
KBUF 272254Z 04010KT 10SM FEW240 FEW280 10/02 A3001 RMK AO2 SLP168 T01000022<br><br>
KBUF 272154Z 01008KT 10SM FEW210 FEW280 11/03 A2998 RMK AO2 SLP158 T01110028<br><br>
KBUF 272125Z 2721/2818 03008KT P6SM SCT200 FM280300 08006KT P6SM BKN150 FM280900 10008KT P6SM OVC100 FM281400 12010KT 5SM -RA OVC025<br><br>
<br><br>
CYYZ 272200Z 15009G16KT 15SM FEW260 07/01 A3001 RMK CI1 CI TR SLP169<br><br>
TAF CYYZ 272038Z 2721/2824 14013KT P6SM FEW240 BECMG 2800/2802 07007KT FM280500 06012KT P6SM BKN150 FM281400 08012G22KT 5SM -SHRA BR OVC020 FM281600 08012G22KT 2SM -RA BR OVC008 FM282000 07015G25KT 1SM -DZ BR OVC004 RMK NXT FCST BY 280000Z<br><br>
<br><br>
CYOO 272200Z AUTO 19003KT 140V220 9SM CLR 07/02 A3002 RMK SLP171<br><br>
TAF CYOO 271939Z 2720/2808 18008KT P6SM FEW030 BECMG 2723/2724 VRB03KT FM280500 05010KT P6SM BKN150 RMK FCST BASED ON AUTO OBS. NXT FCST BY 280200Z<br><br>
<br><br>
CYTR 272200Z 22006KT 15SM SKC 05/01 A3003 RMK SLP175<br><br>
TAF CYTR 271730Z 2718/2818 18005KT P6SM FEW020 BECMG 2722/2724 VRB03KT FM280800 VRB03KT P6SM SCT140 PROB30 2808/2812 2SM BR FM281500 09010KT P6SM SCT050 BKN100 RMK NXT FCST BY 280000Z<br><br>
<br><br>
