RETRIEVED AT : Mar 21 2020 04:05 Local <br>
  RETRIEVED AT: Mar 21 2020 08:05 UTC<br><br>
CYSN has no TAF <br><br>
<br><br>
CYHM 210700Z 34013KT 15SM BKN022 M04/M08 A3037 RMK SC7 SLP294<br><br>
TAF CYHM 210538Z 2106/2206 35012G22KT P6SM OVC020 TEMPO 2106/2110 BKN025 FM211000 03012KT P6SM SCT020 TEMPO 2110/2112 BKN020 FM211300 04012KT P6SM FEW025 FM220200 02008KT P6SM SKC RMK NXT FCST BY 211200Z<br><br>
<br><br>
KIAG 210753Z AUTO 35010KT 10SM OVC022 M03/M08 A3038 RMK AO2 SLP300 T10331078<br><br>
KIAG 210653Z AUTO 34010KT 10SM OVC024 M03/M08 A3037 RMK AO2 SLP296 T10281078<br><br>
KIAG 210526Z 2106/2206 33014G22KT P6SM OVC025 FM210900 34013KT P6SM BKN025 FM211300 36009KT P6SM SCT035 FM211700 36009KT P6SM SKC FM220000 03005KT P6SM SKC<br><br>
<br><br>
KBUF 210754Z 34012KT 10SM BKN022 OVC035 M02/M07 A3036 RMK AO2 SLP289 T10221072<br><br>
KBUF 210654Z 32010KT 10SM BKN023 OVC035 M02/M07 A3036 RMK AO2 SLP286 T10171072<br><br>
KBUF 210526Z 2106/2206 33013KT P6SM OVC025 FM211000 34010KT P6SM BKN025 FM211400 36008KT P6SM SCT025 FM211800 35008KT P6SM SKC FM220000 03005KT P6SM SKC<br><br>
<br><br>
CYYZ 210700Z 36012G18KT 15SM BKN020 M05/M09 A3039 RMK SC6 SLP299<br><br>
TAF CYYZ 210538Z 2106/2212 35015G25KT P6SM SCT025 TEMPO 2106/2108 BKN020 FM210900 01012G22KT P6SM SKC BECMG 2110/2112 01012KT FM220100 02008KT P6SM SKC RMK NXT FCST BY 210900Z<br><br>
<br><br>
CYOO 210700Z AUTO 35012G23KT 9SM CLR M05/M09 A3037 RMK SLP291<br><br>
TAF CYOO 210738Z 2108/2120 34010G20KT P6SM SKC BECMG 2110/2112 35010KT RMK FCST BASED ON AUTO OBS. NXT FCST BY 211400Z<br><br>
<br><br>
CYTR 210700Z 36010KT 15SM SKC M04/M12 A3036 RMK SLP286<br><br>
TAF CYTR 210530Z 2106/2206 34010G20KT P6SM BKN025 BECMG 2106/2107 SCT025 FM211000 35008KT P6SM SKC FM211800 35008KT P6SM FEW210 FM220400 36005KT P6SM SKC RMK NXT FCST BY 211200Z<br><br>
<br><br>
