RETRIEVED AT : Jul 03 2020 23:05 Local <br>
  RETRIEVED AT: Jul 04 2020 03:05 UTC<br><br>
CYSN has no TAF <br><br>
<br><br>
CYHM 040200Z 01004KT 15SM FEW025 25/18 A2996 RMK CU1 CU TR SLP142 DENSITY ALT 2100FT<br><br>
TAF CYHM 032338Z 0400/0424 32010KT P6SM FEW050 BECMG 0414/0416 04005KT BECMG 0420/0422 VRB03KT RMK NXT FCST BY 040600Z<br><br>
<br><br>
KIAG 040253Z 00000KT 10SM FEW050 26/19 A2994 RMK AO2 SLP133 T02560194 53015<br><br>
KIAG 040153Z 36005KT 10SM FEW046 BKN055 BKN095 27/19 A2994 RMK AO2 LTG DSNT SE SLP130 T02670189<br><br>
KIAG 040255Z 0403/0424 36004KT P6SM SCT050 SCT250 FM041400 02006KT P6SM SCT250<br><br>
<br><br>
KBUF 040254Z 21005KT 10SM BKN048 BKN060 BKN090 26/20 A2995 RMK AO2 TSE33 SLP137 TS DSIPTD T02560200 53012<br><br>
KBUF 040233Z 19006KT 10SM FEW023 BKN042 BKN100 26/20 A2995 RMK AO2 TSE33 TS DSIPTD T02560200<br><br>
KBUF 040154Z 08009KT 10SM TS BKN050CB BKN090 BKN180 27/19 A2995 RMK AO2 TSB22 SLP137 OCNL LTGICCG E TS E MOV S T02670194<br><br>
KBUF 040123Z 23006KT 10SM TS FEW050CB BKN100 BKN160 27/19 A2993 RMK AO2 LTG DSNT NE AND E TSB22 OCNL LTGICCG VC NE TS VC NE MOV S T02670194<br><br>
KBUF 040254Z 0403/0424 VRB04KT P6SM SCT040 SCT250 FM041400 36006KT P6SM FEW050 SCT250<br><br>
<br><br>
CYYZ 040200Z 34011KT 15SM FEW260 26/17 A2994 RMK CI1 CI TR SLP136 DENSITY ALT 2000FT<br><br>
TAF CYYZ 040240Z 0403/0506 35012KT P6SM FEW260 FM041600 36007KT P6SM SKC BECMG 0416/0418 15008KT BECMG 0421/0423 36010KT RMK NXT FCST BY 040600Z<br><br>
<br><br>
CYOO 040200Z AUTO 34008KT 9SM CLR 26/18 A2991 RMK SLP129 DENSITY ALT 1700FT<br><br>
TAF CYOO 040139Z 0402/0414 34008KT P6SM FEW080 RMK FCST BASED ON AUTO OBS. NXT FCST BY 040800Z<br><br>
<br><br>
CYTR 040200Z AUTO 17003KT 9SM FEW069 24/21 A2991 RMK SLP127<br><br>
CYTR 040150Z 15002KT 15SM FEW030 SCT130 24/21 A2990 RMK CU2AC2 LAST STFD OBS/NEXT 041000 UTC SLP124<br><br>
TAF CYTR 032330Z 0400/0424 VRB03KT P6SM FEW030 SCT100 TEMPO 0400/0402 P6SM -SHRA BKN030 OVC100 FM040200 VRB03KT P6SM BKN060 FM040700 01005KT P6SM FEW060 BECMG 0417/0419 20008KT RMK FCST BASED ON AUTO OBS 040200-041000Z. NXT FCST BY 040600Z<br><br>
<br><br>
