RETRIEVED AT : Oct 01 2017 19:10 Local <br>
  RETRIEVED AT: Oct 01 2017 23:10 UTC<br><br>
CYSN 012300Z 07005KT 15SM SCT250 12/07 A3030 RMK CI3 SLP264<br><br>
CYSN 012200Z 06007KT 15SM BKN250 16/07 A3029 RMK CI6 SLP261<br><br>
TAF CYSN 011939Z 0120/0201 VRB03KT P6SM FEW030 RMK NXT FCST WILL BE ISSUED AT 021245Z<br><br>
<br><br>
CYHM 012300Z 10007KT 15SM FEW250 12/07 A3029 RMK CI1 SLP265<br><br>
CYHM 012200Z 07007KT 15SM SCT250 16/08 A3029 RMK CI3 SLP263<br><br>
TAF CYHM 011740Z 0118/0218 VRB03KT P6SM FEW030 BECMG 0215/0217 14010KT RMK NXT FCST BY 020000Z<br><br>
<br><br>
KIAG 012253Z 05006KT 10SM CLR 14/07 A3030 RMK AO2 SLP268 T01390067<br><br>
KIAG 012153Z 05007KT 10SM CLR 17/06 A3030 RMK AO2 SLP265 T01670061<br><br>
KIAG 012109Z 0121/0218 VRB04KT P6SM SCT200 FM020000 VRB03KT P6SM SKC FM021300 14004KT P6SM SCT200<br><br>
<br><br>
KBUF 012254Z 04004KT 10SM SCT200 BKN250 15/04 A3030 RMK AO2 SLP263 T01500044 $<br><br>
KBUF 012154Z 04005KT 10SM BKN200 BKN250 17/04 A3030 RMK AO2 SLP263 T01720039 $<br><br>
KBUF 012109Z 0121/0218 04004KT P6SM SCT200 FM020000 VRB03KT P6SM SKC FM021300 14004KT P6SM SCT200<br><br>
<br><br>
CYYZ 012300Z 14005KT 15SM FEW240 15/06 A3029 RMK CI1 CI TR SLP263<br><br>
CYYZ 012200Z 12005KT 15SM FEW260 16/05 A3029 RMK CI2 SLP263<br><br>
TAF CYYZ 012038Z 0121/0224 VRB03KT P6SM FEW040 FM021600 12010KT P6SM SCT180 RMK NXT FCST BY 020000Z<br><br>
<br><br>
CYOO 012300Z AUTO VRB02KT 9SM CLR 13/05 A3030 RMK SLP266<br><br>
CYOO 012200Z AUTO 18003KT 140V210 9SM CLR 16/04 A3030 RMK SLP266<br><br>
CYOO has no TAF <br><br>
<br><br>
CYTR 012300Z 23005KT 15SM SCT250 14/08 A3031 RMK CI4 SLP268<br><br>
CYTR 012200Z 21007KT 15SM BKN250 15/09 A3031 RMK CI6 SLP265<br><br>
TAF CYTR 011730Z 0118/0218 28005KT P6SM FEW050 FEW250 BECMG 0118/0120 22008KT BECMG 0123/0201 VRB03KT FM020800 03005KT P6SM SKC TEMPO 0208/0212 4SM BR PROB30 0208/0212 1/2SM FG FM021600 13006KT P6SM SKC RMK NXT FCST BY 020000Z<br><br>
<br><br>
