RETRIEVED AT : Mar 15 2020 08:05 Local <br>
  RETRIEVED AT: Mar 15 2020 12:05 UTC<br><br>
CYSN 151100Z 05008KT 15SM SCT140 M01/M07 A3057 RMK AC3 PRESRR SLP357<br><br>
CYSN has no TAF <br><br>
<br><br>
CYHM 151100Z 02010KT 15SM FEW130 M03/M09 A3055 RMK AC1 SLP358<br><br>
TAF CYHM 151138Z 1512/1612 03012KT P6SM FEW030 FM151800 06015KT P6SM SKC BECMG 1523/1601 05010KT RMK NXT FCST BY 151800Z<br><br>
<br><br>
KIAG 151153Z 04009KT 10SM CLR M02/M08 A3057 RMK AO2 SLP368 T10171083 11006 21022 51027<br><br>
KIAG 151053Z 04009KT 10SM CLR M02/M08 A3054 RMK AO2 SLP359 T10171078<br><br>
KIAG 151120Z 1512/1612 04008KT P6SM FEW250 FM160100 VRB03KT P6SM FEW250 FM160600 10005KT P6SM FEW250<br><br>
<br><br>
KBUF 151154Z 03009KT 10SM FEW140 M01/M07 A3055 RMK AO2 SLP356 T10111072 10000 21011 52023<br><br>
KBUF 151054Z 03007KT 10SM FEW140 FEW170 M01/M06 A3053 RMK AO2 SLP347 T10111061<br><br>
KBUF 151120Z 1512/1612 03008KT P6SM FEW250 FM160100 08005KT P6SM FEW250<br><br>
<br><br>
CYYZ 151100Z 05012KT 15SM FEW140 M03/M11 A3059 RMK AC1 SLP367<br><br>
TAF CYYZ 151138Z 1512/1618 05012KT P6SM FEW140 FM152100 08011KT P6SM SKC BECMG 1523/1601 11008KT BECMG 1602/1604 06008KT FM160600 05009KT P6SM FEW030 BECMG 1610/1612 11009KT RMK NXT FCST BY 151500Z<br><br>
<br><br>
CYOO 151100Z AUTO 36005KT 9SM CLR M04/M12 A3060 RMK SLP371<br><br>
TAF CYOO 150740Z 1508/1520 01010KT P6SM OVC150 FM151200 05005KT P6SM SKC BECMG 1513/1515 04008KT BECMG 1518/1520 09005KT RMK FCST BASED ON AUTO OBS. NXT FCST BY 151400Z<br><br>
<br><br>
CYTR 151100Z 03009KT 15SM FEW160 M04/M15 A3060 RMK AC1 SLP368<br><br>
TAF CYTR 151130Z 1512/1612 02008KT P6SM FEW160 RMK NXT FCST BY 151800Z<br><br>
<br><br>
