RETRIEVED AT : Oct 08 2017 02:10 Local <br>
  RETRIEVED AT: Oct 08 2017 06:10 UTC<br><br>
CYSN has no TAF <br><br>
<br><br>
CYHM 080600Z 20011G16KT 15SM BKN050 OVC075 21/18 A2960 RMK SC7AC1 SLP021 DENSITY ALT 2000FT<br><br>
CYHM 080523Z 20014G27KT 15SM -RA OVC054 21/18 A2961 RMK SC8 SLP026 DENSITY ALT 2000FT<br><br>
CYHM 080513Z 20021G28KT 6SM RA OVC065 21/17 A2962 RMK SC8 SLP029 DENSITY ALT 2000FT<br><br>
CYHM 080505Z 20021G28KT 10SM -RA FEW020 OVC041 22/16 A2963 RMK CF2SC6 PRESRR SLP032 DENSITY ALT 2200FT<br><br>
CYHM 080500Z 20017G25KT 15SM OVC055 24/15 A2962 RMK SC8 SLP028 DENSITY ALT 2300FT<br><br>
CYHM 080430Z 19015G22KT 15SM -RA FEW010 OVC062 23/16 A2963 RMK CF1SC7 SLP030 DENSITY ALT 2300FT<br><br>
TAF CYHM 080541Z 0806/0906 20015G30KT P6SM -SHRA BKN050 TEMPO 0806/0808 4SM SHRA BR BKN020 OVC040 PROB40 0806/0807 VRB25G40KT 2SM +TSRA BKN008 OVC020CB FM080800 23015G25KT P6SM BKN025 TEMPO 0808/0819 BKN020 BECMG 0815/0817 23010G20KT FM081900 22010KT P6SM SKC BECMG 0821/0823 20007KT FM090400 09008KT P6SM BKN050 OVC160 RMK NXT FCST BY 081200Z<br><br>
<br><br>
KIAG 080553Z AUTO 19015G23KT 10SM BKN065 OVC090 26/15 A2964 RMK AO2 PK WND 20026/0526 RAB29E38 SLP028 P0000 60000 T02560150 10256 20233 56025<br><br>
KIAG 080453Z AUTO 18012G19KT 10SM SCT090 24/15 A2965 RMK AO2 SLP035 T02440150 402780183<br><br>
KIAG 080541Z 0806/0906 19015G25KT P6SM SHRA OVC060 FM080800 21022G43KT 5SM SHRA OVC025 FM081100 23019G39KT P6SM SCT035 FM082200 22007KT P6SM SCT250 FM090100 18005KT P6SM FEW250<br><br>
<br><br>
KBUF 080554Z 20017G25KT 10SM BKN080 BKN100 OVC170 25/15 A2966 RMK AO2 SLP038 T02500150 10250 20233 56024<br><br>
KBUF 080454Z 19017G26KT 10SM SCT090 BKN180 OVC250 24/15 A2967 RMK AO2 PK WND 20026/0451 SLP044 T02440150 402720172<br><br>
KBUF 080541Z 0806/0906 19018G30KT P6SM SHRA OVC060 FM080800 20021G39KT 5SM SHRA OVC040 FM081100 24019G43KT P6SM SCT020 FM081300 25018G33KT P6SM SCT020 FM082000 24012KT P6SM SCT200 FM090100 VRB03KT P6SM FEW250<br><br>
<br><br>
CYYZ 080600Z 18009KT 10SM -RA SCT050 OVC120 20/18 A2960 RMK SC3AC5 SLP023 DENSITY ALT 1700FT<br><br>
CYYZ 080500Z 21015G22KT 170V240 10SM -RA BKN065 21/17 A2963 RMK SC7 SLP033 DENSITY ALT 1800FT<br><br>
CYYZ 080454Z 22012G20KT 180V240 6SM -RA BKN065 23/16 A2964 RMK SC7 PRESRR SLP037 DENSITY ALT 2000FT<br><br>
TAF CYYZ 080541Z 0806/0912 21015G25KT P6SM -RA BKN060 TEMPO 0806/0807 VRB30G40KT 2SM +TSRA BKN008 OVC020CB FM080700 18015G25KT P6SM -SHRA BKN050 TEMPO 0807/0809 4SM SHRA BR SCT020 BKN040 PROB30 0807/0808 VRB30G40KT 2SM +TSRA BKN008 OVC020CB FM080900 24015G30KT P6SM BKN025 TEMPO 0809/0816 BKN020 FM081600 24010G20KT P6SM BKN040 FM081900 24010KT P6SM SKC BECMG 0821/0823 20008KT FM090200 VRB03KT P6SM SCT220 FM090600 VRB03KT P6SM BKN080 FM090800 08008KT 6SM -RA BR SCT008 OVC025 FM091000 08010KT 2SM RA BR OVC006 PROB30 0910/0912 OVC003 RMK NXT FCST BY 080900Z<br><br>
<br><br>
CYOO 080603Z AUTO 19003KT 8SM -RA BKN050 OVC060 19/17 A2963 RMK SLP033 DENSITY ALT 1300FT<br><br>
CYOO 080600Z AUTO 19004KT 130V210 8SM -TSRA BKN049 OVC060 19/17 A2963 RMK LTNG DIST N SLP033 DENSITY ALT 1300FT<br><br>
CYOO 080559Z AUTO 19004KT 130V210 6SM -TSRA BR SCT046 OVC055 19/17 A2963 RMK LTNG DIST N SLP033 DENSITY ALT 1300FT<br><br>
CYOO 080547Z AUTO 18007G15KT 160V270 4SM -TSRA BKN046 OVC065 20/16 A2963 RMK LTNG DIST N SLP036 DENSITY ALT 1400FT<br><br>
CYOO 080545Z AUTO 17009G15KT 160V270 4SM RA VCTS BKN046 OVC065 20/16 A2963 RMK LTNG DIST N SLP036 DENSITY ALT 1400FT<br><br>
CYOO 080541Z AUTO 20009G15KT 160V270 5SM RA SCT046 OVC065 20/16 A2964 RMK SLP038 DENSITY ALT 1400FT<br><br>
CYOO 080532Z AUTO 16003KT 120V210 9SM -RA FEW048 BKN065 BKN077 OVC088 20/16 A2964 RMK PRESRR SLP036 DENSITY ALT 1400FT<br><br>
CYOO 080500Z AUTO 11004KT 9SM BKN070 OVC085 20/15 A2963 RMK SLP033 DENSITY ALT 1400FT<br><br>
CYOO has no TAF <br><br>
<br><br>
CYTR 080600Z 18007KT 15SM BKN080 22/16 A2965 RMK AC6 SLP039<br><br>
CYTR 080500Z 18007KT 15SM OVC079 22/16 A2968 RMK AC8 SLP050<br><br>
TAF CYTR 080530Z 0806/0906 18012KT WS005/18037KT P6SM FEW020 BKN080 OVC160 TEMPO 0806/0808 5SM -SHRA BR BKN020 OVC080 PROB30 0806/0808 VRB20G35KT 1SM TSRA BR BKN006 OVC020CB FM080800 20015G25KT 3SM -SHRA BR BKN010 OVC025 TEMPO 0808/0811 6SM -SHRA BR SCT010 BKN025 PROB30 0808/0811 VRB20G40KT 1SM TSRA BR BKN008 OVC025CB FM081100 24020G35KT P6SM FEW015 OVC030 TEMPO 0811/0814 5SM -SHRA BR BKN015 OVC030 FM081800 26012G22KT P6SM SCT030 BECMG 0821/0823 24010KT FM090200 24004KT P6SM SCT020 BKN200 RMK NXT FCST BY 081200Z<br><br>
<br><br>
