RETRIEVED AT : Oct 27 2018 20:05 Local <br>
  RETRIEVED AT: Oct 28 2018 00:05 UTC<br><br>
CYSN 272300Z 06015KT 10SM -RA OVC007 04/04 A2980 RMK SF8 SLP095<br><br>
TAF AMD CYSN 272342Z 2723/2801 06012G22KT 5SM -RA BR OVC007 TEMPO 2723/2801 P6SM -RA OVC012 RMK NXT FCST WILL BE ISSUED AT 281245Z<br><br>
<br><br>
CYHM 272300Z 04017G23KT 10SM -RA OVC008 02/01 A2979 RMK SC8 SLP098<br><br>
TAF CYHM 272338Z 2800/2824 04015G25KT 4SM -RA BR OVC008 TEMPO 2800/2802 P6SM -RA OVC015 FM280200 04012G22KT 6SM -RA BR OVC008 TEMPO 2802/2807 2SM -SNRA BR OVC004 FM280700 01008KT 5SM -RASN BR OVC008 FM281200 33005KT 6SM -RASN BR SCT008 OVC012 FM281500 23005KT P6SM -RA BKN010 OVC040 FM281900 23005KT P6SM BKN015 OVC040 BECMG 2820/2822 17005KT FM282300 07005KT P6SM -RA OVC015 RMK NXT FCST BY 280600Z<br><br>
<br><br>
KIAG 280000Z 04011KT 9SM -RA OVC008 03/02 A2979 RMK AO2 CIG 006V010 P0001 T00330022<br><br>
KIAG 272353Z 05013KT 7SM -RA BKN006 OVC010 03/02 A2979 RMK AO2 SLP099 P0001 60013 T00330022 10050 20033 53003<br><br>
KIAG 272253Z 05013KT 10SM -RA OVC009 04/02 A2979 RMK AO2 CIG 006V012 SLP098 P0003 T00390022<br><br>
KIAG 272234Z 05014G20KT 10SM -RA BKN008 OVC012 04/03 A2978 RMK AO2 CIG 006V010 P0002 T00390028<br><br>
KIAG 272322Z 2800/2824 04014G22KT 6SM -RA BR OVC007 FM280400 02009KT 5SM -RA BR OVC007 FM280900 32004KT 6SM -SHRA BR OVC007 FM281300 VRB03KT P6SM VCSH OVC007 FM281700 25008KT P6SM OVC012 FM282100 22008KT P6SM OVC020<br><br>
<br><br>
KBUF 272354Z 03011KT 7SM -RA OVC007 04/03 A2977 RMK AO2 CIG 004V009 SLP088 P0001 60019 T00390033 10039 20028 53000<br><br>
KBUF 272324Z 04006KT 4SM -RA BR OVC008 04/03 A2977 RMK AO2 CIG 005V013 P0000 T00390033<br><br>
KBUF 272254Z 06010KT 5SM -RA BR OVC010 04/03 A2978 RMK AO2 CIG 006V013 SLP088 P0002 T00390033<br><br>
KBUF 272234Z 05012KT 9SM -RA OVC010 04/03 A2978 RMK AO2 CIG 006V013 P0001 T00390033<br><br>
KBUF 272322Z 2800/2824 05012KT 5SM -RA BR OVC007 FM280400 02009KT 5SM -RA BR OVC007 FM280900 32006KT 6SM -SHRA BR OVC007 FM281300 26005KT P6SM VCSH OVC007 FM281800 25009KT P6SM OVC012 FM282000 21009KT P6SM OVC012<br><br>
<br><br>
CYYZ 272313Z 05009KT 10SM -RASN OVC016 02/M00 A2984 RMK SC8 SLP112<br><br>
CYYZ 272300Z 04010KT 10SM -RAPL OVC016 02/M00 A2984 RMK SC8 SLP112<br><br>
CYYZ 272237Z 04012KT 15SM -RAPL OVC017 02/M00 A2984 RMK SC8 SLP111<br><br>
TAF CYYZ 272338Z 2800/2906 05010G20KT P6SM -RASN SCT008 OVC020 TEMPO 2800/2801 2SM -SHSNRAPL BR BKN008 OVC020 FM280100 04010G20KT 6SM -SNRA OVC015 TEMPO 2801/2806 2SM -SN BR BKN008 OVC015 FM280600 02010KT 6SM -SNRA SCT008 OVC015 TEMPO 2806/2812 5SM -SNRA BR BKN008 OVC015 BECMG 2806/2808 35008KT FM281200 33008KT 6SM -SNRA SCT008 OVC015 FM281400 30005KT P6SM -RA SCT008 OVC030 TEMPO 2814/2816 6SM -RASN BKN008 OVC030 FM281600 27007KT P6SM -RA BKN015 OVC050 FM281900 23008KT P6SM BKN020 OVC050 BECMG 2820/2822 VRB03KT FM290000 VRB03KT P6SM BKN020 BKN120 TEMPO 2900/2906 P6SM -SHRA RMK NXT FCST BY 280300Z<br><br>
<br><br>
CYOO 280004Z AUTO 02008KT 9SM -RA -UP OVC025 01/01 A2984 RMK SLP112<br><br>
CYOO 272359Z AUTO 02007KT 9SM -UP OVC025 01/01 A2984 RMK PCPN 1.0MM PAST HR SLP112<br><br>
CYOO 272349Z AUTO 02008KT 350V050 9SM -SN -UP OVC023 01/01 A2984 RMK SLP112<br><br>
CYOO 272346Z AUTO 02008KT 9SM -UP OVC023 01/01 A2984 RMK SLP112<br><br>
CYOO 272340Z AUTO 01008KT 9SM -SN -UP OVC023 01/01 A2984 RMK SLP112<br><br>
CYOO 272326Z AUTO 02007KT 6SM -SN OVC023 01/01 A2984 RMK SLP112<br><br>
CYOO 272300Z AUTO 03007KT 3SM -SN OVC023 01/01 A2985 RMK SLP113<br><br>
CYOO 272250Z AUTO 04008KT 4SM -SN OVC023 01/01 A2985 RMK SLP113<br><br>
CYOO 272248Z AUTO 03008KT 5SM -SN OVC025 01/01 A2984 RMK SLP112<br><br>
CYOO 272239Z AUTO 03007KT 9SM -SN OVC027 01/01 A2984 RMK SLP112<br><br>
CYOO 272233Z AUTO 03008KT 9SM -RASN OVC027 02/01 A2984 RMK SLP112<br><br>
CYOO 272215Z AUTO 04006KT 9SM -RA OVC029 02/01 A2984 RMK SLP111<br><br>
CYOO 272209Z AUTO 04007KT 9SM -RASN BKN029 OVC038 02/01 A2984 RMK SLP111<br><br>
CYOO 272207Z AUTO 04008KT 9SM -SN BKN029 OVC038 02/01 A2984 RMK SLP111<br><br>
CYOO has no TAF <br><br>
<br><br>
CYTR 272344Z 04011KT 6SM -PL SCT009 OVC020 01/00 A2986 RMK SF4SC4 SLP114<br><br>
CYTR 272328Z 04014KT 6SM -RAPL SCT008 OVC044 01/00 A2985 RMK SF3SC5 SLP113<br><br>
CYTR 272315Z 03011G16KT 6SM -RA SCT015 OVC044 01/00 A2985 RMK SF3SC5 SLP112<br><br>
CYTR 272300Z 03012KT 5SM -PL BKN015 OVC026 01/00 A2985 RMK SF5SC3 /S02/ SLP113<br><br>
CYTR 272253Z 02012G17KT 3SM -SN OVC015 01/00 A2986 RMK SN2SF6 SLP115<br><br>
TAF AMD CYTR 272332Z 2800/2824 03012KT P6SM -RA SCT008 OVC025 TEMPO 2800/2803 2SM -SNRAPL BR OVC008 FM280300 03010KT P6SM -SNRA SCT008 OVC020 TEMPO 2803/2812 2SM -SN BKN008 OVC020 BECMG 2803/2805 03010KT FM281200 34005KT P6SM BKN015 OVC030 BECMG 2816/2818 24005KT RMK NXT FCST BY 280600Z<br><br>
<br><br>
