RETRIEVED AT : Apr 26 2020 07:05 Local <br>
  RETRIEVED AT: Apr 26 2020 11:05 UTC<br><br>
CYSN has no TAF <br><br>
<br><br>
CYHM 261052Z 03016KT 6SM -RA BR BKN006 OVC018 04/03 A2990 RMK SC6SC2 SLP131<br><br>
CYHM 261026Z 04017KT 6SM -RA BR BKN010 OVC045 04/03 A2990 RMK SC7SC1 SLP131<br><br>
CYHM 261000Z 04016G22KT 7SM -RA BKN011 OVC050 04/03 A2990 RMK SC6SC2 SLP131<br><br>
TAF AMD CYHM 261100Z 2611/2706 04018G28KT 5SM -RA BR BKN006 OVC020 TEMPO 2611/2616 P6SM -RA BKN010 OVC030 FM261600 05020G32KT 4SM -RA BR BKN015 OVC030 TEMPO 2616/2623 P6SM -RA FM262300 05015G25KT P6SM BKN015 OVC030 FM270300 05012G22KT P6SM BKN030 OVC050 BECMG 2704/2706 03010KT RMK NXT FCST BY 261200Z<br><br>
<br><br>
KIAG 261053Z 07009KT 7SM -RA BKN048 OVC055 07/06 A2990 RMK AO2 SLP133 P0003 T00670056<br><br>
KIAG 260953Z AUTO 07010KT 7SM -RA OVC055 07/06 A2989 RMK AO2 SLP127 P0003 T00670056<br><br>
KIAG 260903Z 2609/2706 09010KT P6SM -RA OVC060 FM261000 06008KT P6SM VCSH OVC040 FM261300 06012KT 6SM -RA OVC025 FM261700 05015G22KT 4SM -RA BR OVC007 FM270100 03010KT 6SM -SHRA BR OVC015<br><br>
<br><br>
KBUF 261054Z 07013KT 10SM -RA FEW043 OVC055 08/06 A2990 RMK AO2 SLP128 RAB10 P0000 T00830056 $<br><br>
KBUF 260954Z 07012KT 10SM FEW050 OVC060 08/06 A2988 RMK AO2 SLP122 P0001 T00830056 $<br><br>
KBUF 260903Z 2609/2706 06010KT P6SM VCSH OVC050 FM261200 06011KT 6SM -RA OVC025 FM261600 05014G21KT 4SM -RA BR OVC007 FM270200 03010KT 6SM -SHRA BR OVC015<br><br>
<br><br>
CYYZ 261000Z 08019KT 15SM BKN055 OVC090 11/M07 A2993 RMK SC5AC3 SLP140<br><br>
TAF CYYZ 260838Z 2609/2712 07015G25KT P6SM SCT050 OVC090 TEMPO 2611/2615 P6SM -RA BKN050 OVC080 FM261700 06018G28KT P6SM BKN090 OVC130 FM262000 05018G28KT P6SM SCT060 BKN170 BECMG 2623/2701 05012G22KT FM270300 04010KT P6SM SCT070 FM270600 01010KT P6SM SKC RMK NXT FCST BY 261200Z<br><br>
<br><br>
CYOO 261000Z AUTO 06010G17KT 9SM OVC100 10/M06 A2995 RMK SLP146<br><br>
TAF CYOO 260738Z 2608/2620 05010KT P6SM SCT060 OVC120 BECMG 2612/2614 06012G22KT OVC080 FM261700 06015G28KT P6SM BKN080 OVC120 RMK FCST BASED ON AUTO OBS. NXT FCST BY 261400Z<br><br>
<br><br>
CYTR 261000Z 06010KT 15SM OVC075 10/M05 A2998 RMK AC8 SLP156<br><br>
TAF CYTR 260530Z 2606/2706 05008KT P6SM OVC060 TEMPO 2610/2613 P6SM -RA FM261300 05012G22KT P6SM SCT020 OVC060 TEMPO 2613/2618 5SM -RA BR BKN020 OVC060 BECMG 2615/2617 05015G25KT FM261800 05018G28KT P6SM OVC060 TEMPO 2618/2620 P6SM -RA BECMG 2623/2701 05012KT RMK NXT FCST BY 261200Z<br><br>
<br><br>
