RETRIEVED AT : Nov 24 2018 09:05 Local <br>
  RETRIEVED AT: Nov 24 2018 14:05 UTC<br><br>
CYSN 241300Z 15006KT 15SM SCT150 BKN250 01/M05 A2984 RMK AC3CI4 SLP108<br><br>
TAF CYSN 241339Z 2414/2502 16012KT P6SM OVC070 TEMPO 2414/2416 5SM -RA BR BKN020 OVC040 FM241600 17012G22KT 4SM -RA BR BKN012 OVC020 TEMPO 2416/2502 6SM BR FEW012 OVC020 RMK NXT FCST BY 242000Z<br><br>
<br><br>
CYHM 241338Z 12005KT 12SM -RA SCT023 OVC066 01/M01 A2980 RMK SC4AC4 SLP100<br><br>
CYHM 241300Z 10004KT 15SM FEW022 SCT100 BKN120 BKN220 M00/M03 A2981 RMK SC2AC2AC3CI1 CI TR CONTRAILS SLP106<br><br>
TAF CYHM 241141Z 2412/2512 10005KT P6SM OVC120 BECMG 2412/2414 16012KT FM241400 16012KT P6SM OVC070 TEMPO 2414/2416 5SM -RA BR BKN020 OVC040 FM241600 17012G22KT 4SM -RA BR BKN012 OVC020 TEMPO 2416/2502 6SM BR FEW012 OVC020 FM250200 20010KT 6SM BR SCT008 OVC015 TEMPO 2502/2505 2SM -DZ BR BKN006 OVC012 FM250500 23010KT 2SM -DZ BR BKN006 OVC012 FM250900 24010KT 5SM BR SCT008 OVC020 RMK NXT FCST BY 241800Z<br><br>
<br><br>
KIAG 241353Z 15008KT 10SM SCT034 BKN110 03/M05 A2983 RMK AO2 SLP114 T00281050<br><br>
KIAG 241253Z 18007KT 10SM CLR 01/M06 A2985 RMK AO2 SLP120 T00061061<br><br>
KIAG 241135Z 2412/2512 17005KT P6SM BKN120 FM241500 17009KT P6SM OVC050 FM241700 15013G25KT 6SM -RA OVC040 FM242100 15012G23KT P6SM OVC020 FM242300 17008KT P6SM OVC020 FM250200 20007KT P6SM BKN015<br><br>
<br><br>
KBUF 241354Z 14005KT 10SM FEW110 BKN150 BKN200 BKN250 01/M06 A2984 RMK AO2 SLP113 T00111061 $<br><br>
KBUF 241254Z 14006KT 10SM FEW120 BKN150 BKN190 BKN250 00/M07 A2986 RMK AO2 SLP120 T00001072 $<br><br>
KBUF 241135Z 2412/2512 15006KT P6SM BKN130 FM241300 17009KT P6SM BKN120 FM241700 16013G25KT 6SM -RA OVC040 FM242000 16015G27KT 6SM -RA OVC025 FM242300 18009KT P6SM OVC020 FM250900 24010KT P6SM BKN012<br><br>
<br><br>
CYYZ 241300Z 12007KT 15SM SCT160 BKN250 01/M03 A2983 RMK AC3CI3 SLP111<br><br>
TAF CYYZ 241141Z 2412/2518 13008KT P6SM OVC140 FM241500 13010KT P6SM OVC070 TEMPO 2415/2417 P6SM -RA BKN020 OVC040 FM241700 14010G20KT P6SM -RA OVC020 TEMPO 2417/2419 5SM -RA BR SCT008 OVC015 FM241900 14012G22KT 4SM -RA BR BKN006 OVC012 TEMPO 2419/2502 P6SM NSW SCT008 OVC015 BECMG 2422/2424 17012KT FM250200 18008KT 21/2SM -DZ BR OVC005 BECMG 2504/2506 21008KT FM250900 25010KT 6SM BR BKN015 OVC040 FM251200 25012KT P6SM BKN020 RMK NXT FCST BY 241500Z<br><br>
<br><br>
CYOO 241300Z AUTO 09006KT 9SM CLR M01/M02 A2986 RMK SLP121<br><br>
CYOO has no TAF <br><br>
<br><br>
CYTR 241300Z 12006KT 15SM SCT180 BKN250 00/M04 A2993 RMK AC4CI3 SLP141<br><br>
TAF CYTR 241130Z 2412/2512 12005KT P6SM BKN200 FM241500 15010G20KT P6SM SCT015 OVC120 BECMG 2415/2417 SCT015 OVC030 FM241700 15010G20KT P6SM SCT012 OVC025 TEMPO 2417/2420 5SM -SHRA BR SCT006 OVC012 FM242000 16010KT 3SM -RA -DZ BR OVC006 TEMPO 2420/2423 6SM -RA BR SCT006 OVC015 BECMG 2508/2510 25008KT RMK NXT FCST BY 241800Z<br><br>
<br><br>
