RETRIEVED AT : May 03 2020 07:05 Local <br>
  RETRIEVED AT: May 03 2020 11:05 UTC<br><br>
CYSN has no TAF <br><br>
<br><br>
CYHM 031000Z 24006KT 15SM FEW180 08/06 A2977 RMK AC1 SLP085<br><br>
TAF CYHM 030538Z 0306/0406 30008KT P6SM FEW040 BKN240 FM030900 26008KT P6SM FEW060 BECMG 0314/0316 28015G25KT FM032100 29012G22KT P6SM FEW060 SCT220 BECMG 0400/0402 32008KT RMK NXT FCST BY 031200Z<br><br>
<br><br>
KIAG 031053Z 22008KT 10SM CLR 09/07 A2978 RMK AO2 SLP089 T00940067<br><br>
KIAG 030953Z AUTO 21005KT 10SM CLR 08/06 A2977 RMK AO2 SLP086 T00830061<br><br>
KIAG 030904Z 0309/0406 19006KT P6SM BKN150 FM031500 22010G18KT P6SM SCT250 FM031900 25014G21KT P6SM FEW200 FM032200 30009KT P6SM SCT250 FM040400 36005KT P6SM BKN040<br><br>
<br><br>
KBUF 031054Z 22009KT 10SM FEW065 11/07 A2980 RMK AO2 SLP092 T01060072 $<br><br>
KBUF 030954Z 21005KT 10SM FEW065 FEW200 FEW290 09/07 A2978 RMK AO2 SLP085 T00940067 $<br><br>
KBUF 030904Z 0309/0406 21006KT P6SM BKN150 FM031500 23010G17KT P6SM FEW200 FM031900 25016G26KT P6SM FEW250 FM032200 27010G18KT P6SM SCT250 FM040100 30008KT P6SM SCT250<br><br>
<br><br>
CYYZ 031000Z 19006KT 15SM FEW030 07/05 A2974 RMK SC1 SC TR SLP075<br><br>
TAF CYYZ 030838Z 0309/0412 VRB03KT P6SM FEW220 BECMG 0316/0318 29012G22KT FM031800 29012G22KT P6SM FEW060 BECMG 0318/0320 30015G25KT BECMG 0400/0402 33012KT FM040600 33010KT P6SM BKN070 FM041000 34012KT P6SM FEW020 BKN040 RMK NXT FCST BY 031200Z<br><br>
<br><br>
CYOO 031000Z AUTO VRB02KT 9SM CLR 06/06 A2973 RMK SLP072<br><br>
TAF CYOO 030738Z 0308/0320 33008KT P6SM SKC BECMG 0312/0314 20010KT FM031800 22010G20KT P6SM SCT050 BECMG 0318/0320 32015G25KT RMK FCST BASED ON AUTO OBS. NXT FCST BY 031400Z<br><br>
<br><br>
CYTR 031000Z 21003KT 15SM FEW060 08/06 A2972 RMK SC1 MIFG RWY SC TR SLP066<br><br>
TAF AMD CYTR 030828Z 0308/0406 VRB03KT 3SM BR FEW020 TEMPO 0308/0313 6SM BR SKC PROB30 0308/0313 3/4SM BR VV002 FM031300 25008KT P6SM SKC BECMG 0315/0317 23012G22KT FM031800 23012G22KT P6SM BKN040 BECMG 0318/0320 28012G22KT FM032200 28012KT P6SM SKC BECMG 0403/0405 32008KT RMK NXT FCST BY 031200Z<br><br>
<br><br>
