RETRIEVED AT : May 05 2018 22:05 Local <br>
  RETRIEVED AT: May 06 2018 02:05 UTC<br><br>
CYSN 060100Z 09002KT 15SM BKN140 16/08 A2998 RMK ACC6 LAST STFD OBS/NEXT 06 1100UTC SLP153 DENSITY ALT 500FT<br><br>
CYSN 060011Z 02004KT 290V040 15SM BKN097 18/09 A2998 RMK AC7 SLP153 DENSITY ALT 700FT<br><br>
CYSN has no TAF <br><br>
<br><br>
CYHM 060100Z 23004KT 15SM FEW050TCU FEW110 BKN130 BKN250 17/05 A2999 RMK TCU1AC2AC3CI1 TCU TR SLP157 DENSITY ALT 1100FT<br><br>
TAF CYHM 052339Z 0600/0624 23008KT P6SM SCT070 BKN120 BECMG 0606/0608 VRB03KT FM061800 04008KT P6SM SCT040 BKN070 TEMPO 0618/0623 P6SM -SHRA BKN040 OVC070 FM062300 04010KT 5SM -SHRA BR SCT006 OVC040 PROB30 0623/0624 2SM TSRA BR BKN006 OVC040CB RMK NXT FCST BY 060600Z<br><br>
<br><br>
KIAG 060153Z 17007KT 10SM CLR 15/06 A3001 RMK AO2 SLP163 T01500061<br><br>
KIAG 060053Z 00000KT 10SM BKN095 18/05 A3000 RMK AO2 SLP159 T01830050<br><br>
KIAG 052340Z 0600/0624 22012KT P6SM BKN080 FM060200 21005KT P6SM BKN080 FM060900 VRB03KT P6SM BKN090 FM061700 35004KT P6SM BKN080 FM061800 03005KT P6SM VCSH SCT040 OVC080<br><br>
<br><br>
KBUF 060154Z 21005KT 10SM SCT090 BKN120 14/06 A3002 RMK AO2 SLP164 T01440056<br><br>
KBUF 060054Z 21009KT 10SM BKN110 15/06 A3001 RMK AO2 SLP162 T01500056<br><br>
KBUF 052340Z 0600/0624 22009KT P6SM SCT100 FM060400 VRB04KT P6SM BKN090 FM061700 06005KT P6SM BKN090 FM062100 02008KT P6SM BKN090 FM062300 04009KT P6SM VCSH SCT040 OVC090<br><br>
<br><br>
CYYZ 060124Z 27012KT 10SM -SHRA BKN045TCU OVC075 17/10 A3001 RMK TCU7AC1 SLP165 DENSITY ALT 800FT<br><br>
CYYZ 060113Z 29009G15KT 9SM SHRA BKN045TCU OVC075 17/09 A3000 RMK TCU6AC2 PRESRR SLP163 DENSITY ALT 900FT<br><br>
CYYZ 060110Z 28009KT 250V320 10SM -SHRA BKN045TCU OVC070 17/09 A3000 RMK TCU6AC2 PRESRR SLP162 DENSITY ALT 900FT<br><br>
CYYZ 060100Z 28005KT 180V290 15SM FEW045 BKN070 OVC110 18/08 A2998 RMK SF1AC7AC1 SF TR SLP155 DENSITY ALT 1000FT<br><br>
CYYZ 060016Z 24021G27KT 15SM -SHRA BKN055TCU BKN075 OVC100 19/08 A2997 RMK TCU5AC2AC1 SLP151 DENSITY ALT 1100FT<br><br>
TAF AMD CYYZ 060044Z 0600/0706 22008KT P6SM SCT050 BKN100 TEMPO 0600/0602 VRB15G30KT P6SM -SHRA BKN050 BKN100 PROB30 0600/0602 3SM TSRA BR BKN040 OVC070CB FM060200 34008KT P6SM SCT080 TEMPO 0602/0612 BKN080 BECMG 0607/0609 VRB03KT FM061200 01005KT P6SM SCT040 SCT070 BECMG 0613/0615 09008KT FM061800 10010KT P6SM BKN050 BKN080 TEMPO 0618/0622 P6SM -SHRA FM062200 34012G22KT 5SM -SHRA BR SCT015 OVC040 FM070200 02010G20KT 6SM -RA -DZ BR SCT010 OVC030 RMK NXT FCST BY 060300Z<br><br>
<br><br>
CYOO 060100Z AUTO 35006KT 9SM FEW085 BKN150 17/07 A2998 RMK SLP155 DENSITY ALT 700FT<br><br>
CYOO has no TAF <br><br>
<br><br>
CYTR 060100Z 22006KT 15SM SCT120 BKN250 12/07 A2998 RMK AC4CI2 SLP155<br><br>
TAF CYTR 052330Z 0600/0624 22008KT P6SM BKN120 BKN250 FM060200 20005KT P6SM FEW060 BKN250 FM061200 04008KT P6SM FEW050 SCT250 FM061800 04008KT P6SM BKN050 BKN250 RMK NXT FCST BY 060600Z<br><br>
<br><br>
