RETRIEVED AT : Dec 10 2017 02:10 Local <br>
  RETRIEVED AT: Dec 10 2017 07:10 UTC<br><br>
CYSN has no TAF <br><br>
<br><br>
CYHM 100700Z 26006KT 6SM -SN OVC010 M04/M05 A2977 RMK SC8 CIG RAG SLP093<br><br>
CYHM 100652Z 26006KT 6SM -SN FEW010 OVC014 M04/M05 A2977 RMK SC1SC7 SLP091<br><br>
CYHM 100600Z 24006KT 7SM BKN052 M05/M06 A2976 RMK SC6 SLP088<br><br>
TAF CYHM 100542Z 1006/1106 25005KT P6SM SCT080 TEMPO 1006/1011 3SM BR FM101100 25010KT P6SM SCT020 BECMG 1013/1015 25015G25KT FM101800 26015G30KT P6SM -SN BKN030 OVC050 TEMPO 1018/1106 4SM -SN OVC020 PROB30 1103/1105 11/2SM -SHSN VV008 RMK NXT FCST BY 101200Z<br><br>
<br><br>
KIAG 100653Z AUTO 28009KT 8SM OVC065 M01/M05 A2976 RMK AO2 SLP092 T10111050<br><br>
KIAG 100553Z AUTO 27009KT 9SM OVC055 M01/M05 A2975 RMK AO2 SLP089 T10111050 10006 21022 58001<br><br>
KIAG 100533Z 1006/1106 27008KT P6SM BKN070 FM100800 28009KT P6SM VCSH BKN015 FM101000 28012G18KT P6SM BKN035 FM101500 27015G25KT P6SM BKN040 FM110000 25013G22KT P6SM BKN040<br><br>
<br><br>
KBUF 100654Z 28007KT 3SM -SN SCT015 OVC032 M02/M04 A2976 RMK AO2 SLP087 P0000 T10171044<br><br>
KBUF 100554Z 26006KT 8SM -SN FEW015 OVC030 M02/M04 A2975 RMK AO2 SLP084 4/001 P0000 60000 T10171044 11006 21022 58002<br><br>
KBUF 100525Z 25005KT 7SM -SN SCT015 OVC030 M02/M04 A2976 RMK AO2 P0000 T10171039<br><br>
KBUF 100533Z 1006/1106 26008KT P6SM -SN OVC015 FM101000 27009KT P6SM VCSH BKN025 FM101100 27010KT P6SM BKN035 FM101500 27016G28KT P6SM BKN040 FM101900 26018G29KT P6SM VCSH OVC025 FM110100 26013G22KT P6SM OVC035<br><br>
<br><br>
CYYZ 100700Z 30010KT 15SM FEW028 BKN076 M02/M05 A2975 RMK SC2AC5 SLP084<br><br>
CYYZ 100613Z 29008KT 15SM SCT061 BKN076 M02/M05 A2975 RMK SC3AC4 SLP083<br><br>
CYYZ 100600Z 29008KT 15SM -SN FEW052 BKN079 M03/M05 A2974 RMK SC2AC5 SLP081<br><br>
CYYZ 100540Z 29007KT 15SM -SN SCT052 BKN078 M03/M05 A2975 RMK SC3AC4 SLP082<br><br>
TAF CYYZ 100542Z 1006/1112 28010KT P6SM SCT025 BKN060 TEMPO 1006/1008 P6SM -SN FM100900 30012KT P6SM BKN040 BECMG 1013/1015 25015G25KT FM101600 25015G25KT P6SM -SN BKN030 OVC060 TEMPO 1016/1101 5SM -SN OVC020 FM110100 25015KT 6SM -SN OVC030 TEMPO 1101/1104 3SM -SN OVC020 PROB30 1102/1104 33012G22KT 11/4SM -SN OVC015 FM110400 35012KT P6SM -SHSN BKN030 FM110600 35010KT P6SM SCT030 RMK NXT FCST BY 100900Z<br><br>
<br><br>
CYOO 100700Z AUTO 31008KT 9SM OVC075 M02/M05 A2973 RMK SLP074<br><br>
CYOO 100600Z AUTO 26004KT 9SM OVC075 M03/M05 A2973 RMK SLP074<br><br>
CYOO has no TAF <br><br>
<br><br>
CYTR 100700Z 27003KT 15SM FEW061 M04/M05 A2972 RMK SC2 SLP069<br><br>
CYTR 100600Z 28004KT 15SM BKN024 M02/M04 A2972 RMK SC5 SLP068<br><br>
TAF CYTR 100530Z 1006/1106 27006KT P6SM BKN030 OVC080 TEMPO 1006/1008 BKN020 BECMG 1009/1011 31007KT FM101800 25015G25KT P6SM SCT020 BKN070 TEMPO 1018/1022 4SM -SHSN BKN020 FM102200 26015G25KT P6SM FEW015 BKN030 TEMPO 1022/1101 4SM -SHSN BKN015 PROB30 1022/1101 2SM -SHSN BKN012 OVC030 FM110100 30012KT P6SM SCT030 BKN050 RMK NXT FCST BY 101200Z<br><br>
<br><br>
