RETRIEVED AT : Nov 04 2018 09:05 Local <br>
  RETRIEVED AT: Nov 04 2018 14:05 UTC<br><br>
CYSN 041300Z 12003KT 15SM BKN250 M00/M00 A3050 RMK CI5 SLP334<br><br>
TAF CYSN 041338Z 0414/0502 12005KT P6SM FEW020 SCT240 FM041800 11012KT P6SM FEW020 BKN120 BECMG 0422/0424 11012G22KT RMK NXT FCST BY 042000Z<br><br>
<br><br>
CYHM 041300Z 07006KT 15SM FEW120 BKN200 M01/M01 A3048 RMK AC1CI4 SLP331<br><br>
TAF CYHM 041138Z 0412/0512 VRB03KT P6SM FEW200 FM041400 07007KT P6SM FEW030 BKN150 BECMG 0415/0417 09010G20KT FM050200 12012KT P6SM BKN180 FM050800 17015KT 4SM -RA BR OVC012 FM051100 17015G25KT 3SM -RA BR OVC008 RMK NXT FCST BY 041800Z<br><br>
<br><br>
KIAG 041353Z 09003KT 10SM CLR 03/01 A3050 RMK AO2 SLP342 T00280006<br><br>
KIAG 041253Z 09003KT 9SM CLR M01/M02 A3049 RMK AO2 SLP340 T10061017<br><br>
KIAG 041120Z 0412/0512 VRB03KT P6SM FEW130 OVC250 FM041500 10008KT P6SM SCT100 OVC220 FM050400 13008KT P6SM BKN120 FM051000 17008KT P6SM VCSH SCT025 BKN040<br><br>
<br><br>
KBUF 041354Z 08005KT 10SM FEW130 SCT170 BKN250 04/01 A3051 RMK AO2 SLP337 T00390006 $<br><br>
KBUF 041254Z 09003KT 10SM FEW120 FEW180 BKN290 01/M01 A3049 RMK AO2 SLP334 T00111006 $<br><br>
KBUF 041120Z 0412/0512 13004KT P6SM SCT040 SCT100 OVC250 FM041500 09008KT P6SM SCT100 OVC220 FM050400 16010KT P6SM BKN120 FM051000 17010KT P6SM VCSH SCT025 BKN040<br><br>
<br><br>
CYYZ 041300Z VRB02KT 15SM FEW140 FEW230 00/M01 A3050 RMK AC1CI1 AC TR SLP337<br><br>
TAF CYYZ 041138Z 0412/0518 VRB03KT P6SM FEW030 FM041500 07005KT P6SM FEW030 BKN180 FM041800 11012KT P6SM SCT030 BKN150 FM042300 09010G20KT P6SM BKN100 FM050300 11015KT P6SM BKN180 FM050800 14015KT 5SM -RA BR OVC020 FM051100 15015KT 2SM -RA BR OVC007 FM051500 17015G25KT 3SM -DZ -RA BR OVC005 FM051700 18017G27KT 6SM BR OVC015 RMK NXT FCST BY 041500Z<br><br>
<br><br>
CYOO 041300Z AUTO 03003KT 9SM OVC037 03/01 A3051 RMK SLP339<br><br>
CYOO has no TAF <br><br>
<br><br>
CYTR 041300Z 04003KT 15SM BKN038 BKN240 03/M01 A3054 RMK SC6CI1 SLP347<br><br>
TAF CYTR 041130Z 0412/0512 VRB03KT P6SM BKN030 BECMG 0413/0415 SCT030 FM041700 10008KT P6SM FEW020 SCT100 SCT250 FM050000 07008KT P6SM FEW020 SCT080 BKN200 BECMG 0504/0506 12010KT RMK NXT FCST BY 041800Z<br><br>
<br><br>
