RETRIEVED AT : May 17 2018 05:39 Local <br>
  RETRIEVED AT: May 17 2018 09:39 UTC<br><br>
CYSN has no TAF <br><br>
<br><br>
CYHM 170900Z 29006KT 15SM FEW250 12/11 A2997 RMK CI1 SLP149<br><br>
CYHM 170800Z 27006KT 15SM FEW250 13/10 A2996 RMK CI2 SLP148<br><br>
TAF CYHM 170539Z 1706/1806 22005KT P6SM BKN270 BECMG 1713/1715 05012KT FEW280 RMK NXT FCST BY 171200Z<br><br>
<br><br>
KIAG 170853Z AUTO 20004KT 6SM HZ CLR 14/11 A2996 RMK AO2 SLP146 T01390106 56001<br><br>
KIAG 170753Z AUTO 22003KT 6SM HZ CLR 14/11 A2996 RMK AO2 SLP146 T01390111<br><br>
KIAG 170852Z 1709/1806 VRB03KT 6SM BR BKN250 FM171000 VRB03KT 5SM BR SCT007 FM171300 36006KT P6SM SCT250 FM171700 05012KT P6SM SCT250 FM180000 07008KT P6SM SCT250<br><br>
<br><br>
KBUF 170854Z 20003KT 10SM CLR 17/13 A2997 RMK AO2 SLP145 T01670128 55002<br><br>
KBUF 170754Z 21003KT 10SM BKN250 17/13 A2997 RMK AO2 SLP145 T01720133<br><br>
KBUF 170852Z 1709/1806 VRB03KT P6SM BKN250 FM171400 36005KT P6SM SCT250 FM171700 04010KT P6SM SCT250 FM180000 07008KT P6SM SCT250<br><br>
<br><br>
CYYZ 170900Z 28002KT 15SM FEW250 13/10 A2995 RMK CI2 SLP146<br><br>
CYYZ 170800Z 31004KT 15SM FEW250 13/09 A2995 RMK CI2 SLP144<br><br>
TAF CYYZ 170838Z 1709/1812 31003KT P6SM SCT270 BECMG 1709/1711 35008KT BECMG 1716/1718 11008KT FM172300 06008KT P6SM BKN270 RMK NXT FCST BY 171200Z<br><br>
<br><br>
CYOO 170900Z AUTO 34002KT 9SM CLR 11/09 A2995 RMK SLP144<br><br>
CYOO 170800Z AUTO VRB02KT 9SM CLR 11/09 A2995 RMK SLP144<br><br>
CYOO has no TAF <br><br>
<br><br>
CYTR 170900Z 00000KT 10SM SCT250 10/08 A2995 RMK CI4 SLP143<br><br>
CYTR 170800Z 00000KT 15SM SCT250 10/08 A2994 RMK CI4 SLP141<br><br>
TAF CYTR 170530Z 1706/1806 VRB03KT P6SM BKN250 TEMPO 1706/1711 4SM BR PROB30 1707/1711 1SM BR FM171100 02005KT P6SM SKC BECMG 1712/1714 02012KT BECMG 1716/1718 21010KT FM180100 04012KT P6SM SKC RMK NXT FCST BY 171200Z<br><br>
<br><br>
