RETRIEVED AT : May 16 2020 06:05 Local <br>
  RETRIEVED AT: May 16 2020 10:05 UTC<br><br>
CYSN has no TAF <br><br>
<br><br>
CYHM 160900Z 01007KT 15SM SKC 08/08 A3006 RMK SLP184<br><br>
TAF AMD CYHM 160717Z 1607/1706 VRB03KT 6SM BR SCT004 TEMPO 1607/1614 1/2SM FG BKN004 FM161400 05006KT P6SM SCT008 FM161600 05010KT P6SM SCT030 FM170100 06005KT P6SM SKC RMK NXT FCST BY 161200Z<br><br>
<br><br>
KIAG 160953Z AUTO 02007KT 5SM BR OVC004 08/08 A3009 RMK AO2 SLP193 T00830078<br><br>
KIAG 160946Z AUTO 02007KT 5SM BR OVC004 09/08 A3008 RMK AO2 CIG 003V006 T00890078<br><br>
KIAG 160932Z AUTO 36010KT 7SM BKN006 09/08 A3008 RMK AO2 T00940083<br><br>
KIAG 160923Z AUTO 36010KT 8SM SCT006 09/08 A3007 RMK AO2 T00940083<br><br>
KIAG 160853Z AUTO 35006KT 10SM CLR 09/08 A3006 RMK AO2 SLP184 T00940083 53017<br><br>
KIAG 160759Z 1608/1706 34006KT P6SM SCT250 FM160930 34006KT 4SM BR SCT007 TEMPO 1610/1612 2SM BR BKN007 FM161300 VRB03KT P6SM BKN015 FM161600 02006KT P6SM SCT040 FM170200 06006KT P6SM SKC<br><br>
<br><br>
KBUF 160954Z 35005KT 8SM OVC005 09/08 A3009 RMK AO2 SLP190 T00890078<br><br>
KBUF 160947Z 01004KT 3SM BR OVC005 09/08 A3008 RMK AO2 T00890078<br><br>
KBUF 160938Z 00000KT 1/2SM R23/2400VP6000FT FG SCT002 OVC008 07/07 A3008 RMK AO2 T00720067<br><br>
KBUF 160932Z 00000KT 1/4SM R23/1600V3500FT FG BKN002 OVC008 07/06 A3008 RMK AO2 T00720061<br><br>
KBUF 160925Z 23003KT 1/4SM R23/1200V2000FT FG VV002 07/06 A3008 RMK AO2 T00670061<br><br>
KBUF 160854Z 00000KT 1/4SM R23/3500VP6000FT FG VV001 07/06 A3007 RMK AO2 SLP185 T00720061 53015<br><br>
KBUF 160856Z 1609/1706 VRB03KT 1/4SM FG VV002 FM161300 VRB03KT 3SM BR BKN007 FM161400 VRB03KT P6SM BKN015 FM161600 01006KT P6SM SCT040 FM162300 04006KT P6SM SKC<br><br>
<br><br>
CYYZ 160900Z 35009G17KT 5SM BR OVC005 09/09 A3008 RMK ST8 SLP189<br><br>
CYYZ 160822Z 35014KT 5SM BR BKN006 09/09 A3006 RMK SF7 SLP185<br><br>
TAF CYYZ 160838Z 1609/1712 36010KT 6SM BR BKN006 TEMPO 1609/1611 3/4SM BR BKN003 FM161100 36010KT 2SM BR BKN005 TEMPO 1611/1613 6SM BR BKN010 FM161300 36008KT P6SM FEW005 SCT015 FM161900 13008KT P6SM FEW040 BECMG 1701/1703 07007KT RMK NXT FCST BY 161200Z<br><br>
<br><br>
CYOO 160900Z AUTO 35008G15KT 9SM OVC006 09/09 A3007 RMK SLP186<br><br>
TAF CYOO 160738Z 1608/1620 34006KT 2SM BR BKN005 TEMPO 1608/1614 P6SM NSW SCT005 FM161400 34006KT P6SM SCT030 BECMG 1618/1620 17005KT RMK FCST BASED ON AUTO OBS. NXT FCST BY 161400Z<br><br>
<br><br>
CYTR 160900Z 31003KT 15SM FEW033 10/08 A3007 RMK SC2 SLP185<br><br>
TAF CYTR 160530Z 1606/1706 VRB03KT 6SM BR SKC TEMPO 1606/1612 2SM BR PROB30 1606/1610 1/2SM FG VV003 FM161200 34005KT P6SM FEW030 FM161700 20008KT P6SM BKN030 FM170200 VRB03KT P6SM FEW030 RMK NXT FCST BY 161200Z<br><br>
<br><br>
