RETRIEVED AT : Oct 06 2018 19:39 Local <br>
  RETRIEVED AT: Oct 06 2018 23:39 UTC<br><br>
CYSN 062307Z 04003KT 350V070 2SM BR OVC002 17/17 A3001 RMK SF8 SLP163 DENSITY ALT 500FT<br><br>
CYSN 062300Z 01005KT 3SM BR OVC003 17/17 A3001 RMK SF8 PRESRR SLP163 DENSITY ALT 500FT<br><br>
CYSN 062251Z 36005KT 3SM BR OVC003 17/17 A3000 RMK SF8 PRESRR SLP161 DENSITY ALT 500FT<br><br>
CYSN 062217Z 34011KT 270V350 12SM SCT003 BKN130 BKN250 19/18 A2997 RMK SF3AC2CI1 WSHFT 2212 SLP150 DENSITY ALT 800FT<br><br>
CYSN 062200Z 28007KT 240V300 15SM SCT130 SCT250 22/20 A2995 RMK AC3CI1 SLP145 DENSITY ALT 1300FT<br><br>
TAF CYSN 061938Z 0620/0701 20010KT P6SM BKN060 OVC100 TEMPO 0620/0701 2SM -SHRA BR OVC007 PROB30 0620/0701 VRB15G25KT 1/2SM TSRA FG BKN002 OVC015CB RMK NXT FCST WILL BE ISSUED AT 071245Z<br><br>
<br><br>
CYHM 062300Z 22004KT 15SM BKN022 OVC058 20/19 A3001 RMK SC7SC1 SLP164 DENSITY ALT 1500FT<br><br>
CYHM 062200Z 24006KT 15SM FEW015TCU FEW160 FEW250 22/19 A2997 RMK TCU1AC1CI1 TCU TR TCU DSNT SE SLP151 DENSITY ALT 1700FT<br><br>
TAF AMD CYHM 062046Z 0620/0718 21010KT P6SM BKN160 TEMPO 0620/0623 3SM BR PROB30 0620/0623 2SM -SHRA BR BKN005 FM062300 VRB03KT 6SM -RA BR BKN080 TEMPO 0623/0703 1/4SM -DZ FG VV002 PROB30 0623/0703 VRB15G25KT 1SM +TSRA BR BKN007 OVC015CB FM070300 VRB03KT P6SM SCT010 OVC100 TEMPO 0703/0705 1/2SM -DZ FG OVC002 FM070500 04005KT 3SM BR OVC010 TEMPO 0705/0716 1/2SM -DZ FG OVC002 PROB40 0705/0716 1/8SM FG VV001 FM071600 03010KT P6SM SCT008 BKN012 OVC040 RMK NXT FCST BY 070000Z<br><br>
<br><br>
KIAG 062253Z 29007KT 10SM CLR 20/18 A3000 RMK AO2 SLP160 T02000183<br><br>
KIAG 062153Z 20005KT 10SM CLR 21/19 A2996 RMK AO2 SLP147 T02110189<br><br>
KIAG 062107Z 0621/0718 20013KT P6SM SCT015 BKN120 FM070100 22010KT 4SM SHRA BR VCTS OVC035CB FM070500 27006KT P6SM VCSH OVC007 FM070700 33004KT 2SM -DZ BR OVC003 FM070900 02006KT 2SM -DZ BR OVC003 FM071400 04007KT 4SM -DZ BR OVC007<br><br>
<br><br>
KBUF 062254Z 21006KT 10SM BKN120 BKN160 22/19 A2999 RMK AO2 SLP155 T02220194<br><br>
KBUF 062154Z COR 22009KT 10SM BKN120 BKN160 22/19 A2997 RMK AO2 SLP148 T02170194<br><br>
KBUF 062107Z 0621/0718 20014KT P6SM VCSH SCT025 BKN120 FM070100 22010KT 4SM SHRA BR VCTS OVC040CB FM070500 27006KT P6SM VCSH OVC007 FM070700 33004KT 2SM -DZ BR OVC003 FM070900 02006KT 2SM -DZ BR OVC003 FM071400 04007KT 4SM -DZ BR OVC007<br><br>
<br><br>
CYYZ 062300Z 04003KT 6SM BR FEW015 SCT180 SCT260 16/15 A2999 RMK SC2AC1CI1 CI TR SLP159 DENSITY ALT 800FT<br><br>
CYYZ 062200Z 36003KT 320V030 5SM BR SCT005 BKN016 BKN160 OVC230 16/15 A2997 RMK ST3SC2AC2CC1 SLP154 DENSITY ALT 800FT<br><br>
TAF AMD CYYZ 062140Z 0621/0724 VRB03KT P6SM SCT005 SCT120 TEMPO 0621/0623 5SM BR FM062300 VRB03KT 21/2SM -RA BR OVC006 TEMPO 0623/0702 6SM BR BKN030 PROB30 0623/0702 VRB15G25KT 1SM +TSRA BR BKN003 OVC015CB FM070200 34015KT 3SM -SHRA BR OVC008 TEMPO 0702/0705 P6SM NSW OVC015 FM070500 35012KT 5SM BR SCT008 BKN020 BKN040 FM071100 36012KT 6SM BR SCT020 BKN030 TEMPO 0711/0714 3SM BR BKN008 OVC020 FM071400 36012KT P6SM OVC020 FM072000 02005KT 5SM BR OVC010 RMK NXT FCST BY 070000Z<br><br>
<br><br>
CYOO 062325Z AUTO VRB02KT 1 1/4SM BR SCT003 SCT250 14/14 A3000 RMK SLP161<br><br>
CYOO 062308Z AUTO VRB02KT 2 1/4SM BR OVC003 15/15 A3000 RMK SLP161<br><br>
CYOO 062300Z AUTO 00000KT 3SM BR OVC003 15/15 A3000 RMK SLP161<br><br>
CYOO 062242Z AUTO 00000KT 3SM BR OVC003 15/15 A2999 RMK SLP160<br><br>
CYOO 062200Z AUTO 02004KT 310V030 1/2SM FG VV003 14/14 A2997 RMK SLP153<br><br>
CYOO has no TAF <br><br>
<br><br>
CYTR 062333Z 06002KT 1SM BR OVC002 13/13 A3002 RMK ST8 VIS VRB 3/4-1 1/4 CIG VRB 1-3 SLP167<br><br>
CYTR 062325Z 03004KT 3/4SM BR VV001 13/13 A3002 RMK FG8 VIS VRB 1/2-1 CIG VRB 0-2 SLP168<br><br>
CYTR 062319Z 03005KT 1/2SM FG VV001 13/13 A3002 RMK FG8 VIS VRB 1/4-3/4 CIG VRB 0-2 SLP167<br><br>
CYTR 062300Z 36004KT 1/4SM FG VV001 13/13 A3002 RMK FG8 VIS VRB 1/8-3/8 CIG VRB 0-2 SLP167<br><br>
CYTR 062242Z 04003KT 3/8SM FG VV001 13/13 A3001 RMK FG8 SLP165<br><br>
CYTR 062228Z 04003KT 3/4SM BR OVC002 13/13 A3000 RMK ST8 VIS VRB 1/2-1 CIG VRB 1-3 SLP163<br><br>
CYTR 062200Z 05003KT 1SM BR OVC001 13/13 A2999 RMK ST8 VIS VRB 3/4-1 1/4 SLP159<br><br>
TAF AMD CYTR 062205Z 0622/0718 05005KT 3/4SM BR OVC001 TEMPO 0622/0624 6SM BR SCT005 BKN020 FM062330 22005KT P6SM SCT005 OVC030 TEMPO 0623/0701 2SM -SHRA BR OVC005 FM070100 21005KT 2SM -SHRA BR BKN005 OVC015 TEMPO 0701/0712 P6SM NSW SCT005 OVC015 PROB30 0701/0706 VRB15G25KT 1SM TSRA BR BKN002 OVC010CB FM071200 01010KT 5SM BR BKN008 OVC020 BECMG 0712/0714 P6SM NSW SCT008 OVC020 RMK NXT FCST BY 070000Z<br><br>
<br><br>
