RETRIEVED AT : Oct 02 2017 19:10 Local <br>
  RETRIEVED AT: Oct 02 2017 23:10 UTC<br><br>
CYSN 022300Z 07007KT 15SM BKN250 15/11 A3038 RMK CI5 SLP289<br><br>
CYSN 022200Z 06009KT 15SM BKN250 18/12 A3036 RMK CI7 SLP285<br><br>
TAF CYSN 021939Z 0220/0301 12008KT P6SM FEW240 RMK NXT FCST WILL BE ISSUED AT 031245Z<br><br>
<br><br>
CYHM 022300Z 06009KT 15SM FEW190 BKN250 14/11 A3038 RMK AC1CI6 AC TR CONTRAILS SLP293<br><br>
CYHM 022200Z 05009KT 15SM BKN250 16/10 A3038 RMK CI7 CONTRAILS SLP292<br><br>
TAF CYHM 021742Z 0218/0318 06008KT P6SM FEW050 BECMG 0304/0306 14005KT BECMG 0312/0314 20008KT FM031700 21012KT P6SM SKC RMK NXT FCST BY 030000Z<br><br>
<br><br>
KIAG 022253Z 05006KT 10SM CLR 17/10 A3038 RMK AO2 SLP293 T01720100<br><br>
KIAG 022153Z 03008KT 10SM CLR 22/09 A3036 RMK AO2 SLP285 T02170089<br><br>
KIAG 022043Z 0221/0318 VRB04KT P6SM SCT250 FM030500 16005KT P6SM FEW200 FM031400 20008KT P6SM FEW250<br><br>
<br><br>
KBUF 022254Z 04006KT 10SM FEW230 BKN300 18/08 A3038 RMK AO2 SLP290 T01830078<br><br>
KBUF 022154Z 04008KT 10SM FEW210 BKN300 21/08 A3037 RMK AO2 SLP286 T02060078<br><br>
KBUF 022043Z 0221/0318 VRB04KT P6SM SCT250 FM030600 16006KT P6SM SKC FM031400 20008KT P6SM SKC<br><br>
<br><br>
CYYZ 022300Z 09007KT 15SM FEW080 SCT250 16/09 A3038 RMK AC1CI3 SLP293<br><br>
CYYZ 022200Z 10009KT 15SM SCT250 18/08 A3038 RMK CI4 SLP292<br><br>
TAF CYYZ 022042Z 0221/0324 14008KT P6SM FEW180 BECMG 0301/0303 15005KT BECMG 0313/0315 20012KT RMK NXT FCST BY 030000Z<br><br>
<br><br>
CYOO 022300Z AUTO 10007KT 9SM CLR 14/07 A3040 RMK SLP299<br><br>
CYOO 022200Z AUTO 10007KT 9SM CLR 16/08 A3040 RMK SLP300<br><br>
CYOO has no TAF <br><br>
<br><br>
CYTR 022300Z 00000KT 15SM BKN250 14/09 A3043 RMK CI6 SLP306<br><br>
CYTR 022200Z 17003KT 15SM SCT250 17/07 A3041 RMK CI3 SLP302<br><br>
TAF CYTR 021730Z 0218/0318 21008KT P6SM SCT250 BECMG 0222/0224 10005KT SCT150 FM031000 18005KT 6SM BR FEW005 PROB30 0310/0313 3/4SM BR OVC005 FM031300 18005KT P6SM SCT250 RMK NXT FCST BY 030000Z<br><br>
<br><br>
