RETRIEVED AT : May 12 2018 02:05 Local <br>
  RETRIEVED AT: May 12 2018 06:05 UTC<br><br>
CYSN has no TAF <br><br>
<br><br>
CYHM 120500Z 05005KT 15SM -RA FEW070 OVC110 07/01 A3012 RMK AC1AC7 PCPN VRY LGT SLP206<br><br>
TAF CYHM 120538Z 1206/1306 05005KT P6SM -RA OVC110 TEMPO 1206/1211 OVC080 FM121100 05012KT P6SM BKN060 FM121400 05012KT P6SM SCT020 BKN080 FM121700 05015KT P6SM FEW030 SCT120 BKN250 BECMG 1218/1220 SKC BECMG 1222/1224 04007KT RMK NXT FCST BY 121200Z<br><br>
<br><br>
KIAG 120553Z AUTO 08004KT 10SM FEW110 10/M01 A3011 RMK AO2 SLP200 60000 T01001011 10111 20094 58012<br><br>
KIAG 120453Z AUTO 08004KT 10SM OVC085 10/M02 A3013 RMK AO2 SLP209 T01001017 401330039<br><br>
KIAG 120526Z 1206/1306 07006KT P6SM OVC090 FM120900 07006KT P6SM -RA OVC070 FM121200 06007KT P6SM VCSH OVC040 FM121500 05008KT P6SM OVC045 FM121800 04008KT P6SM BKN090 FM130100 VRB03KT P6SM BKN250<br><br>
<br><br>
KBUF 120554Z 07006KT 10SM FEW085 SCT110 BKN170 OVC210 11/M01 A3011 RMK AO2 SLP197 60000 T01111011 10128 20111 58012<br><br>
KBUF 120454Z 07007KT 10SM BKN090 OVC140 11/M02 A3013 RMK AO2 SLP204 T01111017 401500056<br><br>
KBUF 120526Z 1206/1306 07007KT P6SM OVC090 FM120900 07006KT 6SM -RA OVC040 FM121300 06007KT P6SM VCSH OVC035 FM121900 04007KT P6SM BKN080 FM130200 VRB03KT P6SM BKN250<br><br>
<br><br>
CYYZ 120500Z VRB02KT 15SM SCT090 BKN120 09/M06 A3013 RMK AC4AC3 SLP209<br><br>
TAF CYYZ 120538Z 1206/1312 09003KT P6SM OVC120 TEMPO 1207/1211 P6SM -RA OVC080 BECMG 1208/1210 02005KT FM121400 06010KT P6SM FEW080 SCT220 BECMG 1218/1220 12008KT BECMG 1304/1306 35005KT FM131000 06005KT P6SM SCT006 RMK NXT FCST BY 120900Z<br><br>
<br><br>
CYOO 120500Z AUTO 00000KT 9SM BKN220 06/01 A3014 RMK SLP213<br><br>
CYOO has no TAF <br><br>
<br><br>
CYTR 120500Z 02002KT 15SM OVC250 04/M01 A3016 RMK CI8 SLP218<br><br>
TAF CYTR 120530Z 1206/1306 VRB03KT P6SM OVC250 FM120900 VRB03KT P6SM BKN100 BECMG 1214/1216 09008KT SCT180 RMK NXT FCST BY 121200Z<br><br>
<br><br>
