RETRIEVED AT : Nov 05 2018 18:24 Local <br>
  RETRIEVED AT: Nov 05 2018 23:24 UTC<br><br>
CYSN 052300Z 13004KT 030V140 15SM BKN037 OVC060 12/11 A3000 RMK SC5SC3 SLP162<br><br>
CYSN 052200Z 11004KT 15SM BKN037 OVC060 11/11 A3000 RMK SC6SC2 SLP163<br><br>
TAF CYSN 051947Z 0520/0602 19010KT P6SM OVC030 TEMPO 0520/0602 OVC020 BECMG 0522/0524 13005KT RMK NXT FCST WILL BE ISSUED AT 061345Z<br><br>
<br><br>
CYHM 052300Z 14005KT 15SM BKN054 OVC200 11/10 A2997 RMK SC6CC2 SLP154<br><br>
CYHM 052200Z 16005KT 15SM FEW034 OVC062 11/10 A3000 RMK SC1SC7 SLP166<br><br>
TAF AMD CYHM 052109Z 0521/0618 17008KT P6SM BKN020 OVC050 TEMPO 0521/0603 SCT020 BKN050 FM060300 09007KT 3SM BR SCT004 BKN220 TEMPO 0603/0605 6SM BR FM060500 09007KT 2SM BR SCT004 BKN015 PROB30 0605/0608 1/2SM FG VV002 FM060800 12008KT 6SM BR BKN090 FM061000 13015G30KT 3SM -RA BR BKN004 OVC040 BECMG 0613/0615 21020G35KT FM061700 23025G40KT P6SM BKN030 RMK NXT FCST BY 060000Z<br><br>
<br><br>
KIAG 052253Z 13003KT 10SM BKN033 OVC040 12/08 A3001 RMK AO2 SLP168 T01170083<br><br>
KIAG 052153Z 00000KT 10SM OVC034 11/09 A3001 RMK AO2 SLP168 T01110089<br><br>
KIAG 052028Z 0520/0618 18006KT P6SM VCSH OVC035 FM060000 16007KT P6SM BKN070 FM060900 12007KT 6SM SHRA OVC050 FM061100 14010G22KT 4SM SHRA OVC025 FM061400 17013G22KT P6SM VCSH OVC025 FM061700 21021G30KT P6SM BKN020<br><br>
<br><br>
KBUF 052254Z 15007KT 10SM BKN032 BKN065 BKN140 OVC180 12/08 A3003 RMK AO2 SLP172 T01170078<br><br>
KBUF 052154Z 15008KT 10SM FEW034 FEW075 BKN170 OVC270 13/08 A3002 RMK AO2 SLP168 T01280083<br><br>
KBUF 052028Z 0520/0618 18012G18KT P6SM BKN035 FM052200 17009KT P6SM BKN035 FM060000 17007KT P6SM BKN050 FM060800 14008KT 4SM SHRA OVC060 FM061100 14010G23KT 4SM SHRA OVC035 FM061500 18016G24KT P6SM VCSH OVC025 FM061700 21020G28KT P6SM BKN020<br><br>
<br><br>
CYYZ 052300Z 12004KT 15SM FEW045 SCT080 BKN160 10/09 A2998 RMK SC2AC2AC2 SLP158<br><br>
CYYZ 052200Z 13004KT 15SM FEW020 SCT030 BKN050 OVC180 11/09 A3000 RMK SF1SC3SC3AC2 SF TR SLP163<br><br>
TAF AMD CYYZ 052241Z 0522/0624 16005KT P6SM BKN030 TEMPO 0522/0602 P6SM -SHRA BKN015 FM060200 15007KT P6SM FEW004 BKN015 TEMPO 0602/0606 3SM BR BKN008 OVC015 FM060600 11006KT 4SM BR SCT004 BKN030 PROB30 0606/0611 2SM BR FM061100 11012G22KT 2SM -RA BR BKN004 OVC030 FM061400 13015G25KT 3SM -RA BR BKN004 OVC030 BECMG 0615/0617 22020G35KT FM061700 22020G35KT P6SM -SHRA SCT020 BKN030 BECMG 0622/0624 23020G40KT RMK NXT FCST BY 060000Z<br><br>
<br><br>
CYOO 052300Z AUTO 09004KT 9SM BKN026 BKN032 OVC040 09/09 A3001 RMK SLP168<br><br>
CYOO 052200Z AUTO 08003KT 9SM OVC027 10/10 A3002 RMK SLP169<br><br>
CYOO 052144Z AUTO 09004KT 9SM SCT022 OVC027 10/10 A3001 RMK SLP168<br><br>
CYOO 052140Z AUTO 09003KT 9SM OVC024 10/10 A3001 RMK SLP168<br><br>
CYOO 052126Z AUTO 08004KT 9SM SCT020 OVC028 10/10 A3002 RMK SLP172<br><br>
CYOO has no TAF <br><br>
<br><br>
CYTR 052300Z 14008G15KT 15SM OVC034 10/08 A3006 RMK SC8 SLP181<br><br>
CYTR 052200Z 15011KT 15SM OVC032 11/08 A3006 RMK SC8 SLP183<br><br>
TAF AMD CYTR 052006Z 0520/0618 11008KT P6SM FEW008 OVC025 TEMPO 0520/0601 4SM -SHRA BR BKN008 OVC020 PROB30 0520/0601 2SM -DZ BR OVC005 FM060100 14010KT 6SM -DZ BR BKN015 OVC025 FM061200 14012G22KT 6SM -RA BR SCT008 OVC015 TEMPO 0612/0618 2SM -SHRA BR OVC008 RMK NXT FCST BY 060000Z<br><br>
<br><br>
