RETRIEVED AT : Apr 06 2020 00:05 Local <br>
  RETRIEVED AT: Apr 06 2020 04:05 UTC<br><br>
CYSN has no TAF <br><br>
<br><br>
CYHM 060300Z 34006KT 15SM FEW250 04/M00 A3013 RMK CI1 CI TR SLP209<br><br>
TAF CYHM 052340Z 0600/0624 30007KT P6SM FEW040 FM060400 VRB03KT P6SM SKC BECMG 0614/0616 23007KT FM062000 23008KT P6SM BKN100 OVC200 RMK NXT FCST BY 060600Z<br><br>
<br><br>
KIAG 060353Z AUTO 00000KT 10SM CLR 02/00 A3013 RMK AO2 SLP214 T00220000<br><br>
KIAG 060253Z 00000KT 10SM CLR 04/01 A3013 RMK AO2 SLP211 T00440006 50008<br><br>
KIAG 060207Z 0602/0624 VRB03KT P6SM SKC FM061500 26006KT P6SM SCT250<br><br>
<br><br>
KBUF 060354Z 22005KT 10SM CLR 03/02 A3013 RMK AO2 SLP210 T00330017<br><br>
KBUF 060254Z 22006KT 10SM CLR 04/02 A3013 RMK AO2 SLP207 T00440017 50008<br><br>
KBUF 060246Z 0603/0624 24008KT P6SM SKC FM060600 VRB04KT P6SM SKC FM061500 24006KT P6SM FEW250<br><br>
<br><br>
CYYZ 060300Z 35005KT 15SM SKC 04/M01 A3013 RMK SLP208<br><br>
TAF CYYZ 060238Z 0603/0706 36006KT P6SM SKC BECMG 0609/0611 32006KT FM061600 15010KT P6SM SCT150 FM062100 15010KT P6SM BKN100 OVC200 BECMG 0701/0703 03006KT RMK NXT FCST BY 060600Z<br><br>
<br><br>
CYOO 060300Z AUTO 34009KT 9SM CLR 03/M01 A3012 RMK SLP207<br><br>
TAF CYOO 060138Z 0602/0614 31006KT P6SM SKC RMK FCST BASED ON AUTO OBS. NXT FCST BY 060800Z<br><br>
<br><br>
CYTR 060300Z 32008KT 15SM FEW250 06/01 A3009 RMK CI2 SLP193<br><br>
TAF CYTR 052330Z 0600/0624 30008KT P6SM SKC BECMG 0608/0610 VRB03KT BECMG 0616/0618 21010KT FM062000 21010KT P6SM FEW120 BKN200 FM062300 24005KT P6SM BKN080 RMK NXT FCST BY 060600Z<br><br>
<br><br>
