RETRIEVED AT : Nov 13 2017 22:10 Local <br>
  RETRIEVED AT: Nov 14 2017 03:10 UTC<br><br>
CYSN 140200Z 24006KT 8SM SCT025 OVC052 04/02 A3038 RMK SC3SC5 LAST STFD OBS / NEXT 141200 UTC SLP291<br><br>
CYSN has no TAF <br><br>
<br><br>
CYHM 140300Z 27005KT 15SM OVC042 03/02 A3035 RMK SC8 SLP288<br><br>
CYHM 140200Z 26007KT 15SM OVC038 03/02 A3037 RMK SC8 SLP295<br><br>
TAF CYHM 132338Z 1400/1424 30005KT P6SM OVC040 TEMPO 1400/1403 5SM BR BKN012 OVC030 FM140300 VRB03KT 4SM BR OVC012 TEMPO 1403/1416 P6SM NSW OVC025 FM141600 26006KT P6SM BKN025 RMK NXT FCST BY 140600Z<br><br>
<br><br>
KIAG 140253Z 26006KT 7SM OVC047 04/01 A3036 RMK AO2 SLP291 T00440011 58003<br><br>
KIAG 140153Z 25005KT 7SM SCT018 BKN031 OVC049 04/01 A3037 RMK AO2 SLP297 T00440011<br><br>
KIAG 140159Z 1402/1424 VRB03KT P6SM SCT025 BKN040 TEMPO 1402/1406 5SM BR BKN025 FM140600 VRB03KT P6SM BKN025 FM141300 28004KT P6SM OVC025 FM142000 VRB03KT P6SM SCT025 SCT040<br><br>
<br><br>
KBUF 140254Z 28006KT 8SM FEW017 FEW022 OVC045 04/02 A3036 RMK AO2 SLP288 T00390022 58002<br><br>
KBUF 140229Z 27003KT 8SM FEW020 SCT027 OVC045 04/02 A3037 RMK AO2 T00440022<br><br>
KBUF 140219Z 26004KT 7SM SCT020 BKN025 OVC045 04/02 A3037 RMK AO2 T00440022<br><br>
KBUF 140154Z 25003KT 8SM FEW020 OVC046 04/02 A3037 RMK AO2 SLP291 T00390022<br><br>
KBUF 140301Z 1403/1424 27005KT P6SM BKN015 OVC040 FM140800 VRB03KT 4SM BR BKN015 TEMPO 1408/1412 BKN008 FM141400 30005KT P6SM BKN025 FM142000 26005KT P6SM SCT025 SCT040<br><br>
<br><br>
CYYZ 140300Z 35006KT 15SM FEW025 OVC045 04/M00 A3036 RMK SC2SC6 SLP287<br><br>
CYYZ 140200Z 31006KT 15SM OVC045 04/M00 A3037 RMK SC8 SLP291<br><br>
TAF CYYZ 140238Z 1403/1506 30005KT P6SM FEW020 OVC040 TEMPO 1403/1417 BKN015 OVC030 FM141700 15006KT P6SM BKN025 FM150300 15005KT P6SM FEW025 RMK NXT FCST BY 140600Z<br><br>
<br><br>
CYOO 140300Z AUTO 00000KT 3SM BR OVC050 03/02 A3036 RMK SLP287<br><br>
CYOO 140243Z AUTO 00000KT 3SM BR SCT010 OVC050 03/02 A3036 RMK SLP288<br><br>
CYOO 140218Z AUTO 30002KT 3SM BR BKN010 OVC048 03/02 A3037 RMK SLP290<br><br>
CYOO 140200Z AUTO 00000KT 3SM BR OVC048 03/02 A3037 RMK SLP290<br><br>
CYOO has no TAF <br><br>
<br><br>
CYTR 140300Z 00000KT 15SM OVC032 02/00 A3038 RMK SC8 SLP290<br><br>
CYTR 140200Z 04002KT 15SM OVC032 03/01 A3038 RMK SC8 SLP291<br><br>
TAF CYTR 132330Z 1400/1424 VRB03KT P6SM OVC025 TEMPO 1400/1406 OVC020 FM140600 03005KT P6SM SCT010 BKN025 TEMPO 1406/1415 BKN010 OVC025 BECMG 1418/1420 VRB03KT RMK NXT FCST BY 140600Z<br><br>
<br><br>
