RETRIEVED AT : Jul 07 2018 05:53 Local <br>
  RETRIEVED AT: Jul 07 2018 09:53 UTC<br><br>
CYSN has no TAF <br><br>
<br><br>
CYHM 070900Z 34005KT 15SM FEW030 12/07 A3034 RMK SC1 SC TR SLP277<br><br>
CYHM 070800Z 34003KT 15SM SKC 13/07 A3035 RMK SLP279<br><br>
TAF CYHM 070542Z 0706/0806 35005KT P6SM SKC BECMG 0706/0708 VRB03KT BECMG 0714/0716 05007KT FM072200 VRB03KT P6SM SKC RMK NXT FCST BY 071200Z<br><br>
<br><br>
KIAG 070853Z AUTO 02005KT 10SM CLR 16/11 A3033 RMK AO2 SLP270 T01560111 51001<br><br>
KIAG 070902Z 0709/0806 02005KT P6SM SKC FM071400 12004KT P6SM SKC FM072300 02004KT P6SM SKC FM080500 14005KT P6SM SKC<br><br>
<br><br>
KBUF 070854Z 00000KT 10SM CLR 13/11 A3034 RMK AO2 SLP272 T01330106 53002<br><br>
KBUF 070754Z 02005KT 10SM CLR 14/11 A3033 RMK AO2 SLP269 T01440111<br><br>
KBUF 070902Z 0709/0806 00000KT P6SM SKC FM071300 12004KT P6SM SKC FM072300 05004KT P6SM SKC FM080500 14005KT P6SM SKC<br><br>
<br><br>
CYYZ 070900Z 34006KT 15SM SKC 15/07 A3034 RMK SLP277<br><br>
CYYZ 070800Z 35006KT 15SM SKC 15/07 A3034 RMK SLP277<br><br>
TAF CYYZ 070844Z 0709/0812 35007KT P6SM SKC BECMG 0714/0716 17010KT BECMG 0801/0803 VRB03KT RMK NXT FCST BY 071200Z<br><br>
<br><br>
CYOO 070900Z AUTO 36005KT 9SM CLR 13/09 A3034 RMK SLP277<br><br>
CYOO 070800Z AUTO 01007KT 9SM CLR 13/09 A3034 RMK SLP276<br><br>
CYOO has no TAF <br><br>
<br><br>
CYTR 070900Z 00000KT 15SM FEW140 12/08 A3032 RMK AC1 SLP270<br><br>
CYTR 070800Z 30003KT 15SM SKC 12/08 A3033 RMK SLP270<br><br>
TAF CYTR 070530Z 0706/0806 VRB03KT P6SM SKC BECMG 0716/0718 22010KT BECMG 0802/0804 VRB03KT RMK NXT FCST BY 071200Z<br><br>
<br><br>
