RETRIEVED AT : Oct 21 2018 03:05 Local <br>
  RETRIEVED AT: Oct 21 2018 07:05 UTC<br><br>
CYSN has no TAF <br><br>
<br><br>
CYHM 210600Z 35017G24KT 15SM FEW025 BKN045 03/M01 A2993 RMK CU2SC5 SLP142<br><br>
TAF AMD CYHM 210613Z 2106/2206 35012G22KT P6SM BKN020 BKN040 TEMPO 2106/2107 FEW025 SCT040 FM210700 32010G20KT P6SM BKN040 TEMPO 2107/2116 BKN020 FM211600 29010G20KT P6SM BKN040 TEMPO 2120/2124 P6SM -SHRA BECMG 2122/2124 27010KT FM220000 27010KT P6SM BKN030 BKN120 BECMG 2202/2204 23010KT RMK NXT FCST BY 211200Z<br><br>
<br><br>
KIAG 210653Z AUTO 33010KT 10SM OVC041 04/M03 A2993 RMK AO2 SLP143 T00391028<br><br>
KIAG 210553Z AUTO 35012KT 10SM OVC046 04/M03 A2989 RMK AO2 SLP130 60013 T00391028 10061 20039 53039<br><br>
KIAG 210530Z 2106/2206 34014G22KT P6SM BKN050 BKN060 FM210800 33014G20KT P6SM BKN040 FM211400 31011G20KT P6SM BKN035 FM211900 29013G19KT P6SM BKN050 FM220000 28009KT P6SM BKN045<br><br>
<br><br>
KBUF 210654Z 34011KT 10SM BKN044 BKN055 03/M02 A2992 RMK AO2 SLP137 T00331017<br><br>
KBUF 210554Z 34010KT 10SM BKN047 BKN060 04/M02 A2988 RMK AO2 SLP123 60012 T00391017 10067 20039 53038<br><br>
KBUF 210530Z 2106/2206 34009KT P6SM FEW035 OVC050 FM210700 33014G22KT P6SM BKN035 FM211800 28013G20KT P6SM BKN035 FM212100 28012G20KT P6SM BKN050 FM220000 28009KT P6SM BKN070<br><br>
<br><br>
CYYZ 210638Z 35015G23KT 15SM -SG FEW022 BKN042 02/M03 A2995 RMK CU2SC5 SLP147<br><br>
CYYZ 210618Z 35020G30KT 15SM FEW022 SCT030 BKN052 02/M03 A2994 RMK CU2SC2SC3 SLP143<br><br>
CYYZ 210605Z 35020G26KT 15SM -SG OVC022 03/M02 A2993 RMK SC8 PRESRR SLP140<br><br>
CYYZ 210600Z 35019G26KT 15SM OVC022 03/M02 A2992 RMK SC8 SLP138<br><br>
TAF AMD CYYZ 210656Z 2106/2212 35015G28KT P6SM BKN040 TEMPO 2106/2108 P6SM -SHSNGS -SG BKN020 FM210800 34012KT P6SM BKN030 TEMPO 2108/2114 P6SM -SHSN BKN020 FM211500 33010G20KT P6SM BKN030 FM211700 32010G20KT P6SM BKN040 FM212200 29010G20KT P6SM BKN030 TEMPO 2122/2124 P6SM -SHRA FM220300 25008KT P6SM BKN030 RMK NXT FCST BY 210900Z<br><br>
<br><br>
CYOO 210600Z AUTO 35013G21KT 9SM OVC038 03/M03 A2989 RMK SLP128<br><br>
CYOO has no TAF <br><br>
<br><br>
CYTR 210600Z 01010KT 15SM BKN040 03/M04 A2984 RMK SC5 SLP108<br><br>
TAF CYTR 210530Z 2106/2206 36005KT P6SM SCT040 FM210700 34008KT P6SM BKN040 FM211400 31010KT P6SM SCT040 BECMG 2114/2116 31012G22KT BECMG 2121/2123 28005KT FM220300 VRB03KT P6SM BKN030 OVC120 RMK NXT FCST BY 211200Z<br><br>
<br><br>
