RETRIEVED AT : Mar 15 2020 05:05 Local <br>
  RETRIEVED AT: Mar 15 2020 09:05 UTC<br><br>
CYSN has no TAF <br><br>
<br><br>
CYHM 150800Z 02009KT 15SM FEW140 M02/M06 A3048 RMK AC2 SLP333<br><br>
TAF CYHM 150539Z 1506/1606 02007KT P6SM FEW140 BKN210 FM151200 03012KT P6SM FEW030 FM151800 06015KT P6SM SKC BECMG 1523/1601 05010KT RMK NXT FCST BY 151200Z<br><br>
<br><br>
KIAG 150853Z AUTO 02005KT 10SM CLR M02/M04 A3049 RMK AO2 SLP339 T10171044 53008<br><br>
KIAG 150753Z AUTO 01005KT 10SM CLR M02/M04 A3047 RMK AO2 SLP334 T10171044<br><br>
KIAG 150902Z 1509/1606 02006KT P6SM BKN130 FM151200 04008KT P6SM FEW250 FM160100 VRB03KT P6SM FEW250<br><br>
<br><br>
KBUF 150854Z 01003KT 10SM FEW060 BKN130 BKN160 M01/M04 A3048 RMK AO2 SLP332 T10061039 53008<br><br>
KBUF 150754Z 35006KT 10SM BKN140 BKN160 00/M04 A3047 RMK AO2 SLP326 T00001039<br><br>
KBUF 150902Z 1509/1606 03005KT P6SM BKN130 FM151200 03008KT P6SM FEW250 FM160100 07005KT P6SM FEW250<br><br>
<br><br>
CYYZ 150800Z 04009G15KT 15SM BKN140 M01/M07 A3050 RMK AC7 SLP339<br><br>
TAF CYYZ 150838Z 1509/1612 05012KT P6SM BKN140 BECMG 1509/1511 SKC FM151200 02012KT P6SM SKC BECMG 1518/1520 05008KT FM152100 08011KT P6SM SKC BECMG 1523/1601 11008KT BECMG 1602/1604 06008KT FM160600 05009KT P6SM FEW030 BECMG 1610/1612 11009KT RMK NXT FCST BY 151200Z<br><br>
<br><br>
CYOO 150800Z AUTO 01008G15KT 9SM OVC150 M01/M09 A3050 RMK PRESRR SLP336<br><br>
TAF CYOO 150740Z 1508/1520 01010KT P6SM OVC150 FM151200 05005KT P6SM SKC BECMG 1513/1515 04008KT BECMG 1518/1520 09005KT RMK FCST BASED ON AUTO OBS. NXT FCST BY 151400Z<br><br>
<br><br>
CYTR 150800Z 01005KT 15SM SCT160 M02/M12 A3051 RMK AC3 SLP337<br><br>
TAF CYTR 150530Z 1506/1606 02008KT P6SM SKC RMK NXT FCST BY 151200Z<br><br>
<br><br>
