RETRIEVED AT : Mar 21 2020 15:05 Local <br>
  RETRIEVED AT: Mar 21 2020 19:05 UTC<br><br>
CYSN 211800Z 34010KT 15SM FEW022 M03/M08 A3056 RMK SC2 SLP356<br><br>
TAF CYSN 211238Z 2113/2201 35010KT P6SM BKN025 TEMPO 2113/2116 BKN020 FM211600 01010KT P6SM SCT020 TEMPO 2116/2118 BKN020 FM211800 01010KT P6SM SKC RMK NXT FCST BY 212000Z<br><br>
<br><br>
CYHM 211800Z 01010G16KT 350V090 15SM FEW035 FEW240 M01/M11 A3052 RMK CF1CI1 CF TR SLP348<br><br>
TAF CYHM 211741Z 2118/2218 05008KT P6SM SKC BECMG 2210/2212 06012KT BECMG 2214/2216 09010G20KT RMK NXT FCST BY 220000Z<br><br>
<br><br>
KIAG 211853Z 33007KT 10SM FEW029 M02/M08 A3052 RMK AO2 SLP351 T10171083<br><br>
KIAG 211800Z VRB03KT 10SM FEW027 M02/M09 A3053 RMK AO2 T10171089<br><br>
KIAG 211753Z 06008KT 10SM BKN024 M02/M09 A3053 RMK AO2 SLP356 60000 T10221089 11017 21056 58004<br><br>
KIAG 211720Z 2118/2218 10008KT P6SM SCT025 FM211900 36007KT P6SM SKC FM220000 03003KT P6SM SCT200 FM221000 08006KT P6SM SKC<br><br>
<br><br>
KBUF 211854Z 01008KT 330V040 10SM FEW037 SCT200 01/M08 A3049 RMK AO2 SLP334 T00111078<br><br>
KBUF 211754Z 06008KT 10SM SCT035 SCT200 01/M08 A3051 RMK AO2 SLP341 T00061083 10006 21044 58005<br><br>
KBUF 211720Z 2118/2218 01007KT P6SM SKC FM220000 05003KT P6SM SCT200 FM221000 08006KT P6SM SKC<br><br>
<br><br>
CYYZ 211800Z 05010G16KT 15SM FEW200 M01/M16 A3054 RMK CI2 SLP353<br><br>
TAF CYYZ 211741Z 2118/2224 06008G18KT P6SM SKC BECMG 2120/2122 01010KT FM220000 01010KT P6SM SCT170 BECMG 2211/2213 06010KT SKC FM221400 08012KT P6SM SCT020 BECMG 2215/2217 09015G25KT RMK NXT FCST BY 212100Z<br><br>
<br><br>
CYOO 211800Z AUTO 01009KT 330V080 9SM CLR M01/M15 A3054 RMK SLP352<br><br>
TAF CYOO 211343Z 2114/2202 36010G20KT P6SM SKC BECMG 2115/2117 35010KT FM220000 36008KT P6SM SCT170 RMK FCST BASED ON AUTO OBS. NXT FCST BY 212000Z<br><br>
<br><br>
CYTR 211800Z 03004KT 15SM FEW200 M01/M12 A3055 RMK CI2 SLP350<br><br>
TAF CYTR 211730Z 2118/2218 01008KT P6SM FEW200 BECMG 2203/2205 03005KT FM221300 07010KT P6SM SKC RMK NXT FCST BY 220000Z<br><br>
<br><br>
