RETRIEVED AT : Mar 14 2020 18:05 Local <br>
  RETRIEVED AT: Mar 14 2020 22:05 UTC<br><br>
CYSN 142100Z 27005KT 15SM BKN028 OVC080 03/M03 A3042 RMK SC7AC1 SLP308<br><br>
TAF CYSN 141938Z 1420/1501 28007KT P6SM BKN030 OVC200 BECMG 1420/1422 SCT030 OVC180 FM150000 36008KT P6SM FEW030 OVC140 RMK NXT FCST WILL BE ISSUED AT 151245Z<br><br>
<br><br>
CYHM 142100Z 31008KT 15SM BKN022 OVC140 01/M03 A3041 RMK SC7AC1 SLP309<br><br>
TAF CYHM 141738Z 1418/1518 28010KT P6SM OVC020 TEMPO 1418/1503 BKN025 OVC200 FM150300 03010KT P6SM BKN040 OVC120 FM150600 03010KT P6SM SCT040 BKN120 FM151200 03015KT P6SM FEW030 SCT120 FM151500 04015KT P6SM FEW030 RMK NXT FCST BY 150000Z<br><br>
<br><br>
KIAG 142153Z 22009KT 10SM OVC027 01/M03 A3042 RMK AO2 SLP314 T00111028<br><br>
KIAG 142053Z 24008KT 10SM OVC028 02/M03 A3042 RMK AO2 SLP316 T00221028 58006<br><br>
KIAG 142105Z 1421/1518 25008KT P6SM OVC025 FM150000 30008KT P6SM SCT025 OVC120 FM150300 01006KT P6SM SCT060 BKN100 FM151000 04006KT P6SM SCT050<br><br>
<br><br>
KBUF 142154Z 23008KT 10SM BKN028 OVC150 01/M03 A3041 RMK AO2 SLP308 T00111033<br><br>
KBUF 142054Z 24010KT 10SM OVC029 02/M03 A3042 RMK AO2 SLP312 T00171033 58004<br><br>
KBUF 142104Z 1421/1518 25008KT P6SM BKN025 FM150000 30006KT P6SM SCT025 BKN120 FM150300 35006KT P6SM SCT050 BKN100 FM151000 02006KT P6SM SCT050<br><br>
<br><br>
CYYZ 142100Z VRB03KT 15SM SCT032 OVC160 03/M04 A3041 RMK SC4AS4 SLP307<br><br>
CYYZ 142049Z 23004KT 15SM SCT031 OVC160 03/M04 A3042 RMK SC4AS4 WSHFT 2035 SLP308<br><br>
TAF CYYZ 142038Z 1421/1524 29005KT P6SM SCT030 OVC160 BECMG 1422/1424 36008KT FM151200 02012KT P6SM FEW040 BECMG 1518/1520 08010KT SCT180 RMK NXT FCST BY 150000Z<br><br>
<br><br>
CYOO 142100Z AUTO 30010G15KT 9SM SCT028 BKN150 02/M03 A3042 RMK SLP309<br><br>
TAF CYOO 141938Z 1420/1508 30010G20KT P6SM BKN030 BKN220 BECMG 1420/1422 30010KT SCT020 BKN160 RMK FCST BASED ON AUTO OBS. NXT FCST BY 150200Z<br><br>
<br><br>
CYTR 142100Z 26010KT 15SM FEW035 OVC250 05/M04 A3038 RMK SC1CS8 SLP293<br><br>
TAF CYTR 141730Z 1418/1518 30010G20KT P6SM FEW030 BKN250 FM150000 31010KT P6SM FEW040 BKN160 BECMG 1502/1504 02008KT BECMG 1510/1512 SKC RMK NXT FCST BY 150000Z<br><br>
<br><br>
