RETRIEVED AT : Jun 09 2019 11:05 Local <br>
  RETRIEVED AT: Jun 09 2019 15:05 UTC<br><br>
CYSN 091400Z 14006KT 15SM OVC250 24/12 A3018 RMK CI8 SLP220 DENSITY ALT 1200FT<br><br>
TAF CYSN 091238Z 0913/1001 VRB03KT P6SM BKN250 BECMG 0913/0915 14012KT RMK NXT FCST BY 092000Z<br><br>
<br><br>
CYHM 091400Z 04009KT 15SM FEW170 FEW220 BKN280 17/10 A3019 RMK AC1CC1CS5 SLP225 DENSITY ALT 1000FT<br><br>
TAF CYHM 091138Z 0912/1012 04007KT P6SM BKN240 FM091400 09010G20KT P6SM BKN180 BECMG 1001/1003 13010KT FM100500 13010KT P6SM SCT070 BKN150 FM100800 14012KT P6SM -SHRA OVC040 FM101100 13010G20KT 4SM -SHRA BR OVC020 RMK NXT FCST BY 091800Z<br><br>
<br><br>
KIAG 091453Z 13011KT 10SM CLR 24/11 A3019 RMK AO2 SLP220 T02390111 58005<br><br>
KIAG 091353Z 15011KT 10SM CLR 23/11 A3020 RMK AO2 SLP223 T02280106<br><br>
KIAG 091253Z 0913/1012 13006KT P6SM BKN250 FM091500 12010G16KT P6SM OVC250 FM092200 12008KT P6SM BKN060 FM100600 14008KT P6SM VCSH OVC050 WS020/17040KT<br><br>
<br><br>
KBUF 091454Z 12012KT 10SM FEW120 BKN160 BKN210 BKN270 23/09 A3020 RMK AO2 SLP224 T02330094 58003<br><br>
KBUF 091354Z 12011KT 10SM FEW120 SCT160 BKN210 BKN280 23/10 A3020 RMK AO2 SLP225 T02280100<br><br>
KBUF 091120Z 0912/1012 12006KT P6SM SCT250 FM091500 13010G16KT P6SM BKN250 FM092200 14008KT P6SM BKN060 FM100600 15008KT P6SM VCSH OVC050 WS020/17040KT<br><br>
<br><br>
CYYZ 091400Z 08013KT 080V140 15SM FEW180 BKN260 21/10 A3020 RMK AC1CI6 AC TR SLP228 DENSITY ALT 1200FT<br><br>
TAF CYYZ 091438Z 0915/1018 10010G20KT P6SM FEW180 BKN250 FM100200 09007KT P6SM SCT070 BKN150 FM100800 10008KT P6SM BKN100 FM101100 11010KT 6SM -SHRA BR OVC025 FM101400 11010G20KT 5SM -SHRA BR SCT010 OVC020 RMK NXT FCST BY 091800Z<br><br>
<br><br>
CYOO 091400Z AUTO 10008KT 9SM CLR 23/10 A3022 RMK SLP233 DENSITY ALT 1000FT<br><br>
TAF CYOO 091338Z 0914/1002 09008KT P6SM BKN250 BECMG 0914/0916 10010G20KT BECMG 0923/1001 09008KT RMK FCST BASED ON AUTO OBS. NXT FCST BY 092000Z<br><br>
<br><br>
CYTR 091400Z 16004KT 15SM OVC250 22/12 A3026 RMK CI8 SLP247<br><br>
TAF CYTR 091130Z 0912/1012 05005KT P6SM BKN250 BECMG 0915/0917 16008KT BECMG 1005/1007 FEW020 SCT040 FM101000 15008KT P6SM SCT020 OVC040 TEMPO 1010/1012 P6SM -RA BKN020 OVC040 RMK NXT FCST BY 091800Z<br><br>
<br><br>
