RETRIEVED AT : Oct 17 2017 00:10 Local <br>
  RETRIEVED AT: Oct 17 2017 04:10 UTC<br><br>
CYSN has no TAF <br><br>
<br><br>
CYHM 170400Z 20003KT 15SM SKC 03/00 A3025 RMK SLP253<br><br>
CYHM 170300Z 22003KT 15SM SKC 02/M00 A3025 RMK SLP254<br><br>
TAF CYHM 162338Z 1700/1724 31005KT P6SM FEW050 FM170300 VRB03KT P6SM SKC BECMG 1708/1710 23008KT FM171200 22008G18KT P6SM SKC BECMG 1713/1715 23015G25KT FM171800 24020G31KT P6SM SCT240 RMK NXT FCST BY 170600Z<br><br>
<br><br>
KIAG 170353Z AUTO 00000KT 10SM 03/00 A3026 RMK AO2 SLP258 T00330000 $<br><br>
KIAG 170253Z 00000KT 10SM CLR 04/01 A3026 RMK AO2 SLP258 T00440006 53002 $<br><br>
KIAG 170303Z 1703/1724 VRB03KT P6SM SKC FM171200 19008KT P6SM SCT035 FM171400 23015G24KT P6SM SCT250<br><br>
<br><br>
KBUF 170354Z 14005KT 10SM CLR 03/01 A3027 RMK AO2 SLP254 T00330011 $<br><br>
KBUF 170254Z 14003KT 10SM CLR 04/01 A3027 RMK AO2 SLP254 T00440011 52002 $<br><br>
KBUF 170303Z 1703/1724 VRB03KT P6SM SKC FM171100 19009KT P6SM BKN035 FM171400 21012KT P6SM SCT030 FM171700 23017G25KT P6SM FEW250<br><br>
<br><br>
CYYZ 170400Z 20002KT 15SM SKC 06/M01 A3025 RMK SLP249<br><br>
CYYZ 170300Z 14002KT 15SM SKC 06/M01 A3025 RMK SLP250<br><br>
TAF CYYZ 170238Z 1703/1806 VRB03KT P6SM SKC FM170600 22006KT P6SM FEW050 SCT120 FM171500 23012G22KT P6SM SKC BECMG 1715/1717 24018G28KT FM172000 25018G28KT P6SM FEW040 BECMG 1722/1724 26012KT FM180200 26008KT P6SM SKC RMK NXT FCST BY 170600Z<br><br>
<br><br>
CYOO 170400Z AUTO 36002KT 9SM CLR 00/M01 A3025 RMK SLP251<br><br>
CYOO 170300Z AUTO 34002KT 9SM CLR 00/M00 A3026 RMK SLP252<br><br>
CYOO has no TAF <br><br>
<br><br>
CYTR 170400Z 00000KT 15SM SKC M00/M01 A3026 RMK SLP251<br><br>
CYTR 170300Z 00000KT 15SM SKC 01/M01 A3026 RMK SLP250<br><br>
TAF CYTR 162330Z 1700/1724 VRB03KT P6SM SKC FM170900 VRB03KT P6SM SCT020 BKN040 TEMPO 1709/1715 BKN020 OVC040 BECMG 1710/1712 23010KT FM171500 23010G20KT P6SM SCT040 BECMG 1716/1718 23015G25KT RMK NXT FCST BY 170600Z<br><br>
<br><br>
