RETRIEVED AT : Sep 02 2018 00:05 Local <br>
  RETRIEVED AT: Sep 02 2018 04:05 UTC<br><br>
CYSN has no TAF <br><br>
<br><br>
CYHM 020300Z 22003KT 15SM FEW180 SCT250 21/20 A3009 RMK AC2CI1 SLP189 DENSITY ALT 1500FT<br><br>
TAF CYHM 012338Z 0200/0224 20007KT P6SM SCT030 FM020600 20010KT P6SM -SHRA BKN050 TEMPO 0207/0209 P6SM VCTS BKN020CB FM020900 23010KT P6SM SCT010 BKN030 TEMPO 0212/0214 P6SM VCTS BKN020CB FM021500 22010G20KT P6SM -SHRA BKN025 PROB30 0217/0219 VRB15G25KT 1SM +TSRA BR BKN015 OVC030CB FM021900 27008KT P6SM SCT050 RMK NXT FCST BY 020600Z<br><br>
<br><br>
KIAG 020353Z AUTO 17004KT 9SM CLR 22/21 A3010 RMK AO2 SLP186 T02220211<br><br>
KIAG 020253Z 16008KT 10SM CLR 22/21 A3009 RMK AO2 RAE19 SLP184 P0000 60000 T02220206 50002<br><br>
KIAG 020240Z 0203/0224 19010KT P6SM VCSH BKN090 FM020500 20011G18KT P6SM VCSH BKN070 FM021400 23014G22KT P6SM VCSH BKN045 FM021700 23016G25KT P6SM SCT100<br><br>
<br><br>
KBUF 020354Z 18007KT 10SM FEW075 SCT090 SCT110 23/22 A3011 RMK AO2 RAE0255 SLP191 P0000 T02280217<br><br>
KBUF 020254Z 16005KT 10SM -RA SCT075 BKN090 OVC110 23/22 A3012 RMK AO2 RAB00 SLP195 P0006 60006 T02280217 50006<br><br>
KBUF 020240Z 0203/0224 19010KT P6SM VCSH BKN090 FM021100 21012G18KT P6SM VCSH BKN060 FM021400 23015G22KT P6SM VCSH BKN045 FM021700 24016G25KT P6SM BKN060 FM021900 24016G25KT P6SM SCT130<br><br>
<br><br>
CYYZ 020300Z 16005KT 15SM FEW110 BKN150 24/20 A3007 RMK AC1AC6 SLP183 DENSITY ALT 1600FT<br><br>
TAF CYYZ 020238Z 0203/0306 17006KT P6SM FEW050 BKN260 FM020600 22008KT P6SM SCT050 BKN130 BKN240 PROB30 0209/0211 VRB15G25KT 2SM +TSRA BR BKN020CB FM021100 23010KT P6SM BKN030 BKN240 TEMPO 0211/0214 P6SM VCTS BKN020 BKN050CB FM021400 23010KT P6SM BKN025 BKN240 TEMPO 0214/0217 BKN020 BKN240 FM021700 23010G20KT P6SM BKN030 PROB30 0217/0220 VRB15G25KT 1SM +TSRA BR BKN015 OVC030CB FM022100 26010G20KT P6SM BKN040 BKN100 BECMG 0222/0224 26008KT SCT040 FM030200 VRB03KT P6SM SKC RMK NXT FCST BY 020600Z<br><br>
<br><br>
CYOO 020300Z AUTO VRB02KT 9SM SCT050 BKN065 OVC150 23/22 A3008 RMK SLP186 DENSITY ALT 1200FT<br><br>
CYOO has no TAF <br><br>
<br><br>
CYTR 020300Z 18005KT 15SM FEW050 FEW220 24/20 A3010 RMK SC1CI2 SLP191<br><br>
TAF CYTR 012330Z 0200/0224 15005KT P6SM FEW180 OVC200 FM020800 18005KT P6SM BKN030 OVC080 TEMPO 0208/0213 5SM -SHRA BR BKN012 OVC030 PROB30 0209/0213 2SM TSRA BR BKN008 OVC020CB FM021300 18005KT P6SM BKN030 OVC080 TEMPO 0213/0219 5SM -SHRA BR BKN012 OVC030 BECMG 0214/0216 22010G20KT FM021900 24010G20KT P6SM SCT020 OVC030 TEMPO 0219/0224 P6SM -SHRA OVC020 RMK NXT FCST BY 020600Z<br><br>
<br><br>
