RETRIEVED AT : Feb 21 2020 20:05 Local <br>
  RETRIEVED AT: Feb 22 2020 01:05 UTC<br><br>
CYSN 220000Z 24017G29KT 15SM FEW025 M02/M07 A3030 RMK SC1 SC TR SLP269<br><br>
TAF CYSN 211938Z 2120/2202 24020G30KT P6SM FEW030 RMK NXT FCST WILL BE ISSUED AT 221345Z<br><br>
<br><br>
CYHM 220000Z 23018G26KT 15SM SKC M03/M08 A3027 RMK SLP265<br><br>
TAF CYHM 212339Z 2200/2224 23018G28KT P6SM SKC FM220400 24012G22KT P6SM SKC FM221000 24015KT P6SM BKN020 TEMPO 2210/2212 SCT020 FM221700 24012G22KT P6SM SCT025 RMK NXT FCST BY 220600Z<br><br>
<br><br>
KIAG 220053Z 23022G28KT 10SM CLR M02/M08 A3027 RMK AO2 PK WND 23035/0035 SLP269 T10171083<br><br>
KIAG 212353Z 23019G27KT 10SM CLR M02/M09 A3029 RMK AO2 PK WND 24027/2257 SLP278 T10221089 11006 21028 56020<br><br>
KIAG 212322Z 2200/2224 23016G26KT P6SM SKC<br><br>
<br><br>
KBUF 220054Z 24018G25KT 10SM CLR 00/M08 A3029 RMK AO2 PK WND 23029/0025 SLP267 T00001078<br><br>
KBUF 212354Z 24021G30KT 10SM CLR M01/M11 A3029 RMK AO2 PK WND 24030/2300 SLP270 T10061106 11006 21017 56020<br><br>
KBUF 212322Z 2200/2224 23020G30KT P6SM SKC FM220400 24015G25KT P6SM SKC FM221500 24020G30KT P6SM SCT250 FM222200 24015G25KT P6SM SCT250<br><br>
<br><br>
CYYZ 220000Z 20015G21KT 15SM SKC M02/M08 A3025 RMK SLP255<br><br>
TAF CYYZ 212339Z 2200/2306 22015G25KT P6SM SKC FM220600 24010G20KT P6SM SKC FM220900 24015KT P6SM BKN020 TEMPO 2209/2212 SCT020 FM221600 24012G22KT P6SM BKN025 FM222100 24010G20KT P6SM SCT030 FM230200 23010KT P6SM FEW015 RMK NXT FCST BY 220300Z<br><br>
<br><br>
CYOO 220000Z AUTO 22012G23KT 9SM CLR M01/M06 A3023 RMK SLP247<br><br>
TAF CYOO 211938Z 2120/2208 25010G20KT P6SM SKC FM212200 25015G25KT P6SM SKC FM220700 25010G20KT P6SM BKN025 RMK FCST BASED ON AUTO OBS. NXT FCST BY 220200Z<br><br>
<br><br>
CYTR 220000Z 23017G24KT 15SM SKC M01/M06 A3022 RMK SLP241<br><br>
TAF CYTR 212330Z 2200/2224 23012G22KT P6SM SKC BECMG 2200/2201 25012KT FM220800 26008KT P6SM BKN030 FM221400 26010G20KT P6SM BKN020 BECMG 2222/2224 26008KT SCT020 RMK NXT FCST BY 220600Z<br><br>
<br><br>
