RETRIEVED AT : Apr 21 2018 21:05 Local <br>
  RETRIEVED AT: Apr 22 2018 01:05 UTC<br><br>
CYSN 220000Z 21005KT 15SM SCT240 09/M01 A3038 RMK CI4 SLP292<br><br>
TAF CYSN 211938Z 2120/2201 26007KT P6SM BKN240 BECMG 2123/2201 VRB03KT RMK NXT FCST WILL BE ISSUED AT 221245Z<br><br>
<br><br>
CYHM 220000Z 30006KT 15SM SCT250 10/M05 A3039 RMK CI3 SLP299<br><br>
TAF CYHM 212340Z 2200/2224 31005KT P6SM SCT250 BECMG 2202/2204 34005KT FM221400 05008KT P6SM SKC RMK NXT FCST BY 220600Z<br><br>
<br><br>
KIAG 220053Z 22007KT 10SM CLR 06/M04 A3040 RMK AO2 SLP304 T00611039 $<br><br>
KIAG 212353Z 22007KT 10SM CLR 08/M03 A3038 RMK AO2 SLP300 T00831033 10139 20083 55001 $<br><br>
KIAG 212324Z 2200/2224 23008KT P6SM SKC FM220300 22004KT P6SM SKC FM220400 VRB03KT P6SM SKC FM221600 03004KT P6SM SKC FM221800 02008KT P6SM SKC<br><br>
<br><br>
KBUF 220054Z 22003KT 10SM BKN250 05/M05 A3040 RMK AO2 SLP302 T00501050<br><br>
KBUF 212354Z 23006KT 10SM BKN200 BKN250 07/M06 A3039 RMK AO2 SLP298 T00721061 10100 20072 55001<br><br>
KBUF 212324Z 2200/2224 22006KT P6SM SKC FM220300 VRB03KT P6SM SKC FM221900 04004KT P6SM SKC<br><br>
<br><br>
CYYZ 220000Z 30009G15KT 15SM FEW260 11/M07 A3038 RMK CI1 SLP293<br><br>
TAF CYYZ 212340Z 2200/2306 30010KT P6SM FEW250 BECMG 2200/2202 31005KT FM221700 16008KT P6SM SKC BECMG 2301/2303 36005KT RMK NXT FCST BY 220300Z<br><br>
<br><br>
CYOO 220000Z AUTO 32006KT 9SM CLR 10/M07 A3037 RMK SLP291<br><br>
CYOO has no TAF <br><br>
<br><br>
CYTR 220000Z 29007KT 15SM FEW200 10/M04 A3033 RMK CI1 SLP275<br><br>
TAF CYTR 212330Z 2200/2224 27012KT P6SM FEW200 BECMG 2202/2204 VRB03KT FM221600 21008KT P6SM SKC BECMG 2222/2224 VRB03KT RMK NXT FCST BY 220600Z<br><br>
<br><br>
