RETRIEVED AT : Oct 03 2017 12:10 Local <br>
  RETRIEVED AT: Oct 03 2017 16:10 UTC<br><br>
TAF CYSN 031238Z 0313/0401 19008KT P6SM SCT240 BECMG 0315/0317 19012KT RMK NXT FCST BY 032000Z<br><br>
<br><br>
TAF CYHM 031139Z 0312/0412 VRB03KT P6SM SKC PROB30 0312/0313 11/2SM BR FM031500 20012KT P6SM SKC BECMG 0318/0320 20012G22KT RMK NXT FCST BY 031800Z<br><br>
<br><br>
KIAG 031130Z 0312/0412 16006KT P6SM FEW250 FM031500 21009KT P6SM FEW250 FM040900 21010KT P6SM SCT045<br><br>
<br><br>
KBUF 031130Z 0312/0412 16007KT P6SM FEW250 FM031500 21009KT P6SM FEW250 FM041000 21011KT P6SM SCT045<br><br>
<br><br>
TAF CYYZ 031139Z 0312/0418 VRB03KT P6SM SKC BECMG 0314/0316 20012KT FM032000 21012G22KT P6SM SKC BECMG 0401/0403 20010KT FM040900 22010G20KT P6SM BKN050 FM041500 23015G25KT P6SM BKN025 RMK NXT FCST BY 031500Z<br><br>
<br><br>
CYOO has no TAF <br><br>
<br><br>
TAF CYTR 031130Z 0312/0412 18005KT 6SM BR FEW005 TEMPO 0312/0313 4SM BR PROB30 0312/0313 2SM BR FM031300 18008KT P6SM SCT250 FM041000 22010KT P6SM BKN060 BKN250 RMK NXT FCST BY 031800Z<br><br>
<br><br>
