RETRIEVED AT : Jun 07 2019 14:05 Local <br>
  RETRIEVED AT: Jun 07 2019 18:05 UTC<br><br>
CYSN 071700Z 01004KT 310V030 15SM FEW250 23/09 A3001 RMK CI2 SLP164 DENSITY ALT 1200FT<br><br>
TAF CYSN 071239Z 0713/0801 21005KT P6SM SKC BECMG 0716/0718 35008KT BECMG 0722/0724 02005KT RMK NXT FCST BY 072000Z<br><br>
<br><br>
CYHM 071700Z 36006KT 330V110 15SM FEW260 24/10 A3002 RMK CI2 SLP166 DENSITY ALT 1900FT<br><br>
TAF CYHM 071738Z 0718/0818 04006KT P6SM FEW240 FM080300 03005KT P6SM SKC BECMG 0812/0814 05015KT RMK NXT FCST BY 080000Z<br><br>
<br><br>
KIAG 071753Z 36007KT 10SM CLR 23/09 A3001 RMK AO2 SLP160 T02330094 10239 20117 58002<br><br>
KIAG 071653Z 30003KT 10SM CLR 23/11 A3001 RMK AO2 SLP163 T02330106<br><br>
KIAG 071720Z 0718/0818 VRB05KT P6SM FEW250<br><br>
<br><br>
KBUF 071754Z 02006KT 10SM FEW055 FEW250 24/11 A3000 RMK AO2 SLP157 T02440106 10244 20128 58005<br><br>
KBUF 071654Z 07005KT 10SM FEW055 FEW260 24/09 A3002 RMK AO2 SLP163 T02390094<br><br>
KBUF 071720Z 0718/0818 VRB03KT P6SM FEW250<br><br>
<br><br>
CYYZ 071700Z 05007KT 15SM FEW250 24/10 A3001 RMK CI1 CI TR SLP165 DENSITY ALT 1600FT<br><br>
TAF CYYZ 071738Z 0718/0824 05007KT P6SM FEW250 BECMG 0723/0801 02007KT FM081200 08012KT P6SM SKC BECMG 0814/0816 13010G20KT RMK NXT FCST BY 072100Z<br><br>
<br><br>
CYOO 071700Z AUTO 35004KT 310V030 9SM CLR 24/10 A3000 RMK SLP162 DENSITY ALT 1400FT<br><br>
TAF CYOO 071338Z 0714/0802 34007KT P6SM SKC BECMG 0715/0717 18007KT RMK FCST BASED ON AUTO OBS. NXT FCST BY 072000Z<br><br>
<br><br>
CYTR 071700Z 21008KT 15SM FEW250 22/12 A2998 RMK CI1 SLP155<br><br>
TAF CYTR 071730Z 0718/0818 21012KT P6SM FEW250 BECMG 0800/0802 VRB03KT BECMG 0804/0806 04007KT FM081400 09007KT P6SM SKC BECMG 0816/0818 21010KT RMK NXT FCST BY 080000Z<br><br>
<br><br>
