RETRIEVED AT : Jan 12 2019 17:15 Local <br>
  RETRIEVED AT: Jan 12 2019 22:15 UTC<br><br>
CYSN 122200Z 06008KT 15SM SCT028 OVC075 M05/M10 A3051 RMK SC4AC4 SLP338<br><br>
CYSN 122100Z 07009KT 15SM SCT025 OVC078 M04/M10 A3051 RMK SC4AC4 SLP339<br><br>
TAF CYSN 121938Z 1220/1302 09010KT P6SM SCT025 BKN080 TEMPO 1220/1302 BKN020 RMK NXT FCST WILL BE ISSUED AT 131345Z<br><br>
<br><br>
CYHM 122200Z 05013KT 15SM BKN018 OVC022 M05/M09 A3046 RMK SC7SC1 SLP332<br><br>
CYHM 122127Z 06012G18KT 15SM BKN018 OVC023 M05/M09 A3046 RMK SC6SC2 SLP332<br><br>
CYHM 122100Z 07012KT 15SM -SN BKN017 OVC023 M05/M08 A3047 RMK SC7SC1 PCPN VRY LGT SLP334<br><br>
CYHM 122040Z 07014KT 15SM -SN OVC015 M05/M08 A3047 RMK SC8 SLP335<br><br>
TAF AMD CYHM 121915Z 1219/1318 07010KT P6SM BKN025 OVC060 TEMPO 1219/1224 4SM -SN OVC015 FM130000 04012KT P6SM BKN015 OVC210 FM131000 04010KT P6SM SCT008 BKN012 TEMPO 1310/1316 3SM -SHSN PROB30 1310/1315 OVC008 FM131600 05012G22KT P6SM BKN015 TEMPO 1316/1318 3SM -SHSN RMK NXT FCST BY 130000Z<br><br>
<br><br>
KIAG 122153Z 07008KT 10SM OVC080 M06/M11 A3049 RMK AO2 SLP347 T10561111 $<br><br>
KIAG 122053Z 08009KT 10SM SCT028 OVC080 M06/M11 A3050 RMK AO2 SLP349 T10561111 56005 $<br><br>
KIAG 122106Z 1221/1318 07008KT P6SM VCSH OVC080 FM130700 07008KT P6SM BKN120 FM131300 07011KT P6SM SCT070<br><br>
<br><br>
KBUF 122154Z 07008KT 10SM FEW050 BKN080 OVC150 M06/M12 A3048 RMK AO2 SLP335 T10561117<br><br>
KBUF 122054Z 07009KT 10SM FEW050 BKN080 OVC120 M05/M11 A3048 RMK AO2 SLP336 T10501111 58007<br><br>
KBUF 122106Z 1221/1318 06007KT P6SM VCSH BKN080 FM122200 06008KT P6SM BKN130 BKN220 FM130900 07008KT P6SM BKN120<br><br>
<br><br>
CYYZ 122200Z 04005KT 15SM FEW030 FEW090 BKN210 M05/M14 A3050 RMK SC1AC1CS6 SC TR SLP342<br><br>
CYYZ 122100Z 03008KT 15SM FEW030 FEW090 BKN240 M05/M13 A3050 RMK SC1AC1CS7 SC TR AC TR SLP341<br><br>
TAF CYYZ 122043Z 1221/1324 04008KT P6SM FEW025 SCT090 BKN240 BECMG 1302/1304 02008KT FM130900 03008KT P6SM SCT015 TEMPO 1312/1315 BKN015 FM131500 03010KT P6SM FEW015 RMK NXT FCST BY 130000Z<br><br>
<br><br>
CYOO 122200Z AUTO 01005KT 9SM OVC220 M07/M13 A3052 RMK SLP348<br><br>
CYOO 122100Z AUTO 02005KT 9SM BKN210 OVC230 M06/M14 A3052 RMK SLP347<br><br>
TAF CYOO 121938Z 1220/1308 04006KT P6SM SCT220 BECMG 1301/1303 03010KT RMK FCST BASED ON AUTO OBS. NXT FCST BY 130200Z<br><br>
<br><br>
CYTR 122200Z 00000KT 15SM BKN200 M08/M17 A3056 RMK CI6 SLP355<br><br>
CYTR 122100Z 13002KT 15SM BKN200 M07/M19 A3056 RMK CI6 SLP357<br><br>
TAF CYTR 121730Z 1218/1318 05005KT P6SM FEW050 SCT200 FM130600 03008KT P6SM FEW020 RMK NXT FCST BY 130000Z<br><br>
<br><br>
