RETRIEVED AT : Dec 10 2017 17:10 Local <br>
  RETRIEVED AT: Dec 10 2017 22:10 UTC<br><br>
TAF CYSN 101938Z 1020/1102 25015G25KT P6SM SCT030 OVC080 TEMPO 1020/1024 21/2SM -SHSN BKN030 OVC080 FM110000 25012G22KT P6SM -SHSN BKN080 RMK NXT FCST WILL BE ISSUED AT 111345Z<br><br>
<br><br>
CYHM 102200Z 24012G22KT 4SM -SN OVC030 M04/M06 A2984 RMK SC8 SLP118<br><br>
CYHM 102123Z 24015G20KT 12SM -SN FEW020 OVC027 M03/M07 A2983 RMK CU1SC8 CU TR SLP115<br><br>
CYHM 102100Z 25011G22KT 15SM FEW018 OVC028 M03/M07 A2982 RMK CU1SC7 SLP112<br><br>
TAF CYHM 101741Z 1018/1118 26015G25KT P6SM -SN BKN030 OVC050 TEMPO 1018/1104 21/2SM -SN OVC020 FM110400 25012G22KT 21/2SM -SN OVC025 PROB30 1104/1106 11/2SM -SHSN VV008 FM110600 33008KT P6SM SCT030 BECMG 1110/1112 02005KT FM111500 02005KT P6SM SCT020 BKN180 RMK NXT FCST BY 110000Z<br><br>
<br><br>
KIAG 102153Z 26015KT 9SM -SN OVC085 M01/M08 A2984 RMK AO2 PK WND 27026/2113 SLP120 P0000 T10061083<br><br>
KIAG 102053Z 27019G26KT 9SM -SN SCT038 SCT050 OVC090 M01/M07 A2983 RMK AO2 PK WND 26026/2012 SLP115 P0000 60000 T10061072 53002<br><br>
KIAG 102158Z 1022/1118 25012G20KT 6SM -SN OVC040 FM110300 25012G19KT P6SM OVC060 FM110600 27009KT P6SM OVC035 FM110900 32008KT P6SM SCT040 FM111600 30006KT P6SM SCT040<br><br>
<br><br>
KBUF 102154Z 26016G22KT 5SM -SN BKN027 OVC036 M02/M06 A2984 RMK AO2 SLP113 P0000 T10171061 $<br><br>
KBUF 102125Z 27013KT 7SM -SN SCT017 OVC034 M02/M06 A2984 RMK AO2 P0000 T10221056 $<br><br>
KBUF 102111Z 27013KT 3SM -SN BKN012 BKN020 OVC037 M02/M04 A2983 RMK AO2 P0000 T10221039 $<br><br>
KBUF 102054Z 26013G19KT 1/2SM R23/3000V5000FT SN BKN012 BKN020 OVC025 M03/M04 A2982 RMK AO2 SLP109 SNINCR 1/2 P0002 60002 T10281039 53001 $<br><br>
KBUF 102047Z COR 26010KT 1/2SM R23/3000V4500FT SN BKN013 BKN020 OVC025 M03/M04 A2982 RMK AO2 P0001 T10281039 $<br><br>
KBUF 102041Z 26014KT 1/2SM R23/3500V6000FT SN BKN015 BKN020 OVC025 M03/M04 A2982 RMK AO2 P0001 T10281039 $<br><br>
KBUF 102029Z 27011KT 1SM R23/3500VP6000FT -SN BR BKN015 BKN027 OVC034 M02/M04 A2982 RMK AO2 P0001 T10221039 $<br><br>
KBUF 102011Z 25010KT 1/2SM R23/3000V6000FT SN BKN013 OVC028 M02/M04 A2982 RMK AO2 P0000 T10221039 $<br><br>
KBUF 102158Z 1022/1118 25012G20KT 1/2SM SN OVC012 FM110100 26012G20KT 2SM -SN OVC025 FM110300 25011G18KT P6SM VCSH OVC035 FM111400 30005KT P6SM SCT040<br><br>
<br><br>
TAF CYYZ 102041Z 1021/1124 25015G25KT P6SM -SN SCT020 OVC060 TEMPO 1021/1102 4SM -SN OVC020 FM110200 25012KT 6SM -SN OVC030 TEMPO 1102/1104 11/4SM -SN OVC015 BECMG 1102/1104 32012KT FM110400 35012KT P6SM -SHSN BKN030 FM110600 35010KT P6SM SCT030 FM111500 VRB03KT P6SM BKN180 FM112100 10010KT 3SM -SN BKN020 OVC080 PROB30 1121/1124 2SM -SN OVC020 RMK NXT FCST BY 110000Z<br><br>
<br><br>
CYOO 102209Z AUTO 25008G18KT 9SM OVC090 M02/M06 A2980 RMK SLP101<br><br>
CYOO 102200Z AUTO 25012G18KT 9SM -SN FEW033 OVC095 M02/M06 A2980 RMK SLP100<br><br>
CYOO 102100Z AUTO 26012G19KT 9SM -SN BKN034 OVC041 M01/M07 A2979 RMK SLP096<br><br>
CYOO 102037Z AUTO 27012G20KT 9SM -SN SCT034 OVC042 M01/M07 A2979 RMK SLP094<br><br>
CYOO has no TAF <br><br>
<br><br>
CYTR 102200Z 25011KT 15SM FEW036 OVC100 M01/M07 A2979 RMK SC2AC6 SLP094<br><br>
CYTR 102100Z 26011G18KT 15SM FEW036 OVC100 M01/M07 A2978 RMK SC2AC6 SLP091<br><br>
TAF AMD CYTR 102207Z 1022/1118 25015G25KT P6SM SCT030 BKN100 TEMPO 1022/1101 6SM -SHSN BKN030 OVC100 FM110100 26015G25KT P6SM FEW012 BKN030 TEMPO 1101/1104 11/2SM -SHSN BKN012 OVC030 BECMG 1102/1104 30012KT FM110400 30012KT P6SM SCT030 BKN050 FM110800 33008KT P6SM SKC FM111600 33005KT P6SM BKN200 RMK NXT FCST BY 110000Z<br><br>
<br><br>
