RETRIEVED AT : Sep 30 2017 13:10 Local <br>
  RETRIEVED AT: Sep 30 2017 17:10 UTC<br><br>
CYSN 301700Z 03009G18KT 330V040 15SM SCT036 14/04 A3041 RMK CU3 SLP299<br><br>
CYSN 301600Z 01012KT 15SM FEW030 13/05 A3040 RMK CU2 SLP296<br><br>
TAF CYSN 301238Z 3013/0101 36015KT P6SM SCT025 TEMPO 3013/3016 BKN020 BECMG 3018/3020 01010KT FM302300 VRB03KT P6SM SKC RMK NXT FCST BY 302000Z<br><br>
<br><br>
CYHM 301700Z 01009G18KT 15SM FEW030 SCT035 13/01 A3042 RMK CU1SC2 SLP305<br><br>
CYHM 301600Z 01010G19KT 350V050 15SM FEW030 SCT035 12/03 A3041 RMK CU2SC1 SLP303<br><br>
TAF CYHM 301141Z 3012/0112 35010KT P6SM FEW020 SCT050 TEMPO 3012/3013 BKN020 FM301400 01010KT P6SM FEW040 BECMG 3020/3022 04007KT BECMG 0102/0104 VRB03KT RMK NXT FCST BY 301800Z<br><br>
<br><br>
KIAG 301653Z 01009KT 10SM SCT033 BKN044 13/03 A3040 RMK AO2 SLP299 T01330033<br><br>
KIAG 301553Z 02010KT 10SM SCT024 BKN033 BKN043 13/05 A3039 RMK AO2 SLP294 T01330050<br><br>
KIAG 301503Z 3015/0112 35010KT P6SM SCT025 BKN040 FM301900 01009KT P6SM SCT040 FM302100 01005KT P6SM SCT250 FM302300 VRB03KT P6SM FEW250<br><br>
<br><br>
KBUF 301654Z 33009KT 10SM FEW030 BKN036 BKN048 12/06 A3039 RMK AO2 SLP294 T01170061<br><br>
KBUF 301554Z 34008KT 10SM BKN033 BKN043 12/06 A3038 RMK AO2 SLP291 T01170061<br><br>
KBUF 301503Z 3015/0112 35010KT P6SM SCT025 BKN040 FM301900 01008KT P6SM SCT040 FM302300 03004KT P6SM SCT250<br><br>
<br><br>
CYYZ 301700Z 35007G16KT 310V080 15SM FEW045 FEW250 13/02 A3041 RMK CU1CI1 CI TR SLP303<br><br>
CYYZ 301600Z 36012KT 15SM FEW040 FEW250 13/02 A3041 RMK CU2CI1 CI TR SLP303<br><br>
TAF CYYZ 301438Z 3015/0118 36015KT P6SM FEW030 BECMG 3016/3018 35012KT BECMG 3022/3024 33007KT FM011200 31005KT P6SM FEW040 BECMG 0114/0116 22005KT RMK NXT FCST BY 301800Z<br><br>
<br><br>
CYOO 301700Z AUTO 01009KT 330V030 9SM FEW042 13/03 A3040 RMK SLP299<br><br>
CYOO 301640Z AUTO 35009G15KT 7SM FEW040 13/02 A3040 RMK SLP300<br><br>
CYOO 301638Z AUTO 36009G15KT 5SM HZ FEW040 13/02 A3040 RMK SLP300<br><br>
CYOO 301603Z AUTO 36012KT 7SM BKN038 12/02 A3040 RMK SLP299<br><br>
CYOO 301600Z AUTO 36011G16KT 320V020 5SM HZ BKN038 12/02 A3040 RMK SLP298<br><br>
CYOO 301555Z AUTO 36009G15KT 320V020 5SM HZ SCT038 12/02 A3040 RMK SLP298<br><br>
CYOO 301519Z AUTO 35011KT 340V050 6SM HZ CLR 12/03 A3039 RMK SLP295<br><br>
CYOO 301517Z AUTO 36011KT 340V050 5SM HZ CLR 12/04 A3039 RMK SLP295<br><br>
CYOO 301512Z AUTO 36011KT 7SM CLR 11/04 A3039 RMK SLP295<br><br>
CYOO 301511Z AUTO 35009KT 5SM HZ CLR 11/03 A3039 RMK SLP295<br><br>
CYOO has no TAF <br><br>
<br><br>
CYTR 301700Z 02008KT 15SM BKN036 14/05 A3038 RMK SC5 SLP289<br><br>
CYTR 301600Z 01009KT 15SM SCT028 12/05 A3038 RMK CU4 SLP288<br><br>
TAF CYTR 301130Z 3012/0112 34008KT P6SM FEW080 FM302000 34005KT P6SM SKC BECMG 0102/0104 VRB03KT RMK NXT FCST BY 301800Z<br><br>
<br><br>
