RETRIEVED AT : Sep 25 2017 01:10 Local <br>
  RETRIEVED AT: Sep 25 2017 05:10 UTC<br><br>
CYSN has no TAF <br><br>
<br><br>
CYHM 250500Z 28003KT 15SM SKC 22/17 A3010 RMK SLP191 DENSITY ALT 1600FT<br><br>
CYHM 250400Z 27003KT 15SM SKC 21/18 A3011 RMK SLP195 DENSITY ALT 1500FT<br><br>
TAF CYHM 242340Z 2500/2524 VRB03KT P6SM SKC RMK NXT FCST BY 250600Z<br><br>
<br><br>
KIAG 250453Z AUTO 00000KT 6SM HZ CLR 22/18 A3009 RMK AO2 SLP183 T02220183 403390183<br><br>
KIAG 250353Z AUTO 00000KT 6SM HZ CLR 23/19 A3010 RMK AO2 SLP186 T02280189<br><br>
KIAG 250241Z 2503/2524 VRB03KT P6SM SKC FM250800 00000KT 4SM BR SKC FM251200 VRB03KT P6SM FEW250 FM251700 14004KT P6SM FEW250 FM252000 09007KT P6SM FEW250<br><br>
<br><br>
KBUF 250454Z 14005KT 9SM CLR 22/19 A3010 RMK AO2 SLP188 T02170194 403220172<br><br>
KBUF 250354Z 14003KT 9SM CLR 23/20 A3011 RMK AO2 SLP192 T02280200<br><br>
KBUF 250241Z 2503/2524 VRB04KT P6SM SKC FM250800 VRB03KT 4SM BR SKC FM251200 VRB03KT P6SM FEW250 FM252000 07006KT P6SM FEW250<br><br>
<br><br>
CYYZ 250500Z 28002KT 15SM SKC 24/18 A3009 RMK SLP186 DENSITY ALT 1600FT<br><br>
CYYZ 250400Z 26002KT 15SM SKC 25/18 A3009 RMK SLP188 DENSITY ALT 1700FT<br><br>
TAF CYYZ 250238Z 2503/2606 VRB03KT P6SM SKC FM251700 15008KT P6SM SCT240 RMK NXT FCST BY 250600Z<br><br>
<br><br>
CYOO 250500Z AUTO 36002KT 9SM CLR 20/17 A3009 RMK SLP187 DENSITY ALT 900FT<br><br>
CYOO 250400Z AUTO 34002KT 9SM CLR 21/17 A3009 RMK SLP189 DENSITY ALT 1000FT<br><br>
CYOO has no TAF <br><br>
<br><br>
CYTR 250500Z 00000KT 3SM BR MIFG SKC 19/19 A3007 RMK VIS VRB 2 1/4-4 SLP183<br><br>
CYTR 250400Z 00000KT 3SM BR MIFG SKC 20/20 A3007 RMK VIS VRB 2 1/4-4 SLP184<br><br>
CYTR 250335Z 00000KT 3SM BR SKC 20/20 A3007 RMK VIS VRB 2 1/4-4 SLP184<br><br>
TAF CYTR 242330Z 2500/2524 VRB03KT P6SM SKC TEMPO 2504/2512 3SM BR BECMG 2515/2517 20008KT RMK NXT FCST BY 250600Z<br><br>
<br><br>
