RETRIEVED AT : Nov 13 2017 01:10 Local <br>
  RETRIEVED AT: Nov 13 2017 06:10 UTC<br><br>
CYSN has no TAF <br><br>
<br><br>
CYHM 130600Z 01004KT 2 1/2SM -RA BR OVC020 01/01 A3031 RMK SC8 SLP273<br><br>
CYHM 130500Z 01003KT 15SM -RA OVC015 01/01 A3032 RMK SC8 SLP276<br><br>
TAF CYHM 130539Z 1306/1406 02005KT P6SM -RA SCT008 OVC015 TEMPO 1306/1308 4SM -RA BR BKN008 OVC015 FM130800 02005KT 3SM -SNRA BR OVC008 TEMPO 1308/1310 6SM -RA BR SCT008 OVC015 PROB30 1308/1310 2SM -SNRA BR OVC005 FM131000 VRB03KT 2SM -DZ BR BKN005 OVC015 TEMPO 1310/1314 6SM BR SCT005 OVC015 PROB30 1310/1313 2SM -FZDZ BR FM131400 30007KT P6SM SCT015 BKN030 TEMPO 1314/1318 BKN015 BECMG 1404/1406 27005KT RMK NXT FCST BY 131200Z<br><br>
<br><br>
KIAG 130553Z AUTO 04005KT 5SM -SN OVC035 02/M01 A3032 RMK AO2 RAB05E41SNE05B41 SLP280 P0002 60004 T00221011 10050 20022 56005 $<br><br>
KIAG 130453Z AUTO 34003KT 5SM -SN OVC033 03/M01 A3033 RMK AO2 RAE50SNB50 SLP283 P0001 T00281006 400671006 $<br><br>
KIAG 130540Z 1306/1406 VRB03KT 5SM -SHRASN OVC030 FM130900 00000KT P6SM VCSH OVC030 FM131300 VRB03KT P6SM OVC015 FM140500 VRB03KT P6SM OVC035<br><br>
<br><br>
KBUF 130554Z 04005KT 10SM -RA OVC034 01/M01 A3031 RMK AO2 SLP273 P0002 60004 T00111006 10039 20011 56007<br><br>
KBUF 130454Z 36003KT 10SM -RA OVC032 02/M01 A3032 RMK AO2 SLP275 P0000 T00221011 400561017<br><br>
KBUF 130540Z 1306/1406 VRB03KT P6SM -SHRA OVC035 FM130900 VRB03KT P6SM VCSH OVC030 FM131300 VRB03KT P6SM OVC015 FM140400 VRB03KT P6SM OVC035<br><br>
<br><br>
CYYZ 130600Z 02003KT 10SM -RA OVC032 02/00 A3032 RMK SC8 SLP276<br><br>
CYYZ 130500Z 32004KT 10SM -RA SCT024 OVC036 02/00 A3033 RMK SC4SC4 SLP279<br><br>
TAF CYYZ 130539Z 1306/1412 28005KT P6SM -RA SCT008 OVC025 TEMPO 1306/1310 3SM -SNRA BR BKN008 OVC025 FM131000 33005KT P6SM -DZ -SN BKN010 OVC025 TEMPO 1310/1314 P6SM NSW SCT010 BKN025 FM131400 28008KT P6SM BKN030 FM132000 VRB03KT P6SM BKN030 TEMPO 1320/1323 P6SM -SHRA BKN020 BECMG 1404/1406 30005KT RMK NXT FCST BY 130900Z<br><br>
<br><br>
CYOO 130600Z AUTO 11003KT 9SM -RA BKN024 OVC039 04/M00 A3032 RMK SLP275<br><br>
CYOO 130556Z AUTO 11003KT 9SM -RA BKN024 OVC039 04/M00 A3033 RMK SLP276<br><br>
CYOO 130527Z AUTO 12003KT 100V160 9SM -RA OVC041 04/M01 A3034 RMK SLP279<br><br>
CYOO 130522Z AUTO VRB02KT 9SM OVC041 04/M02 A3034 RMK SLP279<br><br>
CYOO 130500Z AUTO 08003KT 060V130 9SM -RA BKN043 OVC050 04/M02 A3034 RMK SLP279<br><br>
CYOO 130459Z AUTO 08003KT 060V130 9SM -RA BKN043 OVC050 04/M02 A3034 RMK SLP279<br><br>
CYOO has no TAF <br><br>
<br><br>
CYTR 130600Z 00000KT 15SM BKN049 OVC120 03/M02 A3035 RMK SC6AC2 SLP283<br><br>
CYTR 130500Z 06004KT 15SM OVC049 02/M03 A3036 RMK SC8 SLP285<br><br>
TAF CYTR 130530Z 1306/1406 06005KT P6SM OVC050 FM130700 06005KT P6SM -RASN FEW020 OVC040 FM130900 05007KT 6SM -RASN BR SCT012 OVC030 TEMPO 1309/1315 BKN012 OVC030 FM131500 05007KT P6SM SCT012 OVC030 TEMPO 1315/1322 BKN012 OVC030 FM132200 04004KT P6SM FEW020 OVC040 RMK NXT FCST BY 131200Z<br><br>
<br><br>
