RETRIEVED AT : Nov 03 2018 14:05 Local <br>
  RETRIEVED AT: Nov 03 2018 18:05 UTC<br><br>
CYSN 031700Z 27018G24KT 15SM FEW020 BKN074 06/01 A2995 RMK SC1AC6 SLP148<br><br>
TAF CYSN 031238Z 0313/0401 29012G22KT 5SM -RA BR OVC015 TEMPO 0313/0314 P6SM NSW SCT015 OVC040 FM031400 28012G22KT P6SM BKN015 TEMPO 0314/0318 BKN030 FM031800 28015G25KT P6SM BKN030 RMK NXT FCST BY 032000Z<br><br>
<br><br>
CYHM 031751Z 27010G15KT 8SM -SHRA FEW022 OVC030 05/02 A3000 RMK CU2SC6 SLP166<br><br>
CYHM 031700Z 26012KT 15SM FEW025 SCT035 BKN050 06/00 A2996 RMK CU2SC2SC3 SLP155<br><br>
TAF CYHM 031738Z 0318/0418 27015G25KT P6SM BKN030 OVC050 TEMPO 0318/0321 P6SM -SHRA BKN020 OVC050 FM032100 28015G25KT P6SM BKN030 BECMG 0323/0401 27008KT FM040500 VRB03KT P6SM SCT030 FM041600 07010KT P6SM FEW030 BKN140 RMK NXT FCST BY 040000Z<br><br>
<br><br>
KIAG 031753Z 27019G23KT 10SM BKN031 OVC060 06/00 A2998 RMK AO2 SLP161 60003 T00610000 10061 20028 51034<br><br>
KIAG 031653Z 28017G22KT 10SM BKN025 OVC070 06/01 A2995 RMK AO2 SLP151 T00560011<br><br>
KIAG 031724Z 0318/0418 28016G28KT P6SM BKN025 FM032000 28014G25KT P6SM BKN035 FM040000 28013G20KT P6SM SCT040 FM040100 28011KT P6SM SCT060 FM040800 VRB03KT P6SM FEW250 FM041700 10008KT P6SM SCT100<br><br>
<br><br>
KBUF 031754Z 27017G20KT 10SM SCT026 BKN034 BKN065 06/01 A2998 RMK AO2 SLP156 60005 T00610006 10061 20028 52034<br><br>
KBUF 031654Z 26013KT 10SM SCT022 BKN028 BKN065 06/02 A2994 RMK AO2 SLP144 T00610017<br><br>
KBUF 031611Z 28013KT 10SM FEW017 BKN022 BKN070 06/02 A2992 RMK AO2 T00560017<br><br>
KBUF 031724Z 0318/0418 27015G25KT P6SM BKN025 FM032100 27014G24KT P6SM BKN035 FM040000 27011KT P6SM SCT035 FM040300 27007KT P6SM SCT040 FM041100 00000KT P6SM BKN100 FM041700 10008KT P6SM SCT100<br><br>
<br><br>
CYYZ 031700Z 30015G22KT 15SM BKN035 BKN060 06/M01 A2993 RMK SC6SC1 SLP142<br><br>
TAF CYYZ 031738Z 0318/0424 30015G25KT P6SM BKN040 TEMPO 0318/0322 30018G28KT FM032200 29015KT P6SM BKN040 FM040200 29010KT P6SM FEW030 BECMG 0404/0406 28006KT FM041200 VRB03KT P6SM FEW030 BKN240 FM041700 11008KT P6SM SCT020 BKN140 FM042100 09010KT P6SM FEW025 BKN100 RMK NXT FCST BY 032100Z<br><br>
<br><br>
CYOO 031714Z AUTO 30012KT 9SM FEW023 SCT027 BKN032 OVC065 06/03 A2990 RMK SLP132<br><br>
CYOO 031709Z AUTO 31012KT 9SM -RA SCT023 BKN029 OVC042 05/03 A2990 RMK SLP131<br><br>
CYOO 031706Z AUTO 31011G16KT 9SM -RA BKN023 BKN029 OVC040 05/05 A2990 RMK SLP132<br><br>
CYOO 031701Z AUTO 30012G18KT 9SM -RA BKN026 OVC036 05/03 A2990 RMK SLP132<br><br>
CYOO 031700Z AUTO 30012G18KT 9SM -RA BKN024 OVC033 04/03 A2991 RMK SLP133<br><br>
CYOO 031656Z AUTO 30014G23KT 8SM -RA BKN024 BKN029 OVC039 04/03 A2990 RMK SLP132<br><br>
CYOO 031654Z AUTO 30013G23KT 9SM -RA FEW020 BKN026 OVC033 04/03 A2990 RMK SLP132<br><br>
CYOO 031653Z AUTO 31012G23KT 9SM -RA BKN024 OVC033 04/02 A2990 RMK SLP131<br><br>
CYOO 031650Z AUTO 31016G23KT 7SM -RA SCT024 BKN028 BKN033 OVC042 05/02 A2990 RMK SLP130<br><br>
CYOO 031649Z AUTO 31016G23KT 7SM -RA BKN024 BKN033 OVC042 05/02 A2990 RMK SLP130<br><br>
CYOO 031645Z AUTO 30016G23KT 9SM -RA SCT024 BKN029 BKN036 OVC046 05/02 A2989 RMK SLP128<br><br>
CYOO has no TAF <br><br>
<br><br>
CYTR 031735Z 29013G22KT 15SM BKN016 OVC045 05/02 A2985 RMK SC7SC1 SLP113<br><br>
CYTR 031700Z 30015KT 15SM -SHRA OVC015 05/02 A2984 RMK SF8 SLP107<br><br>
CYTR 031624Z 29010G21KT 15SM BKN012 OVC045 05/03 A2981 RMK SF6SC2 SLP100<br><br>
TAF CYTR 031730Z 0318/0418 30015G25KT P6SM SCT015 BKN030 TEMPO 0318/0320 5SM -SHRA BR BKN015 BECMG 0318/0320 30018G28KT FM040000 28015KT P6SM BKN030 BECMG 0404/0406 27006KT SCT020 FM041000 VRB03KT P6SM SCT020 BECMG 0416/0418 10008KT FEW020 SCT200 RMK NXT FCST BY 040000Z<br><br>
<br><br>
