RETRIEVED AT : Sep 23 2017 14:10 Local <br>
  RETRIEVED AT: Sep 23 2017 18:10 UTC<br><br>
CYSN 231800Z 30006KT 260V340 15SM FEW150 32/20 A3011 RMK AC1 SLP195 DENSITY ALT 2100FT<br><br>
CYSN 231700Z 26007KT 230V300 15SM FEW060 FEW150 31/17 A3012 RMK SC1AC1 SLP200 DENSITY ALT 2000FT<br><br>
TAF CYSN 231238Z 2313/2401 22007KT P6SM FEW120 RMK NXT FCST BY 232000Z<br><br>
<br><br>
CYHM 231800Z 29008KT 250V310 15SM FEW055 SCT140 BKN230 30/18 A3014 RMK CU1AC3CI2 SLP204 DENSITY ALT 2500FT<br><br>
CYHM 231700Z 28006KT 210V290 15SM FEW060 FEW075 FEW250 29/18 A3015 RMK CU1AC1CI1 CI TR SLP209 DENSITY ALT 2300FT<br><br>
TAF CYHM 231740Z 2318/2418 27005KT P6SM FEW070 FM241600 04007KT P6SM FEW050 RMK NXT FCST BY 240000Z<br><br>
<br><br>
KIAG 231753Z VRB03KT 10SM CLR 31/16 A3013 RMK AO2 SLP197 T03110161 10311 20172 58004<br><br>
KIAG 231653Z 24005KT 8SM CLR 30/16 A3014 RMK AO2 SLP200 T03000161<br><br>
KIAG 231736Z 2318/2418 25008KT P6SM SKC FM240000 VRB03KT P6SM SKC FM240700 VRB03KT 3SM BR VCFG SKC FM241200 VRB03KT P6SM SKC<br><br>
<br><br>
KBUF 231754Z 26005KT 10SM FEW250 29/17 A3014 RMK AO2 SLP204 T02890167 10289 20156 56007<br><br>
KBUF 231654Z VRB04KT 10SM FEW250 28/14 A3015 RMK AO2 SLP207 T02780144<br><br>
KBUF 231736Z 2318/2418 25008KT P6SM SKC FM240200 21004KT P6SM SKC FM240500 VRB03KT P6SM SKC<br><br>
<br><br>
CYYZ 231800Z 10003KT 030V140 15SM FEW070 FEW140 31/17 A3010 RMK AC1AC1 SLP193 DENSITY ALT 2400FT<br><br>
CYYZ 231700Z 33003KT 270V060 15SM SCT140 BKN250 31/15 A3012 RMK AC4CC1 SLP198 DENSITY ALT 2400FT<br><br>
TAF CYYZ 231740Z 2318/2424 27005KT P6SM FEW050 SCT140 FM240000 33006KT P6SM SKC FM241500 21008KT P6SM FEW050 RMK NXT FCST BY 232100Z<br><br>
<br><br>
CYOO 231800Z AUTO 21007KT 9SM CLR 29/16 A3010 RMK SLP193 DENSITY ALT 1900FT<br><br>
CYOO 231700Z AUTO 21006KT 130V240 9SM FEW140 29/17 A3012 RMK SLP199 DENSITY ALT 1900FT<br><br>
CYOO has no TAF <br><br>
<br><br>
CYTR 231800Z 19010KT 15SM FEW140 27/21 A3008 RMK AC1 SLP185<br><br>
CYTR 231700Z 19008KT 15SM SKC 26/20 A3009 RMK SLP190<br><br>
TAF CYTR 231730Z 2318/2418 20008KT P6SM SKC BECMG 2400/2402 VRB03KT BECMG 2414/2416 20008KT RMK NXT FCST BY 240000Z<br><br>
<br><br>
