RETRIEVED AT : Mar 07 2020 13:05 Local <br>
  RETRIEVED AT: Mar 07 2020 18:05 UTC<br><br>
CYSN 071700Z 27009KT 250V320 15SM FEW030 M01/M08 A3050 RMK SC1 SC TR SLP336<br><br>
TAF CYSN 071338Z 0714/0802 36007KT P6SM FEW020 FM071800 29008KT P6SM SKC FM072100 24007KT P6SM FEW120 BECMG 0723/0801 20010KT RMK NXT FCST BY 072000Z<br><br>
<br><br>
CYHM 071700Z 27008KT 15SM SKC M02/M11 A3048 RMK SLP336<br><br>
TAF CYHM 071738Z 0718/0818 27008KT P6SM SKC FM080000 22012KT P6SM FEW120 FM081200 22010KT P6SM SKC RMK NXT FCST BY 080000Z<br><br>
<br><br>
KIAG 071753Z 28007KT 10SM CLR 00/M07 A3047 RMK AO2 SLP333 T00001067 10000 21050 58006<br><br>
KIAG 071653Z 31006KT 10SM CLR M01/M07 A3049 RMK AO2 SLP339 T10111072<br><br>
KIAG 071730Z 0718/0818 29007KT P6SM FEW250 FM072100 24009KT P6SM FEW250 FM080200 22012G24KT P6SM SCT150 FM081200 23015G21KT P6SM FEW250<br><br>
<br><br>
KBUF 071754Z 23010KT 10SM FEW035 01/M06 A3046 RMK AO2 SLP325 T00061056 10006 21044 58006<br><br>
KBUF 071654Z 00000KT 10SM FEW030 00/M08 A3048 RMK AO2 SLP330 T00001078<br><br>
KBUF 071730Z 0718/0818 25007KT P6SM FEW030 FM072100 24011KT P6SM FEW250 FM072200 24010G16KT P6SM FEW250 FM080900 23012G25KT P6SM SCT150 FM081500 23017G33KT P6SM FEW250<br><br>
<br><br>
CYYZ 071700Z VRB07KT 15SM SKC M01/M11 A3048 RMK SLP332<br><br>
TAF CYYZ 071738Z 0718/0824 23005KT P6SM FEW120 FM081200 25010G20KT P6SM SKC RMK NXT FCST BY 072100Z<br><br>
<br><br>
CYOO 071700Z AUTO 24005KT 210V340 9SM CLR M00/M11 A3047 RMK SLP327<br><br>
TAF CYOO 071338Z 0714/0802 36010KT P6SM SKC BECMG 0716/0718 23009KT FM072100 23010KT P6SM FEW120 FM080000 20010KT P6SM BKN110 RMK FCST BASED ON AUTO OBS. NXT FCST BY 072000Z<br><br>
<br><br>
CYTR 071700Z 20007KT 15SM FEW210 M01/M11 A3047 RMK CI1 SLP322<br><br>
TAF CYTR 071730Z 0718/0818 22008KT P6SM FEW210 FM072100 24008KT P6SM FEW120 BKN210 FM080100 24008KT P6SM SCT080 BKN100 FM080800 26008KT P6SM SCT170 BKN240 RMK NXT FCST BY 080000Z<br><br>
<br><br>
