RETRIEVED AT : Dec 10 2017 15:10 Local <br>
  RETRIEVED AT: Dec 10 2017 20:10 UTC<br><br>
CYSN 102000Z 26011G21KT 12SM -SN SCT028 OVC093 M01/M06 A2983 RMK SC3AC5 SLP106<br><br>
CYSN 101900Z 26013G20KT 12SM -SN SCT029 OVC095 M01/M07 A2982 RMK SC4AC4 SLP103<br><br>
CYSN 101815Z 27013G23KT 10SM -SN FEW025 OVC080 M01/M07 A2982 RMK SC2AC6 SLP104<br><br>
TAF CYSN 101938Z 1020/1102 25015G25KT P6SM SCT030 OVC080 TEMPO 1020/1024 21/2SM -SHSN BKN030 OVC080 FM110000 25012G22KT P6SM -SHSN BKN080 RMK NXT FCST WILL BE ISSUED AT 111345Z<br><br>
<br><br>
CYHM 102000Z 24013G21KT 15SM FEW020 OVC031 M02/M06 A2980 RMK CU2SC6 SLP105<br><br>
CYHM 101953Z 25017KT 15SM SCT020 OVC031 M02/M06 A2980 RMK CU3SC5 SLP105<br><br>
CYHM 101900Z 24014G24KT 8SM -SN SCT018 BKN025 OVC035 M02/M06 A2980 RMK CU3SC3SC2 SLP104<br><br>
TAF CYHM 101741Z 1018/1118 26015G25KT P6SM -SN BKN030 OVC050 TEMPO 1018/1104 21/2SM -SN OVC020 FM110400 25012G22KT 21/2SM -SN OVC025 PROB30 1104/1106 11/2SM -SHSN VV008 FM110600 33008KT P6SM SCT030 BECMG 1110/1112 02005KT FM111500 02005KT P6SM SCT020 BKN180 RMK NXT FCST BY 110000Z<br><br>
<br><br>
KIAG 101953Z 27017G24KT 10SM -SN FEW045 BKN075 OVC090 M01/M07 A2981 RMK AO2 PK WND 26026/1943 LTG DSNT S UPB02E48SNE02B49 SLP110 P0000 T10061072<br><br>
KIAG 101853Z 28019G25KT 7SM -SN BKN040 OVC055 M01/M07 A2981 RMK AO2 PK WND 27029/1828 LTG DSNT S SLP108 P0000 T10061072<br><br>
KIAG 101720Z 1018/1118 26019G28KT P6SM OVC050 FM102100 25015G25KT P6SM -SN OVC040 FM110300 25012G19KT P6SM OVC060 FM110600 27009KT P6SM OVC035 FM110900 32008KT P6SM SCT040 FM111600 30006KT P6SM SCT040<br><br>
<br><br>
KBUF 101720Z 1018/1118 26015G26KT P6SM -SN OVC040 FM101900 25018G25KT 1 1/2SM -SN OVC025 FM102100 25017G25KT 1/2SM SN OVC012 FM110100 26014G21KT 2SM -SN OVC025 FM110300 25013G19KT P6SM VCSH OVC035 FM111400 30005KT P6SM SCT040<br><br>
<br><br>
CYYZ 102000Z 25017G23KT 12SM -SN OVC027 M02/M07 A2978 RMK SC8 SLP093<br><br>
CYYZ 101900Z 25018G27KT 15SM -SN BKN025 OVC042 M02/M07 A2977 RMK CU6SC2 SLP090<br><br>
TAF CYYZ 101741Z 1018/1124 25015G25KT P6SM -SN SCT020 OVC060 TEMPO 1018/1102 4SM -SN OVC020 PROB30 1018/1021 2SM -SHSN FM110200 25015KT 6SM -SN OVC030 TEMPO 1102/1104 11/4SM -SN OVC015 BECMG 1102/1104 32012KT FM110400 35012KT P6SM -SHSN BKN030 FM110600 35010KT P6SM SCT030 FM111500 VRB03KT P6SM BKN180 FM112100 10010KT 3SM -SN BKN020 OVC080 PROB30 1121/1124 2SM -SN OVC020 RMK NXT FCST BY 102100Z<br><br>
<br><br>
CYOO 102005Z AUTO 25016KT 9SM FEW030 OVC040 M01/M08 A2977 RMK SLP090<br><br>
CYOO 102000Z AUTO 26016KT 9SM -SN FEW030 OVC040 M01/M08 A2977 RMK SLP090<br><br>
CYOO 101938Z AUTO 25015G21KT 9SM -SN BKN034 OVC042 M01/M08 A2977 RMK SLP089<br><br>
CYOO 101934Z AUTO 26015G21KT 9SM BKN034 OVC044 M01/M08 A2977 RMK SLP089<br><br>
CYOO 101905Z AUTO 25013G21KT 9SM -SN BKN027 BKN038 OVC044 M01/M07 A2977 RMK SLP088<br><br>
CYOO 101900Z AUTO 25014G21KT 9SM BKN027 BKN035 OVC042 M01/M08 A2977 RMK SLP088<br><br>
CYOO 101850Z AUTO 24013G18KT 9SM FEW025 BKN030 OVC037 M01/M07 A2976 RMK SLP087<br><br>
CYOO has no TAF <br><br>
<br><br>
TAF CYTR 101730Z 1018/1118 27005KT P6SM SCT020 BKN070 TEMPO 1018/1023 3SM -SHSN BKN020 OVC070 BECMG 1018/1020 25015G25KT FM102300 26015G25KT P6SM FEW012 BKN030 TEMPO 1023/1102 11/2SM -SHSN BKN012 OVC030 FM110200 30012KT P6SM SCT030 BKN050 FM110800 33008KT P6SM SKC FM111600 33005KT P6SM BKN200 RMK NXT FCST BY 110000Z<br><br>
<br><br>
