RETRIEVED AT : Jun 09 2019 07:05 Local <br>
  RETRIEVED AT: Jun 09 2019 11:05 UTC<br><br>
CYSN has no TAF <br><br>
<br><br>
CYHM 091000Z 04008KT 15SM FEW100 SCT220 11/06 A3018 RMK AC1CI2 SLP222<br><br>
TAF CYHM 090538Z 0906/1006 04007KT P6SM BKN240 FM091400 09010G20KT P6SM BKN180 BECMG 1001/1003 13010KT FM100500 13010KT P6SM SCT070 BKN150 RMK NXT FCST BY 091200Z<br><br>
<br><br>
KIAG 091053Z 00000KT 10SM CLR 14/09 A3019 RMK AO2 SLP223 T01440094<br><br>
KIAG 090953Z AUTO 00000KT 10SM CLR 12/07 A3019 RMK AO2 SLP222 T01220072<br><br>
KIAG 090818Z 0908/1006 09006KT P6SM SCT250 FM091500 13010G16KT P6SM BKN250 FM092200 14008KT P6SM BKN060<br><br>
<br><br>
KBUF 091054Z 14006KT 10SM FEW260 BKN300 16/10 A3020 RMK AO2 SLP225 T01610100<br><br>
KBUF 090954Z 12007KT 10SM FEW220 BKN300 14/09 A3020 RMK AO2 SLP224 T01390089<br><br>
KBUF 090818Z 0908/1006 11006KT P6SM SCT250 FM091500 13010G16KT P6SM BKN250 FM092200 14008KT P6SM BKN060<br><br>
<br><br>
CYYZ 091000Z 08010KT 15SM BKN250 15/05 A3019 RMK CI5 SLP224<br><br>
TAF CYYZ 090838Z 0909/1012 06010KT P6SM SCT240 BECMG 0913/0915 11010G20KT FM100200 11010KT P6SM SCT070 BKN150 FM100800 13012KT P6SM BKN100 FM101100 12015KT 6SM -SHRA BR OVC025 RMK NXT FCST BY 091200Z<br><br>
<br><br>
CYOO 091000Z AUTO 08008KT 9SM CLR 15/06 A3020 RMK SLP227<br><br>
TAF CYOO 090738Z 0908/0920 VRB03KT P6SM SKC BECMG 0913/0915 12010G20KT RMK FCST BASED ON AUTO OBS. NXT FCST BY 091400Z<br><br>
<br><br>
CYTR 091000Z 05003KT 15SM BKN220 11/06 A3023 RMK CI7 SLP238<br><br>
TAF CYTR 090530Z 0906/1006 05005KT P6SM FEW220 FM091200 10005KT P6SM FEW220 BECMG 0915/0917 13008KT RMK NXT FCST BY 091200Z<br><br>
<br><br>
