RETRIEVED AT : May 15 2020 19:05 Local <br>
  RETRIEVED AT: May 15 2020 23:05 UTC<br><br>
CYSN 152200Z 33006KT 15SM BKN018 14/14 A2984 RMK SC7 SLP106 DENSITY ALT 400FT<br><br>
TAF CYSN 151939Z 1520/1601 28015G25KT P6SM -SHRA OVC025 TEMPO 1520/1523 4SM SHRA BR OVC015 PROB30 1520/1521 VRB25G35KT 2SM TSRA BR BKN008 OVC015CB FM152300 33008KT P6SM SCT015 BKN025 TEMPO 1523/1601 P6SM -SHRA BKN015 OVC025 RMK NXT FCST WILL BE ISSUED AT 161245Z<br><br>
<br><br>
CYHM 152200Z 31006KT 15SM FEW016 BKN039 OVC140 17/15 A2984 RMK SC2SC4AC2 SLP108 DENSITY ALT 1300FT<br><br>
TAF CYHM 151738Z 1518/1618 24015G30KT P6SM SCT015 BKN050 TEMPO 1518/1521 3SM -SHRA BR BKN015 OVC040 FM152100 30010G20KT P6SM BKN030 TEMPO 1521/1524 BKN020 FM160000 34008KT P6SM SKC BECMG 1601/1603 01005KT FM160600 04006KT P6SM SKC PROB40 1606/1611 1/2SM FG VV002 FM161100 05008KT 1SM BR OVC003 BECMG 1611/1613 P6SM NSW FEW006 FM161600 05010KT P6SM SKC RMK NXT FCST BY 160000Z<br><br>
<br><br>
KIAG 152253Z 01005KT 5SM BR BKN007 BKN016 OVC080 15/14 A2986 RMK AO2 RAE41 SLP114 P0001 T01500139<br><br>
KIAG 152249Z 36005KT 6SM BR BKN007 BKN016 OVC080 15/14 A2985 RMK AO2 RAE41 P0001<br><br>
KIAG 152225Z 35004KT 5SM -RA BR SCT005 OVC016 15/14 A2985 RMK AO2 P0001 T01500144<br><br>
KIAG 152208Z 35007KT 4SM -RA BR BKN005 OVC016 15/14 A2985 RMK AO2 CIG 004V009 P0000 T01500144<br><br>
KIAG 152153Z 32009KT 4SM -RA BR BKN007 OVC017 16/14 A2984 RMK AO2 RAB00 CIG 005V009 SLP105 P0000 T01560144<br><br>
KIAG 152141Z 32011KT 4SM -RA BR BKN008 BKN024 OVC033 16/15 A2983 RMK AO2 RAB00 CIG 005V013 P0000 T01610150<br><br>
KIAG 152133Z 32008KT 5SM -RA BR SCT008 BKN024 OVC095 17/15 A2982 RMK AO2 RAB00 P0000 T01670150<br><br>
KIAG 152029Z 1520/1618 31012KT 4SM -SHRA FEW015 BKN035 FM152200 32006KT P6SM VCSH BKN015 FM160000 26004KT P6SM OVC050 FM160300 VRB04KT P6SM BKN020 FM161700 02006KT P6SM SCT100<br><br>
<br><br>
KBUF 152256Z 27004KT 2 1/2SM -RA BR OVC005 13/12 A2987 RMK AO2 CIG 002V009 P0000 T01330122<br><br>
KBUF 152254Z 27004KT 2 1/2SM -RA BR BKN003 OVC009 13/12 A2986 RMK AO2 SLP113 P0005 T01330122<br><br>
KBUF 152236Z 23007KT 2SM -RA BR BKN003 OVC009 13/12 A2985 RMK AO2 P0004 T01330122<br><br>
KBUF 152206Z 22008KT 1SM R23/P6000FT -RA BR BKN003 OVC007 13/12 A2985 RMK AO2 P0002 T01330122<br><br>
KBUF 152154Z 21009KT 1 1/2SM -RA BR SCT004 BKN007 OVC011 13/12 A2985 RMK AO2 SLP108 P0003 T01330122<br><br>
KBUF 152150Z 20010KT 1 1/2SM -RA BR SCT004 BKN007 OVC012 13/12 A2985 RMK AO2 P0003<br><br>
KBUF 152144Z 20010KT 2SM -RA BR BKN007 OVC012 14/12 A2984 RMK AO2 P0002 T01390122<br><br>
KBUF 152128Z 20009KT 3SM -RA BR BKN009 BKN014 OVC033 14/13 A2984 RMK AO2 CIG 007V011 P0002 T01440128<br><br>
KBUF 152120Z 22005KT 3SM -RA BR BKN010 BKN014 OVC033 14/13 A2984 RMK AO2 CIG 008V012 P0002 T01440128<br><br>
KBUF 152241Z 1523/1618 23010KT 1SM -SHRA BKN003 OVC010 FM152330 25007KT 6SM BR VCSH BKN010 FM160000 26005KT P6SM OVC045 FM160300 VRB03KT P6SM BKN020<br><br>
<br><br>
CYYZ 152200Z 34013KT 15SM FEW055 BKN140 BKN180 14/12 A2984 RMK CF1AC6AC1 AC TR SLP107 DENSITY ALT 800FT<br><br>
TAF CYYZ 152038Z 1521/1624 33012G22KT P6SM SCT015 BKN025 TEMPO 1521/1523 5SM -RA -DZ BR BKN015 OVC025 FM152300 35012KT P6SM BKN015 OVC025 TEMPO 1523/1601 SCT015 BKN025 FM160100 02012KT P6SM FEW030 FM160700 36006KT P6SM SKC PROB30 1607/1611 3SM BR BKN005 BECMG 1613/1615 03008KT FM161900 15008KT P6SM SKC RMK NXT FCST BY 160000Z<br><br>
<br><br>
CYOO 152251Z AUTO 32009G17KT 9SM BKN015 BKN110 BKN150 15/13 A2984 RMK SLP109 DENSITY ALT 600FT<br><br>
CYOO 152200Z AUTO 32010KT 9SM FEW013 SCT070 BKN093 OVC110 15/14 A2982 RMK PRESRR SLP102 DENSITY ALT 600FT<br><br>
TAF CYOO 151938Z 1520/1608 32010G20KT P6SM -SHRA SCT012 OVC030 TEMPO 1520/1523 4SM -SHRA BR BKN008 OVC030 FM152300 33008KT P6SM SCT020 TEMPO 1523/1602 BKN020 FM160700 34006KT P6SM SCT005 PROB30 1607/1608 2SM BR BKN005 RMK FCST BASED ON AUTO OBS. NXT FCST BY 160200Z<br><br>
<br><br>
CYTR 152244Z 31003KT 15SM FEW010 SCT030 BKN080 16/14 A2980 RMK SF1SC3AC4 SLP094<br><br>
CYTR 152200Z 00000KT 10SM -SHRA FEW010 SCT030 OVC080 16/14 A2979 RMK SF1SC3AC5 SLP090<br><br>
CYTR 152118Z 33005KT 10SM -SHRA FEW010 SCT030 OVC080 16/13 A2978 RMK SF2SC2AC4 SLP088<br><br>
TAF AMD CYTR 151927Z 1519/1618 31008KT 11/2SM -SHRA BR OVC008 TEMPO 1519/1521 6SM BR SCT008 OVC020 FM152100 29010KT P6SM FEW006 SCT015 OVC025 TEMPO 1521/1523 P6SM -SHRA SCT006 OVC012 FM152300 32005KT P6SM SCT025 FM160600 33005KT P6SM SKC PROB30 1606/1610 1SM BR FM161700 20008KT P6SM BKN030 RMK NXT FCST BY 160000Z<br><br>
<br><br>
