RETRIEVED AT : Jul 12 2019 07:06 Local <br>
  RETRIEVED AT: Jul 12 2019 11:06 UTC<br><br>
CYSN has no TAF <br><br>
<br><br>
CYHM 121000Z 25004KT 15SM FEW052 FEW250 14/14 A2984 RMK SC1CI1 CI TR SLP103 DENSITY ALT 1000FT<br><br>
TAF CYHM 120539Z 1206/1306 28007KT P6SM SCT025 TEMPO 1208/1214 BKN020 FM121400 29010KT P6SM SCT030 FM121800 30010KT P6SM FEW040 BECMG 1303/1305 28005KT RMK NXT FCST BY 121200Z<br><br>
<br><br>
KIAG 121053Z 26007KT 10SM OVC017 17/14 A2983 RMK AO2 SLP099 T01720144<br><br>
KIAG 121007Z AUTO 25006KT 10SM OVC015 17/14 A2982 RMK AO2 T01670144<br><br>
KIAG 120953Z AUTO 25007KT 10SM OVC013 17/14 A2982 RMK AO2 SLP093 T01670144<br><br>
KIAG 120941Z AUTO 24007KT 10SM OVC014 17/14 A2981 RMK AO2 T01670144<br><br>
KIAG 120813Z 1208/1306 28007KT P6SM BKN025 FM121000 30008KT P6SM BKN015 FM121600 30010KT P6SM BKN040 FM122100 26006KT P6SM SCT040<br><br>
<br><br>
KBUF 121054Z 29008KT 10SM OVC015 18/14 A2984 RMK AO2 SLP101 T01780144<br><br>
KBUF 120954Z 25008KT 10SM OVC018 18/13 A2982 RMK AO2 SLP095 T01780133<br><br>
KBUF 121021Z 1210/1306 27006KT P6SM OVC015 FM121600 26010KT P6SM BKN025 FM121800 25012KT P6SM BKN040 FM130000 24008KT P6SM SCT040<br><br>
<br><br>
CYYZ 121049Z 33011G17KT 15SM BKN013 BKN060 19/16 A2982 RMK SC6SC1 SLP097 DENSITY ALT 1300FT<br><br>
CYYZ 121000Z 33010G15KT 15SM BKN060 19/15 A2981 RMK SC5 SLP093 DENSITY ALT 1300FT<br><br>
TAF CYYZ 120838Z 1209/1312 30008KT P6SM SCT015 BKN060 TEMPO 1209/1215 BKN015 FM121500 33010KT P6SM SCT025 TEMPO 1215/1220 BKN030 FM122000 35010KT P6SM FEW040 BECMG 1220/1222 01006KT FM130300 VRB03KT P6SM FEW100 FM131000 25006KT P6SM SCT080 RMK NXT FCST BY 121200Z<br><br>
<br><br>
CYOO 121000Z AUTO 31006KT 9SM BKN050 BKN055 OVC080 19/17 A2979 RMK SLP087 DENSITY ALT 1100FT<br><br>
TAF CYOO 120738Z 1208/1220 26006KT P6SM SCT015 TEMPO 1208/1215 BKN015 FM121500 31010KT P6SM SCT025 TEMPO 1215/1220 BKN020 RMK FCST BASED ON AUTO OBS. NXT FCST BY 121400Z<br><br>
<br><br>
CYTR 121000Z 31005KT 15SM BKN028 BKN080 18/15 A2975 RMK SC7AC1 SLP074<br><br>
CYTR 120923Z 30003KT 15SM SCT026 18/15 A2974 RMK SC4 SLP071<br><br>
TAF CYTR 120530Z 1206/1306 30005KT P6SM FEW015 FM120900 28005KT P6SM SCT015 BKN030 TEMPO 1209/1213 5SM -DZ BR OVC015 BECMG 1213/1215 28008KT BKN030 FM130300 27005KT P6SM SCT030 SCT100 RMK NXT FCST BY 121200Z<br><br>
<br><br>
