RETRIEVED AT : Dec 05 2017 13:10 Local <br>
  RETRIEVED AT: Dec 05 2017 18:10 UTC<br><br>
CYSN 051800Z 23024G31KT 15SM OVC020 11/07 A2969 RMK SC8 SLP055<br><br>
CYSN 051700Z 21017G23KT 15SM OVC022 12/09 A2969 RMK SC8 SLP057<br><br>
TAF AMD CYSN 051738Z 0517/0602 21020G30KT P6SM OVC030 TEMPO 0517/0519 OVC020 RMK NXT FCST BY 052000Z<br><br>
<br><br>
CYHM 051800Z 23024G35KT 15SM FEW022 BKN052 OVC210 08/03 A2968 RMK SC2SC4CI2 SLP056<br><br>
CYHM 051700Z 23020G33KT 15SM FEW024 BKN030 BKN036 09/05 A2968 RMK CU1SC4SC2 SLP057<br><br>
TAF CYHM 051738Z 0518/0618 23020G35KT P6SM OVC015 TEMPO 0518/0519 BKN030 FM051900 23020G35KT P6SM BKN030 TEMPO 0519/0520 BKN020 FM060200 24020G30KT P6SM BKN040 RMK NXT FCST BY 060000Z<br><br>
<br><br>
KIAG 051753Z 21022G29KT 10SM OVC022 13/08 A2969 RMK AO2 PK WND 21030/1659 SLP057 60014 T01280078 10128 20094 56022<br><br>
KIAG 051653Z 21021G33KT 10SM BKN024 OVC030 12/07 A2970 RMK AO2 PK WND 21033/1652 SLP061 T01220072<br><br>
KIAG 051738Z 0518/0618 22021G32KT P6SM OVC025 FM051900 23020G31KT P6SM OVC035 FM060000 25022G35KT P6SM BKN050 FM060600 24021G35KT P6SM VCSH BKN050 FM060900 24020G32KT P6SM VCSH BKN035 FM061700 24023G38KT P6SM OVC050<br><br>
<br><br>
KBUF 051754Z 20022G31KT 10SM FEW026 BKN036 OVC050 11/08 A2971 RMK AO2 PK WND 21034/1708 SLP062 60009 T01110083 10111 20083 56024<br><br>
KBUF 051654Z 20025G30KT 10SM BKN026 BKN039 OVC060 11/08 A2971 RMK AO2 PK WND 19033/1607 SLP063 T01110078<br><br>
KBUF 051640Z 19023G31KT 10SM BKN029 BKN039 OVC060 11/08 A2971 RMK AO2 PK WND 19033/1607 T01110078<br><br>
KBUF 051738Z 0518/0618 21023G32KT P6SM OVC025 FM051900 23020G32KT P6SM OVC035 FM060000 24021G33KT P6SM BKN050 FM060600 24020G30KT 2SM -SN OVC025 FM061700 24022G37KT P6SM VCSH OVC040<br><br>
<br><br>
TAF CYYZ 051738Z 0518/0624 21020G30KT P6SM OVC025 TEMPO 0518/0519 BKN015 FM051900 23025G35KT P6SM BKN040 BKN220 BECMG 0521/0523 23020G30KT FM061800 24015G25KT P6SM BKN040 RMK NXT FCST BY 052100Z<br><br>
<br><br>
CYOO 051800Z AUTO 21017G34KT 9SM SCT040 10/07 A2963 RMK SLP038<br><br>
CYOO 051730Z AUTO 22015G24KT 9SM SCT016 BKN027 OVC034 10/07 A2963 RMK SLP039<br><br>
CYOO 051700Z AUTO 20015G28KT 9SM OVC020 10/07 A2964 RMK SLP042<br><br>
CYOO has no TAF <br><br>
<br><br>
TAF CYTR 051730Z 0518/0618 20015G25KT P6SM BKN030 OVC080 TEMPO 0518/0521 P6SM -SHRA BKN020 OVC030 BECMG 0518/0520 24020G30KT FM052100 24020G30KT P6SM SCT020 BKN040 BKN160 FM060400 26018G28KT P6SM SCT040 RMK NXT FCST BY 060000Z<br><br>
<br><br>
