RETRIEVED AT : Dec 12 2017 10:10 Local <br>
  RETRIEVED AT: Dec 12 2017 15:10 UTC<br><br>
CYSN 121500Z 29018G26KT 2 1/2SM -SN OVC017 M02/M06 A2956 RMK SC8 SLP015<br><br>
CYSN 121400Z 29019G25KT 2 1/2SM -SN OVC018 M01/M04 A2953 RMK SC8 SLP005<br><br>
TAF CYSN 121339Z 1214/1302 27012G22KT 2SM -SN BLSN OVC015 TEMPO 1214/1216 6SM -SN SCT015 OVC030 FM121600 28020G30KT P6SM BKN025 OVC050 TEMPO 1216/1219 21/2SM -SHSN BLSN OVC025 FM122100 27020G30KT P6SM BKN040 RMK NXT FCST BY 122000Z<br><br>
<br><br>
CYHM 121500Z 27017G24KT 8SM -SN DRSN SCT022 BKN030 BKN062 M05/M08 A2956 RMK SC3SC2SC2 SLP024<br><br>
CYHM 121400Z 28014G21KT 15SM -SN DRSN SCT048 OVC054 M04/M08 A2955 RMK SC3SC5 SLP021<br><br>
TAF CYHM 121138Z 1212/1312 27010KT 6SM -SN SCT030 OVC050 TEMPO 1212/1214 21/2SM -SN BLSN OVC025 BECMG 1212/1214 30015G25KT FM121400 29020G35KT P6SM -SN SCT030 OVC050 TEMPO 1214/1216 3SM -SHSN BLSN OVC030 FM121900 30020G30KT P6SM SCT050 BECMG 1220/1222 29015KT RMK NXT FCST BY 121800Z<br><br>
<br><br>
KIAG 121458Z 29019G25KT 3/4SM R28R/5000VP6000FT -SN BKN012 BKN022 OVC037 M02/M06 A2955 RMK AO2 P0000 T10221056<br><br>
KIAG 121453Z 29018G30KT 1/2SM R28R/4000VP6000FT SN SCT012 BKN025 OVC034 M02/M06 A2954 RMK AO2 PK WND 29030/1446 SLP021 P0000 60000 T10221056 53012<br><br>
KIAG 121442Z 30022G30KT 1/2SM R28R/3500VP6000FT SN BKN012 BKN026 OVC031 M02/M05 A2954 RMK AO2 PK WND 30030/1437 P0000 T10171050<br><br>
KIAG 121422Z 29021G26KT 1SM R28R/P6000FT -SN BKN011 OVC021 M01/M04 A2952 RMK AO2 PK WND 30026/1419 P0000 T10061039<br><br>
KIAG 121400Z 28017KT 1 1/2SM -SN OVC010 M01/M04 A2951 RMK AO2 CIG 008V014 P0000 T10061039<br><br>
KIAG 121353Z 27016KT 2 1/2SM -SN OVC010 M01/M04 A2951 RMK AO2 CIG 008V015 SLP008 P0000 T10061039<br><br>
KIAG 121349Z 28015KT 2 1/2SM -SN BKN010 OVC017 M01/M03 A2951 RMK AO2 P0000<br><br>
KIAG 121322Z 28012KT 2 1/2SM -SN BKN007 BKN012 OVC021 00/M03 A2951 RMK AO2 P0000 T00001033<br><br>
KIAG 121120Z 1212/1312 28005KT 1SM -SN OVC015 FM121500 29013G20KT 1SM -SN OVC015 FM121800 27017G27KT P6SM VCSH OVC035 FM130200 30018G27KT 1SM -SN BLSN OVC015<br><br>
<br><br>
KBUF 121454Z 30012G21KT 1 1/4SM R23/4500VP6000FT -SN BLSN FEW007 BKN011 OVC019 M02/M04 A2954 RMK AO2 SLP011 P0000 60003 T10221039 53014<br><br>
KBUF 121452Z 30014G21KT 1 1/4SM R23/4500VP6000FT -SN BLSN FEW007 BKN011 OVC019 M02/M04 A2953 RMK AO2 P0000<br><br>
KBUF 121413Z 28013G21KT 1 3/4SM -SN BR BKN010 OVC021 M02/M03 A2952 RMK AO2 P0000 T10171028<br><br>
KBUF 121354Z 28011KT 2SM -SN BR BKN008 BKN013 OVC019 M01/M02 A2951 RMK AO2 SLP002 P0002 T10111022<br><br>
KBUF 121322Z 27007KT 1 1/4SM R23/5500VP6000FT -SN BR BKN006 BKN013 OVC019 M01/M02 A2951 RMK AO2 CIG 004V009 P0001 T10061017 $<br><br>
KBUF 121120Z 1212/1312 26006KT 1SM -SN OVC015 FM121500 28013G20KT 1SM -SN OVC015 FM121800 27017G27KT P6SM VCSH OVC035 FM130200 28016G25KT 1SM -SN BLSN BKN015<br><br>
<br><br>
CYYZ 121500Z 29021KT 8SM -SN FEW018 OVC043 M03/M07 A2953 RMK CF2SC6 PCPN VRY LGT SLP008<br><br>
CYYZ 121400Z 28014G21KT 8SM -SN OVC035 M03/M05 A2952 RMK SC8 PCPN VRY LGT /S01/ SLP007<br><br>
CYYZ 121324Z 28014G20KT 4SM -SN OVC018 M03/M04 A2952 RMK SC8 SLP006<br><br>
CYYZ 121317Z 29017KT 1 3/4SM -SN OVC016 M03/M04 A2952 RMK SN3SC5 SLP006<br><br>
TAF CYYZ 121438Z 1215/1318 28015G25KT P6SM -SN BKN030 OVC060 TEMPO 1215/1217 4SM -SHSN OVC030 FM121700 29020G30KT P6SM SCT030 TEMPO 1217/1302 BKN030 FM130200 33015G25KT P6SM -SHSN BKN025 TEMPO 1302/1305 2SM -SHSN BLSN OVC020 BECMG 1305/1307 33015KT FM131600 31015KT P6SM FEW025 RMK NXT FCST BY 121800Z<br><br>
<br><br>
CYOO 121506Z AUTO 00000KT 2 1/2SM -SN BKN036 OVC047 M05/M06 A2950 RMK VIS VRB 1 1/4-3 SLP000<br><br>
CYOO 121500Z AUTO 00000KT 4SM -SN FEW014 BKN036 OVC047 M05/M06 A2950 RMK SLP000<br><br>
CYOO 121457Z AUTO 00000KT 5SM -SN FEW014 BKN036 OVC047 M05/M06 A2950 RMK SLP000<br><br>
CYOO 121456Z AUTO 00000KT 6SM -SN FEW014 BKN036 OVC047 M05/M06 A2950 RMK SLP000<br><br>
CYOO 121450Z AUTO 00000KT 3SM -SN FEW016 BKN031 OVC045 M05/M06 A2951 RMK SLP001<br><br>
CYOO 121446Z AUTO 00000KT 2 1/4SM -SN FEW014 BKN025 BKN034 OVC043 M05/M06 A2951 RMK SLP001<br><br>
CYOO 121410Z AUTO 27006KT 1 3/4SM -SN BKN011 OVC028 M05/M07 A2951 RMK VIS VRB 1 1/2-2 1/4 SLP003<br><br>
CYOO 121406Z AUTO 28009KT 2 1/2SM -SN BKN009 OVC026 M05/M07 A2951 RMK VIS VRB 1 3/4-3 SLP003<br><br>
CYOO 121403Z AUTO 28009KT 260V360 2 1/2SM -SN SCT009 OVC026 M05/M07 A2951 RMK SLP003<br><br>
CYOO 121400Z AUTO 28009KT 260V010 3SM -SN FEW009 OVC026 M05/M07 A2951 RMK SLP002<br><br>
CYOO 121353Z AUTO 36004KT 3SM -SN OVC028 M05/M07 A2950 RMK SLP999<br><br>
CYOO 121343Z AUTO 36004KT 2 1/2SM -SN OVC026 M05/M07 A2950 RMK VIS VRB 1 1/2-3 SLP000<br><br>
CYOO 121325Z AUTO 35006KT 3SM -SN SCT013 OVC026 M05/M07 A2950 RMK SLP000<br><br>
CYOO 121320Z AUTO 34004KT 2 1/4SM -SN SCT013 SCT021 OVC026 M05/M06 A2951 RMK VIS VRB 1 1/4-3 SLP001<br><br>
CYOO 121316Z AUTO 33005KT 270V340 2 1/2SM -SN BKN013 OVC024 M05/M06 A2951 RMK SLP001<br><br>
CYOO has no TAF <br><br>
<br><br>
TAF AMD CYTR 121311Z 1213/1312 02010KT 6SM -SN SCT012 OVC030 TEMPO 1213/1221 11/2SM -SN OVC012 FM122100 29012G22KT 3SM -SN BLSN BKN020 OVC040 BECMG 1302/1304 33012G22KT FM130900 32012G22KT P6SM BKN020 RMK NXT FCST BY 121800Z<br><br>
<br><br>
