RETRIEVED AT : Oct 08 2017 05:10 Local <br>
  RETRIEVED AT: Oct 08 2017 09:10 UTC<br><br>
CYSN has no TAF <br><br>
<br><br>
CYHM 080900Z 24026G35KT 15SM FEW024 18/14 A2966 RMK CF2 SLP041 DENSITY ALT 1700FT<br><br>
CYHM 080800Z 22022G28KT 15SM FEW030 BKN053 19/17 A2960 RMK CU2SC5 SLP023 DENSITY ALT 1900FT<br><br>
TAF CYHM 080541Z 0806/0906 20015G30KT P6SM -SHRA BKN050 TEMPO 0806/0808 4SM SHRA BR BKN020 OVC040 PROB40 0806/0807 VRB25G40KT 2SM +TSRA BKN008 OVC020CB FM080800 23015G25KT P6SM BKN025 TEMPO 0808/0819 BKN020 BECMG 0815/0817 23010G20KT FM081900 22010KT P6SM SKC BECMG 0821/0823 20007KT FM090400 09008KT P6SM BKN050 OVC160 RMK NXT FCST BY 081200Z<br><br>
<br><br>
KIAG 080853Z AUTO 23020G30KT 9SM -RA OVC028 23/18 A2963 RMK AO2 PK WND 21037/0826 RAB34E43B45 SLP029 P0000 60002 T02280178 55002<br><br>
KIAG 080753Z AUTO 19018G28KT 10SM SCT043 BKN050 OVC060 23/17 A2961 RMK AO2 PK WND 20030/0707 RAB0655E05B32E43 SLP021 P0000 T02330172<br><br>
KIAG 080906Z 0809/0906 23020G30KT P6SM -RA OVC028 FM081000 22020G27KT P6SM VCSH BKN025 FM081200 24019G29KT P6SM SCT025 FM082200 22008KT P6SM SCT250 FM090100 18005KT P6SM SCT250 FM090500 14005KT 4SM RA OVC080<br><br>
<br><br>
KBUF 080908Z 21019G28KT 10SM BKN028 OVC034 22/18 A2965 RMK AO2 PK WND 22028/0900 T02170183<br><br>
KBUF 080854Z 21020G30KT 10SM OVC034 22/18 A2964 RMK AO2 PK WND 20040/0759 SLP032 RAE25 P0000 60002 T02170183 58007<br><br>
KBUF 080754Z 20020G29KT 10SM -RA BKN060 BKN100 OVC140 21/18 A2964 RMK AO2 PK WND 20033/0708 SLP033 P0002 T02110183 $<br><br>
KBUF 080906Z 0809/0906 21020G30KT P6SM -SHRA OVC035 FM081000 21020G34KT P6SM OVC015 FM081300 25020G33KT P6SM SCT020 FM082000 24012KT P6SM SCT200 FM090100 VRB03KT P6SM SCT250 FM090400 14005KT 4SM RA BKN080<br><br>
<br><br>
CYYZ 080900Z 24018G30KT 15SM FEW035 19/15 A2960 RMK SC1 SLP024 DENSITY ALT 1600FT<br><br>
CYYZ 080800Z 21011KT 12SM SCT035 BKN050 BKN090 20/19 A2956 RMK SC3SC3AC1 SLP008 DENSITY ALT 1800FT<br><br>
CYYZ 080749Z 21008KT 12SM FEW035 BKN045 OVC080 20/19 A2956 RMK SC2SC3AC3 SLP008 DENSITY ALT 1700FT<br><br>
CYYZ 080722Z 23007KT 7SM -RA BKN040 OVC120 20/18 A2956 RMK SC5AC3 SLP010 DENSITY ALT 1800FT<br><br>
TAF CYYZ 080838Z 0809/0912 21015G30KT P6SM BKN050 TEMPO 0809/0816 BKN020 FM081600 24010G20KT P6SM BKN040 FM081900 24010KT P6SM SKC BECMG 0821/0823 20008KT FM090200 VRB03KT P6SM SCT220 FM090600 VRB03KT P6SM BKN080 FM090800 08008KT 6SM -RA BR SCT008 OVC025 FM091000 08010KT 2SM RA BR OVC006 PROB30 0910/0912 OVC003 RMK NXT FCST BY 081200Z<br><br>
<br><br>
CYOO 080900Z AUTO 22013G24KT 9SM FEW010 SCT032 BKN038 20/18 A2957 RMK SLP013 DENSITY ALT 1500FT<br><br>
CYOO 080842Z AUTO 21016G30KT 9SM FEW011 BKN030 OVC038 20/18 A2956 RMK SLP011 DENSITY ALT 1500FT<br><br>
CYOO 080821Z AUTO 21013G24KT 8SM -RA FEW021 SCT028 OVC036 21/17 A2956 RMK SLP010 DENSITY ALT 1600FT<br><br>
CYOO 080804Z AUTO 21011G18KT 9SM BKN037 OVC050 21/17 A2956 RMK SLP008 DENSITY ALT 1600FT<br><br>
CYOO 080800Z AUTO 20011G18KT 9SM -RA BKN039 BKN050 OVC085 20/17 A2956 RMK SLP010 DENSITY ALT 1600FT<br><br>
CYOO 080751Z AUTO 19010G15KT 9SM -RA SCT039 BKN055 OVC084 20/16 A2956 RMK SLP012 DENSITY ALT 1500FT<br><br>
CYOO has no TAF <br><br>
<br><br>
CYTR 080900Z 19018G26KT 15SM -SHRA OVC047 22/18 A2956 RMK SC8 PCPN VRY LGT SLP012<br><br>
CYTR 080800Z 19013G18KT 15SM -SHRA OVC054 22/17 A2958 RMK SC8 PCPN VRY LGT SLP019<br><br>
CYTR 080730Z 17007KT 15SM OVC058 21/17 A2959 RMK SC8 SLP021<br><br>
CYTR 080711Z 17006KT 10SM -SHRA SCT016 OVC060 21/17 A2961 RMK SC3SC5 CB EMBD DIST N MOVG E SLP026<br><br>
TAF CYTR 080530Z 0806/0906 18012KT WS005/18037KT P6SM FEW020 BKN080 OVC160 TEMPO 0806/0808 5SM -SHRA BR BKN020 OVC080 PROB30 0806/0808 VRB20G35KT 1SM TSRA BR BKN006 OVC020CB FM080800 20015G25KT 3SM -SHRA BR BKN010 OVC025 TEMPO 0808/0811 6SM -SHRA BR SCT010 BKN025 PROB30 0808/0811 VRB20G40KT 1SM TSRA BR BKN008 OVC025CB FM081100 24020G35KT P6SM FEW015 OVC030 TEMPO 0811/0814 5SM -SHRA BR BKN015 OVC030 FM081800 26012G22KT P6SM SCT030 BECMG 0821/0823 24010KT FM090200 24004KT P6SM SCT020 BKN200 RMK NXT FCST BY 081200Z<br><br>
<br><br>
