RETRIEVED AT : May 05 2018 13:05 Local <br>
  RETRIEVED AT: May 05 2018 17:05 UTC<br><br>
CYSN 051600Z 24019G30KT 15SM FEW070 SCT190 20/10 A3001 RMK AC1CI3 SLP166 DENSITY ALT 900FT<br><br>
TAF CYSN 051238Z 0513/0601 21012KT P6SM BKN070 BECMG 0514/0516 24015KT FM052200 24012KT P6SM BKN080 TEMPO 0522/0601 P6SM -SHRA RMK NXT FCST BY 052000Z<br><br>
<br><br>
CYHM 051600Z 23020KT 15SM FEW065TCU SCT090 BKN230 20/11 A3002 RMK TCU2AC2CI2 SLP170 DENSITY ALT 1500FT<br><br>
TAF CYHM 051138Z 0512/0612 22006KT P6SM SCT060 TEMPO 0512/0518 BKN060 BECMG 0513/0515 23012G22KT FM051800 24010G20KT P6SM BKN070 TEMPO 0519/0524 P6SM -SHRA PROB30 0520/0524 3SM TSRA BR BKN030 OVC070CB FM060000 23012KT P6SM SCT040 BKN080 BECMG 0604/0606 VRB03KT FM060900 VRB03KT P6SM FEW050 SCT100 RMK NXT FCST BY 051800Z<br><br>
<br><br>
KIAG 051653Z 22018G27KT 10SM CLR 22/09 A3001 RMK AO2 PK WND 23029/1642 SLP163 T02220094<br><br>
KIAG 051553Z 23021G28KT 10SM CLR 20/09 A3003 RMK AO2 PK WND 22029/1521 SLP170 T02000089<br><br>
KIAG 051501Z 0515/0612 24014G22KT P6SM SCT080 FM051700 23020G33KT P6SM SCT080 FM052100 24015G23KT P6SM SCT090 FM052300 23010KT P6SM SCT090 FM060300 20005KT P6SM SCT090<br><br>
<br><br>
KBUF 051654Z 23016G25KT 10SM FEW100 BKN230 18/09 A3004 RMK AO2 PK WND 25029/1603 SLP174 T01830089<br><br>
KBUF 051554Z 24018G26KT 10SM FEW120 BKN230 18/09 A3006 RMK AO2 PK WND 23027/1544 SLP179 T01780089<br><br>
KBUF 051501Z 0515/0612 24016G25KT P6SM SCT080 FM051700 24020G33KT P6SM SCT080 FM052000 24017G26KT P6SM SCT090 FM052300 23010KT P6SM SCT090 FM060300 19005KT P6SM SCT090<br><br>
<br><br>
CYYZ 051600Z 24018G25KT 15SM FEW040 FEW250 21/11 A2998 RMK CF1CI2 CF TR SLP155 DENSITY ALT 1400FT<br><br>
TAF AMD CYYZ 051542Z 0515/0618 24015G30KT P6SM FEW040 TEMPO 0515/0520 BKN040 FM052000 24015G25KT P6SM SCT040 BKN070 TEMPO 0520/0601 P6SM -SHRA BECMG 0523/0601 25015KT FM060500 33006KT P6SM FEW060 SCT120 FM061200 01005KT P6SM FEW040 BECMG 0613/0615 09008KT RMK NXT FCST BY 051800Z<br><br>
<br><br>
CYOO 051600Z AUTO 21011G18KT 9SM CLR 18/09 A2998 RMK SLP156 DENSITY ALT 700FT<br><br>
CYOO has no TAF <br><br>
<br><br>
CYTR 051600Z 22013G18KT 15SM SCT054 SCT250 16/09 A2999 RMK SC3CI1 SLP159<br><br>
TAF CYTR 051130Z 0512/0612 20008KT P6SM SKC FM051500 24012G22KT P6SM FEW060 FM051900 24012G22KT P6SM BKN060 BKN220 BECMG 0521/0523 20008KT FM060200 20005KT P6SM FEW060 BKN250 RMK NXT FCST BY 051800Z<br><br>
<br><br>
