RETRIEVED AT : Feb 29 2020 16:05 Local <br>
  RETRIEVED AT: Feb 29 2020 21:05 UTC<br><br>
CYSN 292051Z 24005KT 3SM -SHSN FEW015 BKN035 M05/M09 A3000 RMK SF2SC5 CVCTV CLD EMBD SLP166<br><br>
CYSN 292000Z 30011KT 2SM -SHSN BKN014 OVC025 M06/M09 A3000 RMK SF5SC3 CVCTV CLD EMBD SLP166<br><br>
TAF CYSN 291952Z 2920/0102 29012G22KT P6SM -SHSN OVC030 TEMPO 2920/0102 11/2SM -SN BKN010 OVC030 RMK NXT FCST WILL BE ISSUED AT 011345Z<br><br>
<br><br>
CYHM 292000Z 27015G22KT 15SM -SHSN BKN027 OVC036 M04/M10 A2997 RMK CU6SC2 VIS NE 7 SLP163<br><br>
CYHM 291913Z 27011G18KT 15SM -SHSN SCT027 BKN034 M05/M11 A2996 RMK CU3SC4 SLP160<br><br>
TAF CYHM 291742Z 2918/0118 27010G20KT P6SM FEW025 SCT090 BKN220 TEMPO 2918/2924 5SM -SHSN BKN020 BKN090 FM010000 27010KT P6SM SCT040 FM011500 23008KT P6SM FEW090 RMK NXT FCST BY 010000Z<br><br>
<br><br>
KIAG 292053Z 28007KT 1 1/2SM -SN BR FEW012 OVC017 M07/M09 A2999 RMK AO2 SLP179 P0001 60001 T10721094 52008<br><br>
KIAG 292047Z 27009KT 1 1/2SM -SN BR OVC017 M07/M09 A2999 RMK AO2 P0001<br><br>
KIAG 292042Z 27008KT 1SM R28R/5500VP6000FT -SN BR VV015 M07/M09 A2999 RMK AO2 P0001 T10721094<br><br>
KIAG 292033Z 28007KT 3/4SM R28R/3500VP6000FT -SN BR VV011 M07/M09 A2999 RMK AO2 P0001 T10721089<br><br>
KIAG 292027Z 28007KT 1/2SM R28R/2800V4500FT SN FZFG VV009 M07/M09 A2999 RMK AO2 P0001 T10721089<br><br>
KIAG 292006Z 29010KT 1/4SM R28R/2000V2600FT +SN FZFG VV008 M08/M09 A2999 RMK AO2 P0000 T10781094<br><br>
KIAG 291953Z 29011KT 1/4SM R28R/2200V3500FT +SN VV011 M07/M10 A2999 RMK AO2 SLP176 P0000 T10721100<br><br>
KIAG 291946Z 29011KT 1/2SM R28R/2800V6000FT SN VV014 M07/M10 A2999 RMK AO2 P0000 T10721100<br><br>
KIAG 291928Z 31011KT 3/4SM R28R/4500VP6000FT -SN BKN020 BKN024 OVC042 M07/M11 A2998 RMK AO2 P0000 T10721106<br><br>
KIAG 291918Z 30012KT 1SM R28R/P6000FT -SN BKN022 BKN035 OVC043 M07/M11 A2998 RMK AO2 P0000 T10721111<br><br>
KIAG 291912Z 29016KT 1 3/4SM -SN BKN026 OVC039 M07/M12 A2998 RMK AO2 P0000 T10721117<br><br>
KIAG 292023Z 2920/0118 31011KT 3SM -SN BKN024 OVC040 TEMPO 2920/2922 1/4SM +SN OVC008 FM292300 28013G22KT 5SM -SHSN BKN025 FM010000 28014G24KT P6SM VCSH BKN035 FM010700 25007KT P6SM BKN100<br><br>
<br><br>
KBUF 292054Z 29010KT 6SM -SN SCT019 BKN026 OVC045 M06/M11 A2999 RMK AO2 SLP169 P0000 60000 T10611106 51008 $<br><br>
KBUF 292036Z 28009KT 2SM R23/4000VP6000FT -SN BKN020 OVC028 M06/M10 A2999 RMK AO2 P0000 T10611100 $<br><br>
KBUF 292015Z 27010KT 3/4SM R23/3500VP6000FT -SN BKN023 OVC036 M07/M11 A2999 RMK AO2 P0000 T10671106 $<br><br>
KBUF 291954Z 28011KT 3SM -SN BKN021 OVC026 M06/M11 A2998 RMK AO2 SLP166 P0000 T10611111 $<br><br>
KBUF 291936Z 29009KT 2SM -SN SCT021 BKN027 OVC034 M07/M11 A2998 RMK AO2 P0000 T10671106 $<br><br>
KBUF 291928Z 30011KT 3SM -SN FEW021 BKN025 OVC032 M07/M12 A2998 RMK AO2 P0000 T10671117 $<br><br>
KBUF 292022Z 2920/0118 27015KT P6SM -SN BKN025 OVC030 TEMPO 2920/2922 1SM -SN OVC020 FM292300 26014KT 6SM -SHSN OVC030 FM010300 26012KT P6SM BKN035 FM011500 24010KT P6SM BKN200<br><br>
<br><br>
CYYZ 292000Z 30015G21KT 15SM BKN033 BKN230 M05/M13 A2996 RMK CU6CI1 SLP159<br><br>
TAF CYYZ 292038Z 2921/0124 30012G22KT P6SM BKN030 BKN230 TEMPO 2921/0101 5SM -SHSN BKN020 OVC040 BECMG 2922/2924 31012KT FM010100 31012KT P6SM SCT030 TEMPO 0101/0108 BKN030 BECMG 0103/0105 32006KT FM010800 31006KT P6SM SCT040 FM011500 24010KT P6SM BKN050 FM011800 20010KT P6SM SCT090 FM012100 17010KT P6SM BKN090 RMK NXT FCST BY 010000Z<br><br>
<br><br>
CYOO 292000Z AUTO 29011G18KT 9SM BKN039 M07/M13 A2997 RMK SLP160<br><br>
TAF CYOO 291952Z 2920/0108 29012G22KT P6SM BKN030 BKN080 TEMPO 2920/2924 5SM -SHSN BKN020 OVC030 FM010000 31010KT P6SM BKN030 BKN070 FM010300 32005KT P6SM SCT030 BECMG 0104/0106 VRB03KT RMK FCST BASED ON AUTO OBS. NXT FCST BY 010200Z<br><br>
<br><br>
CYTR 292000Z 29014KT 15SM FEW080 FEW250 M08/M15 A2995 RMK AC1CI2 SLP151<br><br>
TAF CYTR 291730Z 2918/0118 30010KT P6SM FEW070 FEW250 BECMG 0103/0105 VRB03KT RMK NXT FCST BY 010000Z<br><br>
<br><br>
