RETRIEVED AT : May 31 2020 05:05 Local <br>
  RETRIEVED AT: May 31 2020 09:05 UTC<br><br>
CYSN has no TAF <br><br>
<br><br>
CYHM 310800Z 28006KT 15SM FEW030 06/03 A3014 RMK SC1 SC TR SLP213<br><br>
TAF CYHM 310538Z 3106/0106 30008KT P6SM FEW050 BECMG 3116/3118 31012KT RMK NXT FCST BY 311200Z<br><br>
<br><br>
KIAG 310853Z AUTO 31010KT 10SM CLR 07/04 A3013 RMK AO2 SLP209 T00720044 53003<br><br>
KIAG 310753Z AUTO 29006KT 10SM CLR 07/04 A3013 RMK AO2 SLP206 T00670044<br><br>
KIAG 310859Z 3109/0106 31009KT P6SM SCT050 FM311100 33010KT P6SM BKN050 FM311700 31010KT P6SM SCT050 FM312300 26007KT P6SM SCT060<br><br>
<br><br>
KBUF 310854Z 30005KT 10SM FEW065 07/04 A3013 RMK AO2 SLP206 T00670044 53003 $<br><br>
KBUF 310754Z 29007KT 10SM FEW080 07/06 A3013 RMK AO2 SLP204 T00720056 $<br><br>
KBUF 310859Z 3109/0106 29005KT P6SM SCT050 FM311200 33009KT P6SM BKN050 FM311700 31012KT P6SM SCT050 FM312300 26008KT P6SM SCT060<br><br>
<br><br>
CYYZ 310800Z 32010KT 15SM FEW020 07/04 A3013 RMK SC1 SLP208<br><br>
TAF CYYZ 310838Z 3109/0112 32010KT P6SM FEW020 SCT040 TEMPO 3109/3112 BKN020 OVC040 FM311200 35015KT P6SM FEW030 FM311900 32015KT P6SM BKN060 BECMG 3123/0101 33010KT BECMG 0101/0103 VRB03KT FM010300 VRB03KT P6SM FEW060 BECMG 0107/0109 26012KT RMK NXT FCST BY 311200Z<br><br>
<br><br>
CYOO 310800Z AUTO 32004KT 9SM FEW055 05/05 A3011 RMK SLP202<br><br>
TAF CYOO 310738Z 3108/3120 34005KT P6SM SCT050 TEMPO 3109/3112 BKN050 FM311200 34010G20KT P6SM FEW050 BECMG 3115/3117 30015KT RMK FCST BASED ON AUTO OBS. NXT FCST BY 311400Z<br><br>
<br><br>
CYTR 310800Z 00000KT 15SM BKN060 06/05 A3012 RMK SC6 SLP201<br><br>
TAF CYTR 310530Z 3106/0106 VRB03KT P6SM SKC BECMG 3110/3112 34008KT FM311600 30010KT P6SM FEW070 BECMG 3116/3118 30010G20KT BECMG 0100/0102 29005KT RMK NXT FCST BY 311200Z<br><br>
<br><br>
