RETRIEVED AT : Sep 02 2017 15:10 Local <br>
  RETRIEVED AT: Sep 02 2017 19:10 UTC<br><br>
CYSN 021900Z 08010KT 15SM FEW035 BKN150 BKN240 21/09 A3004 RMK SC1AC4CI2 SLP174 DENSITY ALT 1000FT<br><br>
CYSN 021800Z 10009KT 15SM FEW020 FEW110 BKN240 20/08 A3006 RMK SC1AC2CI5 SC TR SLP183 DENSITY ALT 900FT<br><br>
TAF CYSN 021239Z 0213/0301 12008KT P6SM BKN250 BECMG 0217/0219 14012KT FM022100 14008KT P6SM BKN050 OVC120 TEMPO 0221/0301 P6SM -SHRA RMK NXT FCST BY 022000Z<br><br>
<br><br>
CYHM 021900Z 05014KT 15SM BKN039 BKN250 16/11 A3006 RMK SC7CI1 CI TR SLP182 DENSITY ALT 1000FT<br><br>
CYHM 021800Z 06013KT 15SM FEW035 FEW120 BKN250 18/10 A3007 RMK SC1AC1CI4 SLP186 DENSITY ALT 1200FT<br><br>
TAF CYHM 021739Z 0218/0318 07012KT P6SM FEW040 BKN250 FM022200 11012KT P6SM BKN025 OVC140 TEMPO 0222/0301 P6SM -SHRA FM030100 12008KT P6SM OVC015 TEMPO 0301/0305 6SM -SHRA BR FM030500 16008KT 3SM -RA BR OVC008 TEMPO 0305/0311 6SM -RA BR OVC010 BECMG 0308/0310 25006KT FM031100 27010G20KT P6SM SCT012 BKN080 FM031700 26015G25KT P6SM BKN040 RMK NXT FCST BY 030000Z<br><br>
<br><br>
KIAG 021853Z 11010KT 10SM CLR 22/04 A3006 RMK AO2 SLP180 T02220039<br><br>
KIAG 021753Z 11010KT 10SM CLR 22/04 A3007 RMK AO2 SLP185 T02170039 10228 20094 58021<br><br>
KIAG 021734Z 0218/0318 08010G16KT P6SM SCT200 FM022300 15010G18KT P6SM BKN070 FM030200 14007KT 6SM -RA OVC035 FM030400 15006KT 4SM RA OVC030 FM030900 18008KT 4SM RA OVC020 FM031600 26012G19KT 6SM -RA OVC035<br><br>
<br><br>
KBUF 021854Z 11010KT 10SM FEW120 BKN160 BKN250 21/06 A3006 RMK AO2 SLP178 T02110056<br><br>
KBUF 021754Z 06009KT 10SM BKN150 BKN200 BKN250 20/04 A3008 RMK AO2 SLP187 T02000044 10206 20111 58020<br><br>
KBUF 021734Z 0218/0318 13010KT P6SM FEW150 BKN200 FM021900 14010G16KT P6SM BKN200 FM022300 13009KT P6SM BKN070 FM030300 15006KT 4SM RA OVC035 FM031100 20009KT 4SM RA OVC020 FM031400 25010G18KT 6SM -RA OVC020 FM031700 26014G20KT 6SM -RA OVC035<br><br>
<br><br>
CYYZ 021900Z 13009G21KT 070V150 15SM FEW045 FEW150 SCT240 20/09 A3007 RMK CU1AC1CI2 CU TR SLP185 DENSITY ALT 1200FT<br><br>
CYYZ 021800Z 10013G20KT 15SM FEW040 FEW160 SCT260 19/08 A3009 RMK CF1AC1CI3 CF TR AC TR SLP192 DENSITY ALT 1000FT<br><br>
TAF CYYZ 021739Z 0218/0324 09012G22KT P6SM FEW040 SCT250 FM022300 12008KT P6SM OVC025 TEMPO 0223/0305 P6SM -SHRA OVC020 FM030500 15008KT 3SM -RA BR OVC007 TEMPO 0305/0312 6SM -RA BR PROB30 0307/0310 2SM -RA BR OVC003 FM031200 32012G22KT P6SM SCT010 BKN030 FM031500 29010G20KT P6SM BKN025 BKN080 FM031700 28012G22KT P6SM BKN040 PROB30 0317/0321 VRB15G25KT 3SM TSRA BR OVC020CB FM032300 29015KT P6SM FEW040 RMK NXT FCST BY 022100Z<br><br>
<br><br>
CYOO 021900Z AUTO 10014G20KT 9SM CLR 19/08 A3009 RMK SLP191 DENSITY ALT 700FT<br><br>
CYOO 021800Z AUTO 10015G21KT 9SM CLR 18/09 A3011 RMK SLP201 DENSITY ALT 600FT<br><br>
CYOO has no TAF <br><br>
<br><br>
CYTR 021900Z 11006KT 15SM FEW028 BKN250 20/07 A3013 RMK CF1CI6 SLP204<br><br>
CYTR 021800Z 14006KT 15SM FEW028 FEW250 20/09 A3015 RMK CF1CI2 SLP211<br><br>
TAF CYTR 021730Z 0218/0318 14008KT P6SM FEW025 SCT250 FM022000 14008KT P6SM BKN220 BECMG 0223/0301 SCT050 BKN120 FM030400 14010KT P6SM BKN050 TEMPO 0304/0307 P6SM -SHRA FM030700 14010KT 6SM -RA BR SCT015 OVC030 FM030900 14010KT 3SM -RA BR SCT008 OVC015 BECMG 0313/0315 22005KT FM031600 29010KT P6SM SCT015 BKN080 TEMPO 0316/0318 P6SM -SHRA RMK NXT FCST BY 030000Z<br><br>
<br><br>
