RETRIEVED AT : Sep 06 2019 07:05 Local <br>
  RETRIEVED AT: Sep 06 2019 11:05 UTC<br><br>
CYSN has no TAF <br><br>
<br><br>
CYHM 061000Z 34003KT 15SM FEW120 10/10 A2999 RMK AC1 AC TR SLP158<br><br>
TAF CYHM 060538Z 0606/0706 VRB03KT P6SM FEW150 PROB30 0607/0610 2SM BR FM061000 04008KT 6SM BR SCT090 TEMPO 0610/0613 3SM BR PROB30 0610/0612 1SM BR FM061300 04007KT P6SM BKN090 FM061600 05012KT P6SM BKN060 TEMPO 0616/0619 P6SM -SHRA FM061900 07010KT P6SM BKN060 BECMG 0700/0702 VRB03KT RMK NXT FCST BY 061200Z<br><br>
<br><br>
KIAG 061053Z 06003KT 10SM CLR 10/09 A2998 RMK AO2 SLP155 T01000094<br><br>
KIAG 060953Z AUTO 08003KT 10SM CLR 11/09 A2999 RMK AO2 SLP157 T01060094<br><br>
KIAG 060904Z 0609/0706 VRB03KT P6SM FEW150 FM061200 13003KT P6SM SCT120 FM061500 VRB05KT P6SM BKN100 FM061900 02008KT P6SM VCSH BKN080 FM062300 02006KT P6SM BKN080 FM070300 VRB03KT P6SM BKN080<br><br>
<br><br>
KBUF 061054Z 10003KT 10SM FEW170 12/10 A2999 RMK AO2 SLP156 T01220100<br><br>
KBUF 060954Z 07004KT 10SM CLR 12/11 A3000 RMK AO2 SLP156 T01220106<br><br>
KBUF 060904Z 0609/0706 VRB03KT P6SM SKC FM061200 13004KT P6SM SCT120 FM061600 10005KT P6SM BKN120 FM061900 36006KT P6SM VCSH BKN080 FM062300 02006KT P6SM BKN070 FM070300 VRB04KT P6SM SCT070<br><br>
<br><br>
CYYZ 061000Z 08009KT 15SM SCT160 13/11 A2999 RMK AC3 SLP157<br><br>
TAF CYYZ 060838Z 0609/0712 07008KT P6SM FEW150 FM061200 07008KT P6SM BKN090 FM061500 08010KT P6SM SCT040 BKN080 TEMPO 0615/0619 P6SM -SHRA FM061900 05010G20KT P6SM BKN060 BECMG 0622/0624 05008KT FM070300 VRB03KT P6SM SCT030 BKN060 FM070800 33006KT 6SM BR SCT050 PROB30 0708/0712 1SM BR RMK NXT FCST BY 061200Z<br><br>
<br><br>
CYOO 061000Z AUTO 36002KT 9SM SCT170 10/09 A3000 RMK SLP162<br><br>
TAF CYOO 060738Z 0608/0620 VRB03KT P6SM BKN150 FM061600 02007KT P6SM OVC090 TEMPO 0616/0620 P6SM -SHRA OVC070 RMK FCST BASED ON AUTO OBS. NXT FCST BY 061400Z<br><br>
<br><br>
CYTR 061000Z 05004KT 15SM FEW030 FEW120 09/09 A3001 RMK SC1AC1 SLP164<br><br>
TAF CYTR 060530Z 0606/0706 VRB03KT P6SM SCT150 BKN220 FM061100 VRB03KT P6SM BKN120 FM061600 04005KT P6SM FEW050 BKN100 TEMPO 0616/0619 P6SM -SHRA BKN050 OVC100 FM061900 03008KT P6SM BKN080 FM070100 36005KT P6SM SCT020 BKN050 TEMPO 0701/0706 P6SM -SHRA BKN020 RMK NXT FCST BY 061200Z<br><br>
<br><br>
