RETRIEVED AT : Jul 13 2019 09:20 Local <br>
  RETRIEVED AT: Jul 13 2019 13:20 UTC<br><br>
CYSN 131300Z 22011KT 10SM FEW016 FEW250 24/20 A2993 RMK CF1CI1 CF TR SLP136 DENSITY ALT 1500FT<br><br>
CYSN 131200Z 23012KT 8SM FEW250 22/21 A2993 RMK CI1 SLP135 DENSITY ALT 1300FT<br><br>
TAF CYSN 131238Z 1313/1401 23012KT P6SM FEW250 FM131800 22012G22KT P6SM SCT060 TEMPO 1318/1321 BKN060 FM132100 23012G22KT P6SM BKN060 TEMPO 1321/1401 P6SM -SHRA OVC040 PROB30 1321/1401 VRB15G30KT 2SM TSRA BR BKN020 OVC040CB RMK NXT FCST BY 132000Z<br><br>
<br><br>
CYHM 131300Z 22012KT 15SM SCT008 BKN250 22/20 A2995 RMK SF4CI1 SLP141 DENSITY ALT 1800FT<br><br>
CYHM 131200Z 22007KT 12SM FEW004 FEW240 19/19 A2994 RMK SF1CI1 SLP140 DENSITY ALT 1500FT<br><br>
CYHM 131149Z 22006KT 12SM FEW003 FEW240 19/19 A2995 RMK SF1CI1 SLP141 DENSITY ALT 1400FT<br><br>
TAF CYHM 131145Z 1312/1412 22006KT P6SM FEW240 BECMG 1314/1316 23010G20KT BECMG 1316/1318 24012G22KT FM131800 25012G22KT P6SM BKN040 PROB30 1318/1324 VRB15G25KT 2SM TSRA BR BKN040CB FM140000 25010KT P6SM SCT020 BKN040 BECMG 1400/1402 30008KT FM140500 30008KT P6SM SKC RMK NXT FCST BY 131800Z<br><br>
<br><br>
KIAG 131253Z 22013KT 10SM CLR 22/19 A2995 RMK AO2 SLP138 T02220189<br><br>
KIAG 131153Z 21008KT 9SM CLR 21/18 A2995 RMK AO2 SLP139 T02060183 10206 20144 53005<br><br>
KIAG 131120Z 1312/1412 23004KT P6SM SCT250 FM131400 23012KT P6SM SCT250 FM131700 23015G25KT P6SM SCT050 SCT250 FM132200 23012KT P6SM VCSH BKN050 FM140100 26008KT P6SM SCT050 FM140600 29008KT P6SM SKC<br><br>
<br><br>
KBUF 131254Z 24009KT 10SM FEW012 FEW250 22/18 A2996 RMK AO2 SLP143 T02220178<br><br>
KBUF 131154Z 21008KT 8SM FEW010 FEW150 FEW220 20/18 A2997 RMK AO2 SLP145 T02000178 10200 20161 51008<br><br>
KBUF 131120Z 1312/1412 22005KT P6SM SCT250 FM131400 23012KT P6SM SCT250 FM131700 23015G25KT P6SM FEW050 SCT100 FM132300 24014KT P6SM VCSH BKN050 FM140200 25008KT P6SM SCT040<br><br>
<br><br>
CYYZ 131300Z 22006KT 15SM FEW110 FEW270 24/17 A2992 RMK AC1CI1 AC TR SLP131 DENSITY ALT 1700FT<br><br>
CYYZ 131200Z 19008KT 15SM SCT110 SCT270 21/17 A2992 RMK AC3CI1 SLP130 DENSITY ALT 1500FT<br><br>
TAF CYYZ 131145Z 1312/1418 18010KT P6SM SCT110 BKN270 FM131500 23012KT P6SM FEW020 BKN060 BECMG 1315/1317 25012G22KT FM131700 25012G22KT P6SM BKN060 TEMPO 1317/1319 P6SM -SHRA VCTS BKN040CB FM131900 26012G22KT P6SM BKN060 TEMPO 1319/1324 P6SM -SHRA SCT020 OVC040 PROB30 1319/1324 VRB15G30KT 2SM TSRA BR BKN012 OVC040CB FM140000 28008KT P6SM SCT030 FM140300 32008KT P6SM SKC FM141100 34010KT P6SM FEW010 FM141500 33010KT P6SM SCT030 RMK NXT FCST BY 131500Z<br><br>
<br><br>
CYOO 131300Z AUTO 22006KT 180V250 9SM CLR 21/16 A2992 RMK SLP134 DENSITY ALT 1200FT<br><br>
CYOO 131200Z AUTO 20003KT 170V250 9SM CLR 20/16 A2992 RMK SLP132 DENSITY ALT 1100FT<br><br>
TAF CYOO 130738Z 1308/1320 22006KT P6SM SKC FM131400 21010KT P6SM BKN060 BECMG 1316/1318 21010G20KT FM131900 27010G20KT P6SM BKN040 PROB30 1319/1320 VRB15G25KT 2SM TSRA BR BKN040CB RMK FCST BASED ON AUTO OBS. NXT FCST BY 131400Z<br><br>
<br><br>
CYTR 131300Z 22008KT 15SM FEW060 FEW200 21/16 A2993 RMK SC1CI1 CVCTV CLD DVLPG N SLP134<br><br>
CYTR 131200Z 22005KT 15SM FEW090 FEW200 20/15 A2992 RMK AC1CI1 AC TR SLP132<br><br>
TAF CYTR 131130Z 1312/1412 VRB03KT P6SM FEW090 SCT200 FM131600 22010G20KT P6SM FEW040 BKN080 FM132000 24012G22KT P6SM SCT020 BKN040 TEMPO 1320/1324 P6SM -SHRA BKN020 OVC040 PROB30 1320/1324 VRB20G30KT 2SM TSRA BKN020CB OVC040 FM140000 25010KT P6SM SCT020 BKN040 TEMPO 1400/1404 BKN020 OVC040 FM140400 31005KT P6SM SKC RMK NXT FCST BY 131800Z<br><br>
<br><br>
