RETRIEVED AT : Oct 28 2018 02:05 Local <br>
  RETRIEVED AT: Oct 28 2018 06:05 UTC<br><br>
CYSN has no TAF <br><br>
<br><br>
CYHM 280500Z 02007KT 2 1/4SM -SN OVC003 01/01 A2978 RMK SF8 SLP093<br><br>
TAF CYHM 280538Z 2806/2906 02010KT 2SM -SN BR OVC004 TEMPO 2806/2810 6SM -RASN BR OVC006 FM281000 36008KT 5SM -SNRA BR OVC008 TEMPO 2810/2812 6SM -SN SCT008 OVC012 FM281200 33005KT 6SM -RASN SCT008 OVC012 FM281500 23005KT P6SM -RA -DZ BKN010 OVC040 FM281900 23005KT P6SM BKN015 OVC040 FM282100 VRB03KT P6SM -SHRA OVC015 FM290300 35008KT P6SM OVC025 FM290500 31008KT P6SM SCT020 BKN050 RMK NXT FCST BY 281200Z<br><br>
<br><br>
KIAG 280553Z AUTO 03007KT 6SM -RA BR OVC007 03/02 A2975 RMK AO2 CIG 004V009 SLP085 P0004 60017 T00280017 10033 20022 58010<br><br>
KIAG 280545Z AUTO 02007KT 7SM -RA OVC007 03/02 A2975 RMK AO2 CIG 004V009 P0003 T00280017<br><br>
KIAG 280526Z AUTO 03007KT 8SM -RA OVC006 03/02 A2975 RMK AO2 P0002 T00280017<br><br>
KIAG 280453Z AUTO 02008KT 8SM -RA OVC008 02/01 A2976 RMK AO2 CIG 006V011 SLP088 P0007 T00220011 400610022<br><br>
KIAG 280424Z AUTO 02009KT 7SM RA BKN007 OVC017 02/01 A2977 RMK AO2 CIG 004V012 P0002 T00220011<br><br>
KIAG 280540Z 2806/2906 02009KT 6SM -SHRA OVC007 FM280900 35007KT 6SM -SHRA OVC003 FM281400 27004KT 6SM -SHRA OVC007 FM281800 24009KT P6SM OVC012 FM290000 00000KT P6SM OVC015 FM290100 00000KT P6SM VCSH OVC012<br><br>
<br><br>
KBUF 280554Z 01005KT 3SM -DZ BR OVC004 03/03 A2974 RMK AO2 DZB18 SLP076 P0000 60006 T00330028 10039 20028 58008<br><br>
KBUF 280454Z 36007KT 9SM OVC004 03/03 A2975 RMK AO2 RAE25 SLP080 P0000 T00280028 400500028<br><br>
KBUF 280415Z 36008KT 10SM -RA OVC004 03/02 A2975 RMK AO2 P0000 T00280022<br><br>
KBUF 280540Z 2806/2906 01008KT 4SM -SHRA OVC007 FM280900 34007KT 6SM -SHRA OVC003 FM281500 26006KT P6SM VCSH OVC007 FM281900 24009KT P6SM OVC007 FM290100 00000KT P6SM VCSH OVC007 FM290500 00000KT P6SM VCSH OVC007<br><br>
<br><br>
CYYZ 280508Z 34007KT 3SM -SN FEW003 OVC009 01/M00 A2979 RMK SF1SF7 CIG VRB 6-12 SLP096<br><br>
CYYZ 280500Z 35007KT 3SM -SN BKN007 OVC012 01/M00 A2980 RMK SF6SF2 SLP097<br><br>
TAF CYYZ 280538Z 2806/2912 34008KT 3SM -SN BKN006 OVC012 TEMPO 2806/2812 6SM -SNRA SCT006 OVC012 FM281200 32008KT 5SM -SN BKN008 OVC030 TEMPO 2812/2816 P6SM -RASN SCT008 OVC030 FM281600 26007KT P6SM BKN015 OVC050 TEMPO 2816/2819 P6SM -SHRA BECMG 2820/2822 VRB03KT FM290000 VRB03KT 4SM -SHRA BR OVC012 FM290400 29006KT P6SM SCT020 OVC050 BECMG 2907/2909 27010KT RMK NXT FCST BY 280900Z<br><br>
<br><br>
CYOO 280601Z AUTO VRB02KT 4SM BR BKN014 OVC018 01/01 A2977 RMK SLP088<br><br>
CYOO 280540Z AUTO 02002KT 5SM -RA BR BKN014 OVC020 01/01 A2978 RMK SLP090<br><br>
CYOO 280533Z AUTO 02003KT 7SM -RA BKN014 OVC022 01/01 A2978 RMK SLP091<br><br>
CYOO 280529Z AUTO 01002KT 7SM -RA -UP BKN014 OVC022 01/01 A2978 RMK SLP091<br><br>
CYOO 280527Z AUTO 01002KT 7SM -RASN -UP BKN014 OVC022 01/01 A2978 RMK SLP091<br><br>
CYOO 280523Z AUTO 01002KT 7SM -SN -UP SCT014 OVC022 01/01 A2978 RMK SLP091<br><br>
CYOO 280517Z AUTO 02003KT 8SM -SN FEW014 OVC022 01/01 A2978 RMK SLP091<br><br>
CYOO 280514Z AUTO 03003KT 9SM -SN -UP FEW014 OVC022 01/01 A2978 RMK SLP091<br><br>
CYOO 280511Z AUTO 02005KT 9SM -RASN -UP FEW014 OVC022 01/01 A2979 RMK SLP092<br><br>
CYOO 280508Z AUTO 03005KT 9SM -RA -UP FEW011 OVC022 01/01 A2979 RMK SLP092<br><br>
CYOO 280500Z AUTO 04004KT 9SM -RA FEW014 OVC024 01/01 A2979 RMK SLP092<br><br>
CYOO 280450Z AUTO 03006KT 9SM -RA FEW014 OVC024 01/01 A2979 RMK SLP092<br><br>
CYOO 280423Z AUTO 02006KT 6SM -RA BR FEW015 OVC027 01/01 A2979 RMK SLP094<br><br>
CYOO 280409Z AUTO 03006KT 5SM -RA BR SCT013 SCT021 OVC025 01/01 A2979 RMK SLP095<br><br>
CYOO has no TAF <br><br>
<br><br>
CYTR 280540Z 01007KT 4SM -SN OVC009 01/00 A2976 RMK SF8 CIG VRB 6-12 SLP081<br><br>
CYTR 280500Z 03008KT 7SM -PL OVC011 01/00 A2977 RMK SF8 CIG VRB 8-14 SLP085<br><br>
CYTR 280455Z 02008KT 7SM -PL OVC011 01/00 A2977 RMK SF8 CIG VRB 8-14 SLP086<br><br>
TAF CYTR 280530Z 2806/2906 03010KT P6SM -RA SCT008 OVC020 TEMPO 2806/2812 2SM -SNRA -PL BR BKN008 OVC020 FM281200 34005KT P6SM SCT007 BKN015 OVC030 BECMG 2816/2818 24005KT FM282100 24005KT 6SM -SHRA BR SCT007 OVC015 RMK NXT FCST BY 281200Z<br><br>
<br><br>
