RETRIEVED AT : Mar 13 2020 21:05 Local <br>
  RETRIEVED AT: Mar 14 2020 01:05 UTC<br><br>
CYSN 140000Z 27012G20KT 15SM SCT058 05/M03 A3010 RMK SC4 SLP198<br><br>
TAF CYSN 131940Z 1320/1401 27015G25KT P6SM BKN050 RMK NXT FCST WILL BE ISSUED AT 141245Z<br><br>
<br><br>
CYHM 140000Z 26012G21KT 15SM BKN053 04/M04 A3011 RMK SC7 SLP205<br><br>
TAF CYHM 132339Z 1400/1424 27015G25KT P6SM BKN050 FM140900 29010KT P6SM BKN025 BECMG 1422/1424 34008KT RMK NXT FCST BY 140600Z<br><br>
<br><br>
KIAG 140053Z 27017G24KT 10SM FEW065 03/M04 A3013 RMK AO2 PK WND 27028/0029 SLP214 T00331039<br><br>
KIAG 132353Z 27012KT 10SM BKN060 03/M04 A3010 RMK AO2 SLP202 T00331039 10061 20033 53031<br><br>
KIAG 132320Z 1400/1424 26014G24KT P6SM BKN050 FM140300 26014G23KT P6SM SCT050 FM140900 27010KT P6SM SCT040 FM141600 28013KT P6SM BKN250 FM142100 27009KT P6SM BKN150<br><br>
<br><br>
KBUF 140054Z 25008KT 10SM FEW060 03/M01 A3014 RMK AO2 SLP211 T00331011<br><br>
KBUF 132354Z 24008KT 10SM FEW055 FEW060 03/M01 A3011 RMK AO2 SLP200 T00331011 10056 20033 53030<br><br>
KBUF 132320Z 1400/1424 25015G25KT P6SM BKN050 FM140300 26014G23KT P6SM SCT050 FM140900 26009KT P6SM SCT040 FM141600 25013KT P6SM BKN250 FM142100 25009KT P6SM BKN150<br><br>
<br><br>
CYYZ 140000Z 26011G19KT 15SM FEW060 03/M05 A3008 RMK SC1 SLP194<br><br>
TAF CYYZ 132339Z 1400/1506 27020G35KT P6SM SCT060 FM140600 29018G28KT P6SM BKN030 FM141200 32012KT P6SM BKN025 BKN200 BECMG 1420/1422 36009KT FM150300 36012KT P6SM BKN150 RMK NXT FCST BY 140300Z<br><br>
<br><br>
CYOO 140000Z AUTO 26013G24KT 9SM BKN055 04/M05 A3005 RMK SLP182<br><br>
TAF CYOO 131939Z 1320/1408 26020G30KT P6SM SCT020 BKN030 TEMPO 1320/1408 BKN020 OVC030 BECMG 1401/1403 27015G25KT RMK FCST BASED ON AUTO OBS. NXT FCST BY 140200Z<br><br>
<br><br>
CYTR 140000Z 27016G22KT 15SM BKN050 04/M05 A2999 RMK SC7 SLP159<br><br>
TAF CYTR 132330Z 1400/1424 27020G35KT P6SM BKN050 FM141000 29015G25KT P6SM SCT040 BECMG 1411/1413 29010KT RMK NXT FCST BY 140600Z<br><br>
<br><br>
