RETRIEVED AT : Sep 24 2017 12:10 Local <br>
  RETRIEVED AT: Sep 24 2017 16:10 UTC<br><br>
CYSN 241600Z 34005KT 280V010 12SM SKC 30/21 A3014 RMK SLP208 DENSITY ALT 1900FT<br><br>
CYSN 241500Z VRB02KT 12SM SKC 29/21 A3015 RMK SLP210 DENSITY ALT 1800FT<br><br>
TAF CYSN 241238Z 2413/2501 VRB03KT P6SM SKC RMK NXT FCST BY 242000Z<br><br>
<br><br>
CYHM 241600Z VRB02KT 15SM SKC 30/19 A3017 RMK SLP216 DENSITY ALT 2400FT<br><br>
CYHM 241500Z VRB03KT 15SM SKC 28/21 A3018 RMK SLP217 DENSITY ALT 2200FT<br><br>
TAF CYHM 241138Z 2412/2512 VRB03KT P6SM SKC FM241700 05007KT P6SM FEW050 BECMG 2421/2423 VRB03KT RMK NXT FCST BY 241800Z<br><br>
<br><br>
KIAG 241553Z 00000KT 9SM CLR 29/19 A3016 RMK AO2 SLP208 T02940189<br><br>
KIAG 241453Z 00000KT 8SM CLR 28/19 A3017 RMK AO2 SLP210 T02780194 51001<br><br>
KIAG 241446Z 2415/2512 25005KT P6SM SKC FM241700 34006KT P6SM SKC FM250000 VRB03KT P6SM SKC FM250800 00000KT 3SM BR SKC<br><br>
<br><br>
KBUF 241554Z 20004KT 10SM CLR 27/18 A3018 RMK AO2 SLP215 T02720183<br><br>
KBUF 241454Z 22005KT 10SM CLR 26/18 A3018 RMK AO2 SLP215 T02610178 50002<br><br>
KBUF 241446Z 2415/2512 23005KT P6SM SKC FM241900 31005KT P6SM SKC FM250000 VRB03KT P6SM SKC<br><br>
<br><br>
CYYZ 241600Z VRB02KT 15SM SKC 31/19 A3015 RMK SLP208 DENSITY ALT 2300FT<br><br>
CYYZ 241500Z 35003KT 330V100 15SM SKC 29/19 A3016 RMK SLP210 DENSITY ALT 2100FT<br><br>
TAF CYYZ 241438Z 2415/2518 VRB03KT P6SM SKC FM251500 17008KT P6SM SCT240 RMK NXT FCST BY 241800Z<br><br>
<br><br>
CYOO 241600Z AUTO 00000KT 9SM CLR 30/19 A3014 RMK SLP205 DENSITY ALT 1900FT<br><br>
CYOO 241500Z AUTO VRB02KT 9SM CLR 28/19 A3015 RMK SLP209 DENSITY ALT 1800FT<br><br>
CYOO has no TAF <br><br>
<br><br>
CYTR 241600Z 21006KT 15SM SKC 29/22 A3011 RMK SLP197<br><br>
CYTR 241500Z 31006KT 15SM SKC 29/20 A3013 RMK SLP202<br><br>
TAF CYTR 241130Z 2412/2512 VRB03KT P6SM SKC TEMPO 2412/2413 3SM BR BECMG 2414/2416 20008KT FM250000 VRB03KT P6SM SKC PROB30 2509/2512 2SM BR RMK NXT FCST BY 241800Z<br><br>
<br><br>
