RETRIEVED AT : Nov 05 2017 10:10 Local <br>
  RETRIEVED AT: Nov 05 2017 15:10 UTC<br><br>
CYSN 051500Z 19019G26KT 15SM FEW008 BKN026 OVC090 14/12 A2984 RMK SF1SC5AC2 SLP106 DENSITY ALT 400FT<br><br>
CYSN 051440Z 17014G25KT 15SM FEW008 SCT028 BKN120 OVC220 13/12 A2983 RMK SF1SC2AC3CI2 PRESFR SLP103 DENSITY ALT 400FT<br><br>
CYSN 051407Z 18018G24KT 3SM -RA BR BKN028 OVC080 13/11 A2986 RMK SC5AC3 SLP115<br><br>
CYSN 051400Z 19016G24KT 8SM SCT028 OVC098 13/11 A2987 RMK SC4AC4 SLP116<br><br>
CYSN 051321Z 18015G24KT 2 1/2SM -RA BR OVC022 13/11 A2987 RMK SC8 SLP118<br><br>
TAF CYSN 051343Z 0514/0602 18015G25KT P6SM OVC025 TEMPO 0514/0518 21/2SM -SHRA BR OVC012 PROB40 0514/0518 VRB20G30KT 11/4SM +TSRA BR BKN008CB FM051800 19017G30KT 5SM -SHRA BR BKN020 BKN160 FM052100 19013G27KT 5SM SHRA BR BKN020 OVC150 PROB30 0521/0524 VRB20G35KT 21/2SM +TSRA BR BKN010CB FM060000 21012G25KT 3SM SHRA BR BKN010 OVC070 PROB30 0600/0602 VRB20G35KT 11/2SM +TSRA BR BKN005CB RMK NXT FCST BY 052000Z<br><br>
<br><br>
CYHM 051500Z 18017G23KT 9SM -RA OVC006 13/12 A2983 RMK SC8 SLP106 DENSITY ALT 800FT<br><br>
CYHM 051421Z 18015G20KT 3SM -RA BR OVC005 12/12 A2983 RMK SC8 SLP107 DENSITY ALT 800FT<br><br>
CYHM 051400Z 18015G22KT 15SM -RA OVC007 12/11 A2984 RMK SC8 SLP111 DENSITY ALT 800FT<br><br>
CYHM 051328Z 17017KT 10SM -RA OVC008 12/11 A2986 RMK SC8 SLP117<br><br>
TAF CYHM 051141Z 0512/0612 15005KT WS005/18020KT 2SM -DZ BR BKN003 OVC012 TEMPO 0512/0513 6SM -SHRA BR SCT003 OVC012 FM051300 18012KT 6SM -SHRA BR SCT005 OVC012 TEMPO 0513/0521 21/2SM -DZ BR OVC005 BECMG 0514/0515 20015G25KT FM052100 21012G22KT 3SM -SHRA BR BKN006 OVC015 PROB40 0521/0524 VRB20G35KT 1SM +TSRA BR BKN004 OVC020CB FM060000 23010KT 4SM -DZ BR OVC006 FM060400 30010KT 6SM BR SCT006 OVC010 FM061000 31007KT P6SM FEW008 BKN015 RMK NXT FCST BY 051800Z<br><br>
<br><br>
KIAG 051453Z 17015G24KT 10SM FEW013 SCT032 SCT080 14/11 A2986 RMK AO2 RAE52 TSB19E50 SLP116 P0015 60029 T01390106 58018<br><br>
KIAG 051421Z 19015KT 1 3/4SM R28R/3000VP6000FT +TSRA FEW023 BKN030 OVC110 13/10 A2989 RMK AO2 LTG DSNT E-SW TSB19 P0007 T01330100<br><br>
KIAG 051418Z 20015KT 4SM VCTS -RA BKN030 BKN050 OVC095 13/10 A2989 RMK AO2 LTG DSNT E-SW P0002 T01330100<br><br>
KIAG 051353Z 17014KT 7SM R28R/3500VP6000FT -RA SCT028 BKN041 OVC120 13/10 A2988 RMK AO2 RAB32 SLP124 P0014 T01330100<br><br>
KIAG 051336Z 18016G25KT 2SM R28R/3000VP6000FT +RA BKN030 BKN038 OVC050 13/09 A2990 RMK AO2 LTG DSNT SE RAB32 P0007 T01330094<br><br>
KIAG 051501Z 0515/0612 17013G23KT P6SM -SHRA OVC025 FM051700 19017G23KT P6SM VCSH OVC025 FM052200 18013G20KT 2SM +SHRA OVC020 FM060800 26009KT 2SM +SHRA OVC020 FM061000 28008KT 6SM -SHRA OVC020<br><br>
<br><br>
KBUF 051454Z 18017KT 5SM -RA BR BKN027 BKN043 BKN095 BKN170 13/11 A2988 RMK AO2 SLP121 TSB25E44 TS MOVD NE CB DSNT NE P0015 60019 T01280111 58016 $<br><br>
KBUF 051446Z 18013G17KT 5SM R23/5500VP6000FT -RA BR BKN027 BKN043 OVC095 12/11 A2989 RMK AO2 LTG DSNT NE AND E TSB25E44 TS MOVD NE CB DSNT NE P0015 T01220111 $<br><br>
KBUF 051441Z 19009G16KT 1 1/2SM R23/5500VP6000FT +TSRA BR SCT033CB BKN043 OVC085 12/11 A2989 RMK AO2 LTG DSNT NE AND E TSB25 OCNL LTGICCC VC NW-NE TS VC NW-NE MOV NE P0012 T01220106 $<br><br>
KBUF 051427Z COR 17012G21KT 4SM +TSRA BR BKN040CB BKN080 OVC095 12/11 A2988 RMK AO2 LTG DSNT ALQDS TSB25 OCNL LTGICCC VC SW-NW-NE TS VC SW-NW-NE MOV E P0003 T01220106 $<br><br>
KBUF 051354Z 17013KT 6SM RA BR SCT038 BKN080 OVC095 12/11 A2990 RMK AO2 SLP127 RAB28 TSB33E52 TS DSIPTD P0004 T01220106 $<br><br>
KBUF 051339Z 18012KT 7SM TSRA BKN038CB BKN080 BKN090 OVC150 12/10 A2991 RMK AO2 RAB28 TSB33 OCNL LTGICCC VC S-SW-NW TS VC S-SW-NW MOV NE P0000 T01220100 $<br><br>
KBUF 051501Z 0515/0612 17014G24KT 5SM -RA BR OVC025 TEMPO 0515/0516 2SM TSRA OVC015CB FM051700 19017G25KT P6SM VCSH OVC025 FM052200 18014G22KT 2SM +SHRA OVC020 FM060800 24009KT 2SM +SHRA OVC015 FM061100 31008KT 6SM -SHRA OVC020<br><br>
<br><br>
CYYZ 051500Z 14007KT 3SM R15L/5000VP6000FT/U R23/5000VP6000FT/U -SHRA BR OVC004 11/10 A2984 RMK SF8 CVCTV CLD EMBD CIG VRB 2-6 SLP108<br><br>
CYYZ 051454Z 14006KT 3SM R15L/5000VP6000FT/D R23/5000VP6000FT/D -SHRA BR OVC004 11/10 A2984 RMK SF8 CVCTV CLD EMBD CIG VRB 2-7 SLP111<br><br>
CYYZ 051443Z 14006KT 1 3/4SM R15L/5000VP6000FT/U R23/4500VP6000FT/U SHRA BR OVC004 11/10 A2984 RMK SF8 CVCTV CLD EMBD CIG VRB 2-6 SLP110<br><br>
CYYZ 051400Z 14008KT 4SM -SHRA OVC002 11/10 A2986 RMK SF8 CVCTV CLD EMBD SLP116<br><br>
CYYZ 051324Z 13006KT 5SM -SHRA OVC002 10/10 A2987 RMK SF8 SLP119<br><br>
TAF CYYZ 051438Z 0515/0618 14008KT 3SM -SHRA -DZ BR OVC002 TEMPO 0515/0518 6SM BR OVC010 PROB30 0515/0518 11/2SM BR FM051800 20015G25KT P6SM -SHRA OVC015 TEMPO 0518/0522 3SM -DZ BR BKN008 FM052200 21010G20KT 6SM -SHRA BR SCT010 OVC025 PROB30 0523/0602 VRB20G35KT 11/2SM +TSRA BR BKN006CB FM060200 25008KT 6SM -DZ BR BKN008 OVC020 FM060600 31010KT P6SM SCT012 BKN025 RMK NXT FCST BY 051800Z<br><br>
<br><br>
CYOO 051500Z AUTO 10007KT 3SM -RA BR OVC011 10/09 A2986 RMK SLP117<br><br>
CYOO 051440Z AUTO 11005KT 4SM -RA BR OVC011 10/09 A2987 RMK SLP121<br><br>
CYOO 051439Z AUTO 12005KT 4SM -RA BR BKN009 OVC013 10/09 A2988 RMK SLP122<br><br>
CYOO 051438Z AUTO 12004KT 4SM -RA BR FEW004 OVC011 10/09 A2988 RMK LTNG DIST E SLP122<br><br>
CYOO 051437Z AUTO 12004KT 5SM -RA BR BKN009 OVC013 10/09 A2988 RMK LTNG DIST E SLP122<br><br>
CYOO 051434Z AUTO 12005KT 9SM -RA FEW006 OVC011 10/09 A2988 RMK LTNG DIST E SLP123<br><br>
CYOO 051424Z AUTO 09006KT 9SM SCT006 OVC013 10/09 A2988 RMK LTNG DIST E SE SLP122<br><br>
CYOO 051413Z AUTO 11005KT 6SM -RA BR FEW003 SCT006 OVC013 10/09 A2988 RMK LTNG DIST E SE SLP125<br><br>
CYOO 051407Z AUTO 11005KT 3SM -RA BR SCT006 OVC013 10/09 A2989 RMK SLP126<br><br>
CYOO 051400Z AUTO 10006KT 2 1/2SM RA BR FEW006 OVC013 10/09 A2988 RMK SLP124<br><br>
CYOO 051358Z AUTO 10008KT 2 1/2SM -RA BR FEW006 OVC013 10/09 A2988 RMK SLP123<br><br>
CYOO 051352Z AUTO 11006KT 5SM -RA BR OVC013 10/09 A2989 RMK SLP126<br><br>
CYOO 051342Z AUTO 11006KT 6SM -RA BR FEW005 OVC013 09/08 A2989 RMK SLP127<br><br>
CYOO 051341Z AUTO 11006KT 6SM BR FEW005 OVC013 09/08 A2989 RMK SLP127<br><br>
CYOO has no TAF <br><br>
<br><br>
CYTR 051500Z 18004KT 8SM -RA OVC011 11/10 A2993 RMK SF8 SLP137<br><br>
CYTR 051400Z 17008G16KT 10SM -RA OVC011 11/10 A2994 RMK SF8 PCPN VRY LGT SLP142<br><br>
TAF AMD CYTR 051502Z 0515/0612 17010KT P6SM -SHRA OVC012 TEMPO 0515/0517 VRB15G25KT 1SM TSRA BR OVC005 FM051630 17012KT 6SM -RA OVC015 TEMPO 0516/0523 2SM -RA BR OVC006 FM052300 19012G22KT 3SM -SHRA BR BKN006 OVC020 TEMPO 0523/0604 1SM +SHRA BR FM060400 20012KT 2SM BR BKN004 OVC010 FM060800 28010G20KT P6SM SCT006 BKN030 RMK NXT FCST BY 051800Z<br><br>
<br><br>
