RETRIEVED AT : Jun 17 2019 05:05 Local <br>
  RETRIEVED AT: Jun 17 2019 09:05 UTC<br><br>
CYSN has no TAF <br><br>
<br><br>
CYHM 170800Z 04007KT 15SM FEW120 11/10 A2995 RMK AC2 SLP144<br><br>
TAF CYHM 170538Z 1706/1806 VRB03KT P6SM SCT120 FM171100 05005KT P6SM BKN080 BECMG 1713/1715 05012KT BECMG 1723/1801 08005KT FM180500 VRB03KT P6SM SCT030 RMK NXT FCST BY 171200Z<br><br>
<br><br>
KIAG 170853Z AUTO 13004KT 10SM CLR 11/09 A2996 RMK AO2 SLP147 T01060094 50005<br><br>
KIAG 170753Z AUTO 00000KT 10SM SCT120 11/09 A2997 RMK AO2 SLP150 T01060094<br><br>
KIAG 170901Z 1709/1806 VRB03KT P6SM SCT120 SCT250 FM171200 12005KT P6SM BKN090 FM171600 07007KT P6SM BKN090<br><br>
<br><br>
KBUF 170854Z 00000KT 10SM CLR 12/10 A2997 RMK AO2 SLP149 T01170100 51007<br><br>
KBUF 170754Z 07003KT 10SM SCT120 11/09 A2996 RMK AO2 SLP148 T01110094<br><br>
KBUF 170901Z 1709/1806 VRB03KT P6SM SCT120 SCT250 FM171200 12005KT P6SM BKN090 FM171600 07007KT P6SM BKN090<br><br>
<br><br>
CYYZ 170800Z 04007KT 15SM BKN120 13/09 A2996 RMK AC6 SLP148<br><br>
TAF CYYZ 170838Z 1709/1812 04007KT P6SM BKN120 BECMG 1712/1714 08005KT FM171700 14007KT P6SM SCT070 FM180200 VRB03KT P6SM FEW070 BECMG 1804/1806 04005KT RMK NXT FCST BY 171200Z<br><br>
<br><br>
CYOO 170800Z AUTO 02004KT 9SM OVC120 14/12 A2995 RMK SLP145<br><br>
TAF CYOO 170738Z 1708/1720 VRB03KT P6SM OVC120 FM171600 13007KT P6SM BKN100 RMK FCST BASED ON AUTO OBS. NXT FCST BY 171400Z<br><br>
<br><br>
CYTR 170800Z 00000KT 15SM BKN048 11/10 A2998 RMK SC7 SLP153<br><br>
TAF CYTR 170530Z 1706/1806 VRB03KT P6SM FEW050 FEW160 PROB30 1706/1711 1SM BR FM171400 17005KT P6SM FEW050 BKN100 BECMG 1716/1718 20010KT FM171800 20010KT P6SM SCT100 RMK NXT FCST BY 171200Z<br><br>
<br><br>
