RETRIEVED AT : Jul 04 2020 10:05 Local <br>
  RETRIEVED AT: Jul 04 2020 14:05 UTC<br><br>
CYSN 041300Z 02007KT 15SM FEW250 25/16 A2998 RMK CI2 SLP152 DENSITY ALT 1500FT<br><br>
TAF CYSN 041238Z 0413/0501 02008KT P6SM FEW250 BECMG 0422/0424 VRB03KT RMK NXT FCST BY 042000Z<br><br>
<br><br>
CYHM 041300Z 02009G17KT 15SM FEW250 24/14 A3001 RMK CI2 SLP160 DENSITY ALT 2000FT<br><br>
TAF CYHM 041138Z 0412/0512 02008KT P6SM FEW020 FEW250 BECMG 0414/0416 04012KT BECMG 0422/0424 VRB03KT RMK NXT FCST BY 041800Z<br><br>
<br><br>
KIAG 041353Z 36006KT 10SM CLR 25/15 A2999 RMK AO2 SLP149 T02500150<br><br>
KIAG 041253Z 01007KT 10SM CLR 23/15 A2998 RMK AO2 SLP147 T02330150<br><br>
KIAG 041120Z 0412/0512 34006KT P6SM SKC FM041600 03006KT P6SM FEW250 FM042100 36006KT P6SM SCT250 FM042300 00000KT P6SM FEW250 FM050800 22004KT P6SM FEW250<br><br>
<br><br>
KBUF 041354Z 03007KT 10SM FEW065 FEW250 27/16 A3000 RMK AO2 SLP153 T02670161<br><br>
KBUF 041254Z 36007KT 10SM FEW065 FEW200 26/17 A2998 RMK AO2 SLP148 T02560172<br><br>
KBUF 041256Z 0413/0512 35009KT P6SM FEW070 FM041700 01004KT P6SM FEW250 FM042100 35007KT P6SM SCT250 FM042300 02004KT P6SM FEW250 FM050800 20004KT P6SM FEW250<br><br>
<br><br>
CYYZ 041300Z 01009KT 15SM FEW250 24/13 A3000 RMK CI1 SLP157 DENSITY ALT 1700FT<br><br>
TAF CYYZ 041138Z 0412/0518 35012KT P6SM FEW250 FM041600 04008KT P6SM SKC BECMG 0417/0419 17010KT BECMG 0423/0501 36008KT FM051500 30010KT P6SM SCT100 RMK NXT FCST BY 041500Z<br><br>
<br><br>
CYOO 041300Z AUTO 02010KT 9SM CLR 25/12 A2999 RMK SLP154 DENSITY ALT 1600FT<br><br>
TAF CYOO 041338Z 0414/0502 02010KT P6SM FEW250 BECMG 0415/0417 18010KT BECMG 0423/0501 35005KT RMK FCST BASED ON AUTO OBS. NXT FCST BY 042000Z<br><br>
<br><br>
CYTR 041300Z 03007KT 15SM FEW250 25/13 A2997 RMK CI2 SLP149<br><br>
TAF CYTR 041136Z 0412/0512 01005KT P6SM FEW080 BECMG 0417/0419 20008KT BECMG 0501/0503 VRB03KT RMK NXT FCST BY 041800Z<br><br>
<br><br>
