RETRIEVED AT : Sep 07 2019 12:05 Local <br>
  RETRIEVED AT: Sep 07 2019 16:05 UTC<br><br>
CYSN 071500Z 30008KT 15SM FEW022 BKN089 18/13 A2991 RMK CU2AC5 SLP130 DENSITY ALT 800FT<br><br>
TAF CYSN 071239Z 0713/0801 VRB03KT P6SM FEW012 BKN040 TEMPO 0713/0717 BKN012 OVC040 FM071700 29010KT P6SM BKN040 RMK NXT FCST BY 072000Z<br><br>
<br><br>
CYHM 071500Z 28007KT 240V330 15SM FEW025 FEW048 BKN077 18/12 A2992 RMK CU1SC1AC4 SLP134 DENSITY ALT 1400FT<br><br>
TAF CYHM 071138Z 0712/0812 VRB03KT P6SM BKN030 OVC060 TEMPO 0712/0717 OVC020 BECMG 0714/0716 28012KT FM071700 28012KT P6SM BKN030 BECMG 0718/0720 29010G20KT BECMG 0722/0724 30012KT FM080200 32008KT P6SM FEW015 FM080700 30007KT P6SM FEW015 PROB30 0807/0812 2SM BR RMK NXT FCST BY 071800Z<br><br>
<br><br>
KIAG 071553Z 27007KT 10SM FEW025 BKN043 OVC085 18/12 A2991 RMK AO2 SLP127 T01830122<br><br>
KIAG 071453Z 28007KT 10SM OVC085 17/11 A2991 RMK AO2 SLP129 T01720111 55000<br><br>
KIAG 071504Z 0715/0812 28007KT P6SM OVC080 FM080300 31006KT P6SM SCT150 FM081000 VRB03KT P6SM BKN025<br><br>
<br><br>
KBUF 071554Z 29007KT 10SM BKN044 BKN085 19/11 A2991 RMK AO2 SLP128 T01890111<br><br>
KBUF 071454Z 25004KT 10SM FEW033 BKN047 OVC080 18/10 A2991 RMK AO2 SLP128 T01780100 58001<br><br>
KBUF 071504Z 0715/0812 26005KT P6SM BKN040 OVC060 FM071700 26010KT P6SM BKN040 FM080100 28007KT P6SM SCT080 FM080800 VRB03KT P6SM BKN050<br><br>
<br><br>
CYYZ 071500Z VRB10KT 15SM BKN031 BKN080 18/12 A2990 RMK CU5AC2 SLP128 DENSITY ALT 1200FT<br><br>
TAF CYYZ 071439Z 0715/0818 33007KT P6SM FEW030 BKN080 FM071800 30012G22KT P6SM BKN040 TEMPO 0719/0723 P6SM -SHRA FM072300 30012KT P6SM SCT040 BECMG 0803/0805 35008KT FM080600 32007KT P6SM SCT015 BECMG 0811/0813 01008KT RMK NXT FCST BY 071800Z<br><br>
<br><br>
CYOO 071516Z AUTO 30007KT 270V350 9SM SCT024 BKN028 OVC040 18/13 A2989 RMK SLP124 DENSITY ALT 900FT<br><br>
CYOO 071512Z AUTO 29006KT 260V350 9SM BKN024 BKN038 18/13 A2989 RMK SLP123 DENSITY ALT 900FT<br><br>
CYOO 071500Z AUTO 32005KT 270V330 9SM FEW022 BKN039 18/13 A2989 RMK SLP123 DENSITY ALT 900FT<br><br>
TAF CYOO 071338Z 0714/0802 30007KT P6SM BKN030 OVC050 FM071600 29010G20KT P6SM BKN025 OVC040 TEMPO 0718/0721 P6SM -SHRA OVC015 FM072100 30010G20KT P6SM BKN040 BECMG 0723/0801 30007KT RMK FCST BASED ON AUTO OBS. NXT FCST BY 072000Z<br><br>
<br><br>
CYTR 071500Z 32007KT 15SM FEW025 SCT050 BKN100 19/12 A2986 RMK CU2SC2AC1 CVCTV CLD TOPS DIST N-NE SLP113<br><br>
TAF CYTR 071130Z 0712/0812 33005KT P6SM FEW020 BKN060 BECMG 0714/0716 30010KT FM071900 27015KT P6SM BKN040 TEMPO 0719/0722 P6SM -SHRA FM080100 28008KT P6SM SCT040 FM080300 32005KT P6SM SCT015 RMK NXT FCST BY 071800Z<br><br>
<br><br>
