RETRIEVED AT : Mar 07 2020 15:05 Local <br>
  RETRIEVED AT: Mar 07 2020 20:05 UTC<br><br>
CYSN 071900Z 25007KT 190V330 15SM SKC 01/M07 A3046 RMK SLP321<br><br>
TAF CYSN 071942Z 0720/0802 24007KT P6SM SKC FM080000 22010KT P6SM SCT120 RMK NXT FCST WILL BE ISSUED AT 081345Z<br><br>
<br><br>
CYHM 071900Z 24010KT 15SM FEW160 00/M09 A3045 RMK AC1 AC TR SLP322<br><br>
TAF CYHM 071738Z 0718/0818 27008KT P6SM SKC FM080000 22012KT P6SM FEW120 FM081200 22010KT P6SM SKC RMK NXT FCST BY 080000Z<br><br>
<br><br>
KIAG 071953Z 25010KT 10SM CLR 02/M06 A3044 RMK AO2 SLP325 T00171061<br><br>
KIAG 071853Z 23011G16KT 10SM CLR 01/M06 A3046 RMK AO2 SLP330 T00061061<br><br>
KIAG 071730Z 0718/0818 29007KT P6SM FEW250 FM072100 24009KT P6SM FEW250 FM080200 22012G24KT P6SM SCT150 FM081200 23015G21KT P6SM FEW250<br><br>
<br><br>
KBUF 071954Z 22012KT 10SM FEW035 01/M07 A3045 RMK AO2 SLP320 T00061072<br><br>
KBUF 071854Z 24012G19KT 10SM FEW035 00/M06 A3046 RMK AO2 SLP326 T00001061<br><br>
KBUF 071912Z 0719/0818 24012G19KT P6SM FEW035 FM072200 24010G16KT P6SM FEW250 FM080900 23012G25KT P6SM SCT150 FM081500 23017G33KT P6SM FEW250<br><br>
<br><br>
CYYZ 071900Z 20006KT 180V280 15SM FEW250 03/M10 A3044 RMK CI1 CI TR SLP316<br><br>
TAF CYYZ 071738Z 0718/0824 23005KT P6SM FEW120 FM081200 25010G20KT P6SM SKC RMK NXT FCST BY 072100Z<br><br>
<br><br>
CYOO 071900Z AUTO 20008KT 150V240 9SM CLR 01/M08 A3044 RMK SLP316<br><br>
TAF CYOO 071943Z 0720/0808 20008KT P6SM SKC FM072100 23010KT P6SM FEW120 FM080000 20010KT P6SM BKN110 FM080600 24008KT P6SM BKN130 RMK FCST BASED ON AUTO OBS. NXT FCST BY 080200Z<br><br>
<br><br>
CYTR 071900Z 20008KT 15SM FEW210 00/M09 A3043 RMK CI1 SLP309<br><br>
TAF CYTR 071730Z 0718/0818 22008KT P6SM FEW210 FM072100 24008KT P6SM FEW120 BKN210 FM080100 24008KT P6SM SCT080 BKN100 FM080800 26008KT P6SM SCT170 BKN240 RMK NXT FCST BY 080000Z<br><br>
<br><br>
