RETRIEVED AT : May 29 2020 19:05 Local <br>
  RETRIEVED AT: May 29 2020 23:05 UTC<br><br>
CYSN 292200Z 28011G17KT 8SM OVC020 17/17 A2978 RMK CU8 SLP087 DENSITY ALT 900FT<br><br>
TAF AMD CYSN 292017Z 2920/3001 22020G30KT P6SM FEW025 BKN090 BKN190 TEMPO 2920/2922 VRB20G30KT 5SM TSRA BR BKN020 BKN040CB FM292200 27015G25KT P6SM -SHRA BKN015 TEMPO 2922/3001 P6SM NSW SCT015 BKN025 BECMG 2922/2924 32012KT RMK NXT FCST BY 301245Z<br><br>
<br><br>
CYHM 292200Z 29007KT 15SM FEW015 SCT034 OVC110 17/15 A2981 RMK SC1SC2AS5 SLP095 DENSITY ALT 1300FT<br><br>
TAF AMD CYHM 292109Z 2921/3018 28010KT P6SM -SHRA SCT015 OVC025 TEMPO 2921/3001 5SM -SHRA BR BKN015 FM300100 29015KT P6SM SCT025 BKN050 BECMG 3004/3006 29008KT FM300600 25005KT P6SM FEW050 FM300800 26008KT P6SM FEW008 BKN012 TEMPO 3009/3012 BKN008 FM301500 29015KT P6SM BKN020 BECMG 3015/3017 BKN030 FM301700 30018KT P6SM BKN040 RMK NXT FCST BY 300000Z<br><br>
<br><br>
KIAG 292256Z 29009KT 10SM FEW007 BKN021 OVC037 17/16 A2981 RMK AO2 RAE54 P0000 T01720156 $<br><br>
KIAG 292253Z 29011KT 10SM -RA BKN014 OVC021 17/16 A2981 RMK AO2 WSHFT 2232 RAE03B45 SLP094 P0000 T01720156 $<br><br>
KIAG 292239Z 29012KT 9SM SCT007 BKN014 OVC023 18/16 A2981 RMK AO2 RAE03 P0000 T01780161 $<br><br>
KIAG 292153Z 24011KT 7SM -RA BKN012 BKN085 OVC100 18/17 A2979 RMK AO2 PK WND 24026/2111 SLP087 P0011 T01780167 $<br><br>
KIAG 292241Z 2923/3018 24011KT P6SM -RA BKN012 OVC100 FM300100 27010KT P6SM BKN025 FM300400 26010KT P6SM BKN070 FM301300 24009KT P6SM BKN020<br><br>
<br><br>
KBUF 292254Z 23018G23KT 8SM OVC007 16/16 A2982 RMK AO2 RAE08 CIG 006V012 SLP096 P0001 T01610156 $<br><br>
KBUF 292154Z 22011G19KT 4SM -RA BR OVC005 16/16 A2982 RMK AO2 PK WND 24035/2101 LTG DSNT SE AND S TSE32 CIG 004V008 SLP095 TS MOVD NE P0048 T01560156 $<br><br>
KBUF 292132Z 23015KT 4SM RA BR BKN008 OVC011 17/16 A2982 RMK AO2 PK WND 24035/2101 LTG DSNT NE AND S AND SW TSE32 TS MOVD NE P0042 T01670161 $<br><br>
KBUF 292125Z 23015G25KT 4SM -TSRA BR BKN008 BKN013 OVC033CB 17/17 A2982 RMK AO2 PK WND 24035/2101 LTG DSNT NE AND SW OCNL LTGCG VC NE TS VC NE MOV NE P0042 T01670167 $<br><br>
KBUF 292118Z 22013KT 2 1/2SM R23/5000VP6000FT TSRA BR SCT005 BKN015 OVC025CB 17/17 A2982 RMK AO2 PK WND 24035/2101 LTG DSNT SW OCNL LTGCG VC NE TS VC NE MOV NE P0041 T01720172 $<br><br>
KBUF 292113Z 23013G26KT 1 1/2SM R23/2000VP6000FT TSRA BR FEW003 BKN015 OVC025CB 17/17 A2981 RMK AO2 PK WND 24035/2101 LTG DSNT SW OCNL LTGCG NE TS NE MOV NE P0037 T01720167 $<br><br>
KBUF 292110Z 23012G35KT 1/2SM R23/1800VP6000FT TSRA FG FEW004 BKN015 OVC025CB 17/17 A2980 RMK AO2 PK WND 24035/2101 OCNL LTGCG NE TS NE MOV NE P0024 T01670167 $<br><br>
KBUF 292241Z 2923/3018 22011G19KT 4SM -RA BR OVC005 FM300400 26010KT P6SM BKN025 FM301200 23006KT P6SM BKN020<br><br>
<br><br>
CYYZ 292245Z 34013G22KT 15SM BKN025 BKN100 17/14 A2979 RMK SC6AC1 SLP089 DENSITY ALT 1100FT<br><br>
CYYZ 292200Z 31018G24KT 12SM -SHRA BKN022 OVC100 17/15 A2979 RMK SC6AC2 CVCTV CLD EMBD SLP088 DENSITY ALT 1200FT<br><br>
CYYZ 292120Z 31015G22KT 12SM -SHRA FEW021 FEW028 BKN045 OVC091 18/16 A2977 RMK CU1SC2SC3AC3 CU TR SLP081 DENSITY ALT 1300FT<br><br>
CYYZ 292116Z 31017G22KT 15SM FEW018 BKN023 OVC100 18/15 A2977 RMK CU1SC6AC2 CU TR SLP080 DENSITY ALT 1300FT<br><br>
TAF AMD CYYZ 292053Z 2921/3024 29015G25KT P6SM SCT020 BKN100 TEMPO 2921/2924 P6SM -SHRA BKN020 FM300000 32012G22KT P6SM BKN030 TEMPO 3000/3002 P6SM -SHRA BKN025 FM300200 29010KT P6SM BKN040 FM300500 28008KT P6SM FEW060 FM300900 28010KT P6SM BKN020 BECMG 3011/3013 SCT020 FM301400 29012G22KT P6SM SCT030 BECMG 3016/3018 29015G25KT BKN040 FM302000 32015KT P6SM BKN050 FM302300 35015KT P6SM SCT050 RMK NXT FCST BY 300000Z<br><br>
<br><br>
CYOO 292252Z AUTO 30009G16KT 9SM SCT015 BKN110 17/15 A2976 RMK SLP079 DENSITY ALT 900FT<br><br>
CYOO 292250Z AUTO 31010G16KT 9SM BKN015 BKN100 BKN120 17/15 A2976 RMK SLP079 DENSITY ALT 900FT<br><br>
CYOO 292225Z AUTO 30012G17KT 9SM -RA BKN015 BKN060 BKN083 17/15 A2976 RMK SLP079 DENSITY ALT 900FT<br><br>
CYOO 292218Z AUTO 30009G17KT 9SM BKN013 BKN120 17/16 A2976 RMK SLP079 DENSITY ALT 900FT<br><br>
CYOO 292215Z AUTO 30010G15KT 9SM -RA BKN013 OVC120 17/16 A2976 RMK SLP079 DENSITY ALT 900FT<br><br>
CYOO 292200Z AUTO 31016G21KT 9SM -RA FEW017 OVC120 17/15 A2976 RMK SLP078 DENSITY ALT 900FT<br><br>
CYOO 292136Z AUTO 29013G22KT 9SM -RA FEW013 SCT020 BKN075 OVC100 19/17 A2975 RMK PRESRR SLP077 DENSITY ALT 1100FT<br><br>
CYOO 292132Z AUTO 28012G22KT 9SM -RA FEW014 BKN021 BKN075 OVC096 19/17 A2975 RMK PRESRR SLP075 DENSITY ALT 1200FT<br><br>
CYOO 292128Z AUTO 28010KT 9SM -RA SCT019 BKN075 OVC098 20/18 A2974 RMK SLP071 DENSITY ALT 1300FT<br><br>
CYOO 292111Z AUTO 28009KT 9SM BKN070 OVC090 20/17 A2973 RMK SLP067 DENSITY ALT 1300FT<br><br>
TAF AMD CYOO 292249Z 2922/3008 31012G22KT P6SM -SHRA SCT015 BKN025 TEMPO 2922/3002 5SM -SHRA BR BKN015 BECMG 3002/3003 P6SM NSW FM300300 29010KT P6SM BKN040 FM300500 28008KT P6SM FEW060 RMK FCST BASED ON AUTO OBS. NXT FCST BY 300200Z<br><br>
<br><br>
CYTR 292236Z 22011KT 2SM +SHRA OVC035CB 19/18 A2975 RMK CB8 CB OVRHD MOVG E SLP073<br><br>
CYTR 292221Z 21009KT 15SM -SHRA FEW035 BKN045 OVC090 19/18 A2974 RMK SC2SC3AC2 SLP072<br><br>
CYTR 292200Z 21008KT 15SM FEW008 BKN060 OVC130 20/18 A2973 RMK SF1SC5AC2 SLP067<br><br>
TAF AMD CYTR 292244Z 2922/3018 22010G20KT P6SM -SHRA FEW008 SCT012 OVC025 TEMPO 2922/2924 2SM TSRA BR SCT008 BKN012 OVC030CB FM300000 28012KT P6SM SCT012 OVC025 TEMPO 3000/3004 P6SM -SHRA BKN012 OVC025 FM300400 29008KT P6SM BKN012 TEMPO 3004/3012 SCT012 FM301200 25008KT P6SM -SHRA FEW012 BKN040 RMK NXT FCST BY 300000Z<br><br>
<br><br>
