RETRIEVED AT : Jun 09 2019 14:05 Local <br>
  RETRIEVED AT: Jun 09 2019 18:05 UTC<br><br>
CYSN 091700Z 31006KT 15SM BKN250 22/16 A3015 RMK CI6 SLP212 DENSITY ALT 1000FT<br><br>
TAF CYSN 091238Z 0913/1001 VRB03KT P6SM BKN250 BECMG 0913/0915 14012KT RMK NXT FCST BY 092000Z<br><br>
<br><br>
CYHM 091700Z 05008KT 15SM FEW220 BKN280 22/14 A3017 RMK CC1CS5 SLP217 DENSITY ALT 1600FT<br><br>
TAF CYHM 091738Z 0918/1018 05008KT P6SM BKN220 FM100600 11008KT P6SM -SHRA OVC040 FM100900 11008KT 5SM -SHRA BR OVC020 FM101400 12008KT 4SM -SHRA BR BKN007 OVC015 RMK NXT FCST BY 100000Z<br><br>
<br><br>
KIAG 091753Z 13008KT 10SM CLR 27/12 A3014 RMK AO2 SLP204 T02720117 10272 20189 58014<br><br>
KIAG 091653Z 13009KT 10SM CLR 25/11 A3017 RMK AO2 SLP214 T02500106<br><br>
KIAG 091727Z 0918/1018 12012KT P6SM BKN250 FM100400 13008KT P6SM SCT100 OVC200 FM100800 14008KT P6SM OVC080 WS020/16040KT FM101200 16010KT P6SM VCSH SCT025 BKN040 TEMPO 1012/1015 BKN025<br><br>
<br><br>
KBUF 091754Z 13007KT 100V160 10SM FEW100 SCT160 BKN220 BKN270 27/11 A3016 RMK AO2 SLP208 T02670111 10272 20183 58015<br><br>
KBUF 091654Z 12008KT 10SM SCT150 BKN200 BKN250 26/11 A3018 RMK AO2 SLP216 T02560106<br><br>
KBUF 091727Z 0918/1018 11012KT P6SM BKN250 FM100400 13008KT P6SM SCT100 OVC200 FM100800 14008KT P6SM OVC080 WS020/16040KT FM101200 16010KT P6SM VCSH SCT025 BKN040 TEMPO 1012/1015 BKN025<br><br>
<br><br>
CYYZ 091700Z 14009G18KT 15SM FEW180 BKN260 24/12 A3018 RMK AC1CI6 SLP220 DENSITY ALT 1500FT<br><br>
TAF CYYZ 091738Z 0918/1024 12008G18KT P6SM FEW180 BKN250 BECMG 0922/0924 08008KT FM100200 07007KT P6SM SCT070 BKN150 FM100600 13006KT P6SM BKN070 OVC140 FM100800 14006KT 5SM -SHRA BR OVC025 FM101200 12010KT 4SM -SHRA BR BKN007 OVC015 RMK NXT FCST BY 092100Z<br><br>
<br><br>
CYOO 091700Z AUTO 12010G15KT 9SM CLR 24/11 A3020 RMK SLP227 DENSITY ALT 1200FT<br><br>
TAF CYOO 091338Z 0914/1002 09008KT P6SM BKN250 BECMG 0914/0916 10010G20KT BECMG 0923/1001 09008KT RMK FCST BASED ON AUTO OBS. NXT FCST BY 092000Z<br><br>
<br><br>
CYTR 091700Z 15006KT 15SM FEW063 OVC250 25/13 A3023 RMK SC2CI6 SLP238<br><br>
TAF CYTR 091730Z 0918/1018 16008KT P6SM FEW060 BKN250 BECMG 1005/1007 FEW020 SCT040 FM101000 15008KT P6SM SCT020 OVC040 TEMPO 1010/1013 P6SM -RA BKN020 OVC040 FM101300 15010G20KT P6SM -RA SCT008 OVC020 TEMPO 1013/1018 4SM -RA BR BKN008 OVC020 RMK NXT FCST BY 100000Z<br><br>
<br><br>
