RETRIEVED AT : Apr 06 2020 04:05 Local <br>
  RETRIEVED AT: Apr 06 2020 08:05 UTC<br><br>
CYSN has no TAF <br><br>
<br><br>
CYHM 060700Z 36005KT 15SM FEW250 01/M02 A3013 RMK CI1 CI TR SLP212<br><br>
TAF CYHM 060538Z 0606/0706 VRB03KT P6SM SKC BECMG 0617/0619 25008KT FM062100 25008KT P6SM BKN100 OVC200 BECMG 0702/0704 VRB03KT RMK NXT FCST BY 061200Z<br><br>
<br><br>
KIAG 060753Z AUTO 00000KT 10SM CLR M01/M02 A3014 RMK AO2 SLP217 T10111022<br><br>
KIAG 060653Z AUTO 00000KT 9SM CLR 00/M01 A3014 RMK AO2 SLP216 T00001011<br><br>
KIAG 060539Z 0606/0706 22004KT P6SM FEW250 FM061600 26004KT P6SM FEW250 FM062200 23006KT P6SM BKN200 FM070200 20005KT P6SM BKN100<br><br>
<br><br>
KBUF 060754Z 27003KT 7SM CLR 02/01 A3014 RMK AO2 SLP211 T00220011<br><br>
KBUF 060654Z 30003KT 10SM CLR 03/01 A3014 RMK AO2 SLP211 T00280011<br><br>
KBUF 060539Z 0606/0706 22007KT P6SM FEW250 FM062200 23007KT P6SM BKN200 FM070100 21005KT P6SM BKN100<br><br>
<br><br>
CYYZ 060700Z 31003KT 15SM SKC 00/M01 A3014 RMK SLP212<br><br>
TAF CYYZ 060538Z 0606/0712 03008KT P6SM SKC BECMG 0611/0613 32006KT FM061600 15006G16KT P6SM SCT150 FM062100 18006G16KT P6SM BKN100 OVC200 BECMG 0623/0701 VRB03KT BECMG 0701/0703 34009KT FM070500 04007KT P6SM BKN100 RMK NXT FCST BY 060900Z<br><br>
<br><br>
CYOO 060700Z AUTO 35008KT 9SM CLR 01/M01 A3012 RMK SLP206<br><br>
TAF CYOO 060738Z 0608/0620 35008KT P6SM SKC BECMG 0616/0618 21010KT FM061900 21010KT P6SM BKN080 RMK FCST BASED ON AUTO OBS. NXT FCST BY 061400Z<br><br>
<br><br>
CYTR 060700Z 31003KT 15SM SKC 02/M01 A3011 RMK SLP201<br><br>
TAF CYTR 060530Z 0606/0706 33008KT P6SM SKC BECMG 0609/0611 VRB03KT BECMG 0616/0618 21012KT FM062000 21012KT P6SM FEW120 BKN200 FM070000 24005KT P6SM BKN080 BECMG 0701/0703 28005KT RMK NXT FCST BY 061200Z<br><br>
<br><br>
