RETRIEVED AT : Apr 28 2018 04:38 Local <br>
  RETRIEVED AT: Apr 28 2018 08:38 UTC<br><br>
CYSN has no TAF <br><br>
<br><br>
CYHM 280800Z 25002KT 5SM BR OVC030 07/07 A2969 RMK SC8 VIS NE 10 SLP059<br><br>
CYHM 280742Z 25004KT 3SM BR OVC031 07/06 A2969 RMK SC8 VIS VRB 2 - 4 VIS NE 10 SLP059<br><br>
CYHM 280728Z 27003KT 1 1/2SM R12/2000FT/N BR OVC031 06/06 A2969 RMK FG2SC6 VIS VRB 1 - 2 VIS NE 12 SLP057<br><br>
CYHM 280700Z 00000KT 15SM MIFG FEW036 SCT083 07/07 A2968 RMK SC2AC2 SLP055<br><br>
TAF AMD CYHM 280706Z 2807/2906 VRB03KT P6SM BKN040 TEMPO 2807/2812 1SM BR BKN007 FM281200 32010KT P6SM SCT020 BKN060 TEMPO 2812/2815 BKN020 FM281500 32012KT P6SM OVC030 BECMG 2817/2819 32015KT RMK NXT FCST BY 281200Z<br><br>
<br><br>
KIAG 280753Z AUTO 00000KT 9SM OVC055 08/04 A2968 RMK AO2 SLP055 T00830039<br><br>
KIAG 280653Z AUTO 00000KT 8SM FEW050 OVC065 08/04 A2968 RMK AO2 RAE00 SLP056 P0000 T00780039<br><br>
KIAG 280529Z 2806/2906 32005KT P6SM FEW050 FM281100 24005KT P6SM OVC030 FM281200 25005KT P6SM OVC012 TEMPO 2814/2816 4SM -SHRA OVC007 FM281600 25009KT P6SM VCSH OVC012 FM281900 27011KT P6SM OVC020 FM282200 29012G18KT P6SM OVC020<br><br>
<br><br>
KBUF 280754Z 20004KT 10SM SCT090 06/03 A2970 RMK AO2 SLP057 T00560033<br><br>
KBUF 280654Z 21005KT 10SM BKN050 BKN060 07/03 A2969 RMK AO2 SLP057 T00670033<br><br>
KBUF 280529Z 2806/2906 22008KT P6SM SCT070 OVC090 FM280700 22007KT P6SM BKN140 FM281200 24005KT P6SM OVC012 TEMPO 2814/2817 4SM -SHRA OVC007 FM281700 24010G16KT P6SM VCSH OVC012 FM282200 27010G17KT P6SM BKN020<br><br>
<br><br>
CYYZ 280800Z 34008KT 15SM FEW013 BKN028 BKN095 07/05 A2969 RMK SF2SC3AC2 SLP057<br><br>
CYYZ 280753Z 34009KT 15SM FEW012 BKN024 BKN095 07/05 A2969 RMK SF2SC3AC1 SLP057<br><br>
CYYZ 280700Z 32011KT 15SM BKN010 OVC019 07/06 A2970 RMK SC5SC3 SLP060<br><br>
TAF AMD CYYZ 280706Z 2807/2912 VRB03KT P6SM BKN040 TEMPO 2807/2812 OVC020 PROB40 2807/2810 BKN004 FM281200 33015KT P6SM OVC015 FM282100 33015G25KT P6SM BKN025 RMK NXT FCST BY 280900Z<br><br>
<br><br>
CYOO 280800Z AUTO 30004KT 9SM BKN049 OVC060 07/05 A2968 RMK SLP053<br><br>
CYOO 280700Z AUTO 31005KT 9SM FEW016 SCT055 BKN080 OVC095 07/05 A2968 RMK SLP053<br><br>
CYOO has no TAF <br><br>
<br><br>
CYTR 280800Z 32003KT 15SM -SHRA OVC110 08/03 A2966 RMK AC8 SLP045<br><br>
CYTR 280700Z 32006KT 15SM OVC110 08/02 A2964 RMK AC8 SLP039<br><br>
TAF CYTR 280530Z 2806/2906 32005KT P6SM OVC050 TEMPO 2806/2809 6SM -RA BR OVC030 FM281000 VRB03KT P6SM FEW040 SCT200 PROB30 2810/2813 1SM BR OVC008 FM281300 22012KT P6SM BKN025 BKN120 FM282200 24012KT 4SM -SHRA BR OVC020 FM290000 35010G20KT 2SM -SHRA BR OVC008 RMK NXT FCST BY 281200Z<br><br>
<br><br>
