RETRIEVED AT : May 15 2018 05:03 Local <br>
  RETRIEVED AT: May 15 2018 09:03 UTC<br><br>
CYSN has no TAF <br><br>
<br><br>
CYHM 150843Z 21013KT 15SM FEW004 FEW050 SCT085 BKN150 BKN220 16/16 A2978 RMK CF1SC1AC2AC2CI1 CF TR SLP084 DENSITY ALT 1300FT<br><br>
CYHM 150814Z 24004KT 10SM -RA FEW006 SCT018 OVC090 16/16 A2977 RMK SF2SC2AC4 PRESFR SLP081 DENSITY ALT 1300FT<br><br>
CYHM 150800Z CCA 27007KT 2 1/2SM RA BR FEW005 BKN018CB BKN045 OVC075 17/16 A2980 RMK SF2CB3SC2AC1 OCNL LTNG DIST E-SE /R10/ PRESFR SLP093 DENSITY ALT 1300FT<br><br>
CYHM 150745Z 26010G17KT 2 1/2SM TSRA BKN006CB OVC018 16/16 A2983 RMK CB5SC3 OCNL LTGIC OVRHD SLP101 DENSITY ALT 1300FT<br><br>
CYHM 150736Z 25012G22KT 1 1/4SM +TSRA BKN010CB OVC030 16/16 A2982 RMK CB5SC3 FRQ LTGIC OVRHD SLP099 DENSITY ALT 1300FT<br><br>
CYHM 150728Z 23017G22KT 1SM -TSRA FEW010CB OVC020 16/15 A2983 RMK CB2SC6 OCNL LTNG PRESRR SLP102 DENSITY ALT 1200FT<br><br>
TAF AMD CYHM 150737Z 1507/1606 23006KT 6SM -SHRA OVC030 TEMPO 1507/1509 VRB15G25KT 1SM TSRA BR BKN008 OVC020CB FM150900 23006KT P6SM -SHRA OVC040 TEMPO 1509/1511 4SM SHRA BR SCT008 BKN020 OVC040 PROB40 1509/1511 1SM +TSRA BR BKN005 OVC020CB FM151100 24012KT 2SM -SHRA BR BKN005 OVC010 TEMPO 1511/1515 6SM -SHRA BR OVC010 FM151500 36010KT P6SM BKN008 OVC015 TEMPO 1515/1518 OVC025 FM151800 04010KT P6SM SCT020 BKN060 FM152200 05006KT P6SM SCT030 OVC080 FM160000 06005KT P6SM FEW025 RMK NXT FCST BY 151200Z<br><br>
<br><br>
KIAG 150853Z AUTO 23006KT 5SM -RA BR FEW009 SCT070 OVC100 17/15 A2980 RMK AO2 LTG DSNT NE SLP088 P0014 60015 T01720150 56007<br><br>
KIAG 150843Z AUTO 21008KT 4SM -RA FEW008 BKN090 OVC110 18/15 A2979 RMK AO2 LTG DSNT NE AND E P0013 T01780150<br><br>
KIAG 150832Z AUTO 26009KT 4SM RA FEW031 BKN090 OVC110 18/15 A2981 RMK AO2 LTG DSNT NW-E P0011 T01780150<br><br>
KIAG 150753Z AUTO 24009KT 5SM VCTS -RA FEW041 SCT090 BKN110 17/14 A2981 RMK AO2 LTG DSNT SW-NW RAB47 PRESRR SLP093 P0001 T01670139<br><br>
KIAG 150817Z 1508/1606 23009KT 6SM -SHRA OVC040 TEMPO 1508/1509 4SM TSRA OVC030CB FM151300 22006KT 6SM -SHRA OVC015 FM151700 33007KT P6SM VCSH OVC035 FM151800 36008KT P6SM BKN060 FM160300 VRB03KT P6SM SCT250<br><br>
<br><br>
KBUF 150854Z 21006KT 10SM FEW023 SCT070 OVC100 20/16 A2980 RMK AO2 LTG DSNT NE-S RAB07E51 TSE04 PRESFR SLP089 P0004 60004 T02000161 55007<br><br>
KBUF 150754Z 22005KT 10SM FEW040 BKN120 BKN250 19/16 A2980 RMK AO2 LTG DSNT W AND NW SLP088 T01940156<br><br>
KBUF 150816Z 1508/1606 23006KT 6SM -SHRA OVC040 TEMPO 1508/1509 TSRA OVC030CB FM151300 22005KT 6SM -SHRA OVC012 FM151700 33010KT P6SM VCSH OVC035 FM152000 02008KT P6SM BKN060 FM160300 11004KT P6SM FEW250<br><br>
<br><br>
CYYZ 150848Z VRB02KT 5SM -SHRA BR FEW018 SCT040 OVC100 17/15 A2974 RMK CF1SC3AC4 PRESFR SLP072 DENSITY ALT 1100FT<br><br>
CYYZ 150826Z 22005KT 6SM SHRA SCT018CB OVC040 17/15 A2977 RMK CB3SC5 OCNL LTGIC NE-S PRESFR SLP080 DENSITY ALT 1100FT<br><br>
CYYZ 150800Z 21006KT 190V270 5SM TSRA FEW013 OVC018CB 17/15 A2978 RMK CF2CB6 /R10/ OCNL LTNG OVRHD SLP086 DENSITY ALT 1100FT<br><br>
CYYZ 150746Z 21006KT 190V250 5SM +TSRA OVC022CB 17/14 A2979 RMK CB8 OCNL LTNG OVRHD SLP088 DENSITY ALT 1100FT<br><br>
CYYZ 150734Z 22008KT 6SM +SHRA OVC020 17/14 A2979 RMK SC8 CVCTV CLD EMBD PRESRR SLP088 DENSITY ALT 1200FT<br><br>
CYYZ 150707Z 24003KT 170V260 10SM -RA OVC040 17/14 A2977 RMK SC8 SLP082 DENSITY ALT 1200FT<br><br>
TAF CYYZ 150838Z 1509/1612 22006KT P6SM -SHRA FEW020 OVC040 TEMPO 1509/1510 5SM -SHRA BR BKN020 OVC040 FM151000 27008KT P6SM -SHRA OVC040 TEMPO 1510/1512 4SM -SHRA BR SCT008 BKN020 OVC040 PROB30 1510/1512 VRB15G30KT 2SM TSRA BR BKN006 OVC020CB FM151200 36012KT 5SM -SHRA BR BKN007 OVC025 TEMPO 1512/1515 P6SM -SHRA OVC025 FM151500 04010KT P6SM FEW020 BKN030 BKN080 TEMPO 1515/1518 P6SM -SHRA FM151800 01010KT P6SM FEW030 OVC080 FM152300 01012KT P6SM FEW030 SCT100 RMK NXT FCST BY 151200Z<br><br>
<br><br>
CYOO 150842Z AUTO 14003KT 120V220 1 1/2SM -RA BR BKN005 OVC036 14/13 A2977 RMK LTNG DIST ALQDS SLP084 DENSITY ALT 500FT<br><br>
CYOO 150813Z AUTO 26005KT 1 3/4SM TSRA BR BKN025 BKN033 OVC042 14/13 A2979 RMK LTNG DIST SW W SLP089 DENSITY ALT 500FT<br><br>
CYOO 150807Z AUTO 24006KT 1 3/4SM +TSRA BR SCT027 BKN036 BKN085 OVC110 14/13 A2979 RMK LTNG DIST SW W SLP089 DENSITY ALT 500FT<br><br>
CYOO 150801Z AUTO 21003KT 180V250 2 1/4SM TSRA BR SCT034 BKN042 BKN085 OVC110 14/13 A2978 RMK VIS VRB 1 1/4-3 LTNG DIST SW W PRESRR SLP086 DENSITY ALT 500FT<br><br>
CYOO 150800Z AUTO 21003KT 180V300 3SM -TSRA BR SCT034 BKN045 BKN085 OVC110 14/13 A2978 RMK LTNG DIST SW W PRESRR SLP086 DENSITY ALT 500FT<br><br>
CYOO 150755Z AUTO VRB06KT 4SM -TSRA BR FEW034 SCT045 BKN065 OVC110 14/13 A2978 RMK LTNG DIST SW W PRESRR SLP087 DENSITY ALT 600FT<br><br>
CYOO 150749Z AUTO 34003KT 320V060 5SM -RA VCTS BR SCT050 SCT070 BKN087 OVC110 14/12 A2977 RMK LTNG DIST SW W SLP081 DENSITY ALT 500FT<br><br>
CYOO 150736Z AUTO 08002KT 5SM BR SCT049 BKN070 OVC120 14/12 A2976 RMK LTNG DIST W PRESFR SLP078 DENSITY ALT 500FT<br><br>
CYOO has no TAF <br><br>
<br><br>
CYTR 150800Z 20005KT 5SM BR OVC140 14/13 A2976 RMK AC8 SLP078<br><br>
TAF CYTR 150530Z 1506/1606 22006KT P6SM FEW030 BKN140 TEMPO 1506/1508 6SM -SHRA BR BKN030 OVC140 FM150800 VRB03KT P6SM -RA SCT020 OVC050 TEMPO 1508/1510 3SM -RA BR SCT008 OVC020 PROB30 1509/1510 VRB15G25KT 1SM TSRA BR BKN008 OVC020CB FM151000 03006KT P6SM -RA SCT020 OVC050 TEMPO 1510/1516 3SM -RA BR SCT008 OVC020 PROB30 1510/1514 VRB15G25KT 1SM TSRA BR BKN008 OVC020CB FM151700 22008KT P6SM SCT030 BKN120 FM152200 22005KT P6SM FEW030 SCT080 BECMG 1600/1602 VRB03KT RMK NXT FCST BY 151200Z<br><br>
<br><br>
