RETRIEVED AT : Jun 29 2020 01:05 Local <br>
  RETRIEVED AT: Jun 29 2020 05:05 UTC<br><br>
CYSN has no TAF <br><br>
<br><br>
CYHM 290400Z 03006KT 15SM SKC 20/14 A2987 RMK SLP115 DENSITY ALT 1700FT<br><br>
TAF CYHM 282338Z 2900/2924 33008KT P6SM SCT050 FM290200 02006KT P6SM FEW040 BECMG 2907/2909 VRB03KT FM291500 05007KT P6SM SCT050 RMK NXT FCST BY 290600Z<br><br>
<br><br>
KIAG 290453Z AUTO 00000KT 7SM CLR 18/17 A2986 RMK AO2 SLP108 T01830172 402780178<br><br>
KIAG 290353Z AUTO 18004KT 10SM CLR 19/17 A2986 RMK AO2 SLP107 T01890172<br><br>
KIAG 290257Z 2903/2924 VRB03KT P6SM SKC FM291500 35008KT P6SM SCT250<br><br>
<br><br>
KBUF 290454Z 23005KT 10SM CLR 18/18 A2987 RMK AO2 SLP113 T01830178 402440183 $<br><br>
KBUF 290354Z 24004KT 10SM CLR 19/18 A2986 RMK AO2 SLP110 T01890178 $<br><br>
KBUF 290256Z 2903/2924 24006KT P6SM SKC FM290800 VRB04KT P6SM SKC FM291500 31008KT P6SM FEW250<br><br>
<br><br>
CYYZ 290400Z 36010KT 15SM SKC 21/15 A2986 RMK SLP110 DENSITY ALT 1600FT<br><br>
TAF CYYZ 290239Z 2903/3006 35012KT P6SM FEW070 BECMG 2903/2905 01008KT FM291700 14010KT P6SM SCT050 FM300000 36012KT P6SM FEW060 BECMG 3004/3006 08007KT RMK NXT FCST BY 290600Z<br><br>
<br><br>
CYOO 290400Z AUTO 34008KT 9SM CLR 21/16 A2985 RMK SLP107 DENSITY ALT 1300FT<br><br>
TAF CYOO 290139Z 2902/2914 35007KT P6SM FEW050 RMK FCST BASED ON AUTO OBS. NXT FCST BY 290800Z<br><br>
<br><br>
CYTR 290400Z 00000KT 15SM FEW090 20/17 A2981 RMK AC2 SLP095<br><br>
TAF CYTR 282330Z 2900/2924 01010KT P6SM FEW040 SCT110 FM290200 VRB03KT P6SM FEW040 PROB30 2908/2911 2SM BR BECMG 2915/2917 22008KT FM291700 22008KT P6SM -SHRA BKN040 PROB30 2919/2924 VRB15G25KT 2SM TSRA BR OVC040CB RMK NXT FCST BY 290600Z<br><br>
<br><br>
