RETRIEVED AT : Sep 26 2017 11:10 Local <br>
  RETRIEVED AT: Sep 26 2017 15:10 UTC<br><br>
CYSN 261500Z VRB02KT 12SM SCT250 29/22 A2999 RMK CI4 SLP155 DENSITY ALT 2000FT<br><br>
CYSN 261400Z 23003KT 12SM FEW090 SCT230 27/21 A3000 RMK AC1CI3 SLP157 DENSITY ALT 1700FT<br><br>
TAF CYSN 261238Z 2613/2701 VRB03KT P6SM FEW090 BKN230 BECMG 2615/2617 34006KT BECMG 2623/2701 VRB03KT RMK NXT FCST BY 262000Z<br><br>
<br><br>
CYHM 261500Z 17003KT 150V230 15SM FEW160 FEW240 27/20 A3002 RMK AC1CI1 AC TR SLP163 DENSITY ALT 2300FT<br><br>
CYHM 261400Z 22006KT 15SM FEW230 25/20 A3002 RMK CI1 SLP165 DENSITY ALT 2000FT<br><br>
CYHM 261341Z 25003KT 200V270 10SM FEW240 24/21 A3002 RMK CI1 SLP165 DENSITY ALT 1900FT<br><br>
TAF AMD CYHM 261204Z 2612/2712 VRB03KT P6SM BKN240 TEMPO 2612/2614 2SM BR PROB30 2612/2613 1/2SM FG FM261700 20012KT P6SM SKC BECMG 2701/2703 21005KT RMK NXT FCST BY 261800Z<br><br>
<br><br>
KIAG 261453Z 25006KT 10SM CLR 29/19 A3001 RMK AO2 SLP157 T02890194 50000<br><br>
KIAG 261353Z 20005KT 9SM CLR 26/19 A3002 RMK AO2 SLP159 T02560194<br><br>
KIAG 261434Z 2615/2712 20005KT P6SM SCT250 FM261700 22007KT P6SM SCT040 SCT250 FM270000 VRB03KT P6SM SCT250 FM270800 20006KT P6SM SCT250<br><br>
<br><br>
KBUF 261454Z 21005KT 10SM FEW180 FEW230 FEW270 28/19 A3002 RMK AO2 SLP160 T02780194 58001<br><br>
KBUF 261354Z 20005KT 10SM FEW160 SCT230 SCT270 24/19 A3003 RMK AO2 SLP164 T02440194<br><br>
KBUF 261434Z 2615/2712 20005KT P6SM SCT250 FM261700 24007KT P6SM FEW040 SCT250 FM270000 VRB03KT P6SM SCT250 FM270800 19006KT P6SM SCT250<br><br>
<br><br>
CYYZ 261500Z 21005KT 160V240 12SM FEW140 SCT260 28/20 A2999 RMK AC2CI2 SLP155 DENSITY ALT 2200FT<br><br>
CYYZ 261400Z 16003KT 110V200 12SM FEW160 SCT260 26/20 A3001 RMK AC2CI1 SLP160 DENSITY ALT 1900FT<br><br>
TAF CYYZ 261442Z 2615/2718 16005KT P6SM FEW160 SCT240 BECMG 2615/2616 16008KT FM261700 20010KT P6SM SKC BECMG 2619/2621 16010KT BECMG 2623/2701 20007KT FM271600 30012G22KT P6SM BKN025 RMK NXT FCST BY 261800Z<br><br>
<br><br>
CYOO 261500Z AUTO VRB02KT 9SM CLR 26/21 A3000 RMK SLP158 DENSITY ALT 1700FT<br><br>
CYOO 261400Z AUTO VRB02KT 8SM CLR 24/20 A3001 RMK SLP162 DENSITY ALT 1500FT<br><br>
CYOO has no TAF <br><br>
<br><br>
CYTR 261500Z 00000KT 15SM BKN250 26/21 A3001 RMK CI7 SLP161<br><br>
CYTR 261400Z 10002KT 15SM BKN250 24/20 A3001 RMK CI7 SLP162<br><br>
TAF CYTR 261130Z 2612/2712 VRB03KT P6SM SCT250 TEMPO 2612/2614 3SM BR PROB30 2612/2613 2SM BR FM261800 20008KT P6SM BKN200 BECMG 2622/2624 VRB03KT FM270300 VRB03KT P6SM FEW240 TEMPO 2703/2709 3SM BR FM270900 23008KT P6SM FEW040 SCT200 RMK NXT FCST BY 261800Z<br><br>
<br><br>
