RETRIEVED AT : Mar 16 2020 07:05 Local <br>
  RETRIEVED AT: Mar 16 2020 11:05 UTC<br><br>
CYSN has no TAF <br><br>
<br><br>
CYHM 161000Z 06009KT 15SM SCT250 M05/M11 A3049 RMK CI5 SLP339<br><br>
TAF CYHM 160539Z 1606/1706 04006KT P6SM FEW250 FM160900 07012KT P6SM FEW240 FM161500 08007KT P6SM BKN040 OVC240 FM170100 VRB03KT 6SM -RA BR OVC030 FM170300 VRB03KT 4SM -RA BR OVC020 FM170500 23010KT 1SM -RA BR OVC003 RMK NXT FCST BY 161200Z<br><br>
<br><br>
KIAG 161053Z 10006KT 10SM CLR M06/M11 A3051 RMK AO2 SLP350 T10561111<br><br>
KIAG 160953Z AUTO 09006KT 10SM CLR M05/M11 A3052 RMK AO2 SLP350 T10501111<br><br>
KIAG 160904Z 1609/1706 10006KT P6SM FEW250 FM161800 12005KT P6SM SCT250 FM162100 12005KT P6SM BKN050 FM170300 21007KT P6SM VCSH BKN020<br><br>
<br><br>
KBUF 161054Z 07007KT 10SM FEW250 M04/M13 A3051 RMK AO2 SLP341 T10391133<br><br>
KBUF 160954Z 06008KT 10SM FEW260 M03/M13 A3051 RMK AO2 SLP343 T10331128<br><br>
KBUF 160904Z 1609/1706 08007KT P6SM FEW250 FM161200 12007KT P6SM FEW250 FM161800 14006KT P6SM SCT250 FM162100 15007KT P6SM BKN050 FM170300 20009KT P6SM VCSH BKN025<br><br>
<br><br>
CYYZ 161000Z 12007KT 15SM SKC M02/M08 A3052 RMK SLP345<br><br>
TAF CYYZ 160843Z 1609/1712 07010KT P6SM SKC BECMG 1611/1613 09006KT BECMG 1613/1615 10012KT FM170000 09009KT P6SM OVC040 FM170300 10006KT P6SM -SHRA OVC030 FM170500 22008KT P6SM -SHRA OVC015 PROB30 1705/1708 2SM -RA BR OVC003 RMK NXT FCST BY 161200Z<br><br>
<br><br>
CYOO 161000Z AUTO 08006KT 9SM CLR M05/M11 A3055 RMK SLP352<br><br>
TAF CYOO 160739Z 1608/1620 08006KT P6SM BKN240 FM161200 07009KT P6SM FEW020 BECMG 1612/1614 11012KT RMK FCST BASED ON AUTO OBS. NXT FCST BY 161400Z<br><br>
<br><br>
CYTR 161000Z CCA 05006KT 15SM FEW240 M07/M12 A3061 RMK CI1 SLP370<br><br>
TAF CYTR 160530Z 1606/1706 VRB03KT P6SM SKC BECMG 1614/1616 10008KT FM161800 10008KT P6SM BKN240 FM170100 08005KT P6SM BKN060 OVC120 FM170400 20005KT P6SM OVC030 RMK NXT FCST BY 161200Z<br><br>
<br><br>
