RETRIEVED AT : Dec 10 2017 06:10 Local <br>
  RETRIEVED AT: Dec 10 2017 11:10 UTC<br><br>
CYSN has no TAF <br><br>
<br><br>
CYHM 101100Z 26010G16KT 15SM FEW016 SCT060 BKN160 M04/M07 A2981 RMK CF2SC1AC3 SLP108<br><br>
CYHM 101000Z 27006KT 15SM -SN BKN063 M04/M06 A2980 RMK SC6 SLP104<br><br>
TAF CYHM 100542Z 1006/1106 25005KT P6SM SCT080 TEMPO 1006/1011 3SM BR FM101100 25010KT P6SM SCT020 BECMG 1013/1015 25015G25KT FM101800 26015G30KT P6SM -SN BKN030 OVC050 TEMPO 1018/1106 4SM -SN OVC020 PROB30 1103/1105 11/2SM -SHSN VV008 RMK NXT FCST BY 101200Z<br><br>
<br><br>
KIAG 101000Z AUTO 27007KT 4SM -SN FEW026 BKN036 OVC070 M01/M04 A2979 RMK AO2 P0000 T10111044<br><br>
KIAG 100953Z AUTO 28010KT 3SM -SN FEW021 BKN029 OVC034 M01/M04 A2979 RMK AO2 SNB0859 SLP103 P0000 T10111044<br><br>
KIAG 100923Z 1009/1106 28009KT P6SM VCSH BKN015 FM101000 28012G18KT P6SM BKN035 FM101500 27015G25KT P6SM BKN040 FM110000 25013G22KT P6SM BKN040<br><br>
<br><br>
KBUF 101054Z 28010KT 6SM -SN BR SCT016 BKN032 OVC070 M02/M04 A2981 RMK AO2 SLP103 P0001 T10221044<br><br>
KBUF 101047Z 28008KT 6SM -SN BR SCT018 BKN035 OVC070 M02/M04 A2980 RMK AO2 P0001 T10221039<br><br>
KBUF 100954Z 29010KT 3SM -SN BR SCT016 BKN029 OVC042 M02/M04 A2979 RMK AO2 SLP095 P0000 T10221039<br><br>
KBUF 100923Z 1009/1106 28009KT 6SM -SN OVC015 FM101100 27010KT P6SM BKN035 FM101500 27016G28KT P6SM BKN040 FM101900 26018G29KT P6SM VCSH OVC025 FM110100 26013G22KT P6SM OVC035<br><br>
<br><br>
TAF CYYZ 100838Z 1009/1112 30012KT P6SM SCT025 BKN060 BECMG 1013/1015 25015G25KT FM101600 25015G25KT P6SM -SN BKN030 OVC060 TEMPO 1016/1101 5SM -SN OVC020 FM110100 25015KT 6SM -SN OVC030 TEMPO 1101/1104 3SM -SN OVC020 PROB30 1102/1104 33012G22KT 11/4SM -SN OVC015 FM110400 35012KT P6SM -SHSN BKN030 FM110600 35010KT P6SM SCT030 RMK NXT FCST BY 101200Z<br><br>
<br><br>
CYOO 101100Z AUTO 26010G17KT 9SM BKN110 OVC170 M03/M08 A2977 RMK SLP089<br><br>
CYOO 101000Z AUTO 29009KT 9SM CLR M03/M06 A2976 RMK SLP084<br><br>
CYOO has no TAF <br><br>
<br><br>
CYTR 101100Z 29008KT 15SM BKN059 M03/M08 A2975 RMK SC6 SLP078<br><br>
CYTR 101000Z 31010G15KT 15SM SCT038 OVC086 M02/M06 A2972 RMK SC3AC5 SLP071<br><br>
TAF CYTR 100530Z 1006/1106 27006KT P6SM BKN030 OVC080 TEMPO 1006/1008 BKN020 BECMG 1009/1011 31007KT FM101800 25015G25KT P6SM SCT020 BKN070 TEMPO 1018/1022 4SM -SHSN BKN020 FM102200 26015G25KT P6SM FEW015 BKN030 TEMPO 1022/1101 4SM -SHSN BKN015 PROB30 1022/1101 2SM -SHSN BKN012 OVC030 FM110100 30012KT P6SM SCT030 BKN050 RMK NXT FCST BY 101200Z<br><br>
<br><br>
