RETRIEVED AT : May 12 2018 06:05 Local <br>
  RETRIEVED AT: May 12 2018 10:05 UTC<br><br>
CYSN has no TAF <br><br>
<br><br>
CYHM 120900Z 04012KT 15SM -RA FEW045 OVC079 05/M00 A3005 RMK SC2AC6 SLP182<br><br>
TAF CYHM 120538Z 1206/1306 05005KT P6SM -RA OVC110 TEMPO 1206/1211 OVC080 FM121100 05012KT P6SM BKN060 FM121400 05012KT P6SM SCT020 BKN080 FM121700 05015KT P6SM FEW030 SCT120 BKN250 BECMG 1218/1220 SKC BECMG 1222/1224 04007KT RMK NXT FCST BY 121200Z<br><br>
<br><br>
KIAG 120953Z AUTO 04007KT 8SM -RA OVC085 09/02 A3004 RMK AO2 RAB00E11B36 SLP180 P0000 T00890022<br><br>
KIAG 120853Z AUTO 07005KT 10SM OVC095 10/M01 A3006 RMK AO2 SLP185 T01001011 55014<br><br>
KIAG 120900Z 1209/1306 07006KT P6SM -RA OVC070 FM121200 06007KT P6SM VCSH OVC040 FM121500 05008KT P6SM OVC045 FM121800 04008KT P6SM BKN090 FM130100 VRB03KT P6SM BKN250<br><br>
<br><br>
KBUF 120954Z 04006KT 9SM -RA FEW060 SCT070 OVC090 10/03 A3004 RMK AO2 RAB40 SLP174 P0002 T01000033<br><br>
KBUF 120854Z 05006KT 10SM BKN095 OVC130 11/01 A3006 RMK AO2 SLP181 T01060011 56015<br><br>
KBUF 120900Z 1209/1306 06006KT 6SM -RA OVC060 FM121300 06007KT P6SM VCSH OVC035 FM121900 04007KT P6SM BKN080 FM130200 VRB03KT P6SM BKN250<br><br>
<br><br>
CYYZ 120947Z 06005KT 5SM -RA BKN100 08/M03 A3008 RMK AC7 PCPN VRY LGT SLP192<br><br>
CYYZ 120900Z 07005KT 15SM SCT090 BKN110 BKN200 08/M04 A3008 RMK AC3AC3CI1 SLP191<br><br>
TAF CYYZ 120838Z 1209/1312 09005KT P6SM OVC120 TEMPO 1209/1212 P6SM -RA OVC090 FM121400 06010KT P6SM FEW080 SCT220 BECMG 1216/1218 10010KT BECMG 1304/1306 35005KT FM131000 06005KT P6SM SCT006 RMK NXT FCST BY 121200Z<br><br>
<br><br>
CYOO 120900Z AUTO 32003KT 230V320 9SM BKN085 BKN120 OVC140 06/02 A3010 RMK SLP198<br><br>
CYOO has no TAF <br><br>
<br><br>
CYTR 120900Z 01002KT 15SM SCT100 BKN240 01/M01 A3011 RMK AC3CI2 SLP201<br><br>
TAF CYTR 120530Z 1206/1306 VRB03KT P6SM OVC250 FM120900 VRB03KT P6SM BKN100 BECMG 1214/1216 09008KT SCT180 RMK NXT FCST BY 121200Z<br><br>
<br><br>
