RETRIEVED AT : Jun 09 2019 21:05 Local <br>
  RETRIEVED AT: Jun 10 2019 01:05 UTC<br><br>
CYSN 100000Z 31004KT 15SM FEW130 BKN250 17/14 A3008 RMK AC2CI5 SLP186 DENSITY ALT 500FT<br><br>
TAF CYSN 091938Z 0920/1001 32007KT P6SM FEW150 BKN250 BECMG 0922/0924 14008KT RMK NXT FCST WILL BE ISSUED AT 101245Z<br><br>
<br><br>
CYHM 100000Z 03006KT 15SM FEW080 BKN270 18/12 A3009 RMK AC2CI5 SLP190 DENSITY ALT 1200FT<br><br>
TAF CYHM 092341Z 1000/1024 03008KT P6SM FEW070 BKN220 FM100600 11008KT P6SM -SHRA OVC040 FM100900 11008KT 5SM -SHRA BR OVC020 FM101400 12008KT 4SM -SHRA BR BKN007 OVC015 FM102000 18008KT 3SM SHRA BR BKN007 OVC015 PROB30 1020/1022 VRB15G25KT 11/2SM +TSRA BR BKN005 OVC020CB RMK NXT FCST BY 100600Z<br><br>
<br><br>
KIAG 100053Z 13010KT 10SM CLR 24/08 A3009 RMK AO2 SLP186 T02440083<br><br>
KIAG 092353Z 13009KT 10SM CLR 26/09 A3009 RMK AO2 SLP185 T02560094 10289 20256 55004<br><br>
KIAG 092335Z 1000/1024 12007KT P6SM BKN250 FM100600 14008KT P6SM OVC050 WS020/17040KT FM101200 14008KT P6SM VCSH OVC025 FM101600 18010KT P6SM VCSH OVC030 FM101900 20009KT P6SM VCSH OVC035 FM102200 22007KT 3SM +SHRA BR OVC020<br><br>
<br><br>
KBUF 100054Z 14009KT 10SM FEW150 BKN200 BKN250 24/08 A3011 RMK AO2 SLP194 T02440083<br><br>
KBUF 092354Z 14011KT 10SM FEW150 BKN200 BKN250 26/08 A3011 RMK AO2 SLP193 T02610083 10289 20261 55002<br><br>
KBUF 092335Z 1000/1024 12008KT P6SM BKN250 FM100600 14009KT P6SM OVC060 WS020/17040KT FM101200 14008KT P6SM VCSH SCT025 OVC035 FM101600 18011G17KT P6SM VCSH OVC035 FM102200 20008KT 3SM +SHRA BR OVC020<br><br>
<br><br>
CYYZ 100000Z 08015KT 15SM FEW120 BKN230 22/11 A3010 RMK AC2CI5 SLP192 DENSITY ALT 1400FT<br><br>
TAF CYYZ 092341Z 1000/1106 09012G22KT P6SM FEW060 SCT160 BKN250 FM100200 07007KT P6SM SCT070 BKN150 FM100600 13006KT P6SM BKN070 OVC140 FM100800 14006KT 5SM -SHRA BR OVC025 FM101200 12010KT 4SM -SHRA BR BKN007 OVC015 FM110000 28015G25KT P6SM -SHRA OVC015 FM110300 30015G25KT P6SM BKN025 RMK NXT FCST BY 100300Z<br><br>
<br><br>
CYOO 100000Z AUTO 08009KT 9SM CLR 23/11 A3011 RMK SLP197 DENSITY ALT 1300FT<br><br>
TAF CYOO 091938Z 0920/1008 10015KT P6SM SCT250 BECMG 0923/1001 09010KT FM100300 09007KT P6SM BKN150 OVC250 RMK FCST BASED ON AUTO OBS. NXT FCST BY 100200Z<br><br>
<br><br>
CYTR 100000Z 08002KT 15SM FEW140 BKN260 25/14 A3014 RMK AC2CI6 SLP208<br><br>
TAF CYTR 092330Z 1000/1024 12005KT P6SM FEW140 BKN260 FM101000 15008KT P6SM SCT020 OVC040 TEMPO 1010/1013 P6SM -SHRA BKN020 OVC040 FM101300 15012KT 6SM -RA BR SCT008 OVC020 TEMPO 1013/1024 4SM SHRA BR BKN008 OVC020 RMK NXT FCST BY 100600Z<br><br>
<br><br>
