RETRIEVED AT : Oct 30 2017 22:10 Local <br>
  RETRIEVED AT: Oct 31 2017 02:10 UTC<br><br>
CYSN 310100Z 23009G15KT 15SM BKN033 06/03 A2962 RMK SC5 LAST STFD OBS/NEXT 311100UTC SLP035<br><br>
CYSN has no TAF <br><br>
<br><br>
CYHM 310200Z 25016G23KT 15SM FEW024 SCT100 05/02 A2964 RMK SC1AC3 SLP046<br><br>
CYHM 310100Z 25017G24KT 15SM BKN020 BKN100 06/03 A2961 RMK SC6AC1 SLP033<br><br>
TAF CYHM 302349Z 3100/3124 25015G25KT 5SM -SHRA BR BKN020 OVC050 TEMPO 3100/3103 P6SM NSW OVC050 FM310300 25015G25KT P6SM FEW020 SCT040 TEMPO 3103/3108 BKN020 FM310800 24012KT P6SM BKN020 FM311600 25015G25KT P6SM BKN040 BECMG 3120/3122 23008KT RMK NXT FCST BY 310600Z<br><br>
<br><br>
KIAG 310153Z 25013KT 10SM SCT075 OVC100 08/02 A2965 RMK AO2 SLP048 T00780022<br><br>
KIAG 310053Z 22009G17KT 10SM BKN031 OVC080 07/03 A2963 RMK AO2 LTG DSNT SW RAB21E29 SLP041 P0000 T00670028<br><br>
KIAG 302326Z 3100/3124 23012G22KT P6SM VCSH FEW050 OVC080 FM310600 26020KT P6SM BKN050 FM311500 26011KT P6SM BKN060<br><br>
<br><br>
KBUF 310154Z 19014G22KT 10SM -RA BKN010 OVC016 04/03 A2967 RMK AO2 CIG 008V012 SLP050 P0006 T00390033<br><br>
KBUF 310054Z 20015G24KT 5SM RA BR OVC012 04/03 A2964 RMK AO2 PK WND 25027/2355 LTG DSNT SW SLP043 P0017 T00440033<br><br>
KBUF 310034Z 21008G19KT 9SM -RA BKN014 OVC021 06/04 A2964 RMK AO2 PK WND 25027/2355 P0014 T00560044<br><br>
KBUF 302326Z 3100/3124 24016G28KT 5SM RA BR BKN014 OVC035 FM310300 25020G32KT 6SM -RA SCT015 OVC035 FM310700 26016KT 6SM -RA BKN045 FM311200 25014KT 6SM -RA BKN040 FM312000 26015KT P6SM SCT030 FM312200 26012KT 6SM -RA BKN035<br><br>
<br><br>
CYYZ 310200Z 26016KT 15SM SCT025 BKN035 BKN110 06/01 A2960 RMK SC3SC3AC1 SLP030<br><br>
CYYZ 310100Z 24013KT 15SM FEW025 SCT075 BKN087 06/02 A2958 RMK SC2AC2AC2 SLP024<br><br>
TAF CYYZ 302349Z 3100/0106 24015G28KT P6SM SCT020 BKN050 TEMPO 3100/3101 P6SM -SHRA OVC020 FM310100 24015G25KT P6SM SCT020 BKN040 TEMPO 3101/3110 BKN020 FM311000 24015KT P6SM BKN020 FM311500 25015G25KT P6SM BKN030 BECMG 3120/3122 24012G22KT RMK NXT FCST BY 310300Z<br><br>
<br><br>
CYOO 310200Z AUTO 23007KT 9SM BKN025 OVC095 06/02 A2958 RMK SLP022<br><br>
CYOO 310100Z AUTO 22005KT 9SM OVC100 06/02 A2958 RMK SLP020<br><br>
CYOO has no TAF <br><br>
<br><br>
CYTR 310200Z 25013G18KT 15SM FEW038 BKN120 07/02 A2958 RMK SC1AC5 SLP021<br><br>
CYTR 310100Z 24015KT 15SM FEW025 BKN120 07/03 A2957 RMK SC2AC3 SLP015<br><br>
TAF CYTR 302330Z 3100/3124 25015G25KT P6SM FEW030 BKN120 TEMPO 3100/3107 P6SM -SHRA BKN030 FM310700 25015G25KT P6SM FEW040 FM311300 25022G32KT P6SM SCT030 RMK NXT FCST BY 310600Z<br><br>
<br><br>
