RETRIEVED AT : Sep 26 2017 07:10 Local <br>
  RETRIEVED AT: Sep 26 2017 11:10 UTC<br><br>
CYSN 261100Z 21004KT 7SM FEW090 BKN230 20/19 A2999 RMK AC2CI3 SLP155 DENSITY ALT 900FT<br><br>
CYSN has no TAF <br><br>
<br><br>
CYHM 261100Z 10002KT 10SM BCFG SCT220 19/19 A3001 RMK CI3 SLP161 DENSITY ALT 1400FT<br><br>
CYHM 261000Z 07002KT 15SM SCT250 19/19 A3001 RMK CI3 SLP159 DENSITY ALT 1400FT<br><br>
TAF CYHM 260538Z 2606/2706 VRB03KT P6SM BKN240 TEMPO 2609/2614 4SM BR PROB30 2609/2613 3/4SM BR FM261700 20012KT P6SM SKC BECMG 2701/2703 21005KT RMK NXT FCST BY 261200Z<br><br>
<br><br>
KIAG 261053Z 00000KT 5SM HZ CLR 21/18 A3000 RMK AO2 SLP155 T02110183<br><br>
KIAG 260953Z AUTO 00000KT 4SM HZ CLR 21/18 A2999 RMK AO2 SLP151 T02110178<br><br>
KIAG 260924Z AUTO 00000KT 3SM HZ CLR 21/18 A3000 RMK AO2 T02060178<br><br>
KIAG 260912Z AUTO 00000KT 1 3/4SM BR CLR 21/18 A3000 RMK AO2 T02060183<br><br>
KIAG 260824Z 2608/2706 VRB03KT 4SM BR BKN250 FM260900 VRB03KT 2SM BR SCT250 FM261100 VRB03KT P6SM SCT250 FM261800 22007KT P6SM SCT040 SCT250 FM270000 19004KT P6SM SCT250<br><br>
<br><br>
KBUF 261054Z 18005KT 10SM BKN250 19/18 A3002 RMK AO2 SLP160 T01940178<br><br>
KBUF 260954Z 18003KT 10SM BKN250 20/18 A3001 RMK AO2 SLP155 T02000183<br><br>
KBUF 260824Z 2608/2706 VRB03KT P6SM BKN250 FM261600 24008KT P6SM FEW040 SCT250 FM270000 VRB04KT P6SM SCT250<br><br>
<br><br>
CYYZ 261100Z VRB02KT 15SM FEW140 SCT240 21/18 A3000 RMK AC1CI2 SLP157 DENSITY ALT 1400FT<br><br>
CYYZ 261000Z 00000KT 15SM FEW090 SCT230 21/18 A2999 RMK AC1CI3 SLP155 DENSITY ALT 1400FT<br><br>
TAF CYYZ 260838Z 2609/2712 VRB03KT P6SM SCT230 BECMG 2614/2616 16008KT FM261700 20010KT P6SM SKC BECMG 2619/2621 16010KT BECMG 2623/2701 20007KT RMK NXT FCST BY 261200Z<br><br>
<br><br>
CYOO 261100Z AUTO 00000KT 9SM CLR 18/17 A2999 RMK SLP157 DENSITY ALT 800FT<br><br>
CYOO 261000Z AUTO 04002KT 9SM CLR 19/17 A2999 RMK SLP154 DENSITY ALT 900FT<br><br>
CYOO has no TAF <br><br>
<br><br>
CYTR 261100Z 02002KT 3SM BR SCT250 16/16 A3000 RMK CI4 SLP159<br><br>
CYTR 261000Z 00000KT 6SM BR FEW250 17/16 A2999 RMK CI2 SLP157<br><br>
TAF CYTR 260530Z 2606/2706 VRB03KT P6SM FEW250 TEMPO 2606/2612 3SM BR BECMG 2616/2618 20009KT RMK NXT FCST BY 261200Z<br><br>
<br><br>
