RETRIEVED AT : Sep 09 2018 05:05 Local <br>
  RETRIEVED AT: Sep 09 2018 09:05 UTC<br><br>
CYSN has no TAF <br><br>
<br><br>
CYHM 090800Z 09011KT 15SM FEW042 OVC250 12/06 A3020 RMK SC2CI6 SLP231<br><br>
TAF CYHM 090539Z 0906/1006 08010KT P6SM FEW020 BKN250 BECMG 0911/0913 08015G25KT FM091600 08018G28KT P6SM FEW030 OVC200 FM092300 09018G28KT P6SM -RA BKN040 OVC100 FM100200 07015G25KT P6SM -RA BKN020 OVC060 FM100400 07015G25KT 5SM -RA BR BKN008 OVC015 RMK NXT FCST BY 091200Z<br><br>
<br><br>
KIAG 090853Z AUTO 09005KT 10SM CLR 10/06 A3020 RMK AO2 SLP231 T01000056 58015<br><br>
KIAG 090753Z AUTO 08006KT 10SM CLR 10/06 A3021 RMK AO2 SLP235 T01000056<br><br>
KIAG 090859Z 0909/1006 08010KT P6SM OVC250 FM091400 07014G21KT P6SM OVC200 FM100200 08014G21KT P6SM -RA OVC090 FM100500 10015G22KT 6SM -RA OVC025<br><br>
<br><br>
KBUF 090854Z 08010KT 10SM FEW045 FEW130 OVC250 11/05 A3019 RMK AO2 SLP224 T01110050 58017<br><br>
KBUF 090754Z 08008KT 10SM FEW045 FEW120 OVC280 11/06 A3021 RMK AO2 SLP231 T01110056<br><br>
KBUF 090859Z 0909/1006 08010KT P6SM OVC250 FM091400 08014G21KT P6SM OVC200 FM100100 09014G21KT P6SM -RA OVC090 FM100400 11015G22KT 6SM -RA OVC025<br><br>
<br><br>
CYYZ 090805Z 06011G16KT 15SM FEW030 BKN250 12/03 A3024 RMK SC1CI4 SLP243<br><br>
TAF CYYZ 090838Z 0909/1012 06010G20KT P6SM FEW030 BKN250 TEMPO 0910/0915 BKN020 BECMG 0913/0915 09015G25KT FM091500 09015G25KT P6SM BKN030 OVC200 TEMPO 0915/0916 BKN020 FM091900 08015G25KT P6SM SCT030 OVC200 BECMG 0922/0924 08015KT FM100600 10012G22KT P6SM -RA BKN020 OVC070 FM100800 10015G25KT 5SM -RA BR BKN008 OVC012 PROB30 1008/1012 2SM -RA BR BKN003 OVC008 RMK NXT FCST BY 091200Z<br><br>
<br><br>
CYOO 090800Z AUTO 06010G16KT 030V090 9SM CLR 10/05 A3026 RMK SLP251<br><br>
CYOO has no TAF <br><br>
<br><br>
CYTR 090800Z 06002KT 15SM SCT240 07/05 A3029 RMK CI3 SLP260<br><br>
TAF CYTR 090530Z 0906/1006 04006KT P6SM BKN240 BECMG 0913/0915 07012G22KT BECMG 0922/0924 06010KT FM100400 12010KT P6SM FEW040 OVC150 RMK NXT FCST BY 091200Z<br><br>
<br><br>
