RETRIEVED AT : Feb 21 2020 21:05 Local <br>
  RETRIEVED AT: Feb 22 2020 02:05 UTC<br><br>
CYSN 220100Z 23021G28KT 15SM SKC M01/M07 A3028 RMK SLP259<br><br>
TAF CYSN 211938Z 2120/2202 24020G30KT P6SM FEW030 RMK NXT FCST WILL BE ISSUED AT 221345Z<br><br>
<br><br>
CYHM 220100Z 23017G25KT 15SM SKC M03/M08 A3025 RMK SLP260<br><br>
TAF CYHM 212339Z 2200/2224 23018G28KT P6SM SKC FM220400 24012G22KT P6SM SKC FM221000 24015KT P6SM BKN020 TEMPO 2210/2212 SCT020 FM221700 24012G22KT P6SM SCT025 RMK NXT FCST BY 220600Z<br><br>
<br><br>
KIAG 220153Z 23025G35KT 10SM CLR M01/M09 A3024 RMK AO2 PK WND 22035/0144 SLP258 T10111089<br><br>
KIAG 220053Z 23022G28KT 10SM CLR M02/M08 A3027 RMK AO2 PK WND 23035/0035 SLP269 T10171083<br><br>
KIAG 212322Z 2200/2224 23016G26KT P6SM SKC<br><br>
<br><br>
KBUF 220154Z 22015G23KT 10SM CLR 00/M07 A3025 RMK AO2 PK WND 23027/0128 SLP255 T00001072<br><br>
KBUF 220054Z 24018G25KT 10SM CLR 00/M08 A3029 RMK AO2 PK WND 23029/0025 SLP267 T00001078<br><br>
KBUF 212322Z 2200/2224 23020G30KT P6SM SKC FM220400 24015G25KT P6SM SKC FM221500 24020G30KT P6SM SCT250 FM222200 24015G25KT P6SM SCT250<br><br>
<br><br>
CYYZ 220100Z 19014G24KT 15SM SKC M02/M08 A3022 RMK SLP244<br><br>
TAF CYYZ 212339Z 2200/2306 22015G25KT P6SM SKC FM220600 24010G20KT P6SM SKC FM220900 24015KT P6SM BKN020 TEMPO 2209/2212 SCT020 FM221600 24012G22KT P6SM BKN025 FM222100 24010G20KT P6SM SCT030 FM230200 23010KT P6SM FEW015 RMK NXT FCST BY 220300Z<br><br>
<br><br>
CYOO 220100Z AUTO 23013G21KT 9SM CLR M02/M07 A3021 RMK SLP240<br><br>
TAF CYOO 220138Z 2202/2214 23012G22KT P6SM SKC FM220900 25010G20KT P6SM BKN025 RMK FCST BASED ON AUTO OBS. NXT FCST BY 220800Z<br><br>
<br><br>
CYTR 220100Z 24020G30KT 15SM FEW027 M01/M06 A3020 RMK CF1 CUFRA TR SLP233<br><br>
TAF CYTR 212330Z 2200/2224 23012G22KT P6SM SKC BECMG 2200/2201 25012KT FM220800 26008KT P6SM BKN030 FM221400 26010G20KT P6SM BKN020 BECMG 2222/2224 26008KT SCT020 RMK NXT FCST BY 220600Z<br><br>
<br><br>
