RETRIEVED AT : Oct 21 2018 20:05 Local <br>
  RETRIEVED AT: Oct 22 2018 00:05 UTC<br><br>
CYSN 212300Z 26010G20KT 15SM BKN034 05/M02 A3013 RMK SC7 SLP207<br><br>
TAF CYSN 211939Z 2120/2201 30010G20KT P6SM BKN040 TEMPO 2121/2201 P6SM -SHRA BKN020 BECMG 2122/2124 27010KT RMK NXT FCST WILL BE ISSUED AT 221245Z<br><br>
<br><br>
CYHM 212300Z 25006KT 15SM OVC035 03/M02 A3013 RMK SC8 SLP215<br><br>
TAF CYHM 212339Z 2200/2224 25008KT P6SM OVC030 FM220500 24008KT P6SM BKN030 BKN080 FM221000 25008KT P6SM FEW030 SCT100 FM221600 24010G20KT P6SM SCT060 BECMG 2222/2224 24008KT RMK NXT FCST BY 220600Z<br><br>
<br><br>
KIAG 212353Z 26013KT 10SM OVC041 04/M03 A3013 RMK AO2 SLP216 T00391028 10044 20039 55000<br><br>
KIAG 212253Z 26013KT 10SM OVC044 04/M02 A3012 RMK AO2 SLP212 T00441017<br><br>
KIAG 212336Z 2200/2224 27012KT P6SM BKN045 FM220200 27011G17KT P6SM SCT050 FM220800 22005KT P6SM BKN040 FM221400 20007KT P6SM BKN015 FM221600 21009KT P6SM VCSH BKN020 FM222000 22009KT P6SM BKN020<br><br>
<br><br>
KBUF 212354Z 26009KT 10SM BKN045 04/M02 A3013 RMK AO2 SLP212 T00391017 10056 20039 53000<br><br>
KBUF 212254Z 25012KT 10SM SCT039 BKN047 04/M02 A3013 RMK AO2 SLP209 T00441017<br><br>
KBUF 212336Z 2200/2224 27011KT P6SM BKN045 FM220200 27010G16KT P6SM SCT050 FM220800 22004KT P6SM BKN035 FM221200 20009KT P6SM VCSH BKN012 FM222000 22012G19KT P6SM BKN025 FM222300 22009KT P6SM BKN025<br><br>
<br><br>
CYYZ 212300Z 28014KT 15SM FEW030 BKN050 BKN130 04/M03 A3012 RMK SC2SC4AC1 SLP207<br><br>
TAF CYYZ 212339Z 2200/2306 28012KT P6SM BKN040 BKN120 TEMPO 2200/2208 P6SM -SHRASN BKN020 BKN080 BECMG 2201/2203 25008KT FM220800 25008KT P6SM SCT030 BKN080 FM221000 25008KT P6SM FEW030 SCT080 FM221700 25012G22KT P6SM BKN060 FM222100 25012KT P6SM BKN050 BECMG 2222/2224 24007KT BECMG 2301/2303 VRB03KT RMK NXT FCST BY 220300Z<br><br>
<br><br>
CYOO 212300Z AUTO 30006KT 9SM BKN050 BKN130 03/M03 A3011 RMK SLP203<br><br>
CYOO has no TAF <br><br>
<br><br>
CYTR 212300Z 29005KT 15SM BKN043 BKN200 04/M05 A3010 RMK SC7CI1 SLP197<br><br>
TAF CYTR 212330Z 2200/2224 30012KT P6SM BKN040 BKN200 BECMG 2200/2202 VRB03KT BECMG 2216/2218 22010KT RMK NXT FCST BY 220600Z<br><br>
<br><br>
