RETRIEVED AT : Mar 08 2020 18:05 Local <br>
  RETRIEVED AT: Mar 08 2020 22:05 UTC<br><br>
CYSN 082100Z 23023G30KT 15SM FEW230 11/M06 A3022 RMK CI1 SLP238<br><br>
TAF CYSN 081938Z 0820/0901 22018G28KT P6SM FEW230 BECMG 0823/0901 22015KT RMK NXT FCST WILL BE ISSUED AT 091245Z<br><br>
<br><br>
CYHM 082100Z 22020KT 15SM BKN250 11/M04 A3019 RMK CI5 SLP233<br><br>
TAF CYHM 081738Z 0818/0918 22015G28KT P6SM FEW260 FM090200 23015KT P6SM SCT150 BKN240 FM091500 23018G30KT P6SM BKN260 RMK NXT FCST BY 090000Z<br><br>
<br><br>
KIAG 082153Z 23017G23KT 10SM CLR 11/M07 A3020 RMK AO2 PK WND 22030/2132 SLP236 T01061072<br><br>
KIAG 082053Z 23015KT 10SM CLR 11/M06 A3023 RMK AO2 PK WND 23027/2000 SLP247 T01061056 56026<br><br>
KIAG 082047Z 0821/0918 23017G28KT P6SM FEW200 FM090100 21012G21KT P6SM SCT100 WS015/23045KT FM091400 22017G28KT P6SM SCT150<br><br>
<br><br>
KBUF 082154Z 22011G19KT 10SM BKN250 11/M07 A3022 RMK AO2 SLP239 T01111072<br><br>
KBUF 082054Z 23015G21KT 10SM BKN250 11/M08 A3024 RMK AO2 SLP247 T01111083 57027<br><br>
KBUF 082047Z 0821/0918 23019G30KT P6SM FEW200 FM090000 21013G19KT P6SM SCT150 WS015/22045KT FM091400 23018G30KT P6SM SCT120<br><br>
<br><br>
CYYZ 082100Z 19020KT 15SM FEW150 SCT260 12/M04 A3018 RMK AC1CI3 AC TR SLP226<br><br>
TAF CYYZ 082039Z 0821/0924 20015G25KT P6SM FEW150 SCT250 FM090000 20012G22KT P6SM SCT150 BKN250 BECMG 0901/0903 20012KT FM091500 22015G25KT P6SM BKN250 FM092200 22015G25KT P6SM BKN100 BKN230 RMK NXT FCST BY 090000Z<br><br>
<br><br>
CYOO 082100Z AUTO 22012G21KT 9SM CLR 09/M01 A3019 RMK SLP229<br><br>
TAF CYOO 081938Z 0820/0908 22012G22KT P6SM SCT230 FM090100 23010KT P6SM BKN140 BKN230 RMK FCST BASED ON AUTO OBS. NXT FCST BY 090200Z<br><br>
<br><br>
CYTR 082100Z 25017KT 15SM FEW140 SCT200 10/M02 A3021 RMK AC1CI3 SLP232<br><br>
TAF AMD CYTR 082035Z 0820/0918 24015G25KT P6SM FEW200 FM090000 24012KT P6SM BKN120 FM091000 24015KT P6SM BKN080 BKN240 BECMG 0913/0915 24015G25KT RMK NXT FCST BY 090000Z<br><br>
<br><br>
