RETRIEVED AT : Sep 25 2017 11:10 Local <br>
  RETRIEVED AT: Sep 25 2017 15:10 UTC<br><br>
CYSN 251500Z VRB02KT 10SM BKN250 29/21 A3008 RMK CI5 SLP187 DENSITY ALT 1900FT<br><br>
CYSN 251400Z VRB02KT 10SM OVC250 27/21 A3009 RMK CI8 SLP189 DENSITY ALT 1600FT<br><br>
TAF CYSN 251238Z 2513/2601 VRB03KT P6SM BKN250 BECMG 2517/2519 35008KT BECMG 2522/2524 VRB03KT RMK NXT FCST BY 252000Z<br><br>
<br><br>
CYHM 251500Z 12006KT 15SM BKN240 28/21 A3011 RMK CI5 SLP194 DENSITY ALT 2300FT<br><br>
CYHM 251400Z 15004KT 120V190 12SM BKN240 25/20 A3012 RMK CI5 SLP196 DENSITY ALT 2000FT<br><br>
TAF CYHM 251138Z 2512/2612 VRB03KT P6SM SKC PROB30 2609/2612 2SM BR RMK NXT FCST BY 251800Z<br><br>
<br><br>
KIAG 251453Z COR 11003KT 8SM CLR 29/20 A3010 RMK AO2 SLP186 T02940200<br><br>
KIAG 251353Z 14003KT 8SM CLR 26/19 A3011 RMK AO2 SLP192 T02610194 $<br><br>
KIAG 251438Z 2515/2612 14004KT P6SM SCT250 FM251900 06007KT P6SM SCT250 FM260100 VRB03KT P6SM SCT250 FM260700 VRB03KT 4SM BR SCT250 FM260900 VRB03KT 2SM BR SCT250<br><br>
<br><br>
KBUF 251454Z 00000KT 10SM FEW210 FEW260 28/20 A3011 RMK AO2 SLP192 T02780200 58000<br><br>
KBUF 251354Z 14004KT 10SM BKN260 25/19 A3012 RMK AO2 SLP194 T02500194<br><br>
KBUF 251438Z 2515/2612 14004KT P6SM SCT250 FM251900 07006KT P6SM SCT250 FM260200 VRB03KT P6SM SCT250 FM260400 13004KT P6SM SCT250 FM260700 16004KT 6SM BR SCT250<br><br>
<br><br>
CYYZ 251500Z 18006KT 110V200 15SM BKN250 29/18 A3010 RMK CS6 CONTRAILS SLP189 DENSITY ALT 2200FT<br><br>
CYYZ 251400Z 15004KT 110V220 15SM BKN250 28/19 A3010 RMK CS6 CONTRAILS SLP192 DENSITY ALT 2000FT<br><br>
TAF CYYZ 251438Z 2515/2618 17005KT P6SM BKN250 FM251700 15008KT P6SM BKN250 BECMG 2600/2602 VRB03KT BECMG 2614/2616 17007KT RMK NXT FCST BY 251800Z<br><br>
<br><br>
CYOO 251500Z AUTO VRB02KT 9SM CLR 28/18 A3010 RMK SLP193 DENSITY ALT 1800FT<br><br>
CYOO 251400Z AUTO 15004KT 100V160 9SM CLR 26/17 A3010 RMK SLP194 DENSITY ALT 1600FT<br><br>
CYOO has no TAF <br><br>
<br><br>
CYTR 251500Z 11003KT 15SM BKN250 29/20 A3009 RMK CI5 SLP190<br><br>
CYTR 251400Z 07002KT 15SM SCT250 26/21 A3010 RMK CI4 SLP192<br><br>
TAF CYTR 251130Z 2512/2612 VRB03KT P6SM SKC TEMPO 2512/2513 4SM BR FM251600 20009KT P6SM SCT250 BECMG 2522/2524 VRB03KT FM260300 VRB03KT 6SM BR BKN250 TEMPO 2603/2612 3SM BR RMK NXT FCST BY 251800Z<br><br>
<br><br>
