RETRIEVED AT : Dec 11 2017 12:10 Local <br>
  RETRIEVED AT: Dec 11 2017 17:10 UTC<br><br>
CYSN 111700Z 09007KT 12SM -SN BKN023 OVC045 M03/M06 A3000 RMK SC7SC1 SLP164<br><br>
CYSN 111600Z 03007KT 12SM -SN SCT017 OVC044 M03/M06 A3002 RMK SC3SC5 SLP172<br><br>
TAF CYSN 111338Z 1114/1202 VRB03KT P6SM SCT020 OVC050 TEMPO 1114/1118 P6SM -SHSN BKN020 OVC050 FM111800 04006KT P6SM SCT025 BKN120 TEMPO 1118/1122 BKN025 OVC120 FM112200 09010KT 4SM -SN OVC025 FM120000 10012KT 21/2SM -SN OVC020 RMK NXT FCST BY 112000Z<br><br>
<br><br>
CYHM 111700Z 24006KT 12SM BKN034 OVC042 M03/M09 A2996 RMK SC5SC3 SLP159<br><br>
CYHM 111600Z 23004KT 210V280 15SM FEW018 OVC037 M04/M09 A2999 RMK CU1SC8 CU TR SLP169<br><br>
CYHM 111540Z 26003KT 15SM FEW015 OVC037 M04/M09 A3000 RMK CU1SC8 CU TR SLP171<br><br>
TAF CYHM 111140Z 1112/1212 33008KT P6SM OVC030 TEMPO 1112/1114 5SM -SN OVC020 BECMG 1112/1114 06007KT FM112100 06008KT 6SM -SN OVC100 TEMPO 1121/1202 2SM -SHSN OVC015 FM120200 06008KT 1SM -SN BR OVC006 FM120800 05010KT 1/4SM -SN FG VV001 RMK NXT FCST BY 111800Z<br><br>
<br><br>
KIAG 111703Z 04008KT 9SM -SN BKN015 OVC025 M03/M08 A2999 RMK AO2 P0000 T10281078<br><br>
KIAG 111653Z 05009KT 9SM -SN BKN014 OVC025 M03/M07 A2999 RMK AO2 SLP172 P0000 T10281072<br><br>
KIAG 111650Z 05008KT 9SM -SN BKN014 OVC023 M03/M07 A2999 RMK AO2 P0000<br><br>
KIAG 111602Z 00000KT 9SM -SN BKN020 OVC041 M02/M07 A3001 RMK AO2 P0000 T10171072<br><br>
KIAG 111553Z 00000KT 9SM -SN FEW016 SCT022 OVC043 M02/M07 A3001 RMK AO2 SLP178 P0000 T10171072<br><br>
KIAG 111545Z 00000KT 9SM -SN FEW016 BKN022 OVC043 M02/M06 A3001 RMK AO2 P0000 T10221061<br><br>
KIAG 111425Z 1114/1212 VRB04KT P6SM SCT015 BKN050 FM112300 14006KT P6SM OVC025 FM120100 15008KT 2SM -SN OVC015 FM120900 13006KT 1SM -SN OVC012<br><br>
<br><br>
KBUF 111654Z 00000KT 8SM -SN FEW015 BKN025 OVC039 M03/M07 A2999 RMK AO2 SLP165 P0000 T10331072<br><br>
KBUF 111630Z 00000KT 10SM -SN FEW015 BKN028 OVC039 M03/M07 A2999 RMK AO2 P0000 T10331067<br><br>
KBUF 111554Z 00000KT 10SM -SN SCT015 SCT028 OVC042 M04/M07 A3001 RMK AO2 SLP171 PCPN VRY LGT P0000 T10391067<br><br>
KBUF 111552Z 00000KT 10SM -SN SCT015 OVC045 M04/M07 A3001 RMK AO2 PCPN VRY LGT P0000<br><br>
KBUF 111425Z 1114/1212 VRB04KT P6SM SCT015 BKN050 FM112300 15005KT P6SM OVC025 FM120200 17007KT 2SM -SN OVC015 FM120900 15006KT 1SM -SN OVC012<br><br>
<br><br>
CYYZ 111600Z 02004KT 15SM SCT040 OVC170 M06/M11 A3001 RMK SC4AS4 SLP173<br><br>
CYYZ 111538Z 36005KT 360V060 15SM FEW042 OVC170 M06/M10 A3002 RMK SC2AS6 SLP176<br><br>
TAF CYYZ 111438Z 1115/1218 VRB03KT P6SM SCT015 BKN040 TEMPO 1115/1116 P6SM -SHSN BKN015 OVC040 FM111600 VRB03KT P6SM BKN040 OVC180 FM111900 09008KT 6SM -SN BKN025 OVC080 TEMPO 1119/1202 2SM -SHSN BKN008 OVC020 FM120200 10010KT 1SM -SN BKN008 OVC012 FM120600 10008KT 3/4SM -SN OVC008 FM121100 04012KT 11/2SM -SN OVC012 FM121400 36008KT 21/2SM -SN OVC015 FM121600 33013G23KT 11/2SM -SHSN BKN030 OVC060 RMK NXT FCST BY 111800Z<br><br>
<br><br>
CYOO 111700Z AUTO 29003KT 260V030 9SM CLR M06/M14 A3001 RMK SLP171<br><br>
CYOO 111600Z AUTO 34007KT 9SM CLR M07/M15 A3003 RMK SLP178<br><br>
CYOO has no TAF <br><br>
<br><br>
CYTR 111700Z 35006KT 15SM FEW170 BKN250 M08/M15 A3005 RMK AS2CI4 SLP182<br><br>
CYTR 111600Z 34005KT 15SM BKN200 OVC250 M09/M14 A3007 RMK CS6CI2 SLP189<br><br>
TAF CYTR 111130Z 1112/1212 36005KT P6SM SKC FM111600 02005KT P6SM BKN200 FM112100 07005KT P6SM OVC100 BECMG 1201/1203 6SM -SN OVC020 FM120400 07010KT 11/2SM -SN OVC012 RMK NXT FCST BY 111800Z<br><br>
<br><br>
