RETRIEVED AT : Jul 02 2018 22:05 Local <br>
  RETRIEVED AT: Jul 03 2018 02:05 UTC<br><br>
CYSN has no TAF <br><br>
<br><br>
CYHM 030100Z 33004KT 15SM FEW030 FEW040 BKN070 BKN200 26/21 A3007 RMK CU1SC1AC3CI1 DIST SH + TCU TOP S -SW SLP179 DENSITY ALT 2100FT<br><br>
TAF CYHM 022338Z 0300/0324 21005KT P6SM SCT060 FM030200 VRB03KT P6SM SKC BECMG 0313/0315 08006KT BECMG 0322/0324 VRB03KT RMK NXT FCST BY 030600Z<br><br>
<br><br>
KIAG 022338Z 0300/0324 20013G18KT P6SM BKN250 FM030200 16009KT P6SM SCT045 FM030300 15006KT P6SM BKN040 FM030400 VRB03KT P6SM SCT250 FM031400 05008KT P6SM FEW250<br><br>
<br><br>
KBUF 030154Z 22009KT 10SM SCT041 BKN055 BKN085 OVC280 26/22 A3008 RMK AO2 SLP182 TCU DSNT NW T02610217<br><br>
KBUF 030054Z 22009KT 10SM FEW040 SCT110 BKN180 BKN280 27/22 A3006 RMK AO2 SLP174 VIRGA VC S T02670217<br><br>
KBUF 022338Z 0300/0324 23010KT P6SM FEW045 BKN250 FM030200 24006KT P6SM BKN045 FM030500 VRB03KT P6SM SCT035 FM030600 VRB03KT P6SM SCT250 FM031300 05008KT P6SM FEW250<br><br>
<br><br>
TAF CYYZ 022338Z 0300/0406 32010KT P6SM SCT050 FM030200 VRB03KT P6SM SKC BECMG 0313/0315 13006KT BECMG 0322/0324 VRB03KT RMK NXT FCST BY 030300Z<br><br>
<br><br>
CYOO 030100Z AUTO 34008KT 9SM CLR 25/18 A3004 RMK SLP172 DENSITY ALT 1500FT<br><br>
CYOO has no TAF <br><br>
<br><br>
CYTR 030100Z 24002KT 15SM BKN036 BKN092 BKN250 27/21 A3001 RMK SC6AC1CI1 CB SE MOVG NE VIRGA SLP160<br><br>
TAF CYTR 022330Z 0300/0324 29008KT P6SM FEW040 BKN080 FM030400 30005KT P6SM SKC BECMG 0316/0318 21008KT RMK NXT FCST BY 030600Z<br><br>
<br><br>
