RETRIEVED AT : Jul 06 2020 00:05 Local <br>
  RETRIEVED AT: Jul 06 2020 04:05 UTC<br><br>
CYSN has no TAF <br><br>
<br><br>
CYHM 060300Z 07006KT 15SM BKN250 23/14 A2999 RMK CI5 SLP154 DENSITY ALT 1900FT<br><br>
TAF CYHM 052341Z 0600/0624 VRB03KT P6SM BKN250 FM061400 04012KT P6SM SCT100 BKN250 RMK NXT FCST BY 060600Z<br><br>
<br><br>
KIAG 060353Z AUTO 00000KT 10SM CLR 22/13 A2999 RMK AO2 SLP148 T02170133<br><br>
KIAG 060253Z 00000KT 10SM CLR 23/13 A2998 RMK AO2 SLP147 T02330133 51009<br><br>
KIAG 060244Z 0603/0624 VRB04KT P6SM SCT250 FM061500 05006KT P6SM SCT200 FM061700 06005KT P6SM FEW050<br><br>
<br><br>
KBUF 060354Z 00000KT 10SM FEW250 24/14 A3000 RMK AO2 SLP155 T02440139<br><br>
KBUF 060254Z 00000KT 10SM FEW200 SCT250 27/14 A2999 RMK AO2 SLP151 T02670144 51008<br><br>
KBUF 060244Z 0603/0624 VRB04KT P6SM SCT250 FM061500 06004KT P6SM SCT120 FM061900 03006KT P6SM SCT050<br><br>
<br><br>
CYYZ 060300Z 06006KT 15SM FEW210 SCT260 26/16 A2998 RMK CI1CI2 SLP152 DENSITY ALT 2000FT<br><br>
TAF CYYZ 060238Z 0603/0706 05007KT P6SM SCT240 FM061600 13010KT P6SM FEW070 BECMG 0700/0702 04005KT RMK NXT FCST BY 060600Z<br><br>
<br><br>
CYOO 060300Z AUTO 01002KT 9SM CLR 23/17 A2998 RMK SLP151 DENSITY ALT 1400FT<br><br>
TAF CYOO 060138Z 0602/0614 34007KT P6SM SCT240 BECMG 0605/0607 02007KT FM061200 10012KT P6SM FEW100 RMK FCST BASED ON AUTO OBS. NXT FCST BY 060800Z<br><br>
<br><br>
CYTR 060300Z AUTO 36006KT 9SM CLR 23/17 A2997 RMK SLP147<br><br>
TAF CYTR 052330Z 0600/0624 30008KT P6SM FEW060 BKN250 TEMPO 0600/0605 6SM -SHRA BR BKN030 OVC120 FM060500 VRB03KT P6SM SCT100 FM061600 21008KT P6SM SCT040 RMK FCST BASED ON AUTO OBS 060200-061000Z. NXT FCST BY 060600Z<br><br>
<br><br>
