RETRIEVED AT : May 07 2018 04:05 Local <br>
  RETRIEVED AT: May 07 2018 08:05 UTC<br><br>
CYSN has no TAF <br><br>
<br><br>
CYHM 070700Z 08006KT 15SM SCT060 OVC076 10/07 A3006 RMK SC3AC5 SLP182<br><br>
TAF CYHM 070542Z 0706/0806 02008KT P6SM BKN040 OVC090 FM071200 05010KT P6SM BKN050 FM071400 05012KT P6SM FEW050 FM072000 05010KT P6SM SKC BECMG 0723/0801 04005KT RMK NXT FCST BY 071200Z<br><br>
<br><br>
KIAG 070753Z AUTO 06003KT 10SM BKN060 OVC070 12/07 A3006 RMK AO2 SLP181 T01170072<br><br>
KIAG 070653Z AUTO 03004KT 10SM OVC055 12/07 A3006 RMK AO2 RAE05 SLP180 P0000 T01170067<br><br>
KIAG 070536Z 0706/0806 05007KT P6SM VCSH OVC060 FM070800 05007KT P6SM OVC050 FM071300 06009KT P6SM SCT070 FM071500 06009KT P6SM SKC FM080100 08004KT P6SM SKC<br><br>
<br><br>
KBUF 070754Z 04004KT 10SM BKN055 OVC075 11/07 A3007 RMK AO2 RAE50 SLP181 P0000 T01060067 $<br><br>
KBUF 070654Z 04005KT 10SM -RA OVC050 11/08 A3005 RMK AO2 SLP177 P0000 T01110078 $<br><br>
KBUF 070536Z 0706/0806 04007KT P6SM VCSH OVC060 FM070800 06007KT P6SM OVC050 FM071400 06008KT P6SM SCT070 FM071700 05008KT P6SM SKC FM080100 08005KT P6SM SKC<br><br>
<br><br>
CYYZ 070700Z 05006KT 15SM BKN070 OVC130 12/03 A3007 RMK AC7AC1 SLP185<br><br>
TAF CYYZ 070542Z 0706/0812 01010KT P6SM OVC070 FM071300 03008KT P6SM FEW060 BECMG 0714/0716 08010KT FM071800 12010KT P6SM SKC BECMG 0800/0802 20005KT RMK NXT FCST BY 070900Z<br><br>
<br><br>
CYOO 070700Z AUTO 02004KT 9SM OVC070 11/02 A3007 RMK SLP186<br><br>
CYOO has no TAF <br><br>
<br><br>
CYTR 070700Z 02006KT 15SM OVC077 11/00 A3006 RMK AC8 SLP180<br><br>
TAF CYTR 070530Z 0706/0806 02008KT P6SM BKN070 FM070800 03008KT P6SM FEW070 BECMG 0717/0718 20008KT BECMG 0723/0801 VRB03KT RMK NXT FCST BY 071200Z<br><br>
<br><br>
