RETRIEVED AT : Mar 29 2020 03:05 Local <br>
  RETRIEVED AT: Mar 29 2020 07:05 UTC<br><br>
CYSN has no TAF <br><br>
<br><br>
CYHM 290600Z CCA 04015KT 1/8SM R12/1600FT/N -DZ FG VV001 04/04 A2980 RMK FG8 SLP100<br><br>
TAF CYHM 290538Z 2906/3006 05015G25KT 1/8SM -DZ FG VV001 TEMPO 2906/2907 1/4SM FG VV002 FM290700 05012G22KT 1/2SM -RA FG VV002 TEMPO 2907/2912 2SM SHRA BR SCT002 OVC006 BECMG 2909/2911 04012KT FM291200 04008KT 1/4SM -SHRA FG VV001 TEMPO 2912/2915 1/2SM -DZ FG VV002 PROB30 2912/2915 1SM +TSRA BR BKN006 OVC012CB FM291500 21015G25KT 5SM -SHRA BR BKN005 OVC010 TEMPO 2915/2917 P6SM NSW SCT006 OVC012 FM291700 23018G28KT P6SM BKN030 BECMG 2917/2919 23020G38KT FM292200 23020G38KT P6SM -SHRA BKN015 OVC040 BECMG 3003/3005 23015G25KT RMK NXT FCST BY 291200Z<br><br>
<br><br>
KIAG 290653Z AUTO 06007KT 10SM OVC009 07/06 A2980 RMK AO2 SLP098 T00720061<br><br>
KIAG 290553Z AUTO 08011KT 10SM OVC009 07/06 A2981 RMK AO2 SLP102 T00720056 10089 20072 58010<br><br>
KIAG 290551Z AUTO 08010KT 10SM OVC009 07/06 A2981 RMK AO2<br><br>
KIAG 290537Z AUTO 08011KT 10SM BKN010 OVC022 07/06 A2982 RMK AO2 T00720056<br><br>
KIAG 290538Z 2906/3006 07011KT P6SM OVC020 TEMPO 2906/2908 6SM -SHRA OVC009 FM290800 09010KT 6SM -SHRA OVC007 FM291200 10012G22KT 4SM SHRA OVC012 WS020/23045KT FM291400 16013G25KT 6SM BR OVC030 FM292000 23012G23KT P6SM BKN060<br><br>
<br><br>
KBUF 290654Z 05006KT 10SM OVC009 09/07 A2978 RMK AO2 SLP086 T00940072<br><br>
KBUF 290554Z 07008KT 10SM OVC009 09/07 A2982 RMK AO2 SLP101 60001 T00890067 10094 20083 58014<br><br>
KBUF 290514Z 04007KT 10SM OVC009 09/07 A2984 RMK AO2 T00890067<br><br>
KBUF 290538Z 2906/3006 04007KT P6SM OVC009 TEMPO 2906/2908 6SM -SHRA OVC015 FM290800 12010G18KT 6SM -SHRA OVC020 FM291100 12010G18KT 4SM SHRA OVC030 WS020/23045KT FM292000 23013G25KT 6SM BR VCSH BKN050 FM300000 25019G34KT P6SM BKN050<br><br>
<br><br>
CYYZ 290600Z 09018G24KT 4SM -DZ BR OVC004 06/05 A2985 RMK ST8 SLP114<br><br>
TAF CYYZ 290538Z 2906/3012 09015G25KT 6SM BR OVC004 TEMPO 2906/2907 2SM -DZ BR OVC003 FM290700 09015G25KT 11/2SM -RA BR OVC003 TEMPO 2907/2913 5SM SHRA BR OVC004 BECMG 2910/2912 10012G22KT FM291300 11012KT 1SM -RA BR OVC002 PROB30 2913/2916 11/2SM +TSRA BR OVC004CB FM291700 21015KT P6SM SCT004 BKN020 TEMPO 2917/2919 P6SM -SHRA BECMG 2917/2919 23020G35KT FM291900 23020G35KT P6SM -SHRA BKN020 OVC040 PROB30 2919/2921 21/2SM TSRA BR OVC020CB FM292200 23018G28KT P6SM BKN025 FM300300 23015G25KT P6SM -SHRA OVC015 BECMG 3010/3012 24010G20KT RMK NXT FCST BY 290900Z<br><br>
<br><br>
CYOO 290600Z AUTO 09017G23KT 9SM OVC006 07/06 A2986 RMK PRESFR SLP116<br><br>
TAF CYOO 290138Z 2902/2914 07012G22KT 4SM -DZ BR OVC007 TEMPO 2902/2905 P6SM NSW OVC010 FM290500 08015G25KT 3SM -RA -DZ BR OVC005 TEMPO 2905/2907 6SM BR OVC008 FM290700 08015G25KT 11/2SM -RA BR OVC003 TEMPO 2907/2914 4SM SHRA BR SCT004 OVC008 RMK FCST BASED ON AUTO OBS. NXT FCST BY 290800Z<br><br>
<br><br>
CYTR 290600Z 08007KT 6SM BR FEW005 OVC012 06/05 A2995 RMK SF1SC8 SLP147<br><br>
CYTR 290520Z 08007KT 6SM BR FEW005 OVC012 06/06 A2995 RMK SF2SC6 SLP148<br><br>
TAF CYTR 290530Z 2906/3006 08008KT 6SM BR SCT005 OVC012 TEMPO 2906/2909 2SM -RA -DZ BR BKN005 OVC012 FM290900 10012KT 3SM -RA BR OVC010 TEMPO 2909/2917 1SM -SHRA BR OVC003 PROB30 2911/2917 1SM TSRA BR OVC003CB FM291700 13012G22KT 3SM -SHRA BR BKN010 OVC015 PROB30 2917/2921 VRB15G25KT 1/2SM +TSRA FG BKN010 OVC015CB FM292100 22012G22KT 6SM -SHRA BR BKN020 OVC040 FM300300 24012KT P6SM -DZ OVC015 RMK NXT FCST BY 291200Z<br><br>
<br><br>
