RETRIEVED AT : Dec 09 2017 15:10 Local <br>
  RETRIEVED AT: Dec 09 2017 20:10 UTC<br><br>
CYSN 092000Z 21007KT 15SM OVC050 01/M08 A2975 RMK SC8 SLP078<br><br>
CYSN 091900Z 21009KT 15SM OVC060 01/M08 A2976 RMK SC8 SLP082<br><br>
TAF CYSN 091938Z 0920/1002 22007KT P6SM OVC060 FM100000 22005KT P6SM -SN BKN020 OVC060 RMK NXT FCST WILL BE ISSUED AT 101345Z<br><br>
<br><br>
