RETRIEVED AT : Jun 27 2020 02:05 Local <br>
  RETRIEVED AT: Jun 27 2020 06:05 UTC<br><br>
CYSN has no TAF <br><br>
<br><br>
CYHM 270500Z 19004KT 15SM BKN080 18/13 A2981 RMK AC5 SLP093 DENSITY ALT 1500FT<br><br>
TAF CYHM 270543Z 2706/2806 20008KT P6SM BKN080 FM270700 21008KT P6SM -SHRA SCT040 OVC080 TEMPO 2707/2709 5SM SHRA BR BKN030 OVC060 PROB30 2707/2709 VRB15G25KT 2SM TSRA BR SCT020 OVC040CB FM270900 24008KT P6SM -SHRA SCT030 OVC060 TEMPO 2709/2712 4SM SHRA BR BKN020 OVC040 FM271200 34008KT P6SM BKN015 BKN030 TEMPO 2712/2715 BKN007 OVC020 FM271500 27012KT P6SM BKN020 FM271800 26012G22KT P6SM BKN030 TEMPO 2718/2720 P6SM -SHRA PROB30 2720/2724 VRB15G25KT 2SM TSRA BR BKN020 OVC030CB FM280000 24010G20KT P6SM BKN050 BECMG 2801/2803 25008KT FM280500 26006KT P6SM SCT070 RMK NXT FCST BY 271200Z<br><br>
<br><br>
KIAG 270553Z AUTO 19008KT 10SM BKN065 20/13 A2980 RMK AO2 SLP087 T02000133 10233 20178 56020<br><br>
KIAG 270453Z AUTO 18004KT 10SM CLR 18/13 A2982 RMK AO2 SLP094 T01780128 402720161<br><br>
KIAG 270540Z 2706/2806 19006KT P6SM BKN200 FM270800 22008KT P6SM VCSH OVC040 FM270900 21010KT 4SM SHRA VCTS OVC015CB FM271300 30005KT P6SM VCSH OVC008 FM271600 23014G22KT P6SM VCSH BKN040 TEMPO 2718/2721 -SHRA OVC025 FM272300 23010KT P6SM VCSH BKN040<br><br>
<br><br>
KBUF 270554Z 17005KT 10SM BKN065 BKN130 17/12 A2982 RMK AO2 SLP096 60000 T01720117 10217 20172 56018<br><br>
KBUF 270454Z 17005KT 10SM BKN280 17/12 A2984 RMK AO2 SLP101 T01720117 402390156<br><br>
KBUF 270540Z 2706/2806 18006KT P6SM BKN200 FM270800 22008KT P6SM VCSH OVC050 FM270900 21010KT 4SM SHRA VCTS OVC015CB FM271100 VRB05KT 4SM SHRA VCTS OVC008CB FM271300 30005KT P6SM VCSH OVC008 FM271600 24016G24KT P6SM BKN040 FM280000 24010KT P6SM VCSH BKN040<br><br>
<br><br>
CYYZ 270500Z 15006KT 15SM FEW120 BKN240 21/12 A2977 RMK AC1CS5 AC TR SLP080 DENSITY ALT 1600FT<br><br>
TAF CYYZ 270543Z 2706/2812 16006KT P6SM FEW120 BKN240 FM270700 20007KT P6SM FEW050 OVC100 TEMPO 2707/2712 P6SM -SHRA BKN040 OVC080 PROB30 2707/2710 VRB15G25KT 2SM TSRA BR SCT020 OVC040CB FM271200 22010KT P6SM BKN020 OVC040 FM271500 25010G20KT P6SM BKN030 FM271700 28010G20KT P6SM BKN040 TEMPO 2717/2720 P6SM -SHRA FM272000 30012G22KT P6SM SCT050 TEMPO 2720/2801 P6SM VCTS BKN050CB FM280200 VRB03KT P6SM SCT050 FM280500 30010KT P6SM FEW070 RMK NXT FCST BY 270900Z<br><br>
<br><br>
CYOO 270500Z AUTO 21005KT 9SM FEW065 BKN140 20/13 A2979 RMK SLP087 DENSITY ALT 1200FT<br><br>
TAF CYOO 270138Z 2702/2714 23007KT P6SM FEW070 BKN250 FM270600 23007KT P6SM BKN120 BKN200 TEMPO 2707/2710 P6SM -SHRA SCT060 OVC100 FM271000 20006KT P6SM BKN060 OVC100 TEMPO 2710/2712 5SM -SHRA BR OVC040 FM271200 20006KT P6SM FEW008 BKN040 PROB30 2712/2714 BKN005 RMK FCST BASED ON AUTO OBS. NXT FCST BY 270800Z<br><br>
<br><br>
CYTR 270500Z 20005KT 15SM SKC 20/14 A2979 RMK SLP088<br><br>
TAF CYTR 270530Z 2706/2806 22006KT P6SM SKC BECMG 2708/2710 BKN100 FM271100 21010KT P6SM FEW008 BKN012 OVC100 FM271600 23008KT P6SM FEW008 SCT015 BKN060 RMK NXT FCST BY 271200Z<br><br>
<br><br>
