RETRIEVED AT : Oct 20 2018 04:05 Local <br>
  RETRIEVED AT: Oct 20 2018 08:05 UTC<br><br>
CYSN has no TAF <br><br>
<br><br>
CYHM 200700Z 24016G26KT 15SM OVC011 09/08 A2960 RMK SC8 SLP028<br><br>
CYHM 200641Z 24018G23KT 15SM -RA OVC011 09/08 A2961 RMK SC8 SLP030<br><br>
TAF AMD CYHM 200617Z 2006/2106 23015G25KT 5SM -RA BR OVC009 TEMPO 2006/2009 P6SM NSW OVC025 FM200900 26012G22KT P6SM BKN020 TEMPO 2009/2011 SCT020 FM201100 26012G22KT P6SM SCT020 TEMPO 2011/2017 BKN020 FM201700 27015G25KT P6SM -SHRA BKN030 BKN050 BECMG 2020/2022 30010G20KT FM202300 34012G22KT P6SM SCT030 BKN050 BECMG 2102/2104 35012KT RMK NXT FCST BY 201200Z<br><br>
<br><br>
KIAG 200753Z AUTO 24019G27KT 10SM -RA BKN009 OVC016 10/09 A2960 RMK AO2 PK WND 23029/0654 CIG 007V012 SLP026 P0002 T01000089<br><br>
KIAG 200729Z AUTO 24019G27KT 4SM -RA BR BKN008 OVC013 10/08 A2960 RMK AO2 PK WND 23029/0654 P0002 T01000083<br><br>
KIAG 200721Z AUTO 23016KT 3SM -RA BR BKN010 OVC013 10/09 A2960 RMK AO2 PK WND 23029/0654 P0002 T01000089<br><br>
KIAG 200653Z AUTO 23017G27KT 2SM -RA BR BKN007 OVC012 09/08 A2961 RMK AO2 PK WND 26027/0647 SLP032 P0005 T00940083<br><br>
KIAG 200618Z AUTO 22016G24KT 2SM -RA BR BKN007 OVC014 09/08 A2963 RMK AO2 PK WND 22026/0601 CIG 005V010 P0002 T00890078<br><br>
KIAG 200658Z 2007/2106 23017G27KT 2SM -RA BR BKN007 OVC012 FM200800 25022G34KT 5SM -SHRA OVC012 FM201000 26018G28KT P6SM VCSH BKN025 FM201700 28015G21KT P6SM VCSH BKN040 FM210000 34015G24KT P6SM BKN045<br><br>
<br><br>
KBUF 200754Z 21018G27KT 3SM -RA BR OVC007 08/08 A2961 RMK AO2 PK WND 23032/0700 CIG 004V011 SLP029 P0011 T00830078 $<br><br>
KBUF 200731Z 23017G29KT 2SM RA BR OVC008 09/08 A2962 RMK AO2 PK WND 23032/0700 CIG 006V013 P0005 T00890078 $<br><br>
KBUF 200701Z 23020G32KT 2 1/2SM -RA BR BKN013 OVC019 09/07 A2963 RMK AO2 PK WND 23032/0700 P0001 T00890072 $<br><br>
KBUF 200655Z 22020G33KT 3SM -RA BR BKN016 OVC021 09/07 A2963 RMK AO2 PK WND 23041/0559 RAB00 SLP036 P0000 T00890072 $<br><br>
KBUF 200633Z 23024G34KT 5SM -RA BR BKN018 OVC026 09/07 A2963 RMK AO2 PK WND 23041/0559 RAB00 P0000 T00940072 $<br><br>
KBUF 200700Z 2007/2106 22023G36KT 3SM -RA BR BKN016 OVC021 FM200800 24022G38KT 4SM -SHRA BR OVC015 TEMPO 2008/2010 2SM -SHRA OVC007 FM201200 26015G26KT P6SM BKN020 FM201400 26014G23KT P6SM BKN035 FM201700 27014G20KT P6SM VCSH BKN035 FM202300 31012G19KT P6SM BKN040<br><br>
<br><br>
CYYZ 200700Z 24019G31KT 15SM OVC018 10/06 A2954 RMK SC8 SLP007 DENSITY ALT 600FT<br><br>
TAF CYYZ 200542Z 2006/2112 24018G28KT P6SM -RA BKN020 OVC040 TEMPO 2006/2008 P6SM NSW BKN025 OVC050 FM200800 28012G25KT P6SM BKN030 BKN050 TEMPO 2008/2009 P6SM -SHRA BKN020 OVC040 FM200900 28015G28KT P6SM BKN030 TEMPO 2009/2011 BKN020 FM201100 28015G28KT P6SM BKN030 TEMPO 2011/2017 SCT030 FM201700 28015G28KT P6SM -SHRA BKN030 BKN050 FM202200 34018G28KT P6SM SCT030 BKN050 FM210600 34015G25KT P6SM BKN040 BECMG 2108/2110 34015KT RMK NXT FCST BY 200900Z<br><br>
<br><br>
CYOO 200804Z AUTO 23008G16KT 190V250 9SM -RA OVC023 09/07 A2954 RMK SLP007<br><br>
CYOO 200706Z AUTO 22012G18KT 9SM OVC023 09/06 A2954 RMK SLP007<br><br>
CYOO 200700Z AUTO 22010G18KT 9SM OVC025 09/06 A2954 RMK SLP008<br><br>
CYOO 200653Z AUTO 22012G19KT 9SM OVC025 09/06 A2954 RMK SLP006<br><br>
CYOO 200616Z AUTO 22008G17KT 7SM -RA OVC025 09/06 A2956 RMK SLP012<br><br>
CYOO 200615Z AUTO 22010G18KT 7SM -RA BKN023 OVC028 09/06 A2956 RMK SLP012<br><br>
CYOO 200614Z AUTO 23011G18KT 7SM -RA OVC025 09/06 A2956 RMK SLP012<br><br>
CYOO has no TAF <br><br>
<br><br>
CYTR 200717Z 23018G26KT 3SM -SHRA BR BKN008 OVC036 09/08 A2952 RMK SF6SC2 SLP000<br><br>
CYTR 200700Z 23018G28KT 5SM -SHRA BR OVC012 09/08 A2952 RMK SF8 VIS VRB 3-7 SLP999<br><br>
CYTR 200623Z 23016G26KT 6SM -SHRA BR OVC014 10/08 A2954 RMK SF8 PCPN VRY LGT SLP006<br><br>
TAF AMD CYTR 200736Z 2007/2106 24015G25KT P6SM SCT008 OVC025 TEMPO 2007/2010 5SM -SHRA BR BKN008 OVC025 FM201000 27015G25KT P6SM BKN030 TEMPO 2010/2012 P6SM -SHRA FM201800 28020G30KT P6SM FEW030 SCT200 BECMG 2021/2023 31008KT FM210200 34008KT P6SM BKN040 BKN200 RMK NXT FCST BY 201200Z<br><br>
<br><br>
