RETRIEVED AT : Feb 21 2020 15:05 Local <br>
  RETRIEVED AT: Feb 21 2020 20:05 UTC<br><br>
CYSN 211900Z 23020G26KT 15SM FEW030 M00/M09 A3040 RMK SC1 SC TR SLP301<br><br>
TAF CYSN 211938Z 2120/2202 24020G30KT P6SM FEW030 RMK NXT FCST WILL BE ISSUED AT 221345Z<br><br>
<br><br>
CYHM 211900Z 24017KT 15SM FEW045 M00/M12 A3037 RMK CF1 CF TR SLP300<br><br>
TAF CYHM 211738Z 2118/2218 23015G25KT P6SM SKC BECMG 2118/2120 23018G28KT FM220400 24012G22KT P6SM SKC FM221000 24015KT P6SM BKN020 FM221700 24012G22KT P6SM SCT025 RMK NXT FCST BY 220000Z<br><br>
<br><br>
KIAG 211953Z 23024G30KT 10SM CLR M01/M09 A3037 RMK AO2 PK WND 24035/1940 SLP305 T10111089<br><br>
KIAG 211853Z 23021G30KT 10SM CLR M01/M10 A3039 RMK AO2 PK WND 22030/1852 SLP312 T10111100<br><br>
KIAG 211720Z 2118/2218 23018G26KT P6SM FEW035 FM212200 24018G26KT P6SM SKC<br><br>
<br><br>
KBUF 211954Z 25022G35KT 10SM FEW025 M01/M08 A3038 RMK AO2 PK WND 23036/1938 SLP300 T10111083<br><br>
KBUF 211854Z 23026G33KT 10SM FEW028 M02/M09 A3040 RMK AO2 PK WND 22033/1853 SLP307 T10171094<br><br>
KBUF 211720Z 2118/2218 23020G30KT P6SM SCT030 FM212200 24020G30KT P6SM SKC FM221400 24020G30KT P6SM SCT030<br><br>
<br><br>
CYYZ 211900Z 24009G19KT 15SM SKC M00/M12 A3035 RMK SLP290<br><br>
TAF CYYZ 211738Z 2118/2224 23010G20KT P6SM SKC BECMG 2119/2121 24015G25KT FM220600 24010G20KT P6SM SKC FM220900 24015KT P6SM BKN020 FM221600 24012G22KT P6SM BKN025 FM222100 24010G20KT P6SM SCT030 RMK NXT FCST BY 212100Z<br><br>
<br><br>
CYOO 211900Z AUTO 23010G18KT 9SM CLR M01/M11 A3033 RMK SLP282<br><br>
TAF CYOO 211938Z 2120/2208 25010G20KT P6SM SKC FM212200 25015G25KT P6SM SKC FM220700 25010G20KT P6SM BKN025 RMK FCST BASED ON AUTO OBS. NXT FCST BY 220200Z<br><br>
<br><br>
CYTR 211900Z 24020G27KT 15SM FEW028 M02/M07 A3033 RMK SC1 SLP279<br><br>
TAF CYTR 211730Z 2118/2218 23015G25KT P6SM FEW030 FM220000 25012KT P6SM FEW030 FM220800 26008KT P6SM BKN030 FM221400 26010G20KT P6SM BKN020 RMK NXT FCST BY 220000Z<br><br>
<br><br>
