RETRIEVED AT : May 23 2020 05:05 Local <br>
  RETRIEVED AT: May 23 2020 09:05 UTC<br><br>
CYSN has no TAF <br><br>
<br><br>
CYHM 230840Z 34003KT 270V350 5/8SM R12/3000V5000FT/U BR OVC041 15/15 A3001 RMK FG6SC2 SLP162 DENSITY ALT 900FT<br><br>
CYHM 230800Z 20002KT 2SM R12/2400V3500FT/D BR FEW005 OVC038 15/15 A3001 RMK FG2SF1SC5 SLP162 DENSITY ALT 900FT<br><br>
TAF AMD CYHM 230847Z 2308/2406 32005KT P6SM OVC040 TEMPO 2308/2312 1/2SM FG SCT005 OVC020 FM231200 28006KT P6SM FEW020 SCT080 FM231500 29006KT P6SM BKN060 BECMG 2316/2318 09006KT FM240000 12005KT P6SM SCT020 OVC040 FM240400 06005KT P6SM -SHRA SCT008 OVC012 RMK NXT FCST BY 231200Z<br><br>
<br><br>
KIAG 230901Z AUTO 23003KT 1 3/4SM BR BKN003 OVC090 16/16 A2999 RMK AO2 T01610156<br><br>
KIAG 230853Z AUTO 20003KT 2 1/2SM BR SCT002 OVC090 16/16 A2999 RMK AO2 RAB07E33 SLP154 P0000 60004 T01610156 55001<br><br>
KIAG 230753Z AUTO 23003KT 4SM BR SCT080 BKN095 BKN110 16/15 A2999 RMK AO2 RAE18 SLP153 P0001 T01610150<br><br>
KIAG 230832Z 2309/2406 VRB03KT 6SM BR FEW005 BKN070 TEMPO 2309/2311 3SM BR SCT003 FM231300 VRB03KT P6SM BKN035 BKN070 FM231600 23005KT P6SM SCT035 BKN090<br><br>
<br><br>
KBUF 230854Z 00000KT 3SM RA BR SCT043 BKN060 OVC080 17/16 A3000 RMK AO2 SLP155 P0015 60029 T01670161 58003<br><br>
KBUF 230829Z 00000KT 2SM RA BR SCT060 BKN080 OVC095 17/16 A3000 RMK AO2 P0008 T01670156<br><br>
KBUF 230754Z 00000KT 8SM -RA FEW070 BKN090 OVC110 17/16 A3000 RMK AO2 SLP156 P0011 T01720161<br><br>
KBUF 230832Z 2309/2406 VRB03KT 6SM -RA BR FEW003 BKN070 TEMPO 2309/2311 3SM BR SCT003 FM231200 VRB03KT P6SM FEW035 BKN070 FM231500 23005KT P6SM FEW035 SCT090<br><br>
<br><br>
CYYZ 230800Z 33006KT 15SM FEW240 16/13 A2999 RMK CI2 SLP155 DENSITY ALT 800FT<br><br>
TAF CYYZ 230838Z 2309/2412 33006KT P6SM SCT220 BECMG 2316/2318 14008KT FM231800 14008KT P6SM SKC FM240000 11008KT P6SM SCT040 BKN100 FM240300 12006KT P6SM SCT020 OVC040 FM240600 08006KT 6SM -RA OVC008 PROB40 2410/2412 11/2SM -DZ BR OVC004 RMK NXT FCST BY 231200Z<br><br>
<br><br>
CYOO 230800Z AUTO 04003KT 9SM OVC220 10/10 A2999 RMK SLP157<br><br>
TAF CYOO 230738Z 2308/2320 VRB03KT P6SM OVC230 BECMG 2313/2315 15006KT RMK FCST BASED ON AUTO OBS. NXT FCST BY 231400Z<br><br>
<br><br>
CYTR 230800Z 04003KT 15SM BKN210 12/09 A3000 RMK CI6 SLP160<br><br>
TAF CYTR 230530Z 2306/2406 VRB03KT P6SM FEW230 FM231300 VRB03KT P6SM SKC BECMG 2315/2317 20010KT BECMG 2402/2404 VRB03KT RMK NXT FCST BY 231200Z<br><br>
<br><br>
