RETRIEVED AT : Jun 07 2019 13:05 Local <br>
  RETRIEVED AT: Jun 07 2019 17:05 UTC<br><br>
CYSN 071600Z 01005KT 350V070 15SM FEW250 23/09 A3001 RMK CI1 SLP163 DENSITY ALT 1300FT<br><br>
TAF CYSN 071239Z 0713/0801 21005KT P6SM SKC BECMG 0716/0718 35008KT BECMG 0722/0724 02005KT RMK NXT FCST BY 072000Z<br><br>
<br><br>
CYHM 071600Z 08004KT 010V110 15SM SCT260 23/10 A3002 RMK CI3 SLP167 DENSITY ALT 1800FT<br><br>
TAF CYHM 071138Z 0712/0812 VRB03KT P6SM FEW200 FM071400 04007KT P6SM FEW240 BECMG 0717/0719 04012KT FM080300 03005KT P6SM SKC BECMG 0809/0811 05010KT RMK NXT FCST BY 071800Z<br><br>
<br><br>
KIAG 071653Z 30003KT 10SM CLR 23/11 A3001 RMK AO2 SLP163 T02330106<br><br>
KIAG 071553Z 00000KT 10SM CLR 22/11 A3001 RMK AO2 SLP163 T02220106<br><br>
KIAG 071437Z 0715/0812 25003KT P6SM FEW250 FM071800 35007KT P6SM SCT250 FM072300 02004KT P6SM SCT250 FM080800 09004KT P6SM SCT250<br><br>
<br><br>
KBUF 071654Z 07005KT 10SM FEW055 FEW260 24/09 A3002 RMK AO2 SLP163 T02390094<br><br>
KBUF 071554Z COR 17003KT 10SM FEW045 FEW260 22/10 A3002 RMK AO2 SLP163 T02220100<br><br>
KBUF 071437Z 0715/0812 VRB03KT P6SM FEW250 FM080000 03003KT P6SM SCT250<br><br>
<br><br>
CYYZ 071600Z 05011KT 010V070 15SM FEW250 23/11 A3002 RMK CI1 CI TR SLP166 DENSITY ALT 1600FT<br><br>
TAF CYYZ 071443Z 0715/0818 08006KT P6SM FEW250 BECMG 0715/0717 14007KT BECMG 0723/0801 02007KT FM081100 08012KT P6SM SKC BECMG 0814/0816 13010G20KT RMK NXT FCST BY 071800Z<br><br>
<br><br>
CYOO 071600Z AUTO VRB04G15KT 9SM CLR 23/10 A3000 RMK SLP162 DENSITY ALT 1400FT<br><br>
TAF CYOO 071338Z 0714/0802 34007KT P6SM SKC BECMG 0715/0717 18007KT RMK FCST BASED ON AUTO OBS. NXT FCST BY 072000Z<br><br>
<br><br>
CYTR 071600Z 21006KT 15SM FEW250 22/12 A2998 RMK CI1 SLP155<br><br>
TAF CYTR 071130Z 0712/0812 VRB03KT P6SM SKC BECMG 0716/0718 21012KT BECMG 0800/0802 VRB03KT FM080400 04005KT P6SM SKC RMK NXT FCST BY 071800Z<br><br>
<br><br>
