RETRIEVED AT : Sep 09 2019 07:05 Local <br>
  RETRIEVED AT: Sep 09 2019 11:05 UTC<br><br>
CYSN has no TAF <br><br>
<br><br>
CYHM 091000Z 01006KT 15SM FEW120 BKN190 11/09 A3025 RMK AC1AC6 SLP246<br><br>
TAF CYHM 090541Z 0906/1006 03007KT P6SM SCT040 BKN160 FM091200 03008KT P6SM BKN030 OVC100 FM092000 06010KT P6SM FEW040 BECMG 0923/1001 05006KT RMK NXT FCST BY 091200Z<br><br>
<br><br>
KIAG 091053Z 00000KT 10SM SCT020 A3027 RMK AO2 SLPNO $<br><br>
KIAG 090953Z AUTO A3024 RMK AO2 SLPNO PWINO RVRNO $<br><br>
KIAG 090852Z 0909/1006 VRB03KT P6SM SCT040 BKN180 FM091700 08008KT P6SM SCT100 FM092300 05005KT P6SM FEW250 AMD NOT SKED<br><br>
<br><br>
KBUF 091054Z COR 07004KT 10SM FEW041 SCT150 12/09 A3027 RMK AO2 SLP250 T01170094<br><br>
KBUF 090954Z 06004KT 10SM SCT041 12/10 A3024 RMK AO2 SLP240 T01170100<br><br>
KBUF 090852Z 0909/1006 VRB04KT P6SM BKN035 FM091000 07007KT P6SM SCT035 BKN180 FM091700 05008KT P6SM SCT120 FM100300 09005KT P6SM FEW250<br><br>
<br><br>
CYYZ 091000Z 06012KT 15SM FEW042 BKN190 09/05 A3027 RMK SC1AC6 SLP254<br><br>
TAF CYYZ 090838Z 0909/1012 07010KT P6SM FEW040 BKN190 FM091500 08009KT P6SM SCT030 BKN100 FM091800 13010KT P6SM BKN030 FM100000 13010KT P6SM SKC BECMG 1000/1002 05006KT FM100800 05005KT 6SM BR SKC RMK NXT FCST BY 091200Z<br><br>
<br><br>
CYOO 091000Z AUTO 36003KT 9SM BKN041 OVC200 08/06 A3028 RMK SLP257<br><br>
TAF CYOO 090738Z 0908/0920 03007KT P6SM FEW030 SCT210 FM091200 05008KT P6SM SCT015 BKN140 TEMPO 0912/0916 BKN015 BECMG 0912/0914 08008KT FM091600 12007KT P6SM BKN030 RMK FCST BASED ON AUTO OBS. NXT FCST BY 091400Z<br><br>
<br><br>
CYTR 091000Z 06003KT 15SM FEW045 06/06 A3029 RMK SC2 SLP260<br><br>
TAF CYTR 090530Z 0906/1006 03004KT P6SM BKN050 FM091100 05006KT P6SM SCT040 BKN150 FM092100 21005KT P6SM FEW040 BECMG 1000/1002 VRB03KT RMK NXT FCST BY 091200Z<br><br>
<br><br>
