RETRIEVED AT : Nov 11 2018 20:05 Local <br>
  RETRIEVED AT: Nov 12 2018 01:05 UTC<br><br>
CYSN 120000Z 24006KT 15SM FEW035 OVC072 03/M02 A3028 RMK SC1AC7 SLP260<br><br>
TAF CYSN 111939Z 1120/1202 26010KT P6SM SCT030 BKN080 TEMPO 1120/1124 5SM -SHSN BKN020 OVC030 BECMG 1122/1124 24005KT RMK NXT FCST WILL BE ISSUED AT 121345Z<br><br>
<br><br>
CYHM 120000Z 20005KT 15SM OVC068 01/M02 A3026 RMK AC8 SLP260<br><br>
TAF CYHM 112338Z 1200/1224 20010KT P6SM SCT030 BKN080 BECMG 1201/1203 23005KT FM121000 VRB03KT P6SM BKN050 BKN200 FM121600 24005KT P6SM BKN030 BKN140 FM122100 21008KT P6SM -SHRA BKN025 OVC120 RMK NXT FCST BY 120600Z<br><br>
<br><br>
KIAG 120053Z 00000KT 10SM OVC070 02/M01 A3028 RMK AO2 SLP269 T00171011<br><br>
KIAG 112353Z 19004KT 10SM SCT031 BKN036 OVC075 02/M01 A3028 RMK AO2 SLP270 T00171011 10028 20017 53003<br><br>
KIAG 112339Z 1200/1224 16005KT P6SM OVC070 FM120400 24006KT 6SM -DZ BKN025 FM120500 24006KT 4SM -DZ BKN020 FM121100 21004KT 6SM -DZ BKN025 FM121500 21007KT P6SM BKN035 FM121900 22007KT P6SM BKN060<br><br>
<br><br>
KBUF 120054Z 00000KT 10SM SCT027 BKN033 OVC043 02/M01 A3029 RMK AO2 SLP264 T00171006<br><br>
KBUF 112354Z 14006KT 10SM SCT045 OVC075 01/00 A3028 RMK AO2 SLP262 60001 T00110000 10017 20006 55000<br><br>
KBUF 112339Z 1200/1224 15004KT P6SM OVC070 FM120300 22007KT 6SM -DZ BKN025 FM120500 22006KT 4SM -DZ BKN020 FM121200 19005KT 6SM -DZ BKN025 FM121500 20006KT P6SM BKN035 FM121700 21007KT P6SM BKN100 FM122000 22006KT P6SM BKN060<br><br>
<br><br>
CYYZ 120000Z 22007KT 15SM FEW040 FEW065 SCT075 02/M05 A3026 RMK SC1SC1AC1 SLP257<br><br>
TAF CYYZ 112338Z 1200/1306 24008KT P6SM SCT040 BKN080 FM120900 24005KT P6SM SCT050 BKN200 FM121600 24010KT P6SM SCT040 BKN140 FM122000 21008KT P6SM BKN030 BKN120 FM130200 22005KT 6SM -RA BR BKN012 OVC025 RMK NXT FCST BY 120300Z<br><br>
<br><br>
CYOO 120057Z AUTO 09004KT 9SM SCT028 BKN033 BKN040 OVC075 01/M00 A3027 RMK SLP260<br><br>
CYOO 120050Z AUTO 07003KT 7SM -RA BKN028 BKN032 OVC039 01/M00 A3027 RMK SLP260<br><br>
CYOO 120047Z AUTO 07003KT 7SM -RA -UP BKN028 OVC039 01/M00 A3027 RMK SLP260<br><br>
CYOO 120044Z AUTO 08004KT 7SM -UP BKN028 OVC039 01/M00 A3027 RMK SLP259<br><br>
CYOO 120038Z AUTO 08004KT 9SM -SN -UP BKN028 BKN039 BKN049 OVC075 01/M00 A3027 RMK SLP260<br><br>
CYOO 120032Z AUTO 08004KT 9SM -SN BKN028 BKN033 BKN055 OVC075 01/M00 A3027 RMK SLP260<br><br>
CYOO 120026Z AUTO 07004KT 9SM -RASN SCT028 BKN033 BKN060 OVC076 01/M00 A3027 RMK SLP260<br><br>
CYOO 120023Z AUTO 08004KT 9SM -RA SCT028 BKN047 BKN060 OVC076 01/M00 A3027 RMK SLP260<br><br>
CYOO 120015Z AUTO 09004KT 9SM FEW030 BKN060 OVC076 01/M00 A3027 RMK SLP260<br><br>
CYOO 120005Z AUTO 06003KT 9SM -RA FEW034 BKN055 OVC078 01/M00 A3027 RMK SLP259<br><br>
CYOO 120000Z AUTO 08002KT 9SM FEW034 BKN050 OVC060 01/00 A3027 RMK SLP260<br><br>
CYOO has no TAF <br><br>
<br><br>
CYTR 120049Z 11002KT 12SM -SHSN FEW042 OVC090 01/M01 A3030 RMK SC2AC6 SLP266<br><br>
CYTR 120000Z 07002KT 15SM FEW030 OVC100 00/M01 A3031 RMK SC2AC6 SLP268<br><br>
CYTR 112328Z 00000KT 15SM SCT038 OVC120 00/M01 A3031 RMK SC3AC5 SLP268<br><br>
TAF CYTR 112330Z 1200/1224 22005KT P6SM SCT012 BKN030 OVC120 TEMPO 1200/1207 3SM -SHSNRA BKN012 OVC030 BECMG 1203/1205 27005KT FM120700 VRB03KT P6SM SCT020 BKN040 FM121400 24005KT P6SM BKN030 BKN120 TEMPO 1214/1224 P6SM -SHRA BKN020 BECMG 1216/1218 22012KT RMK NXT FCST BY 120600Z<br><br>
<br><br>
