RETRIEVED AT : May 25 2020 04:05 Local <br>
  RETRIEVED AT: May 25 2020 08:05 UTC<br><br>
CYSN has no TAF <br><br>
<br><br>
CYHM 250700Z 19012G17KT 15SM FEW050 FEW060 20/17 A2996 RMK ST1SC2 SLP144 DENSITY ALT 1600FT<br><br>
TAF AMD CYHM 250641Z 2506/2606 20008KT P6SM FEW040 SCT080 TEMPO 2506/2508 P6SM -SHRA VCTS SCT040CB BKN080 FM251600 21012KT P6SM SCT040 FM251900 22012KT P6SM SCT060 TEMPO 2520/2601 P6SM VCTS FEW040CB BKN060 RMK NXT FCST BY 251200Z<br><br>
<br><br>
KIAG 250753Z AUTO 19012KT 10SM CLR 19/14 A2998 RMK AO2 LTG DSNT N SLP147 T01890144 $<br><br>
KIAG 250653Z AUTO 20012G20KT 10SM CLR 19/15 A2997 RMK AO2 SLP142 T01940150 $<br><br>
KIAG 250539Z 2506/2606 20012KT P6SM VCSH BKN150 TEMPO 2506/2509 5SM -TSRA OVC040CB FM251100 21012G18KT P6SM SCT150 FM251800 22010KT P6SM SCT250 FM260000 20005KT P6SM SKC<br><br>
<br><br>
KBUF 250754Z 20012KT 10SM FEW130 20/15 A2999 RMK AO2 SLP153 T02000150<br><br>
KBUF 250654Z 18014KT 10SM FEW130 21/15 A2999 RMK AO2 SLP152 T02060150<br><br>
KBUF 250539Z 2506/2606 18012KT P6SM VCSH BKN150 TEMPO 2507/2510 5SM -TSRA OVC040CB FM251200 20010G16KT P6SM SCT150 FM251800 23012KT P6SM SCT250 FM260000 20005KT P6SM SKC<br><br>
<br><br>
CYYZ 250700Z 21007KT 15SM SCT060 21/17 A2994 RMK SC4 OCNL LTNG DIST E SLP138 DENSITY ALT 1400FT<br><br>
CYYZ 250633Z 22010G18KT 15SM SCT050 SCT090 21/18 A2994 RMK SC3AC1 SLP138 DENSITY ALT 1500FT<br><br>
CYYZ 250622Z VRB03KT 15SM -SHRA FEW050CB BKN100 20/17 A2994 RMK CB2AC3 OCNL LTGIC S SLP138 DENSITY ALT 1300FT<br><br>
TAF CYYZ 250538Z 2506/2612 17005KT P6SM SCT060 BKN100 FM250900 16010KT P6SM FEW030 BECMG 2510/2512 24012KT FM252000 20012KT P6SM SCT060 TEMPO 2520/2602 P6SM VCTS FEW040CB BKN060 FM260200 22008KT P6SM FEW060 BECMG 2604/2606 13007KT FM260900 09006KT P6SM FEW080 PROB30 2609/2612 3/4SM BR RMK NXT FCST BY 250900Z<br><br>
<br><br>
CYOO 250724Z AUTO 18004KT 9SM FEW042 OVC085 19/18 A2996 RMK LTNG DIST E SE SLP146 DENSITY ALT 1000FT<br><br>
CYOO 250713Z AUTO 17005KT 160V250 9SM VCTS FEW031 BKN042 OVC085 19/18 A2996 RMK LTNG DIST E SE SLP146 DENSITY ALT 1000FT<br><br>
CYOO 250710Z AUTO 19006KT 160V250 9SM TS FEW025 SCT033 BKN042 OVC085 19/18 A2996 RMK LTNG DIST E SE SLP146 DENSITY ALT 1000FT<br><br>
CYOO 250704Z AUTO 23005KT 9SM -TSRA SCT035 BKN042 OVC085 20/18 A2996 RMK LTNG DIST E SE SLP147 DENSITY ALT 1000FT<br><br>
CYOO 250702Z AUTO 23006KT 180V250 3SM -TSRA BR BKN038 OVC047 20/18 A2997 RMK LTNG DIST NE E SE SLP148 DENSITY ALT 1000FT<br><br>
CYOO 250700Z AUTO 23006KT 160V250 1 3/4SM -TSRA BR BKN038 OVC047 20/18 A2996 RMK LTNG DIST NE E SE SLP147 DENSITY ALT 1000FT<br><br>
CYOO 250658Z AUTO VRB06KT 1 3/4SM -TSRA BR SCT034 OVC043 20/18 A2996 RMK LTNG DIST NE E SE SLP147 DENSITY ALT 1000FT<br><br>
CYOO 250652Z AUTO VRB04KT 2 1/2SM +TSRA BR BKN037 OVC047 19/18 A2996 RMK LTNG DIST NE E SE SLP146 DENSITY ALT 900FT<br><br>
CYOO 250651Z AUTO VRB02KT 3SM -TSRA BR SCT035 OVC042 19/18 A2996 RMK LTNG DIST NE E SE SLP147 DENSITY ALT 900FT<br><br>
CYOO 250650Z AUTO VRB02KT 6SM -TSRA BR SCT035 OVC044 19/18 A2997 RMK LTNG DIST NE E SE SLP148 DENSITY ALT 900FT<br><br>
CYOO 250645Z AUTO 33009KT 6SM +TSRA BR SCT035 OVC046 19/18 A2997 RMK LTNG DIST NE E SW PRESRR SLP151 DENSITY ALT 900FT<br><br>
CYOO 250642Z AUTO 34009KT 6SM -TSRA BR SCT035 OVC046 19/18 A2997 RMK LTNG DIST NE E SW PRESRR SLP150 DENSITY ALT 900FT<br><br>
CYOO 250636Z AUTO 36007KT 3SM TSRA BR BKN046 OVC085 19/18 A2997 RMK LTNG DIST SW SLP148 DENSITY ALT 900FT<br><br>
CYOO 250635Z AUTO 36007KT 3SM +TSRA BR BKN043 OVC085 19/18 A2997 RMK LTNG DIST SW SLP148 DENSITY ALT 900FT<br><br>
CYOO 250624Z AUTO VRB02KT 2 1/2SM +TSRA BR SCT039 BKN046 BKN055 OVC086 19/18 A2996 RMK VIS VRB 1 1/4-3 LTNG DIST ALQDS SLP145 DENSITY ALT 900FT<br><br>
CYOO 250621Z AUTO VRB02KT 4SM +TSRA BR BKN042 BKN055 BKN068 OVC087 19/18 A2996 RMK LTNG DIST ALQDS SLP146 DENSITY ALT 900FT<br><br>
CYOO 250620Z AUTO 25003KT 160V280 5SM -TSRA BR SCT042 BKN050 BKN055 OVC087 19/18 A2996 RMK LTNG DIST ALQDS SLP147 DENSITY ALT 900FT<br><br>
CYOO 250612Z AUTO 00000KT 9SM -TSRA FEW041 BKN050 BKN065 OVC085 19/18 A2996 RMK LTNG DIST E SW W SLP146 DENSITY ALT 900FT<br><br>
CYOO 250609Z AUTO VRB02KT 9SM TS SCT039 BKN050 OVC065 19/18 A2996 RMK LTNG DIST E SW W SLP146 DENSITY ALT 900FT<br><br>
CYOO 250608Z AUTO VRB02KT 9SM -TSRA SCT039 BKN050 OVC065 19/18 A2996 RMK LTNG DIST E SW W SLP146 DENSITY ALT 900FT<br><br>
TAF CYOO 250738Z 2508/2520 VRB03KT P6SM FEW020 SCT080 FM251800 21010KT P6SM SCT060 TEMPO 2518/2520 P6SM VCTS FEW040CB BKN060 RMK FCST BASED ON AUTO OBS. NXT FCST BY 251400Z<br><br>
<br><br>
CYTR 250729Z 15004KT 4SM -TSRA BR FEW009 BKN015 OVC028 17/14 A3001 RMK SF1SF7SC1 CB EMBD OVRHD MOVG E OCNL LTGICCC SLP163<br><br>
CYTR 250718Z 15004KT 3SM +TSRA BR BKN015 OVC035 17/14 A3000 RMK SF7SC1 CB EMBD OVRHD MOVG E OCNL LTGICCC SLP161<br><br>
CYTR 250711Z 17003KT 4SM TSRA BR BKN020 OVC067 17/14 A3001 RMK SC7AC1 CB EMBD OVRHD MOVG E OCNL LTGICCC SLP163<br><br>
CYTR 250700Z 18003KT 6SM -TSRA BR BKN022 OVC067 17/14 A3001 RMK SC7AC1 CB EMBD W-SE MOVG E OCNL LTGIC SLP163<br><br>
CYTR 250648Z 19004KT 6SM TSRA BR BKN028 OVC067 17/14 A3000 RMK SC7AC1 CB EMBD W MOVG E OCNL LTGICCCCG SLP161<br><br>
CYTR 250640Z 21003KT 7SM -SHRA BKN032 OVC067 18/14 A3000 RMK SC6AC2 CB EMBD DIST W-SE MOVG E OCNL LTGICCC SLP160<br><br>
TAF AMD CYTR 250658Z 2506/2606 VRB03KT P6SM -SHRA FEW012 BKN025 OVC070 TEMPO 2506/2509 VRB15G25KT 2SM TSRA BR SCT012 OVC020CB FM250900 20005KT 3SM -SHRA BR SCT006 BKN012 OVC025 TEMPO 2509/2510 P6SM NSW FEW006 SCT012 OVC025 PROB30 2509/2510 VRB15G25KT 11/2SM TSRA BR SCT006 OVC012CB FM251000 20005KT 2SM BR BKN006 OVC012 TEMPO 2510/2513 6SM BR SCT006 BKN012 OVC025 PROB30 2510/2513 1SM -DZ BR OVC004 FM251300 20005KT 6SM BR SCT008 OVC012 TEMPO 2513/2515 P6SM NSW FEW008 SCT012 OVC025 FM251500 20005KT P6SM BKN015 BECMG 2515/2517 22010KT FEW015 FM251900 22010KT P6SM FEW040 BECMG 2600/2602 VRB03KT RMK NXT FCST BY 251200Z<br><br>
<br><br>
