RETRIEVED AT : Apr 27 2018 23:41 Local <br>
  RETRIEVED AT: Apr 28 2018 03:41 UTC<br><br>
CYSN has no TAF <br><br>
<br><br>
CYHM 280300Z 32004KT 6SM RA OVC041 08/07 A2972 RMK SC8 SLP068<br><br>
CYHM 280249Z 30006KT 6SM RA OVC041 08/06 A2972 RMK SC8 SLP068<br><br>
CYHM 280200Z 01003KT 320V090 15SM -RA SCT050 OVC067 09/04 A2970 RMK SC3AC5 SLP062<br><br>
TAF CYHM 272338Z 2800/2824 04010KT P6SM BKN040 OVC080 TEMPO 2800/2803 P6SM -SHRA FM280300 28006KT P6SM -SHRA OVC025 FM280600 28010KT 6SM BR SCT006 OVC020 PROB30 2806/2813 3SM BR BKN008 FM281300 30012KT P6SM OVC020 FM281600 31013G23KT P6SM OVC020 FM281900 31012G22KT P6SM BKN025 RMK NXT FCST BY 280600Z<br><br>
<br><br>
KIAG 280253Z 27005KT 10SM BKN110 08/02 A2969 RMK AO2 SLP058 T00780017 50015<br><br>
KIAG 280153Z 29011KT 10SM SCT110 10/02 A2970 RMK AO2 SLP060 T01000022<br><br>
KIAG 280248Z 2803/2824 VRB03KT P6SM VCSH BKN080 FM280500 24004KT P6SM BKN050 FM281200 25010KT P6SM OVC012 FM281400 25012KT 6SM -SHRA OVC015 FM281800 26013KT P6SM VCSH OVC020<br><br>
<br><br>
KBUF 280254Z 28010KT 10SM FEW050 BKN070 OVC130 12/03 A2969 RMK AO2 SLP057 T01170033 51014<br><br>
KBUF 280154Z 21007KT 10SM FEW055 BKN075 OVC130 12/04 A2969 RMK AO2 SLP056 T01170044<br><br>
