RETRIEVED AT : Jun 28 2020 01:05 Local <br>
  RETRIEVED AT: Jun 28 2020 05:05 UTC<br><br>
CYSN has no TAF <br><br>
<br><br>
CYHM 280423Z 31003G17KT 290V010 8SM R12/3000VP6000FT/U -TSRA FEW025CB BKN059 21/20 A2972 RMK CB2SC3 OCNL LTGIC SLP061 DENSITY ALT 1900FT<br><br>
CYHM 280417Z 35007G17KT 280V010 3SM R12/3000VP6000FT/D TSRA BR SCT025CB SCT050 OVC090 21/20 A2972 RMK CB3SC1AC4 OCNL LTGIC VIS VRB 2 - 4 SLP061 DENSITY ALT 1900FT<br><br>
CYHM 280412Z 30006KT 5SM +SHRA BR OVC031TCU 22/20 A2973 RMK TCU8 SLP065 DENSITY ALT 2000FT<br><br>
CYHM 280400Z 33006KT 15SM VCSH BKN018 OVC077 22/20 A2972 RMK SC6AC2 SHWRS E SLP062 DENSITY ALT 2000FT<br><br>
TAF AMD CYHM 280413Z 2804/2824 30006KT P6SM FEW030 SCT080 TEMPO 2804/2806 21/2SM TSRA BR BKN020CB OVC060 FM280600 28006KT P6SM FEW025 SCT080 FM280800 26006KT P6SM SCT070 FM281100 30006KT P6SM SKC FM281700 05006KT P6SM BKN040 BECMG 2820/2822 12008KT RMK NXT FCST BY 280600Z<br><br>
<br><br>
KIAG 280453Z AUTO 01008KT 9SM -RA SCT012 BKN032 OVC048 21/19 A2972 RMK AO2 LTG DSNT NE RAB0358E11B37 SLP060 P0001 T02060189 402610183<br><br>
KIAG 280353Z AUTO 20006KT 9SM SCT060 BKN080 OVC110 21/19 A2971 RMK AO2 LTG DSNT W-N SLP058 T02060189<br><br>
KIAG 280418Z 2804/2824 23007KT P6SM -SHRA VCTS SCT050CB BKN200 TEMPO 2804/2805 6SM TSRA OVC040CB FM280700 23004KT P6SM BKN050 FM281000 28005KT P6SM BKN040 FM281500 31007KT P6SM SCT050 SCT250<br><br>
<br><br>
KBUF 280454Z 22009KT 10SM FEW055 BKN075 BKN160 BKN250 20/19 A2972 RMK AO2 LTG DSNT N SLP062 OCNL LTGIC DSNT NW CB DSNT NW MOV SE T02000189 402280172<br><br>
KBUF 280354Z 23010KT 10SM FEW055 BKN075 19/19 A2973 RMK AO2 SLP064 T01940189<br><br>
KBUF 280345Z 22008KT 10SM FEW007 SCT055 BKN075 19/19 A2973 RMK AO2 T01940189<br><br>
KBUF 280257Z 2803/2824 23008KT P6SM VCSH SCT050 BKN200 TEMPO 2805/2807 6SM -SHRA OVC040 FM280800 26004KT P6SM BKN012 FM281300 26008KT P6SM BKN040<br><br>
<br><br>
CYYZ 280400Z 34008KT 15SM FEW055 FEW080 21/19 A2970 RMK CF1AC2 CF TR SLP056 DENSITY ALT 1700FT<br><br>
CYYZ 280334Z 36009KT 15SM BKN080 21/19 A2970 RMK AC5 SLP057 DENSITY ALT 1700FT<br><br>
TAF AMD CYYZ 280340Z 2803/2906 36008KT P6SM SCT080 TEMPO 2803/2806 P6SM VCTS FEW040CB BKN080 FM280600 34006KT P6SM FEW080 BECMG 2810/2812 34012KT FM281700 35012KT P6SM SCT050 TEMPO 2817/2824 BKN050 FM290000 01010KT P6SM FEW050 RMK NXT FCST BY 280600Z<br><br>
<br><br>
CYOO 280414Z AUTO VRB02KT 6SM BR FEW004 BKN100 OVC120 20/20 A2970 RMK LTNG DIST S SLP056 DENSITY ALT 1300FT<br><br>
CYOO 280406Z AUTO VRB02KT 5SM BR FEW045 OVC095 20/20 A2970 RMK LTNG DIST S SLP056 DENSITY ALT 1300FT<br><br>
CYOO 280403Z AUTO 07003KT 9SM FEW044 OVC095 20/20 A2970 RMK LTNG DIST SE SLP056 DENSITY ALT 1300FT<br><br>
CYOO 280400Z AUTO 07002KT 9SM -RA FEW044 OVC095 20/20 A2970 RMK LTNG DIST SE SLP056 DENSITY ALT 1300FT<br><br>
CYOO 280349Z AUTO 04004KT 340V140 6SM -RA BR SCT046 SCT070 OVC091 20/20 A2970 RMK LTNG DIST SE SLP058 DENSITY ALT 1400FT<br><br>
CYOO 280337Z AUTO VRB02KT 5SM -RA BR FEW041 BKN049 OVC070 20/20 A2970 RMK LTNG DIST SE SLP058 DENSITY ALT 1400FT<br><br>
CYOO 280327Z AUTO 16003KT 090V190 9SM BKN050 OVC070 20/20 A2971 RMK LTNG DIST SE SLP060 DENSITY ALT 1400FT<br><br>
CYOO 280308Z AUTO 18004KT 140V220 6SM -RA BR FEW017 SCT046 BKN060 OVC077 20/20 A2971 RMK SLP060 DENSITY ALT 1400FT<br><br>
TAF AMD CYOO 280449Z 2804/2814 VRB03KT 6SM BR FEW004 BKN120 TEMPO 2804/2806 5SM BR FM280600 VRB03KT 6SM BR FEW003 TEMPO 2806/2812 11/2SM BR PROB40 2806/2812 1/2SM FG FEW002 FM281200 34007KT P6SM SKC RMK FCST BASED ON AUTO OBS. NXT FCST BY 280800Z<br><br>
<br><br>
CYTR 280400Z 20004KT 15SM FEW090 FEW250 21/19 A2968 RMK AC2CI1 SLP052<br><br>
TAF CYTR 272330Z 2800/2824 25010G20KT P6SM SCT050 BKN250 BECMG 2800/2802 23005KT FM280800 VRB03KT P6SM SCT020 BKN050 PROB30 2808/2812 1SM BR OVC005 FM281600 VRB03KT P6SM -SHRA BKN050 RMK NXT FCST BY 280600Z<br><br>
<br><br>
