RETRIEVED AT : May 30 2020 15:05 Local <br>
  RETRIEVED AT: May 30 2020 19:05 UTC<br><br>
CYSN 301800Z 27014G29KT 15SM SCT038 BKN079 19/12 A2994 RMK SC3AC4 SLP139 DENSITY ALT 800FT<br><br>
TAF AMD CYSN 301405Z 3014/3101 21010KT P6SM SCT020 BKN090 TEMPO 3014/3017 4SM -SHRA BR BKN020 BECMG 3015/3017 30015G25KT FM301700 30015G25KT P6SM SCT040 TEMPO 3017/3101 BKN040 RMK NXT FCST BY 302000Z<br><br>
<br><br>
CYHM 301800Z CCA 28010G19KT 15SM SCT023 BKN033 BKN040 15/11 A2998 RMK CU3SC3SC1 SLP157 DENSITY ALT 900FT<br><br>
TAF CYHM 301738Z 3018/3118 28015G25KT P6SM SCT020 BKN040 TEMPO 3018/3020 BKN020 FM310100 32010KT P6SM FEW040 FM311200 35008KT P6SM SCT020 RMK NXT FCST BY 310000Z<br><br>
<br><br>
KIAG 301853Z 27016KT 10SM SCT038 SCT046 SCT075 18/10 A2995 RMK AO2 PK WND 28027/1842 SLP144 T01830100<br><br>
KIAG 301800Z 27019G25KT 10SM BKN034 BKN050 OVC065 18/11 A2993 RMK AO2 T01780111<br><br>
KIAG 301753Z 29012G19KT 10SM BKN029 BKN038 OVC050 17/12 A2993 RMK AO2 SLP137 60016 T01720117 10189 20139 55004<br><br>
KIAG 301714Z 28013G21KT 10SM BKN029 BKN036 OVC090 18/13 A2992 RMK AO2 T01830128<br><br>
KIAG 301720Z 3018/3118 27014G22KT P6SM BKN040 FM302300 31010KT P6SM SCT050 FM310400 33005KT P6SM SCT040 FM311400 34010G16KT P6SM SKC<br><br>
<br><br>
KBUF 301854Z 24012G20KT 10SM SCT035 SCT045 BKN055 14/12 A2996 RMK AO2 PK WND 23027/1805 SLP148 T01390117 $<br><br>
KBUF 301754Z 23020G26KT 10SM FEW011 SCT013 BKN085 14/12 A2995 RMK AO2 PK WND 24026/1737 SLP142 60000 T01390117 10161 20117 53001 $<br><br>
KBUF 301738Z 24021G26KT 10SM SCT008 BKN013 BKN080 14/12 A2995 RMK AO2 PK WND 24026/1737 T01440122 $<br><br>
KBUF 301709Z 24018G24KT 10SM BKN008 OVC019 14/13 A2995 RMK AO2 T01390128 $<br><br>
KBUF 301720Z 3018/3118 23018G26KT P6SM VCSH BKN015 FM301900 26014G22KT P6SM BKN050 FM302300 30010KT P6SM SCT050 FM310400 32005KT P6SM SCT040 FM311500 34010G16KT P6SM SKC<br><br>
<br><br>
CYYZ 301800Z 29022KT 15SM FEW031 BKN039 BKN180 17/09 A2994 RMK CU2SC4AC1 SLP142 DENSITY ALT 1000FT<br><br>
TAF CYYZ 301738Z 3018/3124 30015G25KT P6SM SCT030 BKN050 FM310200 34012KT P6SM SCT040 BECMG 3102/3104 34006KT FM310700 34010KT P6SM BKN030 FM311100 34012KT P6SM FEW030 FM311900 31015KT P6SM BKN060 RMK NXT FCST BY 302100Z<br><br>
<br><br>
CYOO 301817Z AUTO 27017G22KT 9SM FEW021 BKN036 BKN045 OVC080 17/11 A2991 RMK SLP129 DENSITY ALT 800FT<br><br>
CYOO 301800Z AUTO 27007KT 230V290 9SM SCT021 BKN032 BKN040 OVC075 17/15 A2990 RMK PCPN 0.8MM PAST HR SLP128 DENSITY ALT 800FT<br><br>
CYOO 301745Z AUTO 24006KT 9SM SCT021 BKN029 BKN037 OVC065 16/14 A2990 RMK SLP128 DENSITY ALT 600FT<br><br>
CYOO 301727Z AUTO 25008G15KT 170V290 9SM RA SCT025 BKN037 BKN095 16/13 A2991 RMK PRESRR SLP129 DENSITY ALT 600FT<br><br>
CYOO 301724Z AUTO 26011KT 160V290 9SM +RA SCT022 SCT027 BKN037 OVC095 16/13 A2991 RMK PRESRR SLP129 DENSITY ALT 700FT<br><br>
CYOO 301720Z AUTO 26009KT 160V280 9SM -RA SCT026 SCT037 BKN095 17/13 A2990 RMK SLP128 DENSITY ALT 700FT<br><br>
TAF CYOO 301338Z 3014/3102 25010KT P6SM SCT015 BKN060 TEMPO 3014/3017 BKN015 FM301700 28012G22KT P6SM BKN030 BECMG 3018/3020 31015G25KT RMK FCST BASED ON AUTO OBS. NXT FCST BY 302000Z<br><br>
<br><br>
CYTR 301825Z 23011G17KT 15SM FEW043 BKN080 BKN200 18/12 A2988 RMK SC2AC2CI2 SLP119<br><br>
CYTR 301800Z 22013G19KT 15SM -SHRA BKN045 OVC094 17/12 A2989 RMK SC6AC2 SLP121<br><br>
TAF CYTR 301730Z 3018/3118 21010KT P6SM FEW020 SCT040 OVC070 TEMPO 3018/3021 5SM -SHRA BR BKN020 OVC040 BECMG 3019/3021 26012G22KT FM302100 26012G22KT P6SM SCT025 BKN050 BECMG 3100/3102 33008KT FEW050 FM310600 VRB03KT P6SM FEW020 SCT070 FM311200 34008KT P6SM SKC FM311600 30010KT P6SM FEW070 RMK NXT FCST BY 310000Z<br><br>
<br><br>
