RETRIEVED AT : Mar 28 2020 10:05 Local <br>
  RETRIEVED AT: Mar 28 2020 14:05 UTC<br><br>
CYSN 281300Z 09004KT 60SM -RA OVC060 06/04 A2993 RMK SC8 SLP139<br><br>
CYSN 281230Z 00000KT 12SM -RA OVC080 06/03 A2994 RMK AC8 SLP142<br><br>
TAF CYSN 281238Z 2813/2901 07008KT P6SM OVC080 TEMPO 2813/2815 5SM -SHRA BR BKN007 OVC050 FM281500 07010KT P6SM -RA FEW007 OVC030 TEMPO 2815/2817 3SM -RA BR BKN005 OVC015 FM281700 07012KT P6SM FEW006 OVC012 TEMPO 2817/2822 5SM -DZ BR BKN006 OVC010 FM282200 07012KT 6SM -DZ OVC008 TEMPO 2822/2901 3SM -RA -DZ BR OVC005 RMK NXT FCST BY 282000Z<br><br>
<br><br>
CYHM 281336Z 03016KT 3SM -RA BR BKN003 OVC054 03/02 A2993 RMK CF6SC2 SLP143<br><br>
CYHM 281300Z 04016KT 5SM -RA BR FEW004 SCT028 SCT064 OVC078 03/02 A2991 RMK CF2SC1SC1AC4 SLP137<br><br>
TAF CYHM 281138Z 2812/2912 05012KT P6SM SCT005 OVC080 TEMPO 2812/2814 5SM -SHRA BR BKN004 OVC080 FM281400 05012KT 6SM -RA BR BKN008 OVC030 TEMPO 2814/2817 3SM -RA BR OVC003 FM281700 05015KT 2SM -RA -DZ BR OVC003 TEMPO 2817/2820 5SM -DZ BR OVC006 FM282000 05018KT 11/2SM -RA -DZ BR OVC004 FM282300 05018KT 1/2SM -RA -DZ FG VV002 FM290500 04010KT 1/4SM -RA FG VV001 FM291000 03010KT 1/2SM SHRA FG VV002 PROB30 2910/2912 1SM +TSRA BR OVC002CB RMK NXT FCST BY 281800Z<br><br>
<br><br>
KIAG 281353Z 10006KT 6SM -RA BR OVC070 06/04 A2992 RMK AO2 SLP144 P0006 T00610039<br><br>
KIAG 281253Z 10006KT 8SM -RA BKN060 OVC070 06/02 A2994 RMK AO2 RAB21 SLP148 P0001 T00560022<br><br>
KIAG 281138Z 2812/2912 10006KT P6SM BKN100 OVC120 FM281300 11008KT 6SM -RA OVC050 FM281600 11008KT 6SM -RA OVC020 FM281900 10010KT P6SM OVC015 FM290200 10009KT 6SM -RA OVC007 FM291100 15010G18KT 4SM RA OVC007<br><br>
<br><br>
KBUF 281354Z 11009KT 10SM -RA OVC070 08/06 A2992 RMK AO2 SLP136 P0009 T00830056<br><br>
KBUF 281254Z 12006KT 10SM -RA OVC065 08/04 A2995 RMK AO2 SLP145 P0004 T00780044<br><br>
KBUF 281138Z 2812/2912 08004KT P6SM BKN100 OVC130 FM281300 13008KT 6SM -RA OVC050 FM281500 13008KT 6SM -RA OVC025 FM282000 12009KT P6SM OVC015 FM290400 12007KT 4SM RA OVC007 FM291000 15012G18KT 4SM RA OVC012<br><br>
<br><br>
CYYZ 281300Z 09014G22KT 15SM SCT075 BKN120 OVC220 06/M01 A2996 RMK AC3AC4CI1 SLP153<br><br>
TAF CYYZ 281138Z 2812/2918 08012KT P6SM OVC100 TEMPO 2815/2818 P6SM -RA BKN020 OVC080 FM281800 08015KT P6SM SCT015 OVC040 TEMPO 2818/2821 5SM -RA BR OVC015 FM282100 08012G22KT 5SM -RA -DZ BR OVC015 PROB30 2821/2824 4SM -DZ BR BKN008 OVC015 FM290000 08012G22KT 3SM -RA -DZ BR OVC008 FM290300 08010G20KT 2SM -RA -DZ BR OVC004 FM290500 08010G20KT 11/2SM -RA BR OVC003 FM291000 09012KT 1SM SHRA BR OVC002 PROB30 2910/2913 1SM +TSRA BR OVC002CB FM291300 09008KT 1SM -RA BR OVC002 FM291500 16008KT 1/2SM -DZ -RA FG VV002 BECMG 2916/2918 21015G25KT RMK NXT FCST BY 281500Z<br><br>
<br><br>
CYOO 281300Z AUTO 07010KT 9SM BKN100 BKN120 06/M02 A2998 RMK SLP159<br><br>
TAF CYOO 281338Z 2814/2902 07010KT P6SM OVC100 FM281800 07012KT P6SM FEW025 OVC070 TEMPO 2818/2821 P6SM -RA BKN020 OVC040 FM282100 07012G22KT P6SM OVC015 TEMPO 2821/2902 4SM -DZ BR BKN007 OVC012 RMK FCST BASED ON AUTO OBS. NXT FCST BY 282000Z<br><br>
<br><br>
CYTR 281300Z 05004KT 15SM SCT150 OVC200 02/M00 A3006 RMK AC3CI5 SLP184<br><br>
TAF CYTR 281130Z 2812/2912 05005KT P6SM BKN140 BKN200 TEMPO 2812/2813 3SM BR FM281500 09010KT P6SM SCT050 BKN100 FM282100 10008KT P6SM BKN025 OVC050 TEMPO 2821/2824 OVC020 FM290000 09012KT P6SM OVC015 TEMPO 2900/2903 6SM -RA -DZ BR OVC008 FM290300 10012KT 5SM -RA BR OVC006 FM290900 10015KT 3SM RA BR OVC005 RMK NXT FCST BY 281800Z<br><br>
<br><br>
