RETRIEVED AT : May 06 2018 16:05 Local <br>
  RETRIEVED AT: May 06 2018 20:05 UTC<br><br>
CYSN 061900Z 02007KT 15SM SCT140 OVC250 18/08 A2992 RMK AC4CI4 SLP134 DENSITY ALT 700FT<br><br>
TAF CYSN 061939Z 0620/0701 02010KT P6SM SCT140 OVC240 FM070000 32010KT P6SM BKN050 TEMPO 0700/0701 P6SM -SHRA RMK NXT FCST WILL BE ISSUED AT 071245Z<br><br>
<br><br>
CYHM 061900Z 03014KT 15SM FEW036 BKN100 OVC240 14/05 A2994 RMK CU1AC6CI1 SLP143 DENSITY ALT 900FT<br><br>
TAF CYHM 061738Z 0618/0718 04012KT P6SM FEW030 SCT090 BKN120 TEMPO 0618/0621 P6SM -SHRA BKN030 OVC090 FM062100 04012KT P6SM OVC060 TEMPO 0621/0624 5SM -SHRA BR BKN020 OVC060 PROB30 0621/0624 VRB15G25KT 2SM TSRA BR BKN008 OVC060CB FM070000 03010G20KT P6SM BKN040 OVC080 TEMPO 0700/0703 6SM -SHRA BR SCT008 OVC040 FM070700 05010KT P6SM BKN040 FM071200 05012G22KT P6SM SCT040 RMK NXT FCST BY 070000Z<br><br>
<br><br>
KIAG 061953Z 35008KT 10SM FEW070 BKN110 21/08 A2991 RMK AO2 SLP129 T02060083<br><br>
KIAG 061853Z 31006KT 10SM CLR 21/09 A2992 RMK AO2 SLP130 T02110094<br><br>
KIAG 061724Z 0618/0718 01007KT P6SM SCT120 FM062100 03009KT P6SM BKN110 FM070200 02011KT P6SM VCSH BKN060 FM070600 03007KT P6SM BKN045 FM070900 04009KT P6SM SCT035<br><br>
<br><br>
KBUF 061954Z 00000KT 10SM FEW045 SCT120 BKN150 OVC200 21/09 A2990 RMK AO2 SLP125 T02110094<br><br>
KBUF 061854Z 36010G14KT 10SM FEW045 SCT100 BKN150 BKN180 OVC230 22/10 A2991 RMK AO2 SLP128 T02170100<br><br>
KBUF 061724Z 0618/0718 VRB05KT P6SM BKN110 FM062300 04008KT P6SM BKN110 FM070200 02011KT P6SM VCSH BKN060 FM070600 03007KT P6SM BKN040 FM070900 04009KT P6SM SCT035<br><br>
<br><br>
CYYZ 061900Z VRB02KT 15SM SCT070 BKN100 OVC230 17/05 A2995 RMK AC4AC3CS1 SLP145 DENSITY ALT 1000FT<br><br>
TAF CYYZ 061738Z 0618/0724 09012KT P6SM SCT100 OVC230 TEMPO 0618/0621 FEW040 BKN110 FM062100 06012KT P6SM -SHRA BKN040 OVC070 FM070100 01010G20KT P6SM BKN040 BKN100 TEMPO 0701/0703 P6SM -SHRA FM070600 03010KT P6SM BKN040 FM071000 03008KT P6SM FEW040 BECMG 0713/0715 10012KT FM071800 12010KT P6SM SKC RMK NXT FCST BY 062100Z<br><br>
<br><br>
CYOO 061900Z AUTO 16005KT 110V180 9SM BKN075 18/04 A2995 RMK SLP143 DENSITY ALT 800FT<br><br>
CYOO has no TAF <br><br>
<br><br>
CYTR 061900Z 11005KT 15SM OVC071 21/04 A2993 RMK AC8 SLP137<br><br>
TAF CYTR 061731Z 0618/0718 12008KT P6SM FEW090 BKN250 FM062100 12008KT P6SM FEW050 BKN090 BECMG 0623/0701 03010KT FM070400 03012KT P6SM SCT060 FM070700 03008KT P6SM SKC BECMG 0717/0718 20008KT RMK NXT FCST BY 070000Z<br><br>
<br><br>
