RETRIEVED AT : Jan 20 2019 15:05 Local <br>
  RETRIEVED AT: Jan 20 2019 20:05 UTC<br><br>
TAF CYSN 201938Z 2020/2102 33015G25KT P6SM BKN030 TEMPO 2020/2024 21/2SM -SN RMK NXT FCST WILL BE ISSUED AT 211345Z<br><br>
<br><br>
CYHM 201900Z 33020G27KT 15SM FEW030 FEW090 M14/M21 A2991 RMK CU1AC1 AC TR SLP149<br><br>
TAF CYHM 201738Z 2018/2118 33015G25KT P6SM SCT050 BECMG 2023/2101 32012KT RMK NXT FCST BY 210000Z<br><br>
<br><br>
KIAG 201949Z 2020/2118 33014G24KT 2SM -SN SCT015 OVC025 TEMPO 2020/2024 1SM -SN FM210000 32014G22KT 4SM -SN BKN025 FM210300 33014G24KT 2SM -SN BLSN BKN015 FM211200 33014G24KT P6SM VCSH BKN025<br><br>
<br><br>
KBUF 202002Z 34010KT 1/2SM R23/3000VP6000FT SN BKN012 OVC025 M13/M16 A2988 RMK AO2 P0000 T11331161<br><br>
KBUF 201954Z 32009KT 1SM R23/5000VP6000FT -SN FEW014 OVC024 M13/M16 A2988 RMK AO2 SLP133 P0000 T11331161<br><br>
KBUF 201944Z 33009KT 1 1/2SM R23/4000VP6000FT -SN OVC024 M13/M17 A2987 RMK AO2 P0000 T11331167<br><br>
KBUF 201901Z 31011KT 3SM -SN OVC018 M14/M17 A2986 RMK AO2 P0000 T11391172<br><br>
KBUF 201854Z 30013G19KT 1 1/2SM -SN BLSN OVC018 M14/M17 A2986 RMK AO2 SLP126 P0000 T11391172<br><br>
KBUF 201842Z 30014KT 1 1/2SM R23/3500VP6000FT -SN BKN018 OVC025 M13/M17 A2985 RMK AO2 P0000 T11331167<br><br>
KBUF 201831Z 31014KT 2 1/2SM R23/4000VP6000FT -SN OVC023 M13/M17 A2985 RMK AO2 P0000 T11331167<br><br>
KBUF 201739Z 2018/2118 32014G20KT 4SM -SN BKN025 TEMPO 2018/2021 2SM -SN BKN025 FM210000 32012G20KT 6SM -SHSN SCT025 BKN040 FM210400 31012G18KT P6SM VCSH BKN025 FM211500 31012G18KT P6SM SCT025 BKN040<br><br>
<br><br>
CYYZ 201900Z 33023G28KT 15SM DRSN FEW020 M14/M20 A2991 RMK SC1 SLP145<br><br>
TAF CYYZ 201738Z 2018/2124 34020G30KT P6SM FEW060 BECMG 2100/2102 34025G35KT FM210400 34020G30KT P6SM SKC BECMG 2116/2118 32015G25KT RMK NXT FCST BY 202100Z<br><br>
<br><br>
TAF CYOO 201938Z 2020/2108 32015G30KT P6SM SKC RMK FCST BASED ON AUTO OBS. AUTO OBS REP NON-REPRESENTATIVE VIS. NXT FCST BY 210200Z<br><br>
<br><br>
CYTR 201900Z 32011G16KT 12SM OVC025 M15/M21 A2982 RMK SC8 SLP106<br><br>
TAF CYTR 201730Z 2018/2118 33015G25KT P6SM SCT025 BKN250 TEMPO 2018/2112 3SM -SHSN BLSN BKN025 BECMG 2104/2106 33012G22KT FM211200 33012G22KT P6SM SKC RMK NXT FCST BY 210000Z<br><br>
<br><br>
