RETRIEVED AT : Sep 07 2018 07:05 Local <br>
  RETRIEVED AT: Sep 07 2018 11:05 UTC<br><br>
CYSN has no TAF <br><br>
<br><br>
CYHM 071000Z CCA 03007KT 15SM BKN038 BKN250 16/14 A3023 RMK SC7CI1 CI TR SLP236 DENSITY ALT 800FT<br><br>
TAF CYHM 070541Z 0706/0806 03007KT P6SM SCT030 OVC230 FM071500 04010KT P6SM BKN230 RMK NXT FCST BY 071200Z<br><br>
<br><br>
KIAG 071053Z 06004KT 10SM CLR 17/16 A3022 RMK AO2 SLP231 T01670156<br><br>
KIAG 070953Z AUTO 07003KT 10SM CLR 17/16 A3022 RMK AO2 SLP230 T01720156<br><br>
KIAG 070908Z 0709/0806 07004KT P6SM BKN035 OVC250 FM071000 10005KT P6SM BKN250 FM071700 05007KT P6SM SCT250<br><br>
<br><br>
KBUF 071054Z 11005KT 10SM BKN230 18/17 A3022 RMK AO2 SLP231 T01780167<br><br>
KBUF 070954Z 09003KT 10SM BKN250 18/17 A3022 RMK AO2 SLP229 T01830172<br><br>
KBUF 070908Z 0709/0806 09005KT P6SM FEW035 BKN250 FM071700 06006KT P6SM SCT250<br><br>
<br><br>
CYYZ 071000Z CCA 35005KT 15SM FEW030 FEW050 SCT270 15/12 A3024 RMK SC1SC1CI4 SC TR SC TR SLP241<br><br>
TAF CYYZ 070838Z 0709/0812 36007KT P6SM SCT020 BKN260 TEMPO 0709/0715 BKN020 FM071500 36008KT P6SM BKN260 BECMG 0720/0722 36010G20KT RMK NXT FCST BY 071200Z<br><br>
<br><br>
CYOO 071000Z AUTO 34004KT 9SM BKN036 BKN044 15/12 A3024 RMK SLP242<br><br>
CYOO has no TAF <br><br>
<br><br>
CYTR 071000Z 01002KT 15SM FEW120 SCT250 11/11 A3025 RMK AC2CI2 SLP244<br><br>
TAF CYTR 070530Z 0706/0806 04005KT P6SM FEW120 BKN250 FM071700 VRB03KT P6SM SCT030 SCT250 BECMG 0718/0720 32005KT FM080200 02008KT P6SM BKN030 BKN250 RMK NXT FCST BY 071200Z<br><br>
<br><br>
