RETRIEVED AT : Mar 29 2020 12:05 Local <br>
  RETRIEVED AT: Mar 29 2020 16:05 UTC<br><br>
CYSN 291500Z 31002KT 10SM OVC034 13/13 A2952 RMK SC8 SLP000 DENSITY ALT 600FT<br><br>
TAF AMD CYSN 291351Z 2913/3001 10005KT WS005/20022KT P6SM SCT008 BKN040 OVC080 TEMPO 2913/2915 5SM -SHRA BR BKN007 OVC020 BECMG 2913/2915 18012KT FM291500 18012KT P6SM SCT015 OVC040 TEMPO 2915/2917 5SM SHRA BR BKN007 OVC015 PROB30 2915/2917 11/2SM TSRA BR BKN004 OVC010CB FM291700 23018G28KT P6SM BKN015 BKN040 TEMPO 2917/2920 SCT020 BKN040 BECMG 2918/2920 23020G35KT FM292000 23020G35KT P6SM SCT020 BKN040 TEMPO 2922/3001 P6SM -SHRA BKN020 BKN040 RMK NXT FCST BY 292000Z<br><br>
<br><br>
CYHM 291500Z 03004KT 1/8SM R12/1400FT/N FG VV002 05/05 A2955 RMK FG8 SLP013<br><br>
TAF AMD CYHM 291521Z 2915/3012 04008KT WS005/20020KT 1/8SM -RA FG VV001 TEMPO 2915/2916 1SM BR OVC003 FM291600 20008KT 3/4SM -SHRA BR OVC002 TEMPO 2916/2917 P6SM NSW SCT006 OVC015 BECMG 2916/2917 21012G22KT FM291700 21012G22KT P6SM BKN020 BKN040 TEMPO 2917/2921 SCT020 BKN040 BECMG 2917/2919 23020G38KT FM292100 23020G38KT P6SM BKN030 BKN050 TEMPO 2921/3003 P6SM -SHRA BKN020 OVC040 FM300300 23018G30KT P6SM -SHRA BKN020 OVC040 FM300600 23015G25KT P6SM -SHRA OVC015 RMK NXT FCST BY 291800Z<br><br>
<br><br>
KIAG 291553Z 21020G29KT 10SM OVC036 18/14 A2953 RMK AO2 PK WND 20029/1547 SLP003 T01830139<br><br>
KIAG 291453Z 19012KT 10SM OVC039 17/13 A2955 RMK AO2 SLP009 T01670133 58032<br><br>
KIAG 291509Z 2915/3012 19014KT P6SM VCSH OVC070 FM291800 23020G35KT 3SM TSRA OVC025CB FM291900 22020G35KT P6SM BKN040<br><br>
<br><br>
KBUF 291554Z 20023G32KT 10SM SCT046 BKN055 BKN100 21/14 A2955 RMK AO2 PK WND 20033/1529 SLP006 SHRA S-SE T02060139<br><br>
KBUF 291454Z 19016G20KT 10SM FEW049 BKN055 BKN075 OVC150 19/13 A2957 RMK AO2 PK WND 19026/1427 RAB27E42 SLP013 P0000 60000 T01890133 58029<br><br>
KBUF 291509Z 2915/3012 18017G25KT P6SM VCSH OVC060 FM291800 23020G35KT 3SM TSRA BKN020CB FM291900 24020G35KT P6SM BKN050<br><br>
<br><br>
CYYZ 291500Z 09016G21KT 070V130 5SM -RA BR OVC002 06/06 A2955 RMK ST8 SLP012<br><br>
CYYZ 291437Z 09014G21KT 1 1/4SM -RA BR OVC002 06/06 A2956 RMK FG2ST6 PRESFR SLP016<br><br>
CYYZ 291417Z 10011G22KT 2 1/2SM -DZ BR OVC002 06/06 A2958 RMK ST8 SLP023<br><br>
TAF CYYZ 291438Z 2915/3018 11012KT 11/2SM -RA BR OVC002 TEMPO 2915/2917 6SM -DZ BR OVC004 PROB30 2915/2916 11/2SM +TSRA BR OVC004CB FM291700 17012KT P6SM SCT004 BKN020 TEMPO 2917/2919 5SM SHRA BR BKN004 OVC015 BECMG 2917/2919 23018G28KT FM291900 23018G28KT P6SM BKN025 BKN040 TEMPO 2919/2922 P6SM -SHRA BKN020 OVC040 BECMG 2919/2920 23020G35KT FM292200 23018G30KT P6SM SCT025 BKN040 TEMPO 3002/3004 BKN020 OVC040 FM300400 23015G25KT P6SM -SHRA OVC015 BECMG 3008/3010 24012G22KT BECMG 3016/3018 26015KT RMK NXT FCST BY 291800Z<br><br>
<br><br>
CYOO 291603Z AUTO 10011G19KT 5SM -RA BR SCT006 BKN018 OVC024 08/08 A2954 RMK TS/LTNG TEMPO UNAVBL SLP009<br><br>
CYOO 291554Z AUTO 10016G24KT 6SM -RA BR SCT006 BKN018 OVC023 08/08 A2955 RMK TS/LTNG TEMPO UNAVBL SLP010<br><br>
CYOO 291549Z AUTO 13014G22KT 3SM -RA BR SCT004 BKN010 BKN018 OVC024 08/08 A2955 RMK PRESRR TS/LTNG TEMPO UNAVBL SLP011<br><br>
CYOO 291536Z AUTO 10016G25KT 3SM -RA BR BKN004 OVC021 08/08 A2954 RMK PRESFR TS/LTNG TEMPO UNAVBL SLP007<br><br>
CYOO 291520Z AUTO 09018G23KT 080V180 2 1/2SM -RA BR OVC004 07/07 A2956 RMK TS/LTNG TEMPO UNAVBL SLP015<br><br>
CYOO 291513Z AUTO 12008G22KT 080V180 5SM -RA BR OVC004 07/07 A2958 RMK SLP021<br><br>
CYOO 291500Z AUTO 09016G23KT 9SM -RA OVC004 07/07 A2957 RMK SLP019<br><br>
CYOO 291457Z AUTO 09016G22KT 9SM -RA OVC004 07/07 A2958 RMK PRESFR SLP020<br><br>
CYOO 291443Z AUTO 10014G23KT 9SM OVC004 07/07 A2959 RMK SLP025<br><br>
TAF CYOO 291338Z 2914/3002 09018G28KT 3SM -RA BR OVC004 TEMPO 2914/2917 6SM -RA BR SCT004 OVC008 PROB30 2915/2917 2SM +TSRA BR SCT005 OVC010CB FM291700 17012KT 5SM -SHRA BR BKN005 OVC015 TEMPO 2917/2920 P6SM NSW BKN020 BECMG 2918/2920 23018G30KT FM292000 23018G30KT P6SM BKN020 BKN040 TEMPO 2920/2924 SCT020 BKN040 FM300000 23015G25KT P6SM BKN030 TEMPO 3000/3002 BKN020 RMK FCST BASED ON AUTO OBS. NXT FCST BY 292000Z<br><br>
<br><br>
CYTR 291500Z 10006KT 3SM -RA BR OVC005 07/07 A2967 RMK SF8 VIS VRB 2 1/4-4 PRESFR CIG VRB 3-7 SLP051<br><br>
TAF AMD CYTR 291411Z 2914/3012 10012KT 6SM -RA BR OVC010 TEMPO 2914/2917 2SM -SHRA BR OVC005 PROB30 2914/2917 1SM TSRA BR OVC003CB FM291700 13012G22KT 5SM -RA BR SCT005 OVC010 TEMPO 2917/2921 1SM SHRA BR OVC005 PROB40 2917/2921 VRB15G25KT 1/2SM +TSRA FG BKN005 OVC015CB FM292100 22015G25KT P6SM SCT015 OVC040 TEMPO 2921/2924 6SM -SHRA BR BKN015 OVC040 FM300300 24015KT P6SM OVC015 FM300800 23012KT 6SM -RA BR OVC010 RMK NXT FCST BY 291800Z<br><br>
<br><br>
