RETRIEVED AT : Oct 29 2017 15:10 Local <br>
  RETRIEVED AT: Oct 29 2017 19:10 UTC<br><br>
CYSN 291900Z 04007KT 350V050 15SM -RA SCT030 OVC073 07/05 A2969 RMK SC3AC5 SLP057<br><br>
CYSN 291827Z 00000KT 8SM -RA FEW016 OVC022 07/05 A2971 RMK SF1SC7 CIG RAG PRESFR SLP065<br><br>
CYSN 291800Z 09004KT 12SM FEW015 OVC024 07/05 A2971 RMK CF2SC6 PRESFR SLP066<br><br>
TAF CYSN 291238Z 2913/3001 13005KT P6SM SCT020 OVC050 TEMPO 2913/2924 P6SM -SHRA OVC020 BECMG 2916/2918 04010KT FM300000 01012G22KT P6SM OVC025 TEMPO 3000/3001 5SM -SHRA BR OVC010 RMK NXT FCST BY 292000Z<br><br>
<br><br>
CYHM 291900Z 36008KT 15SM FEW022 SCT034 OVC051 08/02 A2969 RMK CU2SC1SC5 SLP062<br><br>
CYHM 291800Z 35006KT 15SM FEW021 BKN050 BKN070 07/03 A2972 RMK CU2SC4AC1 SLP072<br><br>
TAF CYHM 291738Z 2918/3018 VRB03KT P6SM FEW020 BKN050 TEMPO 2918/2923 P6SM -SHRA BKN020 BECMG 2918/2920 35008KT FM292300 35008KT P6SM SCT025 BKN060 BECMG 3006/3008 31015KT FM301200 27015KT WS005/29035KT P6SM FEW025 BECMG 3014/3016 25020G35KT RMK NXT FCST BY 300000Z<br><br>
<br><br>
KIAG 291853Z 36006KT 9SM -RA BKN027 OVC040 07/04 A2969 RMK AO2 SLP062 P0005 T00720039<br><br>
KIAG 291753Z 03006KT 6SM -RA BKN027 OVC040 07/04 A2971 RMK AO2 RAB13 SLP070 P0004 60009 T00720039 10072 20061 58015<br><br>
KIAG 291741Z 03005KT 8SM -RA BKN028 OVC040 07/04 A2972 RMK AO2 RAB13 P0002 T00720039<br><br>
KIAG 291732Z 2918/3018 02008KT 6SM -SHRA OVC025 FM292100 36010KT 6SM -RA OVC015 FM300400 32015G25KT P6SM BKN025 FM301000 29020G30KT P6SM SCT040 FM301600 26025G35KT P6SM BKN040<br><br>
<br><br>
KBUF 291854Z 34008KT 10SM -RA BKN008 BKN026 OVC039 06/06 A2967 RMK AO2 CIG 004V013 SLP053 P0005 T00610056<br><br>
KBUF 291833Z 35008KT 8SM -RA FEW005 BKN008 OVC040 06/05 A2968 RMK AO2 P0004 T00610050<br><br>
KBUF 291754Z 02006KT 7SM -RA SCT008 BKN043 OVC050 06/05 A2971 RMK AO2 SLP065 P0003 60012 T00610050 10061 20050 58016<br><br>
KBUF 291714Z 02005KT 10SM -RA SCT008 OVC037 06/05 A2974 RMK AO2 P0000 T00610050<br><br>
KBUF 291732Z 2918/3018 02006KT P6SM SCT008 OVC025 FM292100 35008KT 6SM -RA OVC008 FM300200 33012KT 6SM -SHRA OVC015 FM300600 30015G25KT P6SM BKN025 FM301200 27020G30KT P6SM SCT040 FM301600 25025G40KT P6SM BKN040<br><br>
<br><br>
CYYZ 291900Z 36007KT 15SM FEW025 OVC050 08/01 A2971 RMK CU1SC7 SLP066<br><br>
CYYZ 291800Z 03005KT 15SM FEW025 BKN055 OVC085 08/01 A2973 RMK CU1SC5AC2 SLP075<br><br>
TAF CYYZ 291738Z 2918/3024 VRB03KT P6SM SCT020 BKN060 TEMPO 2918/2922 P6SM -SHRA BKN020 BECMG 2919/2921 35008KT FM292200 35010KT P6SM FEW020 BKN060 BECMG 3003/3005 30015G25KT BECMG 3012/3014 30020G35KT FM301600 27020G35KT P6SM BKN030 FM302200 28018G28KT P6SM -SHRA OVC030 RMK NXT FCST BY 292100Z<br><br>
<br><br>
CYOO 291908Z AUTO 36007KT 9SM BKN060 OVC077 07/03 A2970 RMK PRESFR SLP063<br><br>
CYOO 291900Z AUTO 36006KT 360V080 9SM -RA FEW020 BKN060 OVC075 07/03 A2971 RMK SLP066<br><br>
CYOO 291824Z AUTO 02008KT 9SM -RA FEW050 SCT070 OVC081 07/03 A2972 RMK PRESFR SLP068<br><br>
CYOO 291800Z AUTO 02004KT 360V070 9SM OVC050 07/03 A2975 RMK SLP078<br><br>
CYOO has no TAF <br><br>
<br><br>
CYTR 291900Z 35006KT 10SM SHRA SCT008 BKN025 OVC045 07/07 A2969 RMK SF3SC3SC2 SLP058<br><br>
CYTR 291800Z 36004KT 10SM -SHRA FEW006 BKN025 OVC045 07/06 A2972 RMK SF2SC5SC2 SLP069<br><br>
TAF CYTR 291730Z 2918/3018 01006KT P6SM -SHRA FEW008 OVC020 TEMPO 2918/2921 SCT020 OVC040 FM292100 01010KT P6SM -SHRA FEW008 OVC020 TEMPO 2921/2924 5SM -SHRA BR OVC012 FM300000 34012G22KT 6SM -SHRA BR OVC020 TEMPO 3000/3006 3SM -SHRA BR OVC010 FM300600 33018KT 6SM -SHRA BR SCT008 OVC012 FM301400 28022G32KT P6SM SCT020 BKN040 RMK NXT FCST BY 300000Z<br><br>
<br><br>
