RETRIEVED AT : Sep 06 2019 15:05 Local <br>
  RETRIEVED AT: Sep 06 2019 19:05 UTC<br><br>
CYSN 061800Z 04011KT 15SM -SHRA FEW025 SCT065 BKN099 20/15 A2988 RMK CU2SC2ACC3 SLP121 DENSITY ALT 1100FT<br><br>
CYSN 061746Z 03010KT 15SM -SHRA FEW025 SCT065 BKN110 20/15 A2988 RMK CU2SC2ACC2 SLP121 DENSITY ALT 1100FT<br><br>
TAF CYSN 061243Z 0613/0701 VRB03KT P6SM FEW120 SCT220 FM061500 05006KT P6SM BKN100 FM061700 03012KT P6SM OVC070 TEMPO 0617/0620 P6SM -SHRA FM062000 04010KT P6SM BKN060 BECMG 0623/0701 VRB03KT RMK NXT FCST BY 062000Z<br><br>
<br><br>
CYHM 061847Z 06007KT 15SM FEW030 SCT052 BKN110 17/15 A2989 RMK CU1SC2AC4 SLP125 DENSITY ALT 1300FT<br><br>
CYHM 061812Z 04008KT 15SM -SHRA FEW029 BKN042 OVC110 18/13 A2990 RMK CU2SC3AC3 SLP129 DENSITY ALT 1300FT<br><br>
CYHM 061800Z 06009KT 15SM FEW027 SCT044 BKN110 18/13 A2991 RMK CU1SC3AC3 SLP131 DENSITY ALT 1400FT<br><br>
TAF CYHM 061738Z 0618/0718 04010KT P6SM FEW030 BKN050 OVC100 TEMPO 0618/0621 P6SM -SHRA FM062100 05010KT P6SM BKN060 BECMG 0700/0702 VRB03KT FM070600 VRB03KT P6SM BKN030 FM070900 VRB03KT 6SM BR FEW008 BKN015 PROB30 0709/0713 11/2SM BR FM071500 27008KT P6SM BKN020 FM071700 28012KT P6SM BKN030 RMK NXT FCST BY 070000Z<br><br>
<br><br>
KIAG 061853Z 05009KT 10SM FEW026 BKN060 OVC110 21/13 A2987 RMK AO2 RAB14E51 SLP117 P0000 T02110133<br><br>
KIAG 061753Z VRB04KT 10SM FEW110 22/11 A2989 RMK AO2 SLP120 T02170111 10222 20122 56013<br><br>
KIAG 061734Z 0618/0718 04005KT P6SM FEW040 BKN060 FM062100 03008KT P6SM BKN080 FM070100 02004KT P6SM SCT080 FM071000 29004KT P6SM SCT060 FM071100 29005KT P6SM BKN045<br><br>
<br><br>
KBUF 061854Z 36008KT 10SM FEW042 BKN110 22/12 A2987 RMK AO2 SLP114 VIRGA DSNT NW-NE T02220117<br><br>
KBUF 061757Z 06004KT 10SM FEW046 BKN130 BKN250 23/11 A2989 RMK AO2 T02280106<br><br>
KBUF 061754Z 10SM FEW046 BKN130 BKN250 23/11 A2989 RMK AO2 SLP120 T02280111 10233 20133 56013<br><br>
KBUF 061734Z 0618/0718 00000KT P6SM FEW045 BKN060 FM070200 01004KT P6SM SCT080 FM071100 26004KT P6SM BKN050 FM071300 27005KT P6SM BKN030<br><br>
<br><br>
CYYZ 061800Z 12005KT 15SM -RA FEW030 BKN100 OVC120 19/14 A2992 RMK CF1AC7AC1 CF TR SLP133 DENSITY ALT 1200FT<br><br>
TAF CYYZ 061738Z 0618/0724 08012KT P6SM SCT040 BKN100 TEMPO 0618/0620 P6SM -SHRA FM062000 05010KT P6SM BKN060 FM070300 01008KT P6SM SCT030 BKN060 FM070900 33007KT 6SM BR BKN020 PROB30 0709/0712 11/2SM BR FM071500 31010KT P6SM BKN030 FM071900 30012G22KT P6SM -SHRA BKN040 FM072300 30012KT P6SM SCT040 RMK NXT FCST BY 062100Z<br><br>
<br><br>
CYOO 061902Z AUTO VRB02KT 9SM OVC100 17/15 A2991 RMK SLP130 DENSITY ALT 800FT<br><br>
CYOO 061800Z AUTO 14005KT 9SM -RA BKN100 OVC120 18/13 A2991 RMK SLP131 DENSITY ALT 900FT<br><br>
CYOO 061749Z AUTO 14005KT 9SM -RA OVC110 19/13 A2991 RMK SLP131 DENSITY ALT 1000FT<br><br>
TAF CYOO 061338Z 0614/0702 VRB03KT P6SM BKN150 FM061600 02007KT P6SM OVC090 TEMPO 0616/0620 P6SM -SHRA OVC070 FM062000 01007KT P6SM BKN050 RMK FCST BASED ON AUTO OBS. NXT FCST BY 062000Z<br><br>
<br><br>
CYTR 061800Z 10006KT 15SM FEW041 FEW081 SCT140 22/12 A2991 RMK CU2AC1AC1 SENT VIA CYCX SLP129<br><br>
TAF CYTR 061732Z 0618/0718 09005KT P6SM FEW030 SCT120 TEMPO 0620/0622 P6SM -SHRA BKN030 OVC120 FM062200 03008KT P6SM BKN050 OVC080 FM070400 34005KT P6SM SCT020 BKN050 PROB30 0706/0710 3/4SM BR RMK NXT FCST BY 070000Z<br><br>
<br><br>
