RETRIEVED AT : May 30 2020 06:05 Local <br>
  RETRIEVED AT: May 30 2020 10:05 UTC<br><br>
CYSN has no TAF <br><br>
<br><br>
CYHM 300900Z CCA 20002KT 15SM MIFG FEW050 10/10 A2996 RMK SC1 SLP149<br><br>
TAF AMD CYHM 300547Z 3006/3106 24005KT P6SM FEW050 FM300800 23005KT P6SM BKN030 TEMPO 3008/3015 BKN020 BECMG 3012/3014 28012KT FM301500 30012G22KT P6SM BKN030 TEMPO 3015/3017 BKN020 FM301700 30015G25KT P6SM BKN040 FM310100 32010KT P6SM FEW040 RMK NXT FCST BY 301200Z<br><br>
<br><br>
KIAG 300953Z AUTO 23003KT 10SM FEW095 11/11 A2996 RMK AO2 SLP149 T01110106 $<br><br>
KIAG 300853Z AUTO 24008KT 10SM BKN090 12/11 A2996 RMK AO2 SLP146 T01170106 51005 $<br><br>
KIAG 300909Z 3009/3106 24007KT P6SM SCT060 FM301200 23006KT P6SM VCSH BKN040 FM301500 25012KT P6SM VCSH BKN035 FM301900 27015G23KT P6SM BKN050 FM310000 31012KT P6SM SCT060<br><br>
<br><br>
KBUF 300954Z 21006KT 10SM SCT095 SCT200 11/11 A2997 RMK AO2 SLP150 T01060106 $<br><br>
KBUF 300854Z 24007KT 10SM FEW006 SCT090 11/11 A2997 RMK AO2 SLP149 T01110111 51006 $<br><br>
KBUF 300838Z 24008KT 10SM FEW006 FEW090 11/11 A2997 RMK AO2 T01110111 $<br><br>
KBUF 300909Z 3009/3106 23006KT P6SM SCT060 FM301200 22006KT P6SM VCSH BKN040 FM301500 24012KT P6SM VCSH BKN035 FM301900 25015G23KT P6SM BKN050 FM310000 30012KT P6SM SCT060<br><br>
<br><br>
CYYZ 300900Z 23004KT 15SM BKN090 12/10 A2995 RMK AC7 SLP144<br><br>
TAF CYYZ 300838Z 3009/3112 24005KT P6SM BKN030 TEMPO 3009/3015 BKN020 BECMG 3012/3014 27010G20KT FM301700 29015G25KT P6SM BKN050 FM310100 34012KT P6SM SCT040 BECMG 3101/3103 34006KT FM311100 35012KT P6SM SKC RMK NXT FCST BY 301200Z<br><br>
<br><br>
CYOO 300900Z AUTO 28004KT 9SM OVC100 12/11 A2994 RMK SLP142<br><br>
TAF CYOO 300738Z 3008/3020 25010KT P6SM BKN015 TEMPO 3008/3017 SCT015 FM301700 28012G22KT P6SM BKN030 BECMG 3018/3020 31015G25KT RMK FCST BASED ON AUTO OBS. NXT FCST BY 301400Z<br><br>
<br><br>
CYTR 300900Z 28002KT 15SM FEW020 12/11 A2992 RMK SC1 SLP131<br><br>
TAF CYTR 300530Z 3006/3106 29008KT P6SM FEW012 SCT030 BKN090 TEMPO 3006/3010 5SM -DZ BR FEW003 BKN012 OVC030 PROB30 3006/3010 2SM -DZ BR BKN003 OVC012 FM301000 25008KT P6SM FEW012 BKN040 TEMPO 3010/3015 P6SM -SHRA BKN012 OVC040 FM301600 22010KT 5SM -SHRA BR BKN015 OVC040 TEMPO 3016/3021 P6SM NSW SCT015 BKN040 FM302100 28012G22KT P6SM SCT015 BKN040 BECMG 3100/3102 34010KT FEW040 RMK NXT FCST BY 301200Z<br><br>
<br><br>
