RETRIEVED AT : Apr 06 2020 02:05 Local <br>
  RETRIEVED AT: Apr 06 2020 06:05 UTC<br><br>
CYSN has no TAF <br><br>
<br><br>
CYHM 060500Z 35004KT 15SM FEW250 03/M01 A3013 RMK CC1 CC TR SLP211<br><br>
TAF CYHM 060538Z 0606/0706 VRB03KT P6SM SKC BECMG 0617/0619 25008KT FM062100 25008KT P6SM BKN100 OVC200 BECMG 0702/0704 VRB03KT RMK NXT FCST BY 061200Z<br><br>
<br><br>
KIAG 060553Z AUTO 00000KT 10SM CLR 01/M01 A3013 RMK AO2 SLP215 T00111006 10067 20006 51003<br><br>
KIAG 060453Z AUTO 00000KT 10SM CLR 03/00 A3013 RMK AO2 SLP213 T00280000 401000017<br><br>
KIAG 060539Z 0606/0706 22004KT P6SM FEW250 FM061600 26004KT P6SM FEW250 FM062200 23006KT P6SM BKN200 FM070200 20005KT P6SM BKN100<br><br>
<br><br>
KBUF 060554Z 00000KT 10SM CLR 03/01 A3013 RMK AO2 SLP209 T00280011 10067 20028 51001<br><br>
KBUF 060454Z 22004KT 10SM CLR 03/01 A3013 RMK AO2 SLP208 T00330011 401170033<br><br>
KBUF 060539Z 0606/0706 22007KT P6SM FEW250 FM062200 23007KT P6SM BKN200 FM070100 21005KT P6SM BKN100<br><br>
<br><br>
CYYZ 060500Z 03008KT 15SM SKC 02/M01 A3014 RMK SLP212<br><br>
CYYZ 060413Z 03006KT 15SM SKC 02/M01 A3013 RMK SLP211<br><br>
TAF CYYZ 060538Z 0606/0712 03008KT P6SM SKC BECMG 0611/0613 32006KT FM061600 15006G16KT P6SM SCT150 FM062100 18006G16KT P6SM BKN100 OVC200 BECMG 0623/0701 VRB03KT BECMG 0701/0703 34009KT FM070500 04007KT P6SM BKN100 RMK NXT FCST BY 060900Z<br><br>
<br><br>
CYOO 060500Z AUTO 34012KT 9SM CLR 02/M01 A3012 RMK SLP206<br><br>
TAF CYOO 060138Z 0602/0614 31006KT P6SM SKC RMK FCST BASED ON AUTO OBS. NXT FCST BY 060800Z<br><br>
<br><br>
CYTR 060500Z 33008KT 15SM SKC 04/00 A3010 RMK SLP196<br><br>
TAF CYTR 060530Z 0606/0706 33008KT P6SM SKC BECMG 0609/0611 VRB03KT BECMG 0616/0618 21012KT FM062000 21012KT P6SM FEW120 BKN200 FM070000 24005KT P6SM BKN080 BECMG 0701/0703 28005KT RMK NXT FCST BY 061200Z<br><br>
<br><br>
