RETRIEVED AT : Oct 26 2018 10:05 Local <br>
  RETRIEVED AT: Oct 26 2018 14:05 UTC<br><br>
CYSN 261300Z 12008KT 15SM SCT036 BKN070 OVC140 05/02 A3005 RMK SC3AC4AC1 SLP181<br><br>
TAF CYSN 261238Z 2613/2701 14006KT P6SM SCT040 OVC130 TEMPO 2613/2622 BKN040 OVC100 BECMG 2615/2617 09012KT FM262200 09010G20KT P6SM BKN060 OVC080 RMK NXT FCST BY 262000Z<br><br>
<br><br>
CYHM 261300Z 05005KT 12SM SCT024 BKN130 BKN250 03/03 A3003 RMK SC3AC2CI2 SLP179<br><br>
TAF CYHM 261138Z 2612/2712 04006KT P6SM SCT130 BKN230 FM261500 06007KT P6SM SCT025 OVC100 TEMPO 2615/2619 BKN025 OVC100 BECMG 2616/2617 08010G20KT FM270500 07012G22KT 6SM -SHRA BR BKN012 OVC025 FM270900 06015G25KT 11/2SM RA BR OVC004 RMK NXT FCST BY 261800Z<br><br>
<br><br>
KIAG 261353Z 14008KT 10SM OVC065 05/M01 A3006 RMK AO2 SLP190 T00501006<br><br>
KIAG 261253Z 11005KT 10SM BKN065 04/00 A3006 RMK AO2 SLP188 T00390000<br><br>
KIAG 261130Z 2612/2712 14004KT P6SM BKN060 FM261600 10009KT P6SM BKN070 FM262300 08014KT P6SM OVC080 FM271100 08013KT 6SM -RA OVC070<br><br>
<br><br>
KBUF 261354Z COR 14008KT 10SM BKN065 OVC130 05/M01 A3006 RMK AO2 SLP186 CIG HYR SE-SW-W T00501006<br><br>
KBUF 261254Z 14006KT 10SM FEW032 BKN130 BKN250 03/M01 A3006 RMK AO2 SLP185 T00331006<br><br>
KBUF 261130Z 2612/2712 13005KT P6SM BKN120 FM261600 11009KT P6SM BKN090 FM262000 09012KT P6SM OVC070 FM270800 08011KT P6SM -RA OVC070<br><br>
<br><br>
CYYZ 261300Z 09006KT 15SM FEW045 BKN062 BKN090 BKN250 06/03 A3005 RMK CU1SC5AC1CI1 CU TR SLP183<br><br>
TAF CYYZ 261138Z 2612/2718 09006KT P6SM BKN060 OVC100 TEMPO 2612/2617 P6SM -SHRA BKN020 OVC060 BECMG 2616/2617 12010KT FM261900 09012G22KT P6SM SCT025 OVC090 TEMPO 2623/2708 P6SM -SHRA BKN025 OVC090 FM270800 07010G20KT 6SM -RA BR BKN012 OVC025 FM271100 06012G22KT 3SM RA BR BKN006 OVC012 FM271700 06015G25KT 6SM -RA BR SCT006 OVC012 RMK NXT FCST BY 261500Z<br><br>
<br><br>
CYOO 261300Z AUTO 09009KT 9SM BKN027 OVC070 04/M00 A3008 RMK SLP191<br><br>
CYOO has no TAF <br><br>
<br><br>
CYTR 261300Z 05005KT 15SM OVC032 03/M02 A3012 RMK SC8 SLP206<br><br>
TAF CYTR 261130Z 2612/2712 06005KT P6SM OVC030 TEMPO 2614/2618 P6SM -SHRA BECMG 2614/2616 08010KT FM261800 12012KT P6SM BKN030 OVC080 TEMPO 2618/2702 P6SM -SHRA BECMG 2702/2704 07012KT RMK NXT FCST BY 261800Z<br><br>
<br><br>
