RETRIEVED AT : Sep 18 2017 12:39 Local <br>
  RETRIEVED AT: Sep 18 2017 16:39 UTC<br><br>
CYSN 181600Z 17004KT 140V310 15SM SCT110 BKN200 27/20 A3006 RMK AC3CI4 SLP180 DENSITY ALT 1600FT<br><br>
CYSN 181500Z 20004KT 140V220 15SM FEW160 OVC240 24/20 A3007 RMK AC2CI6 SLP182 DENSITY ALT 1400FT<br><br>
TAF CYSN 181238Z 1813/1901 VRB03KT P6SM FEW100 BKN200 TEMPO 1813/1814 4SM BR FM181700 35005KT P6SM BKN050 PROB30 1820/1823 VRB15G30KT 2SM TSRA BR BKN015 OVC030CB RMK NXT FCST BY 182000Z<br><br>
<br><br>
CYHM 181600Z 15006KT 15SM FEW180 BKN220 25/20 A3009 RMK AC2CS5 HALO SLP187 DENSITY ALT 1900FT<br><br>
CYHM 181500Z 19004KT 140V250 15SM SCT200 BKN220 24/20 A3009 RMK CI4CI2 SLP187 DENSITY ALT 1800FT<br><br>
TAF CYHM 181138Z 1812/1912 VRB03KT 6SM BR BKN220 TEMPO 1812/1814 4SM BR FM181400 VRB03KT P6SM BKN200 BECMG 1814/1816 19008KT FM190000 26006KT P6SM FEW050 BKN140 FM190300 04005KT 6SM BR FEW050 BKN110 FM190500 03005KT 3SM BR FEW004 SCT050 BKN110 PROB30 1905/1908 1/2SM FG VV002 FM190800 03005KT 1/2SM FG VV002 RMK NXT FCST BY 181800Z<br><br>
<br><br>
KIAG 181553Z 00000KT 10SM CLR 27/19 A3008 RMK AO2 SLP180 T02670189<br><br>
KIAG 181453Z VRB03KT 10SM CLR 25/19 A3008 RMK AO2 SLP182 T02500189 50000<br><br>
KIAG 181429Z 1814/1912 20003KT P6SM SCT100 FM181600 22005KT P6SM SCT040 FM182300 VRB03KT P6SM BKN040 FM190700 00000KT 3SM BR BKN025<br><br>
<br><br>
KBUF 181554Z 00000KT 10SM FEW029 FEW110 BKN260 26/18 A3009 RMK AO2 SLP185 T02560183<br><br>
KBUF 181454Z 24004KT 10SM FEW026 FEW110 BKN260 25/18 A3009 RMK AO2 SLP185 T02500183 58001<br><br>
KBUF 181429Z 1814/1912 19004KT P6SM SCT100 FM181700 24006KT P6SM SCT040 FM182300 VRB03KT P6SM BKN040 FM190700 00000KT 3SM BR BKN025<br><br>
<br><br>
CYYZ 181600Z 14008KT 10SM FEW100 BKN150 BKN240 24/19 A3007 RMK AC2AC3CI2 SLP184 DENSITY ALT 1600FT<br><br>
CYYZ 181500Z 17005KT 100V200 10SM FEW090 BKN140 BKN240 24/19 A3007 RMK AC2AC3CI2 SLP183 DENSITY ALT 1600FT<br><br>
TAF CYYZ 181438Z 1815/1918 13005KT P6SM BKN120 FM181700 18007KT P6SM BKN050 FM182000 20010KT P6SM -SHRA OVC040 PROB30 1820/1901 VRB15G25KT 1SM +TSRA BR BKN008 OVC030CB FM190100 05007KT P6SM SCT010 BKN050 TEMPO 1901/1905 5SM BR BKN010 FM190500 VRB03KT 3SM BR SCT003 BKN008 PROB30 1905/1914 1/2SM FG BKN002 FM191400 14005KT P6SM BKN010 FM191700 15010KT P6SM -SHRA BKN030 RMK NXT FCST BY 181800Z<br><br>
<br><br>
CYOO 181612Z AUTO 18006KT 9SM CLR 24/18 A3008 RMK SLP186 DENSITY ALT 1400FT<br><br>
CYOO 181602Z AUTO 14005KT 110V180 4SM HZ CLR 24/18 A3008 RMK SLP186 DENSITY ALT 1400FT<br><br>
CYOO 181600Z AUTO 14006KT 110V180 6SM HZ CLR 24/18 A3008 RMK SLP186 DENSITY ALT 1400FT<br><br>
CYOO 181500Z AUTO 13003KT 090V150 9SM CLR 23/19 A3008 RMK SLP186 DENSITY ALT 1300FT<br><br>
CYOO has no TAF <br><br>
<br><br>
CYTR 181600Z 07002KT 15SM BKN260 25/21 A3008 RMK CI6 SLP187<br><br>
CYTR 181500Z 11004KT 15SM SCT260 22/20 A3009 RMK CI3 SLP189<br><br>
TAF CYTR 181130Z 1812/1912 VRB03KT 6SM BR SCT260 TEMPO 1812/1814 2SM BR FM181400 VRB03KT P6SM SCT040 BKN200 BECMG 1816/1818 16008KT FM190000 VRB03KT P6SM SCT040 TEMPO 1904/1912 3SM BR RMK NXT FCST BY 181800Z<br><br>
<br><br>
