RETRIEVED AT : Oct 26 2018 17:05 Local <br>
  RETRIEVED AT: Oct 26 2018 21:05 UTC<br><br>
CYSN 262000Z 09011KT 15SM FEW090 OVC250 09/02 A2995 RMK AC2CI6 SLP145<br><br>
TAF CYSN 261938Z 2620/2701 09012KT P6SM FEW040 SCT130 OVC250 TEMPO 2620/2622 SCT040 OVC130 FM262200 09010G20KT P6SM SCT060 BKN080 OVC130 RMK NXT FCST WILL BE ISSUED AT 271245Z<br><br>
<br><br>
CYHM 262000Z 06015KT 15SM FEW025 OVC088 07/02 A2993 RMK CF1AC7 SLP144<br><br>
TAF CYHM 261738Z 2618/2718 08012KT P6SM FEW030 SCT090 OVC120 BECMG 2618/2620 08010G20KT FM270300 07012G22KT P6SM OVC025 TEMPO 2703/2708 P6SM -RA OVC015 FM270800 06015G25KT 3SM -RA BR SCT004 OVC010 FM271000 06015G25KT 2SM -RA BR OVC004 FM271700 06015G25KT 4SM -RA BR OVC006 RMK NXT FCST BY 270000Z<br><br>
<br><br>
KIAG 262053Z 11013KT 10SM SCT110 08/00 A2994 RMK AO2 SLP150 T00780000 56017<br><br>
KIAG 261953Z 10011KT 10SM SCT110 08/01 A2995 RMK AO2 SLP150 T00830006<br><br>
KIAG 261737Z 2618/2718 12009KT P6SM BKN110 FM270100 08012G18KT P6SM OVC060 FM270500 08011G20KT 6SM -RA OVC050 FM270900 08012G20KT 6SM -RA OVC025 FM271400 06013G26KT 6SM -RA OVC007<br><br>
<br><br>
KBUF 262054Z 10011KT 10SM FEW065 BKN110 BKN140 OVC220 08/00 A2994 RMK AO2 SLP145 VIRGA VC NE T00780000 56017<br><br>
KBUF 261954Z 10015KT 10SM FEW070 BKN110 BKN160 BKN240 08/01 A2995 RMK AO2 SLP147 VIRGA OHD-ALQDS T00830006<br><br>
KBUF 261737Z 2618/2718 10014KT P6SM BKN170 FM262100 10010G16KT P6SM OVC070 FM270500 08010G18KT 6SM -RA OVC045 FM270800 08011G18KT 6SM -RA OVC025 FM271400 06012G24KT 6SM -RA OVC007<br><br>
<br><br>
CYYZ 262000Z 08014KT 15SM FEW030 FEW062 BKN092 BKN250 06/00 A2997 RMK CF1SC1AC4CI2 CF TR SLP157<br><br>
TAF CYYZ 262038Z 2621/2724 08012G22KT P6SM FEW030 OVC090 TEMPO 2702/2706 P6SM -SHRA BKN030 OVC090 FM270600 07010G20KT P6SM -RA OVC015 TEMPO 2706/2709 OVC025 FM271100 06012G22KT 6SM -RA BR SCT006 OVC012 PROB30 2711/2715 OVC006 FM271700 06015G25KT P6SM -RA FEW009 OVC015 FM272200 04010G20KT 4SM -RASN BR OVC008 RMK NXT FCST BY 270000Z<br><br>
<br><br>
CYOO 262059Z AUTO 09017G22KT 9SM SCT023 BKN070 BKN110 06/02 A3000 RMK SLP166<br><br>
CYOO 262020Z AUTO 08008G19KT 9SM BKN023 OVC070 06/02 A3001 RMK SLP168<br><br>
CYOO 262000Z AUTO 11015G22KT 9SM SCT023 OVC070 07/02 A3001 RMK SLP169<br><br>
CYOO 261959Z AUTO 10014G22KT 9SM SCT023 OVC070 06/02 A3001 RMK SLP169<br><br>
CYOO 261925Z AUTO 11014G20KT 9SM BKN023 BKN070 BKN110 07/02 A3002 RMK SLP172<br><br>
CYOO has no TAF <br><br>
<br><br>
CYTR 262000Z 10007KT 15SM BKN030 BKN084 05/M02 A3008 RMK SC5AC2 SLP189<br><br>
TAF CYTR 261730Z 2618/2718 10008KT P6SM SCT020 OVC050 TEMPO 2618/2621 BKN020 OVC050 FM270000 07010KT P6SM SCT010 BKN080 TEMPO 2712/2718 5SM -SHRA BR BKN010 OVC080 BECMG 2712/2714 05012G22KT RMK NXT FCST BY 270000Z<br><br>
<br><br>
