RETRIEVED AT : May 11 2018 16:05 Local <br>
  RETRIEVED AT: May 11 2018 20:05 UTC<br><br>
CYSN 111900Z 13003KT 15SM OVC240 10/M03 A3019 RMK CI8 SLP227<br><br>
TAF CYSN 111938Z 1120/1201 VRB03KT P6SM BKN150 OVC220 FM112300 04005KT P6SM OVC120 TEMPO 1123/1201 P6SM -SHRA RMK NXT FCST WILL BE ISSUED AT 121245Z<br><br>
<br><br>
CYHM 111900Z 21006KT 130V230 15SM BKN160 OVC190 10/01 A3017 RMK AC5AS3 SUN DIMLY VSBL SLP225<br><br>
TAF CYHM 111738Z 1118/1218 06008KT P6SM BKN150 BKN220 FM112200 06010KT P6SM OVC120 TEMPO 1122/1205 P6SM -SHRA FM120500 06008KT P6SM -SHRA OVC050 FM120800 05010KT P6SM -SHRA OVC030 FM121100 04012KT 11/2SM -RA BR SCT004 OVC008 FM121400 04015KT P6SM SCT008 OVC015 FM121700 05015KT P6SM BKN050 RMK NXT FCST BY 120000Z<br><br>
<br><br>
KIAG 111953Z 31005KT 10SM CLR 12/M02 A3016 RMK AO2 SLP221 T01221017<br><br>
KIAG 111853Z 30004KT 10SM CLR 12/M03 A3019 RMK AO2 SLP230 T01171028<br><br>
KIAG 111730Z 1118/1218 VRB03KT P6SM BKN120 FM120300 VRB03KT P6SM VCSH OVC080 FM120500 VRB03KT P6SM -RA VCSH OVC050 FM120800 08005KT 6SM -RA OVC045 FM121400 05007KT P6SM OVC030<br><br>
<br><br>
KBUF 111954Z 03007KT 10SM FEW050 FEW120 OVC170 14/01 A3016 RMK AO2 SLP215 VIRGA DSNT SE-SW-W T01390006<br><br>
KBUF 111854Z 33004KT 10SM FEW045 FEW120 OVC180 14/02 A3018 RMK AO2 SLP222 VIRGA DSNT SE-SW-W T01390017<br><br>
KBUF 111730Z 1118/1218 25003KT P6SM BKN120 FM120100 06004KT P6SM OVC080 FM120300 VRB03KT P6SM VCSH OVC060 FM120500 10004KT 6SM -RA OVC050 FM121300 09007KT 6SM -RA OVC030 FM121500 05008KT P6SM OVC025<br><br>
<br><br>
CYYZ 111900Z 16009KT 15SM BKN190 OVC230 10/M01 A3018 RMK AC6CI2 SLP224<br><br>
TAF CYYZ 111738Z 1118/1224 15010KT P6SM BKN150 BKN220 BECMG 1123/1201 17007KT FM120400 07005KT P6SM OVC080 FM120800 06005KT P6SM -SHRA OVC050 FM121100 05010KT P6SM -RA BKN015 OVC030 FM121400 05010KT P6SM BKN030 FM121700 11008KT P6SM FEW015 SCT050 RMK NXT FCST BY 112100Z<br><br>
<br><br>
CYOO 111900Z AUTO 19008KT 9SM CLR 09/M03 A3018 RMK SLP226<br><br>
CYOO has no TAF <br><br>
<br><br>
CYTR 111900Z 21013KT 15SM OVC090 08/M00 A3018 RMK AC8 SLP222<br><br>
TAF CYTR 111730Z 1118/1218 21010KT P6SM FEW160 OVC220 BECMG 1123/1201 VRB03KT FM120100 VRB03KT P6SM BKN200 FM120900 VRB03KT P6SM BKN100 BECMG 1214/1216 09008KT SCT180 RMK NXT FCST BY 120000Z<br><br>
<br><br>
