RETRIEVED AT : Mar 27 2020 07:05 Local <br>
  RETRIEVED AT: Mar 27 2020 11:05 UTC<br><br>
CYSN has no TAF <br><br>
<br><br>
CYHM 271000Z 02010KT 15SM OVC013 02/00 A2991 RMK SC8 SLP137<br><br>
TAF AMD CYHM 270646Z 2706/2806 03010KT P6SM BKN010 TEMPO 2706/2709 P6SM -SN OVC008 PROB30 2706/2709 OVC005 FM270900 03010KT P6SM SCT008 TEMPO 2709/2714 BKN008 PROB30 2709/2713 BKN005 FM271400 05008KT P6SM FEW012 RMK NXT FCST BY 271200Z<br><br>
<br><br>
KIAG 271053Z 06005KT 10SM OVC014 03/00 A2992 RMK AO2 SLP139 T00280000<br><br>
KIAG 271010Z AUTO 03007KT 10SM OVC014 03/00 A2991 RMK AO2 T00330000<br><br>
KIAG 270953Z AUTO 01007KT 10SM OVC015 03/00 A2991 RMK AO2 SLP135 T00330000<br><br>
KIAG 270906Z 2709/2806 01005KT P6SM OVC015 FM271500 34004KT P6SM BKN050 FM272300 02004KT P6SM FEW250 FM280200 08005KT P6SM FEW250<br><br>
<br><br>
KBUF 271054Z 04007KT 10SM OVC014 04/01 A2992 RMK AO2 SLP136 T00390006<br><br>
KBUF 270954Z 05003KT 10SM OVC013 04/01 A2990 RMK AO2 SLP129 T00440006<br><br>
KBUF 270906Z 2709/2806 02005KT P6SM OVC013 FM271100 36005KT P6SM OVC015 FM271500 35004KT P6SM BKN020 FM271800 VRB03KT P6SM BKN090<br><br>
<br><br>
CYYZ 271000Z 34005KT 330V050 15SM OVC013 02/M00 A2993 RMK ST8 SLP140<br><br>
TAF CYYZ 270838Z 2709/2812 05010KT P6SM BKN012 TEMPO 2709/2714 SCT012 FM271400 05008KT P6SM FEW015 BECMG 2716/2718 15008KT FM271800 15008KT P6SM FEW025 BECMG 2800/2802 02007KT FM280800 06008KT P6SM BKN180 RMK NXT FCST BY 271200Z<br><br>
<br><br>
CYOO 271000Z AUTO 35003KT 290V020 9SM CLR M02/M02 A2993 RMK SLP140<br><br>
TAF CYOO 270738Z 2708/2720 36008KT P6SM FEW012 BKN190 FM271400 VRB03KT P6SM FEW015 BECMG 2716/2718 18008KT FEW025 RMK FCST BASED ON AUTO OBS. NXT FCST BY 271400Z<br><br>
<br><br>
CYTR 271000Z 34005KT 15SM FEW210 M01/M02 A2992 RMK CI2 SLP136<br><br>
TAF CYTR 270530Z 2706/2806 35008KT P6SM FEW020 BKN220 TEMPO 2706/2709 BKN020 FM271500 VRB03KT P6SM SCT020 BKN130 FM271900 22005KT P6SM FEW020 BECMG 2722/2724 VRB03KT RMK NXT FCST BY 271200Z<br><br>
<br><br>
