RETRIEVED AT : Oct 31 2017 13:10 Local <br>
  RETRIEVED AT: Oct 31 2017 17:10 UTC<br><br>
CYSN 311700Z 26021G30KT 15SM SCT053 BKN069 08/M01 A2998 RMK SC3AC4 SLP157<br><br>
CYSN 311600Z 26014KT 15SM BKN052 08/M00 A2996 RMK SC5 SLP148<br><br>
TAF CYSN 311240Z 3113/0101 24012G22KT P6SM SCT030 BKN080 BECMG 3115/3117 25020G30KT FM312100 25015G25KT P6SM SCT040 BECMG 0100/0101 24010KT RMK NXT FCST BY 312000Z<br><br>
<br><br>
CYHM 311700Z 26023G31KT 15SM SCT035 BKN042 BKN062 05/M02 A2999 RMK CU3SC2SC2 SLP163<br><br>
CYHM 311600Z 27022G34KT 15SM SCT032 BKN042 BKN082 07/M01 A2996 RMK CU3SC2AC1 SLP153<br><br>
TAF CYHM 311138Z 3112/0112 24015G25KT P6SM BKN030 TEMPO 3112/3116 BKN020 FM311600 25020G30KT P6SM BKN040 BECMG 3120/3121 23015KT BECMG 0100/0102 23008KT FM010600 20007KT P6SM BKN030 OVC150 TEMPO 0106/0112 5SM -SHRASN OVC020 RMK NXT FCST BY 311800Z<br><br>
<br><br>
KIAG 311653Z 25016G25KT 10SM OVC060 08/M02 A2997 RMK AO2 PK WND 26027/1643 SLP157 T00831017<br><br>
KIAG 311553Z 28014KT 10SM BKN036 09/M01 A2995 RMK AO2 SLP151 T00891011<br><br>
KIAG 311517Z 3115/0112 25021G28KT P6SM SCT040 FM312200 26013KT P6SM FEW250 FM010100 25008KT P6SM BKN060<br><br>
<br><br>
KBUF 311654Z 21019KT 10SM -RA SCT008 BKN017 BKN050 03/02 A2999 RMK AO2 PK WND 21027/1607 RAB05SNB08E32 SLP163 P0001 T00280022<br><br>
KBUF 311554Z 20018KT 10SM BKN008 BKN011 BKN036 03/02 A2998 RMK AO2 RAE1459 SLP159 P0000 T00280022<br><br>
KBUF 311517Z 3115/0112 21015KT P6SM -RA BKN010 BKN020 TEMPO 3115/3117 BKN008 FM311700 25017KT P6SM BKN025 FM311900 25016KT P6SM BKN200 FM010100 25008KT P6SM VCSH OVC040<br><br>
<br><br>
CYYZ 311700Z 26016G30KT 15SM FEW025 FEW035 SCT050 07/M00 A2995 RMK CF1SC2SC2 CF TR SLP147<br><br>
CYYZ 311638Z 27030G35KT 15SM FEW022 SCT030 BKN042 07/M01 A2995 RMK CF1SC3SC3 CF TR SH E SLP147<br><br>
CYYZ 311612Z 27019G37KT 15SM -SHRA BKN030 BKN042 06/M01 A2994 RMK SC5SC2 CVCTV CLD EMBD SLP143<br><br>
CYYZ 311600Z 26021G27KT 15SM BKN032 BKN045 07/M01 A2993 RMK SC5SC2 SH DIST SW-NW SLP141<br><br>
TAF CYYZ 311438Z 3115/0118 26017G27KT P6SM SCT020 BKN050 TEMPO 3115/3116 5SM -SHRA BR BKN020 OVC050 FM311600 26020G30KT P6SM BKN040 TEMPO 3116/3124 P6SM -SHRA OVC040 BECMG 3122/3123 24012G22KT FM010200 23008KT P6SM SCT030 FM010600 20008KT P6SM BKN030 OVC150 TEMPO 0106/0115 5SM -SHRASN OVC020 RMK NXT FCST BY 311800Z<br><br>
<br><br>
CYOO 311700Z AUTO 25016G30KT 9SM FEW042 09/M02 A2991 RMK SLP135<br><br>
CYOO 311600Z AUTO 25017G29KT 9SM FEW038 08/M02 A2990 RMK SLP130<br><br>
CYOO has no TAF <br><br>
<br><br>
CYTR 311700Z 23016G22KT 15SM BKN034 10/01 A2989 RMK SC6 SLP123<br><br>
CYTR 311600Z 25014KT 15SM SCT048 BKN077 10/01 A2988 RMK SC4AC1 SLP120<br><br>
TAF AMD CYTR 311202Z 3112/0112 25015G25KT P6SM FEW060 FM311300 25022G35KT P6SM FEW025 BECMG 3118/3120 25015G25KT FM312100 25012G22KT P6SM BKN050 TEMPO 3121/3123 P6SM -SHRA BKN030 FM312300 26005KT P6SM SCT050 BKN200 BECMG 0100/0102 VRB03KT FM010500 VRB03KT P6SM SCT020 BKN050 TEMPO 0105/0112 5SM -SHRA BR BKN020 OVC050 BECMG 0107/0109 23005KT RMK NXT FCST BY 311800Z<br><br>
<br><br>
