RETRIEVED AT : Feb 23 2020 18:05 Local <br>
  RETRIEVED AT: Feb 23 2020 23:05 UTC<br><br>
CYSN 232200Z 21012G19KT 15SM SKC 08/M07 A2993 RMK SLP138<br><br>
TAF CYSN 231942Z 2320/2402 22015G25KT P6SM SCT240 RMK NXT FCST WILL BE ISSUED AT 241345Z<br><br>
<br><br>
CYHM 232200Z 22013G19KT 15SM FEW150 07/M05 A2991 RMK AC1 AC TR SLP138<br><br>
TAF CYHM 231742Z 2318/2418 22012G22KT P6SM FEW240 BECMG 2401/2403 23012KT FM241100 23008KT P6SM BKN015 RMK NXT FCST BY 240000Z<br><br>
<br><br>
KIAG 232253Z 20009KT 10SM CLR 06/M06 A2993 RMK AO2 SLP147 T00561061<br><br>
KIAG 232153Z 21012KT 10SM CLR 08/M07 A2993 RMK AO2 SLP147 T00781072<br><br>
KIAG 232110Z 2321/2418 22014KT P6SM FEW250 FM240300 21016G24KT P6SM SCT200 FM241400 24012KT P6SM BKN025<br><br>
<br><br>
KBUF 232254Z 20005KT 10SM FEW250 06/M07 A2994 RMK AO2 SLP146 T00611067<br><br>
KBUF 232154Z 22007KT 10SM FEW250 07/M07 A2995 RMK AO2 SLP148 T00721072<br><br>
KBUF 232110Z 2321/2418 21012KT P6SM FEW250 FM240300 22014G22KT P6SM FEW250 FM241400 24012KT P6SM BKN025<br><br>
<br><br>
CYYZ 232200Z 19016G22KT 15SM FEW250 07/M06 A2991 RMK CI1 CI TR SLP135<br><br>
TAF CYYZ 232039Z 2321/2424 20012G25KT P6SM SCT240 BECMG 2401/2403 23012KT FM241000 22008KT P6SM BKN020 FM241800 27008KT P6SM SCT030 RMK NXT FCST BY 240000Z<br><br>
<br><br>
CYOO 232200Z AUTO 21010G18KT 9SM CLR 06/M04 A2992 RMK SLP138<br><br>
TAF CYOO 231942Z 2320/2408 20010G20KT P6SM FEW240 BECMG 2400/2402 22008KT RMK FCST BASED ON AUTO OBS. NXT FCST BY 240200Z<br><br>
<br><br>
CYTR 232200Z 18004KT 15SM SCT250 04/M03 A2995 RMK CI3 SLP147<br><br>
TAF CYTR 231735Z 2318/2418 23012G22KT P6SM OVC220 FM240000 22006KT P6SM FEW040 BECMG 2405/2407 23010KT FEW020 FM241100 25008KT P6SM BKN020 BECMG 2415/2417 26010G20KT RMK NXT FCST BY 240000Z<br><br>
<br><br>
