RETRIEVED AT : Mar 14 2020 21:05 Local <br>
  RETRIEVED AT: Mar 15 2020 01:05 UTC<br><br>
CYSN 150000Z 30006KT 15SM FEW032 OVC130 02/M02 A3046 RMK SC2AC6 SLP319<br><br>
TAF CYSN 141938Z 1420/1501 28007KT P6SM BKN030 OVC200 BECMG 1420/1422 SCT030 OVC180 FM150000 36008KT P6SM FEW030 OVC140 RMK NXT FCST WILL BE ISSUED AT 151245Z<br><br>
<br><br>
CYHM 150000Z 32005KT 15SM FEW024 OVC120 00/M03 A3045 RMK SC2AC6 SLP324<br><br>
TAF CYHM 142338Z 1500/1524 32007KT P6SM BKN020 OVC130 TEMPO 1500/1506 SCT020 OVC130 FM150600 03010KT P6SM SCT040 BKN120 FM151200 03015KT P6SM FEW030 SCT120 FM151500 04015KT P6SM FEW040 FM152100 09010KT P6SM FEW030 RMK NXT FCST BY 150600Z<br><br>
<br><br>
KIAG 150100Z 30004KT 10SM BKN033 01/M02 A3046 RMK AO2 T00111022<br><br>
KIAG 150053Z 30004KT 10SM BKN029 01/M03 A3046 RMK AO2 SLP329 T00111028<br><br>
KIAG 142353Z 25003KT 10SM OVC026 01/M02 A3045 RMK AO2 SLP324 T00111017 10022 20006 53008<br><br>
KIAG 142323Z 1500/1524 25006KT P6SM OVC025 FM150200 33006KT P6SM SCT025 BKN100 FM150800 36006KT P6SM SCT100 BKN250 FM151200 04008KT P6SM SKC<br><br>
<br><br>
KBUF 150054Z 27005KT 10SM OVC026 01/M03 A3046 RMK AO2 SLP323 T00111028<br><br>
KBUF 142354Z 24006KT 10SM OVC029 01/M03 A3044 RMK AO2 SLP318 T00111028 10022 20011 53007<br><br>
KBUF 142323Z 1500/1524 26008KT P6SM BKN025 TEMPO 1501/1503 SCT025 OVC130 FM150300 34006KT P6SM BKN100 FM150900 02006KT P6SM SCT100 BKN250 FM151400 04008KT P6SM SKC<br><br>
<br><br>
CYYZ 150000Z 03012G18KT 15SM FEW030 OVC120 00/M04 A3047 RMK SC1AS7 SLP326<br><br>
TAF CYYZ 142338Z 1500/1606 03010KT P6SM BKN030 OVC120 FM151200 02012KT P6SM FEW030 BECMG 1518/1520 04010KT FM152100 09011KT P6SM FEW030 BECMG 1522/1524 14008KT BECMG 1602/1604 04008KT RMK NXT FCST BY 150300Z<br><br>
<br><br>
CYOO 150000Z AUTO 33009KT 9SM OVC140 00/M04 A3046 RMK SLP323<br><br>
TAF CYOO 141938Z 1420/1508 30010G20KT P6SM BKN030 BKN220 BECMG 1420/1422 30010KT SCT020 BKN160 RMK FCST BASED ON AUTO OBS. NXT FCST BY 150200Z<br><br>
<br><br>
CYTR 150000Z 29008KT 15SM OVC180 03/M04 A3042 RMK AC8 SLP305<br><br>
TAF CYTR 142330Z 1500/1524 30010KT P6SM BKN160 OVC250 BECMG 1502/1504 02008KT FM151300 03008KT P6SM SKC RMK NXT FCST BY 150600Z<br><br>
<br><br>
