RETRIEVED AT : May 24 2020 02:05 Local <br>
  RETRIEVED AT: May 24 2020 06:05 UTC<br><br>
CYSN has no TAF <br><br>
<br><br>
CYHM 240500Z 21004KT 180V240 15SM BKN040 16/15 A3007 RMK SC6 SLP183 DENSITY ALT 900FT<br><br>
TAF CYHM 240538Z 2406/2506 12005KT P6SM BKN040 BECMG 2408/2410 08006KT FM241000 08006KT P6SM FEW040 PROB30 2410/2412 3/4SM BR FM241400 19008KT P6SM SCT060 TEMPO 2414/2418 P6SM -SHRA BKN060 BECMG 2416/2418 18012G22KT FM242200 21012KT P6SM -SHRA BKN050 PROB30 2500/2503 3SM TSRA BKN040CB FM250300 19008KT P6SM SCT040 RMK NXT FCST BY 241200Z<br><br>
<br><br>
KIAG 240553Z AUTO 00000KT 9SM OVC090 16/14 A3006 RMK AO2 SLP177 T01610144 10222 20156 55002<br><br>
KIAG 240453Z AUTO 00000KT 9SM OVC095 16/14 A3005 RMK AO2 SLP177 T01610144 402560156<br><br>
KIAG 240531Z 2406/2506 13005KT P6SM BKN090 FM241100 16007KT P6SM SCT120 FM250200 19010KT P6SM BKN080 FM250500 19011G17KT 6SM BR VCSH BKN045<br><br>
<br><br>
KBUF 240554Z 00000KT 10SM OVC095 18/16 A3006 RMK AO2 SLP178 T01780156 10194 20161 58002<br><br>
KBUF 240454Z 12005KT 10SM BKN095 17/15 A3007 RMK AO2 SLP180 T01720150 402500156<br><br>
KBUF 240531Z 2406/2506 13005KT P6SM SCT045 BKN090 FM241100 16008KT P6SM SCT120 FM241700 19009KT P6SM SCT120 FM250500 18010G16KT 6SM BR VCSH BKN070<br><br>
<br><br>
CYYZ 240500Z 19003KT 15SM SCT070 17/14 A3005 RMK AC3 SLP177 DENSITY ALT 900FT<br><br>
TAF CYYZ 240538Z 2406/2512 VRB03KT P6SM FEW012 BKN060 FM241200 13006KT P6SM SKC FM241500 16008KT P6SM SCT050 FM241800 17012G22KT P6SM -SHRA BKN060 FM250000 23008KT P6SM SCT020 OVC040 TEMPO 2500/2505 5SM -SHRA BR OVC020 PROB30 2500/2505 11/2SM TSRA BR OVC015CB FM250500 19008KT P6SM SCT040 BECMG 2507/2509 22006KT RMK NXT FCST BY 240900Z<br><br>
<br><br>
CYOO 240500Z AUTO 07005KT 9SM BKN095 15/13 A3006 RMK SLP183<br><br>
TAF CYOO 240140Z 2402/2414 VRB03KT P6SM SCT060 FM240800 08005KT P6SM FEW012 OVC025 TEMPO 2408/2414 5SM -SHRA BR OVC012 RMK FCST BASED ON AUTO OBS. NXT FCST BY 240800Z<br><br>
<br><br>
CYTR 240500Z 04003KT 15SM FEW210 14/10 A3009 RMK CI1 SLP189<br><br>
TAF CYTR 240530Z 2406/2506 VRB03KT P6SM FEW210 FM241000 VRB03KT P6SM FEW020 SCT150 BKN240 BECMG 2412/2414 15008KT FM241600 15008KT P6SM SCT030 BKN100 OVC220 BECMG 2419/2421 15008G18KT FM250100 15008KT P6SM -SHRA FEW020 BKN040 OVC060 PROB30 2501/2505 VRB15G25KT 2SM TSRA BR SCT020 OVC030CB FM250500 20008KT 3SM -SHRA BR SCT005 OVC010 RMK NXT FCST BY 241200Z<br><br>
<br><br>
