RETRIEVED AT : Nov 26 2018 18:38 Local <br>
  RETRIEVED AT: Nov 26 2018 23:38 UTC<br><br>
CYSN 262300Z 23013KT 8SM -RA OVC020 06/05 A2942 RMK SC8 SLP968<br><br>
CYSN 262200Z 24008KT 8SM -RA OVC040 06/05 A2941 RMK SC8 SLP963<br><br>
TAF CYSN 261938Z 2620/2702 14008KT 6SM -RA BR OVC025 TEMPO 2620/2702 2SM -RA BR FEW008 OVC015 BECMG 2622/2624 20012KT RMK NXT FCST WILL BE ISSUED AT 271345Z<br><br>
<br><br>
CYHM 262300Z 21007KT 15SM -RA BKN011 OVC052 04/03 A2941 RMK SC6SC2 SLP965<br><br>
CYHM 262225Z 21007KT 15SM -RA FEW012 OVC028 04/04 A2940 RMK SC2SC6 SF ASOCTD SLP964<br><br>
CYHM 262200Z 21007KT 12SM BKN011 OVC042 04/04 A2940 RMK SC6SC2 SLP963<br><br>
TAF AMD CYHM 262231Z 2622/2718 24010KT 6SM -RA FEW012 OVC040 TEMPO 2622/2706 5SM -RA BR BKN007 OVC012 BECMG 2700/2702 30010G20KT FM270600 30010G20KT 6SM -RA OVC012 TEMPO 2706/2708 2SM -SNRA BR OVC006 FM270800 32018G28KT 1SM -SN OVC005 TEMPO 2708/2712 5SM -SN OVC010 FM271200 30020G30KT 3SM -SN OVC015 RMK NXT FCST BY 270000Z<br><br>
<br><br>
KIAG 262253Z 24008KT 7SM -RA FEW012 BKN017 OVC030 05/04 A2942 RMK AO2 SLP973 P0000 T00500039<br><br>
KIAG 262221Z 24009KT 10SM -RA FEW014 BKN024 OVC060 06/03 A2942 RMK AO2 P0000 T00560033<br><br>
KIAG 262153Z 25007KT 10SM -RA FEW022 BKN049 OVC070 06/04 A2941 RMK AO2 SLP969 P0004 T00560039<br><br>
KIAG 262115Z 2621/2718 18007G20KT 6SM -RA BR OVC025 FM262200 22009KT P6SM -RA OVC020 FM270000 20012KT P6SM OVC020 FM270700 27015KT 3SM -SHSN OVC012<br><br>
<br><br>
KBUF 262317Z 22007KT 7SM SCT009 BKN014 OVC035 06/05 A2943 RMK AO2 RAE17 P0000 T00560050<br><br>
KBUF 262254Z 23007KT 5SM -RA BR BKN008 OVC016 06/04 A2943 RMK AO2 SLP970 P0004 T00560044<br><br>
KBUF 262249Z 24009KT 5SM RA BR SCT007 BKN011 OVC016 06/04 A2943 RMK AO2 P0003<br><br>
KBUF 262239Z 25007KT 5SM RA BR SCT007 BKN014 06/05 A2943 RMK AO2 P0002 T00560050<br><br>
KBUF 262211Z 22006KT 9SM -RA SCT012 BKN026 OVC085 06/05 A2943 RMK AO2 P0001 T00610050<br><br>
KBUF 262154Z 23010KT 9SM -RA SCT010 SCT024 OVC040 06/04 A2942 RMK AO2 WSHFT 2059 SLP968 P0004 T00610044<br><br>
KBUF 262148Z 23009KT 9SM -RA SCT010 SCT024 OVC040 06/04 A2942 RMK AO2 WSHFT 2059 P0004<br><br>
KBUF 262139Z 24008KT 9SM -RA FEW012 BKN023 OVC038 06/05 A2942 RMK AO2 WSHFT 2059 P0004 T00610050<br><br>
KBUF 262115Z 2621/2718 16009KT 6SM -RA BR BKN025 OVC035 FM262300 20009KT 6SM -SHRA OVC015 FM270100 19009KT P6SM BKN035 FM270600 23012KT 2SM -SHSN OVC015 FM270900 26013KT 2SM -SHSN OVC007 FM271300 27018KT 2SM -SHSN OVC012<br><br>
<br><br>
CYYZ 262300Z 27006KT 230V310 5SM -RA BR SCT004 OVC009 04/03 A2941 RMK SF4NS4 SLP966<br><br>
CYYZ 262200Z 31011KT 4SM -RA BR SCT003 OVC006 04/03 A2939 RMK SF4NS4 SLP958<br><br>
TAF AMD CYYZ 262207Z 2622/2724 32010KT 3SM -RA BR OVC006 TEMPO 2622/2706 6SM -RA BR OVC010 BECMG 2700/2702 33010G20KT FM270600 33012G22KT 5SM -RASN OVC010 TEMPO 2706/2709 2SM -SN OVC008 FM270900 32015G25KT 6SM -SN OVC015 TEMPO 2709/2712 2SM -SN OVC009 BECMG 2710/2712 33020G30KT FM271200 33020G30KT 5SM -SN BKN020 OVC080 FM271600 30020G30KT 6SM -SN OVC025 RMK NXT FCST BY 270000Z<br><br>
<br><br>
CYOO 262300Z AUTO 14009G15KT 3SM -RA BR BKN004 OVC009 06/06 A2941 RMK SLP965<br><br>
CYOO 262238Z AUTO 16008G15KT 110V170 3SM -RA BR BKN004 BKN011 OVC018 06/06 A2941 RMK SLP964<br><br>
CYOO 262232Z AUTO 13009KT 3SM -RA BR SCT004 BKN011 OVC014 06/06 A2941 RMK SLP963<br><br>
CYOO 262200Z AUTO 12003KT 070V220 3SM -RA BR OVC004 06/06 A2940 RMK SLP962<br><br>
CYOO has no TAF <br><br>
<br><br>
CYTR 262315Z 10007KT 4SM RA BR OVC005 06/05 A2946 RMK SF8 SLP981<br><br>
CYTR 262300Z 11007KT 4SM -RA BR OVC005 05/05 A2947 RMK SF8 SLP982<br><br>
CYTR 262200Z 11008KT 4SM -RA BR OVC007 05/05 A2947 RMK SF8 SLP983<br><br>
TAF CYTR 261730Z 2618/2718 09015G25KT 2SM RA BR FEW002 OVC005 TEMPO 2618/2701 6SM -RA BR SCT005 OVC010 BECMG 2619/2621 12010G20KT FM270100 12008KT 6SM -RA BR SCT008 OVC015 TEMPO 2701/2708 3SM -RA BR BKN008 OVC015 FM270800 03008KT 4SM -RASN SCT004 OVC008 FM271500 02010KT 5SM -RASN SCT008 OVC012 RMK NXT FCST BY 270000Z<br><br>
<br><br>
