RETRIEVED AT : Oct 21 2017 16:10 Local <br>
  RETRIEVED AT: Oct 21 2017 20:10 UTC<br><br>
CYSN 212000Z 20010KT 15SM SCT140 OVC250 22/08 A3022 RMK AC3CI5 SLP235 DENSITY ALT 900FT<br><br>
CYSN 211900Z 19009KT 15SM OVC250 22/10 A3023 RMK CI8 SLP237 DENSITY ALT 900FT<br><br>
TAF CYSN 211938Z 2120/2201 20010KT P6SM BKN240 BECMG 2123/2124 18007KT RMK NXT FCST WILL BE ISSUED AT 221245Z<br><br>
<br><br>
CYHM 212000Z 19009KT 15SM FEW140 BKN230 21/10 A3022 RMK AC1CI6 SLP237 DENSITY ALT 1400FT<br><br>
CYHM 211900Z 18009KT 15SM FEW140 BKN250 21/11 A3023 RMK AC1CI6 SLP240 DENSITY ALT 1400FT<br><br>
TAF CYHM 211738Z 2118/2218 20010KT P6SM BKN240 FM220000 16006KT P6SM BKN220 FM220800 20007KT P6SM SCT220 PROB30 2208/2214 3/4SM BR FM221400 20012G22KT P6SM SCT240 RMK NXT FCST BY 220000Z<br><br>
<br><br>
KIAG 211953Z 21009KT 10SM CLR 23/07 A3024 RMK AO2 SLP240 T02330067<br><br>
KIAG 211853Z 20009KT 10SM CLR 23/07 A3023 RMK AO2 SLP239 T02280067<br><br>
KIAG 211724Z 2118/2218 20008KT P6SM BKN220 FM212100 19004KT P6SM BKN220 FM220800 18008KT P6SM BKN220<br><br>
<br><br>
KBUF 211954Z 27006KT 10SM SCT150 BKN200 OVC250 23/07 A3024 RMK AO2 SLP241 T02280067<br><br>
KBUF 211854Z 24008KT 10SM FEW150 BKN200 OVC250 23/06 A3025 RMK AO2 SLP243 T02280061<br><br>
KBUF 211724Z 2118/2218 22008KT P6SM BKN220 FM212100 21004KT P6SM BKN220 FM220000 17004KT P6SM BKN220 FM221500 19008KT P6SM BKN220<br><br>
<br><br>
CYYZ 212000Z 15007KT 15SM SCT170 BKN250 21/12 A3021 RMK AC3CI4 SLP232 DENSITY ALT 1100FT<br><br>
CYYZ 211900Z 14008KT 15SM FEW180 BKN250 21/12 A3022 RMK AC2CI5 SLP235 DENSITY ALT 1100FT<br><br>
TAF CYYZ 211738Z 2118/2224 16012KT P6SM BKN240 BECMG 2123/2201 16005KT BECMG 2205/2207 SCT250 FM221500 18012G22KT P6SM SCT240 RMK NXT FCST BY 212100Z<br><br>
<br><br>
CYOO 212000Z AUTO 20004KT 9SM CLR 20/10 A3023 RMK SLP239 DENSITY ALT 700FT<br><br>
CYOO 211900Z AUTO 20007KT 9SM CLR 19/10 A3023 RMK SLP242 DENSITY ALT 600FT<br><br>
CYOO has no TAF <br><br>
<br><br>
CYTR 212000Z 20008KT 15SM SCT140 OVC250 17/11 A3024 RMK AC3CI5 SLP243<br><br>
CYTR 211900Z 20008KT 15SM FEW095 OVC250 18/11 A3024 RMK AC2CS6 HALO SLP241<br><br>
TAF CYTR 211730Z 2118/2218 21010KT P6SM BKN250 BECMG 2122/2124 VRB03KT BECMG 2215/2217 20008KT RMK NXT FCST BY 220000Z<br><br>
<br><br>
