RETRIEVED AT : Nov 06 2017 03:10 Local <br>
  RETRIEVED AT: Nov 06 2017 08:10 UTC<br><br>
CYSN has no TAF <br><br>
<br><br>
CYHM 060800Z 31009KT 15SM SCT014 OVC024 10/08 A2982 RMK SC4SC4 SLP102<br><br>
CYHM 060700Z 29009KT 15SM FEW016 OVC023 10/08 A2981 RMK SF1SC7 PRESRR SLP097<br><br>
TAF CYHM 060539Z 0606/0706 30010G20KT P6SM SCT004 OVC015 TEMPO 0606/0610 4SM -DZ -RA BR BKN004 OVC015 FM061000 31010KT P6SM SCT008 OVC025 TEMPO 0610/0613 5SM BR BKN008 OVC020 FM061300 31010KT P6SM BKN025 TEMPO 0613/0617 OVC020 FM061700 32010KT P6SM BKN030 FM070200 33005KT P6SM FEW030 SCT140 RMK NXT FCST BY 061200Z<br><br>
<br><br>
KIAG 060753Z 31010KT 5SM RA OVC022 12/09 A2981 RMK AO2 RAB35 SLP096 P0003 T01220094<br><br>
KIAG 060653Z 30010KT 10SM BKN017 OVC023 13/10 A2977 RMK AO2 WSHFT 0613 RAE41 SLP084 P0002 T01330100<br><br>
KIAG 060643Z 31011KT 7SM SCT006 BKN018 OVC023 13/11 A2977 RMK AO2 WSHFT 0613 RAE41 P0002 T01330106<br><br>
KIAG 060627Z 30017G25KT 3SM -RA BKN006 OVC018 14/11 A2977 RMK AO2 WSHFT 0613 P0002 T01390111<br><br>
KIAG 060618Z 24014KT 4SM -RA BKN006 OVC010 16/13 A2975 RMK AO2 P0001 T01610133<br><br>
KIAG 060538Z 0606/0706 21012KT P6SM OVC025 FM060800 31012KT P6SM OVC015 FM061000 33012G19KT P6SM OVC020 FM061800 31012KT P6SM BKN030 FM062000 32011KT P6SM BKN070 FM070100 33007KT P6SM SCT030<br><br>
<br><br>
KBUF 060800Z 32008KT 5SM -RA BR FEW007 OVC016 12/11 A2981 RMK AO2 P0001 T01170106 $<br><br>
KBUF 060754Z 31009KT 3SM RA BR BKN009 OVC014 12/11 A2981 RMK AO2 WSHFT 0701 SLP093 P0005 T01170106 $<br><br>
KBUF 060751Z 31010KT 3SM RA BR BKN009 OVC015 12/11 A2981 RMK AO2 WSHFT 0701 P0004 $<br><br>
KBUF 060744Z 31011KT 3SM -RA BR SCT006 OVC012 12/11 A2980 RMK AO2 WSHFT 0701 P0004 T01170106 $<br><br>
KBUF 060735Z 32013KT 3SM -RA BR BKN006 OVC012 12/11 A2980 RMK AO2 WSHFT 0701 P0004 T01170106 $<br><br>
KBUF 060721Z 31014G20KT 3SM -RA BR BKN004 OVC010 12/12 A2979 RMK AO2 WSHFT 0701 P0003 T01220117 $<br><br>
KBUF 060712Z 32011KT 3SM -RA BR OVC004 14/14 A2978 RMK AO2 P0002 T01440139 $<br><br>
KBUF 060658Z 23010KT 2 1/2SM -RA BR BKN004 OVC008 14/13 A2976 RMK AO2 P0001 T01440128 $<br><br>
KBUF 060654Z 23010KT 3SM -RA SCT004 BKN008 OVC014 14/12 A2976 RMK AO2 RAB0557 CIG 006V010 SLP078 P0003 T01440117 $<br><br>
KBUF 060647Z 24011KT 4SM -RA BR FEW004 BKN008 OVC014 15/13 A2976 RMK AO2 RAB0557 CIG 006V010 P0003 T01500133 $<br><br>
KBUF 060633Z 24010KT 8SM -RA FEW009 BKN013 OVC022 15/13 A2976 RMK AO2 RAB0557 P0002 T01500128 $<br><br>
KBUF 060712Z 0607/0706 32012KT 3SM -RA BR OVC004 FM060900 32010G18KT P6SM OVC007 TEMPO 0609/0612 4SM -SHRA OVC003 FM061200 32010G18KT P6SM VCSH OVC020 FM061400 31011G17KT P6SM BKN020 FM062100 32009KT P6SM BKN070 FM070400 33005KT P6SM SCT070<br><br>
<br><br>
CYYZ 060800Z 33013KT 15SM BKN017 OVC050 10/07 A2981 RMK SC5SC3 SLP098<br><br>
CYYZ 060700Z 31009KT 15SM FEW010 OVC032 11/08 A2978 RMK SF1SC7 PRESRR SLP089<br><br>
TAF CYYZ 060539Z 0606/0712 31010G20KT P6SM SCT008 OVC025 TEMPO 0606/0611 5SM -DZ BR BKN008 OVC020 BECMG 0606/0608 31010KT FM061100 32010KT P6SM BKN025 TEMPO 0611/0614 OVC020 BECMG 0614/0615 33012G22KT FM061700 33012G22KT P6SM SCT030 BECMG 0622/0623 35010KT FM070400 29007KT P6SM FEW030 SCT140 RMK NXT FCST BY 060900Z<br><br>
<br><br>
CYOO 060800Z AUTO 32015G21KT 9SM BKN015 BKN039 OVC046 10/08 A2979 RMK SLP091<br><br>
CYOO 060751Z AUTO 31015KT 9SM BKN017 BKN042 OVC060 11/08 A2978 RMK SLP089<br><br>
CYOO 060700Z AUTO 33009KT 9SM BKN025 OVC042 11/09 A2974 RMK SLP075<br><br>
CYOO 060648Z AUTO 33007KT 9SM OVC025 11/09 A2974 RMK SLP076<br><br>
CYOO has no TAF <br><br>
<br><br>
CYTR 060800Z 30011KT 15SM FEW009 OVC020 12/11 A2973 RMK SF1SC8 SLP071<br><br>
CYTR 060729Z 30008KT 7SM SCT009 OVC015 13/12 A2972 RMK SF3SF5 SLP068<br><br>
CYTR 060720Z 28010KT 6SM BR BKN005 OVC010 13/12 A2972 RMK SF5SF3 SLP068<br><br>
CYTR 060700Z 22007KT 2SM -DZ BR BKN003 OVC010 13/12 A2971 RMK SF6SF2 VIS VRB 1 1/2-2 1/2 CIG VRB 2-4 SLP063<br><br>
CYTR 060631Z 22006KT 2SM -DZ BR BKN004 OVC010 13/13 A2971 RMK SF5SF3 VIS VRB 1 1/2-2 1/2 SLP065<br><br>
TAF AMD CYTR 060752Z 0607/0706 30010KT P6SM SCT012 BKN030 TEMPO 0607/0613 BKN012 OVC030 BECMG 0607/0609 30010G20KT FM061500 30010G20KT P6SM SCT030 BECMG 0620/0622 32008KT SKC RMK NXT FCST BY 061200Z<br><br>
<br><br>
