RETRIEVED AT : Sep 08 2019 07:05 Local <br>
  RETRIEVED AT: Sep 08 2019 11:05 UTC<br><br>
CYSN has no TAF <br><br>
<br><br>
CYHM 081000Z 31003KT 15SM BKN230 11/11 A3002 RMK CI6 SLP169<br><br>
TAF CYHM 080541Z 0806/0906 30007KT P6SM FEW015 BKN190 PROB30 0808/0813 1SM BR FM081300 04006KT P6SM SCT020 FM081600 04006KT P6SM BKN040 FM082300 06006KT P6SM FEW040 BKN160 RMK NXT FCST BY 081200Z<br><br>
<br><br>
KIAG 081055Z COR 00000KT 10SM SCT015 SCT025 BKN030 A3005<br><br>
KIAG 081053Z A3004 RMK AO2 SLPNO $<br><br>
KIAG 080953Z AUTO R28R/3500VP6000FT A3001 RMK AO2 SLPNO PWINO $<br><br>
KIAG 080923Z 0809/0906 VRB03KT P6SM BKN018 FM081100 VRB03KT 5SM BR BKN018 FM081300 35005KT P6SM BKN020 FM081700 35006KT P6SM BKN050 FM090200 00000KT P6SM SCT250 AMD NOT SKED<br><br>
<br><br>
KBUF 081054Z 00000KT 10SM FEW017 FEW024 BKN220 14/12 A3005 RMK AO2 SLP176 T01390117<br><br>
KBUF 081020Z 00000KT 10SM SCT020 SCT027 BKN280 14/12 A3003 RMK AO2 T01390117<br><br>
KBUF 080954Z 00000KT 10SM FEW018 BKN023 BKN280 14/11 A3001 RMK AO2 SLP162 T01390111<br><br>
KBUF 080918Z 00000KT 10SM BKN018 BKN070 BKN280 13/11 A2999 RMK AO2 T01330111<br><br>
KBUF 080923Z 0809/0906 00000KT P6SM BKN018 FM081200 34005KT P6SM BKN020 FM081700 35006KT P6SM BKN050 FM090100 04004KT P6SM SCT250<br><br>
<br><br>
CYYZ 081000Z 01004KT 330V040 15SM BKN250 13/11 A3002 RMK CI5 SLP166<br><br>
TAF CYYZ 080843Z 0809/0912 23005KT P6SM SCT015 TEMPO 0809/0813 4SM BR BKN010 FM081300 35010KT P6SM SCT030 FM082100 36008KT P6SM FEW050 BKN200 RMK NXT FCST BY 081200Z<br><br>
<br><br>
CYOO 081021Z AUTO 00000KT 9SM BKN008 11/11 A3003 RMK SLP170<br><br>
CYOO 081000Z AUTO 00000KT 9SM CLR 11/10 A3001 RMK PRESRR SLP165<br><br>
TAF AMD CYOO 081032Z 0810/0820 VRB03KT P6SM FEW008 TEMPO 0810/0812 3SM BR BKN008 BECMG 0810/0812 36005KT FM081600 33012KT P6SM FEW030 RMK FCST BASED ON AUTO OBS. NXT FCST BY 081400Z<br><br>
<br><br>
CYTR 081000Z 33008KT 10SM FEW120 11/10 A2999 RMK AC1 SLP158<br><br>
TAF CYTR 080530Z 0806/0906 30005KT P6SM FEW120 PROB30 0808/0812 2SM BR FM081300 30005KT P6SM SCT025 BECMG 0822/0824 VRB03KT BECMG 0902/0904 04005KT RMK NXT FCST BY 081200Z<br><br>
<br><br>
