RETRIEVED AT : Jun 29 2018 07:05 Local <br>
  RETRIEVED AT: Jun 29 2018 11:05 UTC<br><br>
CYSN has no TAF <br><br>
<br><br>
CYHM 291000Z 23006KT 1 1/2SM BR FEW250 17/17 A2998 RMK FG1CI1 CI TR SLP151 DENSITY ALT 1100FT<br><br>
CYHM 290951Z 23005KT 2SM BR FEW250 17/17 A2998 RMK CI1 SLP150 DENSITY ALT 1100FT<br><br>
TAF AMD CYHM 291004Z 2910/3006 24005KT 1/2SM FG SKC BECMG 2910/2912 P6SM NSW FM291400 32008KT P6SM SKC BECMG 2920/2922 19010KT RMK NXT FCST BY 291200Z<br><br>
<br><br>
KIAG 290933Z 2910/3006 23008KT P6SM FEW250 TEMPO 2910/2911 2SM BR FM291100 23006KT P6SM FEW250 FM291800 23012G18KT P6SM FEW250 FM292300 22009KT P6SM FEW250<br><br>
<br><br>
KBUF 291054Z 22006KT 10SM FEW250 19/17 A3001 RMK AO2 SLP158 T01940167<br><br>
KBUF 290954Z 22005KT 10SM CLR 18/16 A2999 RMK AO2 SLP152 T01830161<br><br>
KBUF 290933Z 2910/3006 23009KT 6SM BR FEW250 FM291200 24010KT P6SM FEW250 FM291600 24011G17KT P6SM FEW250 FM300000 19007KT P6SM FEW250<br><br>
<br><br>
TAF CYYZ 290839Z 2909/3012 29008KT P6SM SKC BECMG 2910/2912 30012KT FM291500 33012KT P6SM SKC BECMG 2918/2920 17008KT BECMG 3001/3003 23010KT RMK NXT FCST BY 291200Z<br><br>
<br><br>
CYOO 291000Z AUTO 30006KT 9SM CLR 18/13 A2994 RMK SLP138 DENSITY ALT 900FT<br><br>
CYOO has no TAF <br><br>
<br><br>
CYTR 291000Z 26002KT 15SM SCT240 17/15 A2990 RMK CI3 SLP127<br><br>
TAF CYTR 290530Z 2906/3006 VRB03KT P6SM SKC PROB30 2906/2910 1SM BR FM291500 30008KT P6SM SKC BECMG 2915/2917 22008KT BECMG 3001/3003 VRB03KT RMK NXT FCST BY 291200Z<br><br>
<br><br>
