RETRIEVED AT : Oct 28 2018 04:05 Local <br>
  RETRIEVED AT: Oct 28 2018 08:05 UTC<br><br>
CYSN has no TAF <br><br>
<br><br>
CYHM 280742Z 31003KT 2SM -SN OVC006 00/00 A2977 RMK SN1SF7 SLP089<br><br>
CYHM 280712Z 36004KT 2 1/2SM -SN OVC004 00/00 A2977 RMK SF8 SLP089<br><br>
CYHM 280700Z 01006KT 5SM -SN OVC004 01/01 A2977 RMK SF8 SLP090<br><br>
CYHM 280649Z 01008KT 6SM -SN OVC004 01/01 A2977 RMK SF8 SLP089<br><br>
TAF CYHM 280538Z 2806/2906 02010KT 2SM -SN BR OVC004 TEMPO 2806/2810 6SM -RASN BR OVC006 FM281000 36008KT 5SM -SNRA BR OVC008 TEMPO 2810/2812 6SM -SN SCT008 OVC012 FM281200 33005KT 6SM -RASN SCT008 OVC012 FM281500 23005KT P6SM -RA -DZ BKN010 OVC040 FM281900 23005KT P6SM BKN015 OVC040 FM282100 VRB03KT P6SM -SHRA OVC015 FM290300 35008KT P6SM OVC025 FM290500 31008KT P6SM SCT020 BKN050 RMK NXT FCST BY 281200Z<br><br>
<br><br>
KIAG 280753Z AUTO 02007KT 10SM -RA OVC006 03/02 A2974 RMK AO2 SLP082 P0001 T00280017<br><br>
KIAG 280727Z AUTO 02006KT 10SM -RA OVC007 03/02 A2975 RMK AO2 CIG 005V011 P0000 T00280017<br><br>
KIAG 280653Z AUTO 03008KT 10SM -RA OVC006 03/02 A2975 RMK AO2 CIG 004V010 SLP084 P0004 T00280017<br><br>
KIAG 280609Z AUTO 03009KT 6SM RA BR OVC006 03/02 A2975 RMK AO2 CIG 004V009 P0003 T00280017<br><br>
KIAG 280540Z 2806/2906 02009KT 6SM -SHRA OVC007 FM280900 35007KT 6SM -SHRA OVC003 FM281400 27004KT 6SM -SHRA OVC007 FM281800 24009KT P6SM OVC012 FM290000 00000KT P6SM OVC015 FM290100 00000KT P6SM VCSH OVC012<br><br>
<br><br>
KBUF 280754Z 36005KT 7SM -DZ FEW004 OVC008 03/02 A2973 RMK AO2 CIG 007V011 SLP075 P0001 T00280022<br><br>
KBUF 280654Z 02003KT 5SM -DZ BR OVC005 03/03 A2974 RMK AO2 CIG 003V008 SLP076 P0000 T00330028<br><br>
KBUF 280540Z 2806/2906 01008KT 4SM -SHRA OVC007 FM280900 34007KT 6SM -SHRA OVC003 FM281500 26006KT P6SM VCSH OVC007 FM281900 24009KT P6SM OVC007 FM290100 00000KT P6SM VCSH OVC007 FM290500 00000KT P6SM VCSH OVC007<br><br>
<br><br>
CYYZ 280700Z 35007KT 9SM -SN SCT004 SCT010 OVC014 01/M00 A2977 RMK SF3SF1SC4 SLP089<br><br>
CYYZ 280648Z 34006KT 8SM -SN FEW003 OVC013 01/00 A2978 RMK SF1SC8 SF TR SLP090<br><br>
TAF CYYZ 280538Z 2806/2912 34008KT 3SM -SN BKN006 OVC012 TEMPO 2806/2812 6SM -SNRA SCT006 OVC012 FM281200 32008KT 5SM -SN BKN008 OVC030 TEMPO 2812/2816 P6SM -RASN SCT008 OVC030 FM281600 26007KT P6SM BKN015 OVC050 TEMPO 2816/2819 P6SM -SHRA BECMG 2820/2822 VRB03KT FM290000 VRB03KT 4SM -SHRA BR OVC012 FM290400 29006KT P6SM SCT020 OVC050 BECMG 2907/2909 27010KT RMK NXT FCST BY 280900Z<br><br>
<br><br>
CYOO 280748Z AUTO 34002KT 2 1/2SM BR OVC012 01/01 A2976 RMK SLP084<br><br>
CYOO 280741Z AUTO 33003KT 5SM BR OVC012 01/01 A2976 RMK SLP084<br><br>
CYOO 280712Z AUTO 33002KT 6SM BR OVC012 01/01 A2976 RMK SLP085<br><br>
CYOO 280700Z AUTO VRB02KT 3SM BR OVC012 01/01 A2976 RMK SLP085<br><br>
CYOO 280643Z AUTO VRB02KT 3SM BR OVC012 01/01 A2977 RMK SLP087<br><br>
CYOO 280625Z AUTO 01004KT 2 1/2SM BR OVC014 01/01 A2977 RMK SLP087<br><br>
CYOO has no TAF <br><br>
<br><br>
CYTR 280747Z 36006KT 3SM -PL FEW010 OVC017 01/00 A2973 RMK SF2SC6 PCPN VRY LGT SLP073<br><br>
CYTR 280700Z 01006KT 3SM -PL OVC011 01/00 A2974 RMK SF8 CIG VRB 8-14 SLP076<br><br>
CYTR 280638Z 01006KT 3SM -PL OVC007 01/00 A2975 RMK SF8 CIG VRB 5-9 SLP077<br><br>
TAF CYTR 280530Z 2806/2906 03010KT P6SM -RA SCT008 OVC020 TEMPO 2806/2812 2SM -SNRA -PL BR BKN008 OVC020 FM281200 34005KT P6SM SCT007 BKN015 OVC030 BECMG 2816/2818 24005KT FM282100 24005KT 6SM -SHRA BR SCT007 OVC015 RMK NXT FCST BY 281200Z<br><br>
<br><br>
