RETRIEVED AT : May 12 2018 16:05 Local <br>
  RETRIEVED AT: May 12 2018 20:05 UTC<br><br>
CYSN 121900Z 04008KT 15SM SCT078 BKN230 11/00 A3010 RMK AC4CI3 SLP195<br><br>
TAF CYSN 121938Z 1220/1301 03008KT P6SM BKN230 BECMG 1221/1223 VRB03KT FEW230 RMK NXT FCST WILL BE ISSUED AT 131245Z<br><br>
<br><br>
CYHM 121900Z 04008KT 15SM FEW120 BKN150 BKN230 11/M01 A3012 RMK AC2AC4CI1 SLP207<br><br>
TAF CYHM 121738Z 1218/1318 05010G20KT P6SM BKN070 BECMG 1222/1224 04006KT SCT200 FM130000 04005KT P6SM BKN200 FM130600 04005KT P6SM BKN140 FM131000 04006KT 6SM BR SCT006 BKN010 FM131300 04006KT P6SM BKN200 BECMG 1314/1316 04010KT RMK NXT FCST BY 130000Z<br><br>
<br><br>
KIAG 121953Z VRB06KT 10SM BKN060 14/02 A3009 RMK AO2 SLP195 T01440022<br><br>
KIAG 121853Z 03010KT 10SM BKN070 14/03 A3009 RMK AO2 SLP193 T01390028<br><br>
KIAG 121730Z 1218/1312 03011G16KT P6SM OVC080 FM121900 04009KT P6SM BKN140 FM130000 03004KT P6SM SCT250 FM130800 09004KT P6SM BKN140<br><br>
<br><br>
KBUF 121954Z VRB05KT 10SM BKN070 BKN200 15/06 A3010 RMK AO2 SLP194 T01500056<br><br>
KBUF 121854Z 02007KT 10SM BKN070 14/05 A3008 RMK AO2 SLP189 T01440050<br><br>
KBUF 121730Z 1218/1312 36007KT P6SM BKN080 FM130400 08004KT P6SM BKN200 FM130600 11004KT P6SM BKN130<br><br>
<br><br>
CYYZ 121900Z 15008KT 130V190 15SM FEW090 BKN230 13/M02 A3010 RMK AC1CI5 SLP198<br><br>
TAF CYYZ 121738Z 1218/1324 11007KT P6SM BKN090 BECMG 1219/1221 SCT200 FM130100 15006KT P6SM BKN200 BECMG 1302/1304 VRB03KT FM130600 VRB03KT P6SM BKN140 BECMG 1315/1317 10008KT SCT200 FM132300 18007KT P6SM SCT200 RMK NXT FCST BY 122100Z<br><br>
<br><br>
CYOO 121900Z AUTO 13007KT 9SM CLR 13/M05 A3010 RMK SLP197<br><br>
CYOO has no TAF <br><br>
<br><br>
CYTR 121900Z 13007KT 15SM FEW036 SCT100 OVC240 17/M00 A3006 RMK SC1AC2CI5 SLP184<br><br>
TAF CYTR 121730Z 1218/1318 10008KT P6SM SCT100 BKN240 BECMG 1219/1221 21008KT FM130000 21005KT P6SM FEW240 BECMG 1300/1302 VRB03KT FM131400 13008KT P6SM FEW260 RMK NXT FCST BY 130000Z<br><br>
<br><br>
