RETRIEVED AT : Mar 09 2020 03:05 Local <br>
  RETRIEVED AT: Mar 09 2020 07:05 UTC<br><br>
CYSN has no TAF <br><br>
<br><br>
CYHM 090600Z 21010KT 15SM BKN150 06/M02 A3016 RMK AC5 SLP222<br><br>
TAF CYHM 090538Z 0906/1006 21010KT P6SM FEW160 SCT250 FM091500 23018G30KT P6SM BKN260 FM092300 23015G25KT P6SM SCT050 BKN090 BKN230 FM100300 23012G25KT P6SM -RA OVC050 RMK NXT FCST BY 091200Z<br><br>
<br><br>
KIAG 090653Z AUTO 21016KT 10SM CLR 09/M03 A3019 RMK AO2 SLP228 T00941033<br><br>
KIAG 090553Z AUTO 22013KT 10SM CLR 08/M03 A3018 RMK AO2 SLP226 T00831028 10089 20067 56003<br><br>
KIAG 090528Z 0906/1006 21014KT P6SM BKN150 WS020/23050KT FM091400 22016G26KT P6SM SCT100 FM091600 23018G34KT P6SM SCT250 FM092200 23017G26KT P6SM BKN100 FM100500 21012G19KT P6SM OVC080<br><br>
<br><br>
KBUF 090654Z 21011KT 10SM BKN170 10/M05 A3020 RMK AO2 SLP230 T01001050<br><br>
KBUF 090554Z 21013KT 10SM BKN170 11/M06 A3019 RMK AO2 SLP226 T01061056 10106 20067 56003<br><br>
KBUF 090528Z 0906/1006 20012KT P6SM BKN120 WS020/23050KT FM091400 23016KT P6SM SCT100 FM091600 23018G28KT P6SM SCT250 FM092300 23012G18KT P6SM BKN100 FM100300 21011KT P6SM OVC090<br><br>
<br><br>
CYYZ 090600Z 21011G17KT 15SM SCT120 BKN150 10/M02 A3013 RMK AC3AC2 SLP208<br><br>
TAF CYYZ 090538Z 0906/1012 21010G20KT P6SM BKN160 BECMG 0909/0911 23012KT FM091500 22015G25KT P6SM BKN250 FM092200 22015G25KT P6SM BKN100 BKN230 FM100300 23015G25KT P6SM -RA OVC040 BECMG 1005/1007 21012G22KT FM100900 21010G20KT P6SM -RA OVC015 RMK NXT FCST BY 090900Z<br><br>
<br><br>
CYOO 090600Z AUTO 19007KT 9SM BKN130 OVC160 06/M01 A3014 RMK SLP210<br><br>
TAF CYOO 090138Z 0902/0914 VRB03KT P6SM SCT130 BKN230 BECMG 0905/0907 24008KT FM091200 23010KT P6SM SCT080 RMK FCST BASED ON AUTO OBS. NXT FCST BY 090800Z<br><br>
<br><br>
CYTR 090600Z 20006KT 15SM FEW140 BKN250 05/M00 A3014 RMK AC2CI4 SLP210<br><br>
TAF CYTR 090530Z 0906/1006 20008KT P6SM SCT140 BKN250 FM090900 24010KT P6SM BKN080 BKN250 BECMG 0914/0916 24015G25KT FM091800 24015G25KT P6SM SCT080 BKN250 BECMG 0921/0923 25010G20KT BKN060 BKN180 FM100300 22008KT P6SM -SHRA OVC060 RMK NXT FCST BY 091200Z<br><br>
<br><br>
