RETRIEVED AT : Jun 09 2019 08:05 Local <br>
  RETRIEVED AT: Jun 09 2019 12:05 UTC<br><br>
CYSN 091100Z VRB02KT 15SM BKN250 13/13 A3019 RMK CI5 SLP224<br><br>
CYSN has no TAF <br><br>
<br><br>
CYHM 091100Z 03007KT 15SM FEW160 BKN260 13/07 A3018 RMK AC1CI6 AC TR SLP223<br><br>
TAF CYHM 091138Z 0912/1012 04007KT P6SM BKN240 FM091400 09010G20KT P6SM BKN180 BECMG 1001/1003 13010KT FM100500 13010KT P6SM SCT070 BKN150 FM100800 14012KT P6SM -SHRA OVC040 FM101100 13010G20KT 4SM -SHRA BR OVC020 RMK NXT FCST BY 091800Z<br><br>
<br><br>
KIAG 091153Z 14004KT 10SM CLR 19/11 A3020 RMK AO2 SLP225 T01890111 10189 20122 51008<br><br>
KIAG 091053Z 00000KT 10SM CLR 14/09 A3019 RMK AO2 SLP223 T01440094<br><br>
KIAG 091120Z 0912/1012 09006KT P6SM SCT250 FM091500 13010G16KT P6SM BKN250 FM092200 14008KT P6SM BKN060 FM100600 14008KT P6SM VCSH OVC050 WS020/17040KT<br><br>
<br><br>
KBUF 091154Z COR 13007KT 10SM FEW250 BKN300 18/11 A3021 RMK AO2 SLP228 T01830106 10183 20139 51007<br><br>
KBUF 091054Z 14006KT 10SM FEW260 BKN300 16/10 A3020 RMK AO2 SLP225 T01610100<br><br>
KBUF 091120Z 0912/1012 12006KT P6SM SCT250 FM091500 13010G16KT P6SM BKN250 FM092200 14008KT P6SM BKN060 FM100600 15008KT P6SM VCSH OVC050 WS020/17040KT<br><br>
<br><br>
CYYZ 091100Z 09010KT 15SM BKN260 16/06 A3019 RMK CI5 SLP226<br><br>
TAF CYYZ 091138Z 0912/1018 09010KT P6SM SCT240 BECMG 0913/0915 11010G20KT FM100200 09007KT P6SM SCT070 BKN150 FM100800 10008KT P6SM BKN100 FM101100 11010KT 6SM -SHRA BR OVC025 FM101400 11010G20KT 5SM -SHRA BR SCT010 OVC020 RMK NXT FCST BY 091500Z<br><br>
<br><br>
CYOO 091100Z AUTO 09007KT 9SM CLR 16/06 A3021 RMK SLP232<br><br>
TAF CYOO 090738Z 0908/0920 VRB03KT P6SM SKC BECMG 0913/0915 12010G20KT RMK FCST BASED ON AUTO OBS. NXT FCST BY 091400Z<br><br>
<br><br>
CYTR 091100Z 05004KT 15SM BKN250 15/09 A3024 RMK CI7 SLP241<br><br>
TAF CYTR 091130Z 0912/1012 05005KT P6SM BKN250 BECMG 0915/0917 16008KT BECMG 1005/1007 FEW020 SCT040 FM101000 15008KT P6SM SCT020 OVC040 TEMPO 1010/1012 P6SM -RA BKN020 OVC040 RMK NXT FCST BY 091800Z<br><br>
<br><br>
