RETRIEVED AT : Nov 24 2018 20:05 Local <br>
  RETRIEVED AT: Nov 25 2018 01:05 UTC<br><br>
CYSN 250000Z 18012KT 15SM SCT020 OVC043 06/04 A2964 RMK SC4SC4 SLP041<br><br>
TAF CYSN 241940Z 2420/2502 17012G22KT P6SM FEW012 OVC030 TEMPO 2420/2502 4SM -RA BR BKN007 OVC020 BECMG 2423/2501 19012KT RMK NXT FCST WILL BE ISSUED AT 251345Z<br><br>
<br><br>
CYHM 250026Z 17009KT 7SM -DZ OVC004 05/05 A2962 RMK CF8 SLP038<br><br>
CYHM 250000Z 17009KT 9SM -RADZ SCT008 05/05 A2961 RMK CF3 SLP037<br><br>
TAF CYHM 242340Z 2500/2524 18010KT 2SM -RA BR OVC003 TEMPO 2500/2502 6SM BR SCT008 OVC012 FM250200 20010KT P6SM SCT008 OVC015 TEMPO 2502/2506 3SM -DZ BR BKN006 OVC012 BECMG 2504/2506 23010KT FM250900 24010KT P6SM OVC015 FM251600 24012KT P6SM BKN020 BECMG 2520/2522 21006KT RMK NXT FCST BY 250600Z<br><br>
<br><br>
KIAG 250053Z 18010KT 10SM OVC018 06/02 A2966 RMK AO2 SLP053 T00560022<br><br>
KIAG 242353Z 18010KT 10SM OVC024 06/02 A2966 RMK AO2 SLP054 60000 T00610022 10067 20033 55001<br><br>
KIAG 242320Z 2500/2524 18009KT P6SM VCSH OVC025 FM250300 19010G18KT P6SM OVC015 FM250700 22009KT 6SM -DZ OVC010 FM251500 25011KT P6SM OVC012<br><br>
<br><br>
KBUF 250054Z 15009KT 10SM OVC024 06/02 A2967 RMK AO2 SLP054 T00560022<br><br>
KBUF 242354Z 16008KT 10SM OVC027 06/02 A2967 RMK AO2 SLP054 60001 T00560022 10067 20044 53002<br><br>
KBUF 242320Z 2500/2524 17009KT P6SM VCSH OVC025 FM250300 19009KT P6SM OVC015 FM250700 22010KT 6SM -DZ OVC007 FM251600 25011KT P6SM OVC012 FM252300 21007KT P6SM OVC007<br><br>
<br><br>
CYYZ 250000Z 13007KT 5SM -DZ BR OVC004 05/04 A2962 RMK SF8 SLP038<br><br>
CYYZ 242347Z 13008KT 5SM -DZ BR BKN003 OVC007 05/04 A2963 RMK SF6ST2 SLP039<br><br>
CYYZ 242314Z 13007KT 4SM -DZ BR SCT004 OVC008 05/04 A2963 RMK SF3ST5 SLP039<br><br>
TAF AMD CYYZ 242352Z 2500/2606 14010KT 2SM -RA BR BKN003 OVC007 TEMPO 2500/2502 6SM -DZ BR SCT006 OVC010 FM250200 18008KT P6SM OVC007 TEMPO 2502/2506 2SM -DZ BR OVC003 FM250600 21008KT P6SM OVC012 TEMPO 2506/2509 5SM -DZ BR OVC005 FM250900 24010KT P6SM OVC015 TEMPO 2509/2512 OVC007 FM251700 25012KT P6SM BKN020 BECMG 2520/2522 23006KT FM260400 02006KT P6SM OVC020 RMK NXT FCST BY 250300Z<br><br>
<br><br>
CYOO 250036Z AUTO 10007KT 2 1/2SM -RA BR FEW005 OVC014 04/04 A2967 RMK SLP052<br><br>
CYOO 250030Z AUTO 11006KT 5SM -RA BR FEW005 OVC014 04/04 A2967 RMK SLP052<br><br>
CYOO 250000Z AUTO 10008KT 7SM -RA OVC014 04/04 A2966 RMK SLP049<br><br>
CYOO 242356Z AUTO 10007KT 7SM -RA FEW009 OVC014 04/04 A2966 RMK SLP049<br><br>
CYOO 242350Z AUTO 10009KT 7SM FEW009 OVC014 04/04 A2966 RMK SLP049<br><br>
CYOO 242342Z AUTO 10010KT 6SM -RA BR FEW009 OVC014 04/04 A2966 RMK SLP050<br><br>
CYOO 242323Z AUTO 10009KT 5SM -RA BR OVC014 04/04 A2967 RMK SLP052<br><br>
CYOO has no TAF <br><br>
<br><br>
CYTR 250044Z 16006KT 8SM -DZ BKN008 OVC022 05/04 A2972 RMK SF6SC2 SLP067<br><br>
CYTR 250000Z 16006KT 8SM -RA BKN008 OVC022 04/04 A2972 RMK SF6SC2 SLP069<br><br>
TAF CYTR 242330Z 2500/2524 16008KT 6SM -RA BR SCT006 OVC015 TEMPO 2500/2502 2SM -RA BR BKN006 OVC012 FM250200 16008KT 2SM -RA BR OVC006 TEMPO 2502/2506 5SM -RA BR SCT006 OVC012 FM250600 18008KT 6SM BR SCT006 OVC012 TEMPO 2506/2511 2SM -RA -DZ BR OVC006 FM251100 24010KT 5SM -DZ BR OVC015 TEMPO 2511/2515 P6SM NSW SCT015 OVC025 FM251500 25010G20KT P6SM SCT015 BKN025 TEMPO 2515/2518 BKN015 OVC025 FM251800 24008G18KT P6SM BKN025 BECMG 2522/2524 24005KT RMK NXT FCST BY 250600Z<br><br>
<br><br>
