RETRIEVED AT : Apr 04 2020 01:05 Local <br>
  RETRIEVED AT: Apr 04 2020 05:05 UTC<br><br>
CYSN has no TAF <br><br>
<br><br>
CYHM 040400Z 02006KT 15SM BKN016 BKN032 BKN075 06/03 A3003 RMK SC5SC1AC1 SLP175<br><br>
TAF CYHM 032338Z 0400/0424 05006KT P6SM BKN030 TEMPO 0400/0404 6SM -SHRA BR BKN012 OVC030 PROB30 0402/0404 5SM -SHRA BR OVC008 FM040400 03005KT P6SM BKN012 OVC030 TEMPO 0404/0409 SCT012 BKN030 PROB30 0404/0409 5SM -DZ BR OVC008 FM040900 VRB03KT 6SM BR FEW002 BKN008 OVC030 PROB30 0409/0414 03005KT 1SM -DZ BR BKN002 OVC008 FM041400 VRB03KT P6SM BKN012 BKN030 FM041700 VRB03KT P6SM BKN025 FM042200 VRB03KT P6SM BKN030 BKN080 RMK NXT FCST BY 040600Z<br><br>
<br><br>
KIAG 040453Z AUTO 35006KT 2 1/2SM BR OVC004 05/04 A3001 RMK AO2 SLP173 T00500044 400940022<br><br>
KIAG 040439Z AUTO 34005KT 2 1/2SM BR BKN005 BKN010 OVC022 06/04 A3002 RMK AO2 T00560044<br><br>
KIAG 040428Z AUTO 34004KT 10SM BKN004 BKN010 OVC022 06/04 A3002 RMK AO2 T00560044<br><br>
KIAG 040353Z AUTO 33004KT 8SM OVC003 06/04 A3002 RMK AO2 RAE14 SLP177 P0000 T00560044<br><br>
KIAG 040338Z AUTO 33005KT 9SM BKN003 OVC043 06/04 A3003 RMK AO2 RAE14 P0000 T00560044<br><br>
KIAG 040327Z AUTO 34006KT 10SM SCT003 BKN043 OVC070 06/04 A3003 RMK AO2 RAE14 P0000 T00560044<br><br>
KIAG 040201Z 0402/0424 VRB04KT 6SM -RA SCT015 BKN050 TEMPO 0402/0404 SCT007 BKN015 FM040400 VRB03KT 3SM BR OVC003 FM041300 VRB03KT 6SM BR OVC007 FM041600 VRB03KT P6SM BKN015 FM042000 VRB03KT P6SM BKN035<br><br>
<br><br>
KBUF 040501Z 23003KT 2 1/2SM -DZ BR OVC004 05/04 A3001 RMK AO2 P0000 T00500039<br><br>
KBUF 040454Z 22004KT 4SM -DZ BR OVC006 05/04 A3001 RMK AO2 SLP169 P0000 T00500039 400830028<br><br>
KBUF 040354Z 23003KT 4SM -DZ BR BKN004 OVC017 05/04 A3002 RMK AO2 SLP173 RAEDZB20 P0000 T00500039<br><br>
KBUF 040308Z 21004KT 7SM -RA BKN004 OVC065 06/04 A3002 RMK AO2 P0000 T00560039<br><br>
KBUF 040200Z 0402/0424 VRB04KT 5SM -RA BR SCT015 BKN025 OVC050 TEMPO 0402/0404 BKN015 FM040400 VRB03KT 3SM BR OVC003 FM041400 VRB03KT 6SM BR BKN007 FM041700 25005KT P6SM BKN015 FM042000 25005KT P6SM BKN035<br><br>
<br><br>
CYYZ 040400Z 04007KT 15SM BKN025 BKN040 BKN070 06/05 A3004 RMK SC5SC1AC1 SLP179<br><br>
TAF CYYZ 040238Z 0403/0506 03008KT P6SM SCT025 OVC070 TEMPO 0403/0406 P6SM -DZ OVC020 FM040600 01008KT P6SM BKN030 TEMPO 0406/0415 FEW008 BKN020 PROB30 0406/0415 5SM -DZ BR BKN008 OVC020 FM041500 11008KT P6SM BKN015 OVC040 FM042000 14008KT P6SM BKN020 FM042200 13008KT P6SM BKN030 BKN080 FM050000 13008KT P6SM -SHRA BKN030 OVC080 FM050300 14006KT 4SM -RA -DZ BR SCT004 OVC015 FM050500 VRB03KT 11/2SM -DZ BR OVC004 RMK NXT FCST BY 040600Z<br><br>
<br><br>
CYOO 040426Z AUTO 34006KT 9SM BKN015 OVC033 06/06 A3002 RMK SLP172<br><br>
CYOO 040400Z AUTO 34006KT 9SM OVC035 07/07 A3003 RMK SLP174<br><br>
CYOO 040312Z AUTO 33006KT 9SM SCT018 OVC036 06/06 A3003 RMK SLP173<br><br>
CYOO 040306Z AUTO 33006KT 9SM -RA SCT018 OVC036 06/06 A3003 RMK SLP173<br><br>
TAF CYOO 040138Z 0402/0414 35005KT P6SM SCT012 BKN070 TEMPO 0402/0406 5SM -DZ BR BKN012 OVC070 PROB30 0402/0406 3SM -DZ BR BKN007 OVC012 FM040600 01006KT P6SM BKN012 OVC060 TEMPO 0406/0410 5SM -DZ BR OVC007 FM041000 02005KT 3SM -DZ BR OVC006 TEMPO 0410/0414 P6SM NSW OVC010 RMK FCST BASED ON AUTO OBS. NXT FCST BY 040800Z<br><br>
<br><br>
CYTR 040400Z 36004KT 15SM BKN027 OVC080 07/06 A3002 RMK SC6AC2 SLP167<br><br>
CYTR 040351Z 36004KT 12SM OVC026 07/06 A3002 RMK SC8 SLP168<br><br>
TAF AMD CYTR 040314Z 0403/0424 36005KT P6SM SCT012 OVC025 TEMPO 0403/0407 3SM -DZ BR SCT008 OVC012 FM040700 02005KT P6SM SCT008 OVC020 TEMPO 0407/0415 3SM BR BKN008 OVC015 FM041500 VRB03KT P6SM BKN015 OVC025 BECMG 0417/0419 22008KT RMK NXT FCST BY 040600Z<br><br>
<br><br>
