RETRIEVED AT : Jun 27 2020 08:05 Local <br>
  RETRIEVED AT: Jun 27 2020 12:05 UTC<br><br>
CYSN 271139Z 21008KT 15SM FEW010 BKN051 OVC140 21/20 A2969 RMK SC1SC5AC2 SLP053 DENSITY ALT 1400FT<br><br>
CYSN 271100Z 23007KT 10SM -RA FEW010 BKN051 OVC100 20/19 A2969 RMK SC1SC6AC1 SLP055 DENSITY ALT 1300FT<br><br>
CYSN has no TAF <br><br>
<br><br>
CYHM 271128Z 25006KT 15SM FEW003 SCT048 BKN130 20/19 A2972 RMK SF2SC2AC3 SLP062 DENSITY ALT 1800FT<br><br>
CYHM 271100Z 25004KT 15SM FEW010 SCT057 BKN130 19/19 A2971 RMK SC1SC2AC3 SLP060 DENSITY ALT 1800FT<br><br>
CYHM 271032Z 24005KT 15SM FEW010 OVC030 19/19 A2972 RMK SC1SC7 SLP062 DENSITY ALT 1700FT<br><br>
TAF CYHM 271142Z 2712/2812 25008KT P6SM FEW010 BKN030 TEMPO 2712/2715 BKN007 OVC020 PROB30 2712/2715 BKN005 FM271500 27012KT P6SM BKN025 TEMPO 2715/2718 BKN020 FM271800 26012G22KT P6SM BKN030 TEMPO 2718/2720 P6SM -SHRA PROB30 2720/2724 VRB15G25KT 2SM TSRA BR BKN020 OVC030CB FM280000 24010G20KT P6SM BKN050 BECMG 2801/2803 25008KT FM280800 26006KT P6SM SCT070 FM281100 30006KT P6SM SKC RMK NXT FCST BY 271800Z<br><br>
<br><br>
KIAG 271153Z 21005KT 10SM BKN007 OVC060 20/19 A2970 RMK AO2 RAE38 CIG 005V011 SLP055 P0001 60022 70022 T02000189 10211 20194 56017<br><br>
KIAG 271132Z 22006KT 8SM -RA OVC008 20/19 A2971 RMK AO2 CIG 004V010 P0001 T02000189<br><br>
KIAG 271053Z 21008KT 4SM -RA BR BKN006 OVC015 19/19 A2971 RMK AO2 SLP057 P0005 T01940189<br><br>
KIAG 271120Z 2712/2812 VRB05KT 5SM BR VCSH OVC008 FM271500 26010KT P6SM BKN025 FM271800 23014G22KT P6SM VCSH BKN040 FM272300 23010KT P6SM VCSH BKN040 FM280600 26006KT P6SM BKN025<br><br>
<br><br>
KBUF 271154Z 20005KT 3SM -RA BR SCT006 OVC012 18/18 A2972 RMK AO2 SLP061 P0003 60038 70038 T01830183 10206 20178 56020<br><br>
KBUF 271135Z 22005KT 7SM -RA SCT006 OVC011 18/18 A2972 RMK AO2 P0002 T01830183<br><br>
KBUF 271122Z 17004KT 8SM -RA BKN006 OVC011 18/18 A2972 RMK AO2 P0002 T01830183<br><br>
KBUF 271054Z 18005KT 6SM -RA BR SCT005 BKN010 OVC013 18/18 A2973 RMK AO2 SLP064 P0022 T01830183<br><br>
KBUF 271047Z 17006KT 4SM R23/5500VP6000FT -RA BR FEW005 SCT009 OVC015 18/18 A2973 RMK AO2 P0021 T01780178<br><br>
KBUF 271044Z 17005KT 2SM R23/5500VP6000FT -RA BR FEW005 SCT009 OVC015 18/18 A2973 RMK AO2 P0021 T01780178<br><br>
KBUF 271036Z 18008KT 1 1/4SM R23/6000VP6000FT +RA BR SCT005 BKN009 OVC035 18/18 A2974 RMK AO2 P0014 T01780178<br><br>
KBUF 271020Z 19004KT 1 3/4SM +RA BR OVC010 18/18 A2974 RMK AO2 P0004 T01780178<br><br>
KBUF 271120Z 2712/2812 VRB05KT 5SM BR VCSH OVC008 FM271500 25010KT P6SM BKN025 FM271800 24016G24KT P6SM BKN040 FM280000 24010KT P6SM VCSH BKN040 FM280700 26006KT P6SM BKN015<br><br>
<br><br>
CYYZ 271100Z 23003KT 12SM FEW011 BKN035 BKN110 20/19 A2970 RMK CF1SC5AC2 CF TR SLP055 DENSITY ALT 1600FT<br><br>
TAF CYYZ 271142Z 2712/2818 22010KT P6SM BKN030 TEMPO 2712/2715 BKN020 PROB30 2712/2713 BKN008 OVC015 FM271500 25010G20KT P6SM BKN030 FM271700 28010G20KT P6SM BKN040 TEMPO 2717/2720 P6SM -SHRA FM272000 30012G22KT P6SM SCT050 TEMPO 2720/2801 P6SM -SHRA VCTS BKN050CB FM280200 VRB03KT P6SM SCT050 FM280500 30010KT P6SM FEW070 BECMG 2810/2812 34010KT FM281700 33010KT P6SM BKN050 RMK NXT FCST BY 271500Z<br><br>
<br><br>
CYOO 271157Z AUTO 17003KT 160V230 9SM SCT014 BKN036 OVC110 18/17 A2970 RMK SLP056 DENSITY ALT 1100FT<br><br>
CYOO 271147Z AUTO VRB02KT 9SM BKN014 BKN036 BKN055 OVC100 18/17 A2970 RMK SLP056 DENSITY ALT 1100FT<br><br>
CYOO 271100Z AUTO 18002KT 9SM BKN041 OVC055 18/17 A2970 RMK SLP057 DENSITY ALT 1100FT<br><br>
TAF AMD CYOO 270930Z 2709/2720 19005KT P6SM FEW040 OVC120 TEMPO 2709/2712 4SM -SHRA BR BKN040 OVC090 FM271200 23006KT P6SM FEW008 OVC020 TEMPO 2712/2715 SCT020 BKN040 PROB30 2712/2715 BKN006 OVC015 FM271500 23008KT P6SM BKN012 BKN020 FM271700 24008KT P6SM -SHRA SCT015 BKN030 RMK FCST BASED ON AUTO OBS. NXT FCST BY 271400Z<br><br>
<br><br>
CYTR 271100Z 20005KT 15SM FEW088 BKN140 19/15 A2971 RMK AC2AC6 SLP061<br><br>
CYTR 271040Z 19005KT 15SM -SHRA FEW088 OVC140 19/15 A2972 RMK AC1AC7 SLP062<br><br>
TAF CYTR 271130Z 2712/2812 20005KT P6SM FEW090 BKN140 FM271600 23008KT P6SM FEW008 SCT015 BKN060 TEMPO 2716/2720 4SM -SHRA BR SCT008 BKN015 OVC060 FM272000 22012KT P6SM FEW015 OVC060 TEMPO 2720/2724 P6SM -SHRA PROB30 2720/2724 VRB15G25KT 2SM TSRA BR OVC015CB FM280000 22008KT P6SM SCT050 PROB30 2808/2812 1SM BR OVC005 RMK NXT FCST BY 271800Z<br><br>
<br><br>
