RETRIEVED AT : Mar 13 2020 14:05 Local <br>
  RETRIEVED AT: Mar 13 2020 18:05 UTC<br><br>
CYSN 131700Z 26020G32KT 15SM BKN048 06/M03 A2987 RMK SC6 PRESRR SLP120<br><br>
TAF CYSN 131238Z 1313/1401 29025G40KT P6SM OVC020 TEMPO 1313/1315 OVC025 BECMG 1313/1315 26020G35KT FM131500 26020G35KT P6SM BKN025 TEMPO 1315/1401 BKN020 BECMG 1322/1324 27018G28KT RMK NXT FCST BY 132000Z<br><br>
<br><br>
CYHM 131700Z 26017G29KT 15SM BKN049 05/M03 A2988 RMK SC7 SLP126<br><br>
TAF CYHM 131740Z 1318/1418 26018G32KT P6SM BKN040 BECMG 1322/1324 27015G25KT FM140900 29010KT P6SM BKN025 RMK NXT FCST BY 140000Z<br><br>
<br><br>
KIAG 131753Z 26024G31KT 10SM BKN047 OVC060 06/M02 A2990 RMK AO2 PK WND 26031/1752 SLP132 60000 T00561022 10100 20044 53030<br><br>
KIAG 131653Z 24013G29KT 10SM BKN045 OVC060 06/M01 A2986 RMK AO2 PK WND 26032/1609 SLP119 T00611006<br><br>
KIAG 131734Z 1318/1418 24013G38KT P6SM BKN045 OVC060 FM140100 26016G30KT P6SM FEW250 FM141100 28009KT P6SM SCT080 FM141300 28010G18KT P6SM SCT060 FM141500 28012KT P6SM SCT035<br><br>
<br><br>
KBUF 131754Z 24028G37KT 10SM FEW021 FEW037 BKN055 06/00 A2990 RMK AO2 PK WND 25040/1732 SLP130 60000 T00560000 10078 20050 51033<br><br>
KBUF 131654Z 24024G31KT 10SM FEW021 SCT040 BKN055 05/00 A2988 RMK AO2 PK WND 23031/1653 SLP121 T00500000<br><br>
KBUF 131734Z 1318/1418 24024G40KT P6SM SCT030 BKN040 FM131900 24025G40KT P6SM BKN035 FM132300 25018G30KT P6SM FEW250 FM140700 27010G23KT P6SM SCT060 FM141400 27010G16KT P6SM BKN035<br><br>
<br><br>
CYYZ 131700Z 27025G37KT 15SM FEW041 BKN048 07/M02 A2983 RMK CU2SC5 SLP107<br><br>
TAF CYYZ 131740Z 1318/1424 27020G38KT P6SM BKN040 BECMG 1323/1401 28020G30KT FM140600 29018G28KT P6SM BKN030 FM141500 32012KT P6SM BKN025 BKN200 BECMG 1420/1422 35009KT BECMG 1422/1424 01015KT RMK NXT FCST BY 132100Z<br><br>
<br><br>
CYOO 131700Z AUTO 27015G23KT 9SM OVC044 05/M03 A2981 RMK PRESRR SLP098<br><br>
TAF CYOO 131339Z 1314/1402 29015G25KT P6SM SCT020 BKN030 TEMPO 1314/1402 BKN020 OVC030 RMK FCST BASED ON AUTO OBS. NXT FCST BY 132000Z<br><br>
<br><br>
CYTR 131700Z 28021G30KT 15SM BKN025 06/M01 A2975 RMK SC7 SLP078<br><br>
TAF CYTR 131730Z 1318/1418 27020G35KT P6SM BKN025 TEMPO 1318/1322 P6SM -SHRA BKN020 FM132200 27020G35KT P6SM BKN040 FM141000 29015G25KT P6SM SCT040 BECMG 1411/1413 29010KT RMK NXT FCST BY 140000Z<br><br>
<br><br>
