RETRIEVED AT : Sep 25 2017 23:10 Local <br>
  RETRIEVED AT: Sep 26 2017 03:10 UTC<br><br>
CYSN has no TAF <br><br>
<br><br>
CYHM 260300Z 05003KT 15SM BKN250 20/20 A3001 RMK CI5 SLP160 DENSITY ALT 1500FT<br><br>
CYHM 260200Z 02005KT 15SM BKN250 22/20 A3002 RMK CI5 SLP163 DENSITY ALT 1700FT<br><br>
TAF CYHM 252338Z 2600/2624 VRB03KT P6SM BKN280 TEMPO 2609/2614 4SM BR PROB30 2609/2613 3/4SM BR RMK NXT FCST BY 260600Z<br><br>
<br><br>
KIAG 260253Z 05003KT 8SM CLR 23/19 A3000 RMK AO2 SLP152 T02330189 58002<br><br>
KIAG 260153Z 11005KT 7SM CLR 24/19 A3000 RMK AO2 SLP154 T02440194<br><br>
KIAG 260242Z 2603/2624 08005KT P6SM FEW250 FM260700 00000KT 4SM BR SCT250 TEMPO 2610/2612 2SM BR SCT003 FM261300 VRB03KT P6SM FEW250 FM261400 22004KT P6SM FEW250 FM261800 22008KT P6SM FEW250<br><br>
<br><br>
KBUF 260254Z 12004KT 10SM FEW150 BKN280 23/20 A3001 RMK AO2 SLP157 T02330200 58001<br><br>
KBUF 260154Z 11005KT 10SM FEW180 SCT300 24/21 A3001 RMK AO2 SLP159 T02440206<br><br>
KBUF 260242Z 2603/2624 12004KT P6SM FEW250 FM260800 15004KT 4SM BR FEW250 FM261300 20004KT P6SM FEW250 FM261800 24007KT P6SM FEW250<br><br>
<br><br>
CYYZ 260300Z 00000KT 15SM SCT230 24/20 A3001 RMK CI4 SLP159 DENSITY ALT 1600FT<br><br>
CYYZ 260200Z 17003KT 15SM FEW130 SCT230 24/19 A3001 RMK AC2CI2 SLP161 DENSITY ALT 1700FT<br><br>
TAF CYYZ 260240Z 2603/2706 VRB03KT P6SM SCT230 BECMG 2614/2616 16008KT RMK NXT FCST BY 260600Z<br><br>
<br><br>
CYOO 260300Z AUTO 01004KT 9SM CLR 20/18 A3000 RMK SLP160 DENSITY ALT 1000FT<br><br>
CYOO 260200Z AUTO 00000KT 9SM CLR 21/18 A3001 RMK SLP161 DENSITY ALT 1100FT<br><br>
CYOO has no TAF <br><br>
<br><br>
CYTR 260300Z 00000KT 6SM BR FEW250 19/19 A3000 RMK CI2 SLP160<br><br>
CYTR 260200Z 00000KT 8SM FEW250 20/19 A3001 RMK CI2 SLP161<br><br>
TAF CYTR 252330Z 2600/2624 VRB03KT P6SM SCT250 FM260300 VRB03KT P6SM BKN250 TEMPO 2603/2612 3SM BR BECMG 2616/2618 20009KT RMK NXT FCST BY 260600Z<br><br>
<br><br>
