RETRIEVED AT : May 08 2020 07:07 Local <br>
  RETRIEVED AT: May 08 2020 11:07 UTC<br><br>
CYSN has no TAF <br><br>
<br><br>
CYHM 081000Z 25005KT 15SM OVC063 OVC076 M00/M04 A2985 RMK SC6AC2 SLP117<br><br>
TAF CYHM 080540Z 0806/0906 30006KT P6SM FEW090 FM081000 29006KT P6SM BKN080 FM081500 32008KT P6SM FEW030 BKN080 FM081700 29011KT P6SM FEW080 FM090100 33010KT P6SM BKN040 BECMG 0904/0906 27010KT RMK NXT FCST BY 081200Z<br><br>
<br><br>
KIAG 081053Z 27009KT 10SM OVC075 02/M05 A2985 RMK AO2 SLP120 T00171050<br><br>
KIAG 080953Z AUTO 30006KT 10SM OVC100 02/M04 A2984 RMK AO2 SLP116 T00171044<br><br>
KIAG 080954Z 0810/0906 26007KT P6SM OVC120 FM081500 31009KT P6SM BKN070 FM081800 32008KT P6SM OVC045 FM090000 32011G17KT P6SM SCT050 FM090500 31010KT P6SM FEW200<br><br>
<br><br>
KBUF 081054Z 21005KT 10SM BKN065 BKN120 03/M05 A2985 RMK AO2 SLP115 T00331050 $<br><br>
KBUF 080954Z 26006KT 10SM SCT090 BKN120 03/M06 A2984 RMK AO2 SLP110 T00331056 $<br><br>
KBUF 080954Z 0810/0906 26008KT P6SM FEW100 FM081500 30007KT P6SM BKN070 FM081700 31007KT P6SM OVC045 FM090100 33011KT P6SM SCT060 FM090500 31009KT P6SM FEW250<br><br>
<br><br>
CYYZ 081000Z 32011KT 15SM SCT120 01/M05 A2984 RMK AC4 SLP110<br><br>
TAF CYYZ 080842Z 0809/0912 32009KT P6SM SKC FM081200 31012KT P6SM FEW040 BKN100 FM081700 36012KT P6SM -SHSN BKN040 BKN080 BECMG 0818/0820 34010G20KT FM082100 34012G22KT P6SM FEW040 FM090600 29010KT P6SM -SHSN SCT030 TEMPO 0906/0912 3SM -SHSN RMK NXT FCST BY 081200Z<br><br>
<br><br>
CYOO 081000Z AUTO 30005KT 9SM CLR M02/M05 A2983 RMK SLP108<br><br>
TAF CYOO 080740Z 0808/0820 26006KT P6SM SKC FM081200 29010KT P6SM BKN030 FM081500 31012KT P6SM BKN050 FM081800 32012KT P6SM BKN060 RMK FCST BASED ON AUTO OBS. NXT FCST BY 081400Z<br><br>
<br><br>
CYTR 081000Z 25006KT 15SM FEW120 00/M05 A2980 RMK AC1 SLP094<br><br>
TAF CYTR 080530Z 0806/0906 25005KT P6SM SKC FM081200 28010G20KT P6SM SCT030 BKN120 BECMG 0816/0818 SCT050 BKN100 FM082200 33012G22KT P6SM BKN025 BKN060 TEMPO 0822/0901 3SM -SHRASN BR BKN020 OVC040 FM090300 33010KT P6SM FEW030 RMK NXT FCST BY 081200Z<br><br>
<br><br>
