RETRIEVED AT : Sep 07 2018 20:00 Local <br>
  RETRIEVED AT: Sep 08 2018 00:00 UTC<br><br>
CYSN 072300Z 01002KT 15SM OVC250 21/17 A3017 RMK CI8 SLP216 DENSITY ALT 800FT<br><br>
TAF CYSN 071938Z 0720/0801 03008KT P6SM FEW050 BKN250 RMK NXT FCST WILL BE ISSUED AT 081245Z<br><br>
<br><br>
CYHM 072300Z 05005KT 15SM FEW020 SCT090 BKN240 19/16 A3019 RMK CU1AC2CI3 SLP224 DENSITY ALT 1200FT<br><br>
TAF CYHM 072338Z 0800/0824 05008KT P6SM FEW020 BKN240 BECMG 0808/0810 03012KT BECMG 0814/0816 05012G22KT RMK NXT FCST BY 080600Z<br><br>
<br><br>
KIAG 072353Z 02005KT 10SM CLR 19/14 A3019 RMK AO2 SLP222 T01890139 10244 20189 53004<br><br>
KIAG 072253Z 05005KT 10SM CLR 21/15 A3017 RMK AO2 SLP217 T02060150<br><br>
KIAG 072337Z 0800/0824 05005KT P6SM SCT250 FM080700 03004KT P6SM BKN250 FM081000 05014G22KT P6SM BKN250 FM082200 06010KT P6SM SCT250<br><br>
<br><br>
KBUF 072354Z 03004KT 10SM FEW050 FEW090 BKN200 OVC280 19/14 A3019 RMK AO2 SLP220 T01940139 10250 20194 53007<br><br>
KBUF 072254Z 05008KT 10SM SCT050 SCT180 OVC270 21/14 A3018 RMK AO2 SLP217 T02060144<br><br>
KBUF 072337Z 0800/0824 04005KT P6SM BKN250 FM081100 06012G20KT P6SM BKN250 FM082300 06009KT P6SM SCT250<br><br>
<br><br>
CYYZ 072300Z 34014KT 15SM FEW055 SCT180 BKN260 21/10 A3019 RMK CU1AS3CI4 CU TR SLP224 DENSITY ALT 1200FT<br><br>
TAF CYYZ 072338Z 0800/0906 35012KT P6SM FEW050 BKN250 BECMG 0805/0807 02010KT FM081600 07010KT P6SM SCT250 BECMG 0901/0903 04010KT RMK NXT FCST BY 080300Z<br><br>
<br><br>
CYOO 072300Z AUTO 33005KT 9SM CLR 20/12 A3019 RMK SLP224 DENSITY ALT 800FT<br><br>
CYOO has no TAF <br><br>
<br><br>
CYTR 072300Z 36004KT 15SM FEW040 BKN180 OVC250 21/12 A3017 RMK SC1AC5CI3 SLP217<br><br>
TAF CYTR 072330Z 0800/0824 01008KT P6SM FEW040 BKN180 OVC250 FM081200 04012G22KT P6SM FEW030 SCT250 BECMG 0817/0819 04012KT RMK NXT FCST BY 080600Z<br><br>
<br><br>
