RETRIEVED AT : Oct 27 2018 14:05 Local <br>
  RETRIEVED AT: Oct 27 2018 18:05 UTC<br><br>
CYSN 271700Z 08015KT 15SM FEW020 BKN040 OVC100 08/03 A2978 RMK SC2SC4AC2 SLP090<br><br>
TAF CYSN 271238Z 2713/2801 08012KT 5SM -RA BR BKN008 OVC030 TEMPO 2713/2715 P6SM -RA SCT008 OVC030 PROB30 2713/2715 BKN007 FM271500 08015G25KT 5SM -RA BR BKN010 OVC030 TEMPO 2715/2717 P6SM -RA SCT010 OVC030 PROB30 2715/2717 BKN008 FM271700 07015G25KT 5SM -RA BR BKN012 OVC030 TEMPO 2717/2801 P6SM -RA OVC030 RMK NXT FCST BY 272000Z<br><br>
<br><br>
CYHM 271747Z 05026G32KT 15SM -RA SCT005 OVC013 04/03 A2977 RMK SF3SC5 SLP089<br><br>
CYHM 271700Z 05022G29KT 15SM -RA BKN010 OVC017 04/03 A2978 RMK SF6SC2 SLP093<br><br>
CYHM 271635Z 04021G29KT 15SM -RA BKN008 OVC016 04/03 A2979 RMK SF6SC2 SLP095<br><br>
CYHM 271609Z 04021KT 12SM FEW005 OVC009 04/03 A2980 RMK SF2SC6 SLP098<br><br>
TAF CYHM 271739Z 2718/2818 05020G30KT 4SM -RA BR BKN008 OVC020 TEMPO 2718/2802 P6SM -RA OVC020 BECMG 2723/2801 04015G25KT FM280200 04012G22KT 2SM -RA BR OVC004 FM280700 01008KT 5SM -RASN BR OVC008 FM281200 33005KT 6SM -RASN BR SCT008 OVC012 FM281500 23005KT P6SM -RA BKN010 OVC040 RMK NXT FCST BY 280000Z<br><br>
<br><br>
KIAG 271753Z 07023G28KT 10SM -RA BKN015 OVC070 05/02 A2978 RMK AO2 PK WND 08028/1750 RAB43 SLP094 P0000 60002 T00500017 10061 20039 56016<br><br>
KIAG 271734Z 08019G25KT 10SM BKN017 BKN065 05/02 A2979 RMK AO2 PK WND 08027/1716 T00500017<br><br>
KIAG 271653Z 08017G26KT 10SM FEW049 OVC060 06/02 A2978 RMK AO2 PK WND 07027/1626 SLP095 T00610017<br><br>
KIAG 271625Z 08020G26KT 10SM SCT013 BKN050 OVC065 06/02 A2979 RMK AO2 PK WND 07026/1624 T00560022<br><br>
KIAG 271720Z 2718/2818 07016G22KT 6SM -RA OVC012 FM272200 05016G25KT 6SM -RA OVC007 FM280600 02009KT 6SM -RA OVC007 FM281000 34005KT 6SM -SHRA OVC007 FM281400 28006KT P6SM OVC007<br><br>
<br><br>
KBUF 271754Z 06016KT 10SM -RA BKN011 OVC028 04/03 A2978 RMK AO2 SLP089 P0000 60008 T00390028 10050 20039 56012 $<br><br>
KBUF 271723Z 06015KT 10SM -RA BKN011 OVC028 04/02 A2978 RMK AO2 P0000 T00390022 $<br><br>
KBUF 271654Z 07016G23KT 10SM -RA BKN009 OVC027 04/03 A2978 RMK AO2 RAB09 SLP091 P0000 T00390028 $<br><br>
KBUF 271720Z 2718/2818 06016G30KT 6SM -RA OVC007 FM272300 04016G22KT 6SM -RA OVC007 FM280400 02009KT 6SM -RA OVC007 FM280800 34006KT 6SM -RA OVC007 FM281100 30006KT 6SM -SHRA OVC007 FM281400 27006KT P6SM OVC007<br><br>
<br><br>
CYYZ 271700Z 08015G21KT 15SM FEW025 SCT038 OVC048 06/01 A2984 RMK CF1SC3SC4 SLP111<br><br>
TAF CYYZ 271739Z 2718/2824 05012G22KT P6SM FEW025 OVC050 TEMPO 2718/2722 6SM -RA BR BKN020 OVC050 BECMG 2718/2720 05012G22KT FM272200 04012G22KT P6SM -RA OVC020 TEMPO 2722/2724 4SM -RASN BR BKN008 OVC020 FM280000 04010G20KT 6SM -RASN OVC015 TEMPO 2800/2806 4SM -RASN BR BKN008 OVC015 FM280600 02010KT 6SM -SNRA SCT008 OVC015 BECMG 2806/2808 35008KT FM281400 30005KT P6SM -RA SCT008 OVC030 TEMPO 2814/2816 6SM -RASN BKN008 OVC030 FM281600 27007KT P6SM -RA BKN015 OVC050 FM281900 23008KT P6SM BKN020 OVC050 BECMG 2820/2822 VRB03KT RMK NXT FCST BY 272100Z<br><br>
<br><br>
CYOO 271700Z AUTO 07011G22KT 9SM OVC055 06/M02 A2986 RMK SLP118<br><br>
CYOO has no TAF <br><br>
<br><br>
CYTR 271742Z 05010G16KT 15SM -RA BKN056 OVC080 06/M03 A2990 RMK SC7AC1 PCPN VRY LGT SLP128<br><br>
CYTR 271700Z 05011G16KT 15SM BKN063 OVC100 06/M03 A2991 RMK SC6AC2 SLP131<br><br>
TAF CYTR 271731Z 2718/2818 05015G25KT P6SM BKN060 OVC100 BECMG 2718/2720 P6SM -RA OVC050 FM272000 05015G25KT P6SM -RA SCT020 OVC050 TEMPO 2720/2722 4SM -RASN BR OVC020 FM272200 05015G25KT 4SM -RA BR SCT008 OVC020 TEMPO 2722/2803 2SM -SNRA BR OVC008 FM280300 03015G25KT 6SM -SNRA BR SCT008 OVC020 TEMPO 2803/2812 2SM -SN BKN008 OVC020 BECMG 2803/2805 03010KT FM281200 34005KT P6SM BKN015 OVC030 BECMG 2816/2818 24005KT RMK NXT FCST BY 280000Z<br><br>
<br><br>
