RETRIEVED AT : Jun 23 2019 07:05 Local <br>
  RETRIEVED AT: Jun 23 2019 11:05 UTC<br><br>
CYSN has no TAF <br><br>
<br><br>
CYHM 231000Z 27003KT 15SM SCT250 11/11 A3013 RMK CI4 SLP205<br><br>
TAF CYHM 230538Z 2306/2406 VRB03KT P6SM SKC BECMG 2318/2320 19010KT BECMG 2400/2402 17005KT RMK NXT FCST BY 231200Z<br><br>
<br><br>
KIAG 231053Z 20003KT 10SM CLR 13/12 A3013 RMK AO2 SLP203 T01330117<br><br>
KIAG 230953Z AUTO 00000KT 10SM CLR 12/11 A3012 RMK AO2 SLP201 T01220106<br><br>
KIAG 230902Z 2309/2406 VRB04KT P6SM SKC FM232000 25006KT P6SM FEW250 FM232300 23005KT P6SM FEW250<br><br>
<br><br>
KBUF 231054Z 20005KT 10SM FEW300 14/10 A3014 RMK AO2 SLP205 T01440100<br><br>
KBUF 230954Z 20005KT 10SM FEW160 FEW280 13/09 A3013 RMK AO2 SLP202 T01280094<br><br>
KBUF 230902Z 2309/2406 21006KT P6SM SKC FM231900 25006KT P6SM FEW250 FM232300 23005KT P6SM FEW250<br><br>
<br><br>
CYYZ 231000Z VRB05KT 15SM SCT250 13/09 A3011 RMK CI4 SLP199<br><br>
TAF CYYZ 230838Z 2309/2412 35005KT P6SM SKC BECMG 2316/2318 18008KT FM232300 18007KT P6SM SCT250 BECMG 2403/2405 VRB03KT FM241100 12005KT P6SM BKN180 RMK NXT FCST BY 231200Z<br><br>
<br><br>
CYOO 231000Z AUTO 36007KT 9SM CLR 15/08 A3009 RMK SLP190<br><br>
TAF CYOO 230738Z 2308/2320 35008KT P6SM SKC BECMG 2316/2318 24006KT RMK FCST BASED ON AUTO OBS. NXT FCST BY 231400Z<br><br>
<br><br>
CYTR 231000Z 32007KT 15SM FEW180 FEW250 15/11 A3008 RMK AC1CI2 SLP186<br><br>
TAF CYTR 230530Z 2306/2406 VRB03KT P6SM SKC BECMG 2317/2319 22012KT BECMG 2400/2402 VRB03KT RMK NXT FCST BY 231200Z<br><br>
<br><br>
