RETRIEVED AT : Oct 03 2017 08:10 Local <br>
  RETRIEVED AT: Oct 03 2017 12:10 UTC<br><br>
CYSN 031200Z 19008KT 15SM SCT250 14/10 A3043 RMK CI3 SLP308<br><br>
CYSN 031100Z 18006KT 15SM SCT210 12/09 A3042 RMK CI3 SLP303<br><br>
CYSN has no TAF <br><br>
<br><br>
CYHM 031200Z 17003KT 15SM FEW240 10/10 A3045 RMK CI1 SLP315<br><br>
CYHM 031100Z 00000KT 15SM BCFG FEW240 10/10 A3043 RMK CI1 SLP308<br><br>
CYHM 031039Z 14003KT 15SM BCFG FEW250 10/10 A3042 RMK CI1 SLP306<br><br>
TAF CYHM 031139Z 0312/0412 VRB03KT P6SM SKC PROB30 0312/0313 11/2SM BR FM031500 20012KT P6SM SKC BECMG 0318/0320 20012G22KT RMK NXT FCST BY 031800Z<br><br>
<br><br>
KIAG 031153Z 00000KT 8SM CLR 09/06 A3045 RMK AO2 SLP318 T00890061 10111 20072 53015<br><br>
KIAG 031053Z 14003KT 10SM CLR 08/04 A3044 RMK AO2 SLP312 T00780044<br><br>
KIAG 031130Z 0312/0412 16006KT P6SM FEW250 FM031500 21009KT P6SM FEW250 FM040900 21010KT P6SM SCT045<br><br>
<br><br>
KBUF 031154Z 15006KT 10SM FEW300 11/07 A3046 RMK AO2 SLP317 T01110067 10117 20100 52015<br><br>
KBUF 031054Z 15005KT 10SM FEW300 11/07 A3045 RMK AO2 SLP313 T01060067<br><br>
KBUF 031130Z 0312/0412 16007KT P6SM FEW250 FM031500 21009KT P6SM FEW250 FM041000 21011KT P6SM SCT045<br><br>
<br><br>
CYYZ 031200Z 30002KT 15SM SCT250 09/07 A3045 RMK CI3 SLP314<br><br>
CYYZ 031100Z 00000KT 15SM SCT250 09/08 A3042 RMK CI3 SLP306<br><br>
TAF CYYZ 031139Z 0312/0418 VRB03KT P6SM SKC BECMG 0314/0316 20012KT FM032000 21012G22KT P6SM SKC BECMG 0401/0403 20010KT FM040900 22010G20KT P6SM BKN050 FM041500 23015G25KT P6SM BKN025 RMK NXT FCST BY 031500Z<br><br>
<br><br>
CYOO 031200Z AUTO 07002KT 9SM CLR 11/10 A3044 RMK SLP313<br><br>
CYOO 031100Z AUTO 08003KT 9SM CLR 11/10 A3043 RMK SLP309<br><br>
CYOO has no TAF <br><br>
<br><br>
CYTR 031200Z 00000KT 15SM FEW030 FEW230 06/06 A3046 RMK SC1CI2 SLP318<br><br>
CYTR 031100Z 01002KT 12SM SCT230 06/06 A3046 RMK CI4 SLP319<br><br>
TAF CYTR 031130Z 0312/0412 18005KT 6SM BR FEW005 TEMPO 0312/0313 4SM BR PROB30 0312/0313 2SM BR FM031300 18008KT P6SM SCT250 FM041000 22010KT P6SM BKN060 BKN250 RMK NXT FCST BY 031800Z<br><br>
<br><br>
