RETRIEVED AT : Oct 30 2017 20:10 Local <br>
  RETRIEVED AT: Oct 31 2017 00:10 UTC<br><br>
CYSN 310000Z 24014KT 15SM BKN050 07/03 A2960 RMK SC7 SLP026<br><br>
TAF CYSN 301938Z 3020/3101 25020G30KT P6SM SCT020 BKN070 TEMPO 3020/3101 P6SM -SHRA BKN020 RMK NXT FCST WILL BE ISSUED AT 311245Z<br><br>
<br><br>
CYHM 310000Z 24014G21KT 15SM BKN018 BKN080 05/03 A2959 RMK SC6AC1 SLP026<br><br>
CYHM 302300Z 23011G17KT 15SM BKN038 BKN096 05/02 A2957 RMK SC5CI1 SLP019<br><br>
TAF CYHM 302349Z 3100/3124 25015G25KT 5SM -SHRA BR BKN020 OVC050 TEMPO 3100/3103 P6SM NSW OVC050 FM310300 25015G25KT P6SM FEW020 SCT040 TEMPO 3103/3108 BKN020 FM310800 24012KT P6SM BKN020 FM311600 25015G25KT P6SM BKN040 BECMG 3120/3122 23008KT RMK NXT FCST BY 310600Z<br><br>
<br><br>
KIAG 302353Z 23010KT 10SM SCT049 BKN080 BKN110 07/03 A2961 RMK AO2 SLP035 60005 T00720028 10100 20067 51025<br><br>
KIAG 302253Z 23012KT 10SM FEW050 OVC095 07/03 A2959 RMK AO2 RAE07 SLP029 P0000 T00670028<br><br>
KIAG 302326Z 3100/3124 23012G22KT P6SM VCSH FEW050 OVC080 FM310600 26020KT P6SM BKN050 FM311500 26011KT P6SM BKN060<br><br>
<br><br>
KBUF 302354Z 23021G29KT 7SM RA SCT028 BKN034 OVC045 06/04 A2962 RMK AO2 PK WND 24029/2354 SLP036 P0009 60068 T00610044 10083 20050 51028<br><br>
KBUF 302344Z 23013G24KT 6SM -RA BR SCT013 SCT026 OVC034 06/04 A2962 RMK AO2 PK WND 21028/2318 P0009 T00560039<br><br>
KBUF 302308Z 24016G25KT 6SM RA BR BKN014 BKN022 OVC035 06/04 A2961 RMK AO2 PK WND 25027/2256 P0002 T00560044<br><br>
KBUF 302254Z 24016G30KT 3SM +RA BR FEW010 SCT014 OVC024 06/04 A2961 RMK AO2 PK WND 26030/2245 SLP031 P0026 T00560044<br><br>
KBUF 302222Z 25014G27KT 3SM +RA BR FEW010 BKN017 OVC024 05/04 A2959 RMK AO2 PK WND 24028/2210 P0015 T00500039<br><br>
KBUF 302326Z 3100/3124 24016G28KT 5SM RA BR BKN014 OVC035 FM310300 25020G32KT 6SM -RA SCT015 OVC035 FM310700 26016KT 6SM -RA BKN045 FM311200 25014KT 6SM -RA BKN040 FM312000 26015KT P6SM SCT030 FM312200 26012KT 6SM -RA BKN035<br><br>
<br><br>
CYYZ 310000Z CCA 24011KT 15SM FEW030 BKN090 05/02 A2957 RMK SC2AC4 SLP018<br><br>
CYYZ 302300Z 25012G22KT 15SM FEW018 BKN030 BKN100 05/02 A2954 RMK SC2SC3AC1 SLP009<br><br>
TAF CYYZ 302349Z 3100/0106 24015G28KT P6SM SCT020 BKN050 TEMPO 3100/3101 P6SM -SHRA OVC020 FM310100 24015G25KT P6SM SCT020 BKN040 TEMPO 3101/3110 BKN020 FM311000 24015KT P6SM BKN020 FM311500 25015G25KT P6SM BKN030 BECMG 3120/3122 24012G22KT RMK NXT FCST BY 310300Z<br><br>
<br><br>
CYOO 310000Z AUTO 24007KT 9SM CLR 06/02 A2955 RMK SLP011<br><br>
CYOO 302300Z AUTO 24009KT 9SM FEW027 06/02 A2952 RMK SLP002<br><br>
CYOO has no TAF <br><br>
<br><br>
CYTR 310000Z 25013G18KT 15SM FEW025 SCT120 06/03 A2954 RMK SC2AC2 SLP006<br><br>
CYTR 302300Z 25013G22KT 15SM FEW025 BKN120 07/03 A2951 RMK SC2AC3 SLP997<br><br>
TAF CYTR 302330Z 3100/3124 25015G25KT P6SM FEW030 BKN120 TEMPO 3100/3107 P6SM -SHRA BKN030 FM310700 25015G25KT P6SM FEW040 FM311300 25022G32KT P6SM SCT030 RMK NXT FCST BY 310600Z<br><br>
<br><br>
