RETRIEVED AT : Feb 29 2020 07:05 Local <br>
  RETRIEVED AT: Feb 29 2020 12:05 UTC<br><br>
CYSN has no TAF <br><br>
<br><br>
CYHM 291100Z 27007KT 15SM BKN038 M12/M15 A2988 RMK SC7 SLP134<br><br>
TAF CYHM 291138Z 2912/0112 29008KT P6SM BKN030 BKN080 FM291700 28010G20KT P6SM -SHSN BKN030 TEMPO 2917/2924 5SM -SHSN OVC020 FM010000 27010KT P6SM SCT040 FM011000 25008KT P6SM BKN040 RMK NXT FCST BY 291800Z<br><br>
<br><br>
KIAG 291153Z 30006KT 3SM -SN BR BKN015 M11/M13 A2989 RMK AO2 SLP142 P0000 60000 70001 T11111133 11072 21111 53025<br><br>
KIAG 291145Z 30006KT 3SM -SN BKN015 M10/M13 A2989 RMK AO2 P0000 T11001133<br><br>
KIAG 291120Z AUTO 29009KT 2 1/2SM -SN BKN021 OVC032 M09/M13 A2988 RMK AO2 VIS 2V3 P0000 T10941128<br><br>
KIAG 291053Z AUTO 29005KT 7SM -SN BKN024 BKN030 OVC035 M10/M12 A2986 RMK AO2 SLP133 P0000 T11001122<br><br>
KIAG 291011Z AUTO 34006KT 3SM -SN BR FEW014 BKN019 OVC110 M10/M12 A2985 RMK AO2 P0000 T11001117<br><br>
KIAG 291138Z 2912/0112 29009KT 4SM -SN OVC025 TEMPO 2912/2913 2SM -SN FM291600 29013G19KT P6SM VCSH OVC030 FM291700 29014G20KT P6SM OVC025 FM010100 27013KT P6SM BKN035<br><br>
<br><br>
KBUF 291154Z 30007KT 3SM -SN BKN013 BKN021 OVC030 M09/M12 A2988 RMK AO2 SLP131 4/004 P0001 60006 70006 T10941122 11061 21094 51018<br><br>
KBUF 291147Z 29007KT 2 1/2SM -SN OVC013 M09/M12 A2987 RMK AO2 P0001 T10891117<br><br>
KBUF 291141Z 31006KT 2 1/2SM -SN OVC015 M09/M12 A2987 RMK AO2 P0001 T10891117<br><br>
KBUF 291054Z 33007KT 6SM -SN SCT016 BKN023 OVC075 M09/M12 A2985 RMK AO2 SLP122 P0001 T10891117<br><br>
KBUF 291048Z 34006KT 8SM -SN FEW012 BKN033 OVC075 M09/M12 A2985 RMK AO2 P0001<br><br>
KBUF 291035Z 34008KT 9SM -SN BKN015 BKN026 OVC070 M08/M11 A2985 RMK AO2 P0001 T10831111<br><br>
KBUF 291022Z 30006KT 3SM -SN BKN011 OVC017 M08/M11 A2984 RMK AO2 P0000 T10831111<br><br>
KBUF 291009Z 29009KT 1SM R23/P6000FT -SN VV013 M08/M11 A2983 RMK AO2 P0000 T10831111<br><br>
KBUF 291138Z 2912/0112 28009KT 4SM -SN OVC025 FM291400 28010G16KT 4SM -SN OVC025 FM010000 27014KT P6SM BKN035<br><br>
<br><br>
CYYZ 291100Z 33006KT 300V040 15SM FEW090 SCT250 M14/M17 A2988 RMK AC1CI3 SLP133<br><br>
TAF CYYZ 291138Z 2912/0118 33006KT P6SM FEW025 SCT090 FM291700 29012G22KT P6SM -SHSN BKN030 TEMPO 2917/2924 5SM -SHSN OVC020 BECMG 2922/2924 31010KT FM010000 31012KT P6SM BKN030 FM010800 31006KT P6SM SCT040 FM011500 21010KT P6SM BKN040 RMK NXT FCST BY 291500Z<br><br>
<br><br>
CYOO 291100Z AUTO 29006KT 9SM CLR M17/M18 A2988 RMK SLP131<br><br>
TAF CYOO 290738Z 2908/2920 33008KT P6SM SCT060 BKN090 BECMG 2914/2916 31010G20KT FM291700 30010G20KT P6SM -SHSN BKN030 TEMPO 2917/2920 5SM -SHSN OVC020 RMK FCST BASED ON AUTO OBS. NXT FCST BY 291400Z<br><br>
<br><br>
CYTR 291100Z 32003KT 15SM FEW070 M15/M17 A2986 RMK AC1 FROIN SLP121<br><br>
TAF CYTR 291130Z 2912/0112 31005KT P6SM FEW070 FM291700 29010KT P6SM SCT030 BKN080 BECMG 0100/0102 30005KT FM010500 VRB03KT P6SM SKC RMK NXT FCST BY 291800Z<br><br>
<br><br>
