RETRIEVED AT : Mar 21 2020 21:05 Local <br>
  RETRIEVED AT: Mar 22 2020 01:05 UTC<br><br>
CYSN 220000Z 01004KT 15SM SCT190 M03/M09 A3055 RMK CI3 SLP353<br><br>
TAF CYSN 211939Z 2120/2201 01006KT P6SM SKC RMK NXT FCST WILL BE ISSUED AT 221245Z<br><br>
<br><br>
CYHM 220000Z 07005KT 15SM FEW170 M04/M11 A3052 RMK AC2 SLP352<br><br>
TAF CYHM 212338Z 2200/2224 06006KT P6SM FEW040 BECMG 2210/2212 06012KT BECMG 2214/2216 09010G20KT RMK NXT FCST BY 220600Z<br><br>
<br><br>
KIAG 220053Z 03004KT 10SM CLR M04/M14 A3055 RMK AO2 SLP365 T10391139<br><br>
KIAG 212353Z 04004KT 10SM CLR M03/M12 A3053 RMK AO2 SLP358 T10331122 11006 21039 52008<br><br>
KIAG 212330Z 2200/2224 04009KT P6SM SKC FM220800 07004KT P6SM SKC FM221600 09010KT P6SM SKC FM221800 07010G16KT P6SM FEW250 FM222300 07011KT P6SM SCT200<br><br>
<br><br>
KBUF 220054Z 02006KT 10SM CLR M02/M17 A3054 RMK AO2 SLP354 T10221167<br><br>
KBUF 212354Z 02009KT 10SM FEW200 M02/M16 A3052 RMK AO2 SLP347 T10171156 10011 21017 51011<br><br>
KBUF 212330Z 2200/2224 01007KT P6SM FEW200 FM220900 07004KT P6SM SKC FM222000 09010KT P6SM FEW250 FM222300 08010KT P6SM SCT200<br><br>
<br><br>
CYYZ 220000Z 03005KT 15SM FEW180 FEW240 M02/M12 A3055 RMK AC1CI1 SLP357<br><br>
TAF CYYZ 212338Z 2200/2306 05010KT P6SM SCT220 FM221400 08012KT P6SM SCT020 BECMG 2215/2217 09015G25KT FM230000 09010KT P6SM BKN120 RMK NXT FCST BY 220300Z<br><br>
<br><br>
CYOO 220000Z AUTO 34007KT 9SM FEW200 M02/M13 A3055 RMK SLP354<br><br>
TAF CYOO 211939Z 2120/2208 35008KT P6SM SKC FM220000 36008KT P6SM SCT170 BECMG 2205/2207 04008KT RMK FCST BASED ON AUTO OBS. NXT FCST BY 220200Z<br><br>
<br><br>
CYTR 220000Z 23006KT 15SM FEW180 SCT220 M02/M10 A3055 RMK AC2CI2 SLP352<br><br>
TAF CYTR 212330Z 2200/2224 VRB03KT P6SM SCT200 BECMG 2203/2205 03005KT FM220900 03005KT P6SM SKC BECMG 2213/2215 08010KT FM222300 08005KT P6SM FEW120 SCT250 RMK NXT FCST BY 220600Z<br><br>
<br><br>
