RETRIEVED AT : Jul 04 2020 01:05 Local <br>
  RETRIEVED AT: Jul 04 2020 05:05 UTC<br><br>
CYSN has no TAF <br><br>
<br><br>
CYHM 040400Z 01005KT 15SM SKC 23/18 A2996 RMK SLP143 DENSITY ALT 1800FT<br><br>
TAF CYHM 032338Z 0400/0424 32010KT P6SM FEW050 BECMG 0414/0416 04005KT BECMG 0420/0422 VRB03KT RMK NXT FCST BY 040600Z<br><br>
<br><br>
KIAG 040453Z AUTO 32006KT 10SM CLR 24/18 A2994 RMK AO2 SLP129 T02390183 403110183<br><br>
KIAG 040353Z AUTO 00000KT 10SM CLR 23/19 A2993 RMK AO2 SLP130 T02280189<br><br>
KIAG 040255Z 0403/0424 36004KT P6SM SCT050 SCT250 FM041400 02006KT P6SM SCT250<br><br>
<br><br>
KBUF 040454Z 24004KT 10SM SCT050 SCT290 24/21 A2994 RMK AO2 SLP133 T02390206 403220222<br><br>
KBUF 040354Z 23006KT 9SM FEW050 SCT090 SCT290 24/21 A2994 RMK AO2 SLP132 T02440206<br><br>
KBUF 040254Z 0403/0424 VRB04KT P6SM SCT040 SCT250 FM041400 36006KT P6SM FEW050 SCT250<br><br>
<br><br>
CYYZ 040400Z 34012KT 15SM SKC 25/17 A2994 RMK SLP138 DENSITY ALT 1800FT<br><br>
TAF CYYZ 040240Z 0403/0506 35012KT P6SM FEW260 FM041600 36007KT P6SM SKC BECMG 0416/0418 15008KT BECMG 0421/0423 36010KT RMK NXT FCST BY 040600Z<br><br>
<br><br>
CYOO 040400Z AUTO 35010KT 9SM CLR 24/18 A2992 RMK SLP131 DENSITY ALT 1500FT<br><br>
TAF CYOO 040139Z 0402/0414 34008KT P6SM FEW080 RMK FCST BASED ON AUTO OBS. NXT FCST BY 040800Z<br><br>
<br><br>
CYTR 040400Z AUTO 00000KT 9SM BKN062 24/21 A2990 RMK SLP126<br><br>
TAF CYTR 032330Z 0400/0424 VRB03KT P6SM FEW030 SCT100 TEMPO 0400/0402 P6SM -SHRA BKN030 OVC100 FM040200 VRB03KT P6SM BKN060 FM040700 01005KT P6SM FEW060 BECMG 0417/0419 20008KT RMK FCST BASED ON AUTO OBS 040200-041000Z. NXT FCST BY 040600Z<br><br>
<br><br>
