RETRIEVED AT : Sep 24 2017 19:10 Local <br>
  RETRIEVED AT: Sep 24 2017 23:10 UTC<br><br>
CYSN 242300Z 16004KT 15SM SKC 28/20 A3006 RMK SLP181 DENSITY ALT 1800FT<br><br>
CYSN 242200Z 10002KT 15SM SKC 31/20 A3007 RMK SLP183 DENSITY ALT 2100FT<br><br>
TAF CYSN 241938Z 2420/2501 36006KT P6SM FEW040 FM242300 VRB03KT P6SM SKC RMK NXT FCST WILL BE ISSUED AT 251245Z<br><br>
<br><br>
CYHM 242300Z 18007KT 15SM SKC 27/19 A3010 RMK SLP191 DENSITY ALT 2200FT<br><br>
CYHM 242200Z 09004KT 15SM SKC 30/20 A3010 RMK SLP190 DENSITY ALT 2500FT<br><br>
TAF CYHM 241738Z 2418/2518 VRB03KT P6SM SKC RMK NXT FCST BY 250000Z<br><br>
<br><br>
KIAG 242253Z 00000KT 10SM CLR 30/18 A3009 RMK AO2 SLP183 T03000183<br><br>
KIAG 242153Z 02004KT 10SM CLR 32/19 A3009 RMK AO2 SLP183 T03170189<br><br>
KIAG 242130Z 2422/2518 01006KT P6SM SKC FM242300 VRB04KT P6SM SKC FM250800 VRB03KT 3SM BR FEW250 FM251200 VRB03KT P6SM FEW250<br><br>
<br><br>
KBUF 242254Z 02003KT 10SM CLR 29/20 A3010 RMK AO2 SLP188 T02940200<br><br>
KBUF 242154Z 03005KT 10SM FEW050 31/19 A3010 RMK AO2 SLP189 T03110194<br><br>
KBUF 242130Z 2422/2518 25005KT P6SM SKC FM250000 19004KT P6SM SKC FM250800 VRB03KT 4SM BR FEW250 FM251200 15004KT P6SM FEW250<br><br>
<br><br>
CYYZ 242300Z 15005KT 15SM FEW250 30/18 A3007 RMK CI1 CI TR SLP183 DENSITY ALT 2300FT<br><br>
CYYZ 242200Z 16005KT 15SM FEW190 31/18 A3007 RMK AC1 SLP183 DENSITY ALT 2400FT<br><br>
TAF CYYZ 242038Z 2421/2524 17008KT P6SM SKC BECMG 2422/2424 VRB03KT FM251700 15008KT P6SM SCT240 RMK NXT FCST BY 250000Z<br><br>
<br><br>
CYOO 242300Z AUTO 21004KT 9SM CLR 28/17 A3007 RMK SLP184 DENSITY ALT 1900FT<br><br>
CYOO 242200Z AUTO 22004KT 9SM CLR 30/18 A3007 RMK SLP184 DENSITY ALT 2100FT<br><br>
CYOO has no TAF <br><br>
<br><br>
CYTR 242300Z 20003KT 12SM SKC 26/21 A3005 RMK HAZY SLP177<br><br>
CYTR 242200Z 19007KT 10SM SKC 28/21 A3005 RMK HAZY SLP175<br><br>
TAF CYTR 241730Z 2418/2518 21009KT P6SM SKC BECMG 2423/2501 VRB03KT FM250400 VRB03KT P6SM SKC TEMPO 2504/2512 3SM BR BECMG 2515/2517 20008KT RMK NXT FCST BY 250000Z<br><br>
<br><br>
