RETRIEVED AT : Sep 09 2019 04:05 Local <br>
  RETRIEVED AT: Sep 09 2019 08:05 UTC<br><br>
CYSN has no TAF <br><br>
<br><br>
CYHM 090700Z 03006KT 15SM FEW080 BKN130 11/08 A3023 RMK AC2AC4 SLP241<br><br>
TAF CYHM 090541Z 0906/1006 03007KT P6SM SCT040 BKN160 FM091200 03008KT P6SM BKN030 OVC100 FM092000 06010KT P6SM FEW040 BECMG 0923/1001 05006KT RMK NXT FCST BY 091200Z<br><br>
<br><br>
KIAG 090753Z AUTO A3024 RMK AO2 SLPNO PWINO RVRNO $<br><br>
KIAG 090653Z AUTO A3022 RMK AO2 SLPNO PWINO RVRNO $<br><br>
KIAG 090539Z 0906/1006 VRB03KT P6SM FEW040 FM090900 09004KT P6SM BKN200 FM091700 08008KT P6SM SCT100 FM092300 05005KT P6SM FEW250 AMD NOT SKED<br><br>
<br><br>
KBUF 090754Z 00000KT 10SM BKN040 12/09 A3024 RMK AO2 SLP239 T01170094<br><br>
KBUF 090654Z 12003KT 10SM FEW046 12/09 A3023 RMK AO2 SLP236 T01220089<br><br>
KBUF 090539Z 0906/1006 03005KT P6SM FEW040 FM090900 09007KT P6SM BKN180 FM091700 08008KT P6SM SCT120 FM100300 09005KT P6SM FEW250<br><br>
<br><br>
CYYZ 090700Z 06009KT 15SM FEW040 FEW180 09/07 A3025 RMK SC1AC2 SC TR SLP246<br><br>
TAF CYYZ 090541Z 0906/1012 05008KT P6SM FEW040 SCT180 FM091500 08009KT P6SM SCT030 BKN100 FM091800 13010KT P6SM BKN030 FM100000 13010KT P6SM SKC BECMG 1000/1002 05006KT FM100800 05005KT 6SM BR SKC RMK NXT FCST BY 090900Z<br><br>
<br><br>
CYOO 090700Z AUTO 03003KT 350V050 9SM CLR 08/05 A3026 RMK SLP249<br><br>
TAF CYOO 090738Z 0908/0920 03007KT P6SM FEW030 SCT210 FM091200 05008KT P6SM SCT015 BKN140 TEMPO 0912/0916 BKN015 BECMG 0912/0914 08008KT FM091600 12007KT P6SM BKN030 RMK FCST BASED ON AUTO OBS. NXT FCST BY 091400Z<br><br>
<br><br>
CYTR 090700Z 01003KT 15SM FEW050 FEW150 08/06 A3027 RMK SC2AC1 SLP252<br><br>
TAF CYTR 090530Z 0906/1006 03004KT P6SM BKN050 FM091100 05006KT P6SM SCT040 BKN150 FM092100 21005KT P6SM FEW040 BECMG 1000/1002 VRB03KT RMK NXT FCST BY 091200Z<br><br>
<br><br>
