RETRIEVED AT : Jun 13 2020 01:05 Local <br>
  RETRIEVED AT: Jun 13 2020 05:05 UTC<br><br>
CYSN has no TAF <br><br>
<br><br>
TAF CYHM 122338Z 1300/1324 31010KT P6SM FEW040 FM130300 32008KT P6SM SKC BECMG 1304/1306 VRB03KT BECMG 1310/1312 04008KT FM131800 03010KT P6SM FEW050 BECMG 1322/1324 07008KT RMK NXT FCST BY 130600Z<br><br>
<br><br>
KIAG 130252Z 1303/1324 02005KT P6SM SKC FM131400 01010KT P6SM SCT250 FM132200 04007KT P6SM FEW250<br><br>
<br><br>
KBUF 130251Z 1303/1324 35005KT P6SM SKC FM131200 03007KT P6SM SKC FM131600 01010KT P6SM FEW250<br><br>
<br><br>
TAF CYYZ 130238Z 1303/1406 01010KT P6SM FEW150 FM130900 01010KT P6SM BKN150 FM131600 03012KT P6SM FEW200 BECMG 1320/1322 13010KT FEW060 FM140200 02008KT P6SM SKC RMK NXT FCST BY 130600Z<br><br>
<br><br>
TAF CYOO 130141Z 1302/1314 33008KT P6SM FEW150 FM130800 36008KT P6SM BKN150 RMK FCST BASED ON AUTO OBS. NXT FCST BY 130800Z<br><br>
<br><br>
TAF CYTR 122330Z 1300/1324 30010G20KT P6SM FEW050 BECMG 1300/1302 33010KT FM130700 35008KT P6SM SCT040 BKN160 FM131600 01007KT P6SM SCT060 BECMG 1318/1320 20008KT RMK NXT FCST BY 130600Z<br><br>
<br><br>
