RETRIEVED AT : Sep 19 2019 21:33 Local <br>
  RETRIEVED AT: Sep 20 2019 01:33 UTC<br><br>
CYSN 200100Z 11007KT 15SM FEW110 BKN250 16/13 A3019 RMK AC2CI5 LAST STFD OBS/NEXT 201100Z SLP225<br><br>
CYSN 200000Z 10006KT 15SM SCT110 BKN250 16/12 A3018 RMK AC3CI4 SLP223<br><br>
TAF CYSN 191941Z 1920/2001 VRB03KT P6SM BKN250 RMK NXT FCST WILL BE ISSUED AT 201245Z<br><br>
<br><br>
CYHM 200100Z 04006KT 15SM SCT250 15/12 A3020 RMK CI3 SLP229<br><br>
CYHM 200000Z 08004KT 15SM FEW140 SCT250 17/10 A3020 RMK AC1CI2 CONTRAILS SLP228 DENSITY ALT 900FT<br><br>
TAF CYHM 192340Z 2000/2024 08005KT P6SM SCT230 FM200300 VRB03KT P6SM SKC PROB30 2009/2013 1SM BR FM201300 22008KT P6SM FEW040 RMK NXT FCST BY 200600Z<br><br>
<br><br>
KIAG 200053Z 00000KT 10SM CLR 16/12 A3021 RMK AO2 SLP232 T01560117<br><br>
KIAG 192353Z 06004KT 10SM CLR 17/13 A3020 RMK AO2 SLP230 T01670128 10233 20167 55002<br><br>
KIAG 192320Z 2000/2024 07004KT P6SM BKN250 FM200300 19004KT P6SM SCT250 FM201700 21007KT P6SM SCT250<br><br>
<br><br>
KBUF 200054Z 17005KT 10SM SCT200 BKN250 18/11 A3021 RMK AO2 SLP231 T01780106<br><br>
KBUF 192354Z 14007KT 10SM FEW150 BKN200 BKN250 21/09 A3020 RMK AO2 SLP228 T02060094 10250 20206 55001<br><br>
KBUF 192320Z 2000/2024 10004KT P6SM BKN250 FM200200 16005KT P6SM SCT250 FM201400 20005KT P6SM SCT250 FM201700 23007KT P6SM SCT250<br><br>
<br><br>
CYYZ 200100Z 11005KT 15SM FEW250 17/13 A3020 RMK CI1 CI TR SLP230 DENSITY ALT 700FT<br><br>
CYYZ 200000Z 13005KT 15SM BKN250 18/13 A3020 RMK CI5 SLP228 DENSITY ALT 800FT<br><br>
TAF CYYZ 192340Z 2000/2106 11006KT P6SM SKC FM200300 VRB03KT P6SM FEW001 PROB30 2009/2013 5SM BR FM201300 VRB03KT P6SM SKC FM201600 16010G20KT P6SM SKC RMK NXT FCST BY 200300Z<br><br>
<br><br>
CYOO 200100Z AUTO 10005KT 9SM CLR 15/13 A3021 RMK SLP233<br><br>
CYOO 200000Z AUTO 09003KT 9SM CLR 16/13 A3021 RMK SLP233<br><br>
TAF CYOO 191939Z 1920/2008 16005KT P6SM SKC TEMPO 1920/1923 5SM HZ FM192300 10008KT P6SM SKC FM200600 VRB03KT P6SM SKC PROB30 2006/2008 1SM BR RMK FCST BASED ON AUTO OBS. NXT FCST BY 200200Z<br><br>
<br><br>
CYTR 200100Z 02003KT 15SM FEW240 13/11 A3023 RMK CI1 SLP237<br><br>
CYTR 200000Z 03002KT 15SM FEW190 OVC240 15/11 A3023 RMK AC1CI7 SLP237<br><br>
TAF CYTR 192330Z 2000/2024 VRB03KT P6SM BKN240 FM201600 21008KT P6SM SCT140 BKN240 RMK NXT FCST BY 200600Z<br><br>
<br><br>
