RETRIEVED AT : Oct 15 2017 04:10 Local <br>
  RETRIEVED AT: Oct 15 2017 08:10 UTC<br><br>
CYSN has no TAF <br><br>
<br><br>
CYHM 150800Z 17007KT 15SM FEW037 OVC058 16/15 A2983 RMK SC1SC7 PRESFR SLP103 DENSITY ALT 1200FT<br><br>
CYHM 150700Z 12005KT 10SM -RA OVC060 15/15 A2988 RMK SC8 SLP120 DENSITY ALT 1000FT<br><br>
TAF AMD CYHM 150607Z 1506/1606 08006KT 11/2SM BR BKN003 OVC070 TEMPO 1506/1508 6SM BR SCT003 BKN070 FM150800 19010KT 6SM BR SCT090 BKN200 TEMPO 1508/1511 2SM BR FM151100 21015KT WS005/22035KT P6SM SCT008 BKN025 TEMPO 1511/1518 5SM -DZ -RA BR BKN008 OVC020 BECMG 1513/1515 22020G35KT FM151800 23025G40KT P6SM -SHRA OVC025 PROB30 1518/1521 VRB30G50KT 2SM +TSRA BR OVC020CB FM152100 24020G35KT P6SM BKN025 BECMG 1523/1524 29018G30KT BECMG 1603/1604 31012KT RMK NXT FCST BY 151200Z<br><br>
<br><br>
KIAG 150753Z AUTO 18008KT 10SM FEW100 SCT120 18/14 A2986 RMK AO2 SLP110 T01830144<br><br>
KIAG 150520Z 1506/1606 13007KT P6SM BKN090 WS020/22040KT FM150900 20012G19KT P6SM SCT090 BKN200 WS020/22050KT FM151400 21020G31KT P6SM BKN060 FM151800 21024G35KT P6SM BKN050 FM152000 23026G42KT 3SM SHRA OVC015 FM152200 26024G38KT P6SM BKN040 FM160200 29018G28KT P6SM BKN025<br><br>
<br><br>
KBUF 150754Z 17007KT 10SM FEW110 OVC140 17/14 A2988 RMK AO2 SLP115 T01720139<br><br>
KBUF 150654Z 15005KT 10SM FEW100 OVC140 17/14 A2993 RMK AO2 SLP132 T01670139<br><br>
KBUF 150520Z 1506/1606 14007KT P6SM BKN090 WS020/22040KT FM150900 20013G21KT P6SM SCT090 BKN200 WS020/22050KT FM151400 21020G31KT P6SM BKN060 FM151800 21024G35KT P6SM BKN050 FM152000 23026G42KT 3SM SHRA OVC015 FM152200 25024G38KT P6SM BKN040 FM160200 28018G28KT P6SM BKN025<br><br>
<br><br>
CYYZ 150800Z 12006KT 5SM -RA BR FEW007 OVC026 15/15 A2984 RMK SF1NS7 PRESFR SLP107 DENSITY ALT 900FT<br><br>
CYYZ 150700Z 14007KT 6SM -RA BR FEW008 BKN033 OVC082 15/14 A2989 RMK SF1SC4AC3 SLP124 DENSITY ALT 800FT<br><br>
TAF CYYZ 150539Z 1506/1612 14005KT 6SM -RA BR SCT006 OVC040 TEMPO 1506/1507 4SM -DZ BR BKN006 OVC040 FM150800 15005KT 6SM BR BKN040 OVC100 FM151100 19010KT WS005/21030KT P6SM BKN015 OVC030 TEMPO 1511/1518 5SM -DZ -RA BR BKN008 OVC015 BECMG 1514/1515 22020G35KT FM151800 22025G40KT P6SM -SHRA OVC025 PROB30 1518/1521 VRB30G50KT 2SM +TSRA BR OVC020CB FM152100 25025G40KT P6SM BKN025 BECMG 1600/1601 31018G28KT FM160500 33012G22KT P6SM BKN015 BECMG 1609/1610 33008KT RMK NXT FCST BY 150900Z<br><br>
<br><br>
CYOO 150807Z AUTO 12007KT 6SM BR OVC070 16/15 A2985 RMK SLP110 DENSITY ALT 700FT<br><br>
CYOO 150800Z AUTO 12003KT 6SM -RA BR BKN065 OVC077 16/15 A2987 RMK SLP115 DENSITY ALT 700FT<br><br>
CYOO 150757Z AUTO 11005KT 6SM -RA BR FEW050 BKN070 OVC079 16/15 A2986 RMK SLP114 DENSITY ALT 700FT<br><br>
CYOO 150733Z AUTO 12008KT 4SM -RA BR SCT005 OVC080 16/15 A2987 RMK SLP118 DENSITY ALT 700FT<br><br>
CYOO 150732Z AUTO 12006KT 4SM -RA BR BKN005 OVC080 16/15 A2987 RMK SLP118 DENSITY ALT 700FT<br><br>
CYOO 150728Z AUTO 12006KT 4SM BR BKN005 BKN065 OVC082 16/15 A2988 RMK SLP118 DENSITY ALT 700FT<br><br>
CYOO 150700Z AUTO 11008KT 5SM -RA BR BKN005 OVC110 16/15 A2990 RMK SLP126 DENSITY ALT 600FT<br><br>
CYOO 150653Z AUTO 11006KT 5SM -RA BR BKN005 OVC110 16/15 A2990 RMK SLP126 DENSITY ALT 600FT<br><br>
CYOO 150648Z AUTO 12007KT 5SM BR BKN005 OVC110 16/15 A2990 RMK SLP127 DENSITY ALT 600FT<br><br>
CYOO 150643Z AUTO 12008G17KT 5SM -RA BR BKN005 OVC110 16/15 A2990 RMK PRESFR SLP127 DENSITY ALT 600FT<br><br>
CYOO has no TAF <br><br>
<br><br>
CYTR 150800Z 15009KT 10SM FEW012 OVC073 16/15 A2988 RMK SF2AC6 PRESFR SLP120<br><br>
CYTR 150727Z 12002KT 6SM BR FEW012 SCT033 OVC073 16/15 A2991 RMK SF2SC2AC4 PRESFR SLP130<br><br>
CYTR 150700Z 00000KT 5SM -RA BR BKN012 OVC033 16/15 A2994 RMK SF5SC3 SLP141<br><br>
TAF AMD CYTR 150742Z 1507/1606 VRB03KT P6SM SCT015 OVC030 TEMPO 1507/1518 5SM -SHRA BR OVC015 BECMG 1512/1514 22015G25KT FM151800 24020G35KT P6SM SCT010 OVC025 TEMPO 1518/1524 3SM -SHRA BR OVC010 PROB30 1519/1522 VRB35G50KT 1SM TSRA BR BKN005 OVC010CB FM160000 24022G38KT P6SM BKN030 BECMG 1602/1604 28020G30KT RMK NXT FCST BY 151200Z<br><br>
<br><br>
