RETRIEVED AT : Jun 07 2019 23:05 Local <br>
  RETRIEVED AT: Jun 08 2019 03:05 UTC<br><br>
CYSN has no TAF <br><br>
<br><br>
CYHM 080100Z 01005KT 15SM FEW230 20/09 A3003 RMK CI2 SLP168 DENSITY ALT 1400FT<br><br>
TAF CYHM 072338Z 0800/0824 04005KT P6SM FEW240 FM080300 03005KT P6SM SKC BECMG 0812/0814 05015KT RMK NXT FCST BY 080600Z<br><br>
<br><br>
KIAG 080253Z 00000KT 10SM CLR 16/10 A3005 RMK AO2 SLP176 T01610100 $<br><br>
KIAG 080153Z 00000KT 10SM CLR 18/10 A3003 RMK AO2 SLP169 T01780100<br><br>
KIAG 080234Z 0803/0824 VRB03KT P6SM FEW250 FM080900 08005KT P6SM FEW250 FM081500 07010KT P6SM FEW250<br><br>
<br><br>
KBUF 080254Z 02004KT 10SM SCT270 19/08 A3006 RMK AO2 SLP178 T01940083 53018<br><br>
KBUF 080154Z 04003KT 10SM FEW270 21/07 A3004 RMK AO2 SLP170 T02060072<br><br>
KBUF 080234Z 0803/0824 VRB03KT P6SM FEW250 FM080900 10005KT P6SM FEW250 FM081500 07009KT P6SM FEW250<br><br>
<br><br>
CYYZ 080200Z 04008KT 15SM FEW250 19/08 A3005 RMK CI1 CI TR SLP177 DENSITY ALT 1100FT<br><br>
TAF CYYZ 080238Z 0803/0906 04007KT P6SM FEW250 FM081200 08012KT P6SM SKC BECMG 0814/0816 13010G20KT BECMG 0900/0902 09010KT RMK NXT FCST BY 080600Z<br><br>
<br><br>
CYOO 080200Z AUTO 34007KT 9SM CLR 19/11 A3004 RMK SLP173 DENSITY ALT 800FT<br><br>
TAF CYOO 080138Z 0802/0814 33007KT P6SM SKC BECMG 0804/0806 04008KT BECMG 0811/0813 11012KT RMK FCST BASED ON AUTO OBS. NXT FCST BY 080800Z<br><br>
<br><br>
CYTR 080200Z 21002KT 15SM FEW250 17/11 A3003 RMK CI1 SLP169<br><br>
TAF CYTR 072330Z 0800/0824 23010KT P6SM FEW050 FEW250 BECMG 0800/0802 VRB03KT BECMG 0804/0806 04007KT FM081400 09007KT P6SM SKC BECMG 0816/0818 21010KT RMK NXT FCST BY 080600Z<br><br>
<br><br>
