RETRIEVED AT : Apr 29 2018 07:04 Local <br>
  RETRIEVED AT: Apr 29 2018 11:04 UTC<br><br>
CYSN has no TAF <br><br>
<br><br>
CYHM 291051Z 34011KT 8SM -SN BKN020 BKN035 01/M02 A3012 RMK SC6SC1 SLP209<br><br>
CYHM 291000Z 33007KT 15SM BKN019 OVC034 01/M02 A3009 RMK SC6SC2 SLP201<br><br>
TAF AMD CYHM 291017Z 2910/3006 33008KT P6SM SCT020 OVC030 TEMPO 2910/2912 2SM -SHSN OVC020 FM291200 32010G20KT P6SM OVC030 FM291500 32012G22KT P6SM SKC BECMG 2916/2918 32015G25KT BECMG 2922/2924 31012KT RMK NXT FCST BY 291200Z<br><br>
<br><br>
KIAG 291053Z 30009KT 10SM BKN006 OVC011 02/M01 A3010 RMK AO2 SNE29 CIG 005V010 SLP204 P0001 T00171011<br><br>
KIAG 291046Z AUTO 31009KT 9SM BKN006 OVC011 02/M01 A3010 RMK AO2 SNE29 CIG 005V010 P0001 T00171011<br><br>
KIAG 291017Z AUTO 30008KT 3SM -SN OVC008 02/M01 A3008 RMK AO2 CIG 005V011 P0001 T00171011<br><br>
KIAG 291003Z AUTO 30009KT 1 3/4SM -SN BKN008 OVC018 02/M01 A3008 RMK AO2 CIG 005V011 P0001 T00171011<br><br>
KIAG 290953Z AUTO 32009KT 3SM -SN BKN008 OVC018 02/M01 A3007 RMK AO2 SNB15 SLP196 P0000 T00171011<br><br>
KIAG 290942Z AUTO 31008KT 2 1/2SM -SN BKN008 BKN015 OVC021 02/M01 A3007 RMK AO2 SNB15 P0000 T00171011<br><br>
KIAG 290936Z AUTO 32007KT 3SM -SN SCT008 BKN013 OVC021 02/M02 A3007 RMK AO2 SNB15 P0000 T00171017<br><br>
KIAG 290933Z AUTO 31009KT 2 1/2SM -SN BKN008 BKN016 OVC021 02/M01 A3007 RMK AO2 SNB15 P0000 T00171011<br><br>
KIAG 290927Z AUTO 32009KT 2SM -SN SCT010 BKN016 OVC021 02/M01 A3007 RMK AO2 SNB15 P0000 T00171011<br><br>
KIAG 290836Z 2909/3006 31010KT P6SM OVC025 TEMPO 2909/2912 2SM -SN FM291200 30010G16KT 3SM -SHSN OVC025 TEMPO 2912/2915 2SM -SN FM291600 30015G21KT P6SM OVC130 FM291700 30015G21KT P6SM BKN200 FM300100 31010KT P6SM FEW250<br><br>
<br><br>
KBUF 291054Z 28007KT 5SM -SN BR OVC007 01/00 A3009 RMK AO2 CIG 005V011 SLP198 P0000 T00060000 $<br><br>
KBUF 291037Z 30006KT 4SM -SN BR BKN007 OVC010 01/M01 A3009 RMK AO2 P0000 T00061006 $<br><br>
KBUF 291030Z 29008KT 4SM -SN BR BKN010 BKN015 OVC027 01/M01 A3008 RMK AO2 CIG 007V012 P0000 T00061006 $<br><br>
KBUF 291016Z 30008KT 2SM -SN BR BKN013 OVC027 01/M01 A3008 RMK AO2 P0000 T00061011 $<br><br>
KBUF 290954Z 29007KT 10SM -SN BKN015 OVC020 01/M01 A3007 RMK AO2 SNB54 SLP189 P0000 T00111011 $<br><br>
KBUF 290836Z 2909/3006 30009KT P6SM OVC025 TEMPO 2910/2912 2SM -SN FM291200 30010G16KT 3SM -SHSN OVC025 TEMPO 2912/2915 2SM -SN FM291500 29012G21KT P6SM VCSH OVC025 FM291700 29014G22KT P6SM OVC200 FM300100 31010KT P6SM FEW250<br><br>
<br><br>
CYYZ 291015Z 34014G20KT 10SM R33R/5500VP6000FT/U VCSH FEW030 OVC042 00/M02 A3010 RMK SF1SC7 VIS S 5 SLP201<br><br>
CYYZ 291000Z 34016G22KT 1 3/4SM R33R/4500VP6000FT/D -SN VV008 00/M03 A3009 RMK SN8 SLP199<br><br>
CYYZ 290949Z 35014G23KT 3SM R33R/5500VP6000FT/D -SN OVC011 00/M03 A3009 RMK SN4SC4 SLP198<br><br>
TAF AMD CYYZ 290935Z 2909/3012 34015G25KT 6SM -SHSN SCT015 OVC040 TEMPO 2909/2911 2SM -SHSN OVC015 FM291100 34015G25KT P6SM FEW020 OVC040 FM291400 33015G25KT P6SM FEW090 FM291600 34018G28KT P6SM SKC BECMG 2923/3001 33015KT FM300300 31012KT P6SM SKC RMK NXT FCST BY 291200Z<br><br>
<br><br>
CYOO 291041Z AUTO 34015G20KT 9SM OVC038 01/M02 A3008 RMK SLP191<br><br>
CYOO 291026Z AUTO 33013KT 9SM -SN FEW029 OVC040 01/M01 A3007 RMK SLP190<br><br>
CYOO 291013Z AUTO 34012G21KT 9SM -SN -UP BKN031 OVC040 01/M01 A3007 RMK SLP188<br><br>
CYOO 291000Z AUTO 34013G21KT 9SM -SN OVC036 01/M01 A3006 RMK SLP186<br><br>
CYOO 290934Z AUTO 34013G19KT 9SM -SN OVC036 01/M01 A3005 RMK SLP182<br><br>
CYOO 290925Z AUTO 34013G22KT 9SM -SN -UP BKN036 OVC046 01/M01 A3005 RMK SLP181<br><br>
CYOO 290923Z AUTO 34015G22KT 9SM -SN BKN036 BKN046 OVC055 01/M01 A3005 RMK SLP181<br><br>
CYOO 290917Z AUTO 33014KT 9SM -RASN BKN036 BKN044 OVC055 01/M01 A3005 RMK SLP181<br><br>
CYOO 290912Z AUTO 34013G18KT 9SM -RA BKN036 BKN046 OVC055 01/M01 A3005 RMK SLP181<br><br>
CYOO has no TAF <br><br>
<br><br>
CYTR 291000Z 31008KT 7SM -RA OVC140 03/01 A3000 RMK AC8 SLP164<br><br>
CYTR 290949Z 33006KT 7SM -RA OVC140 02/01 A3000 RMK AC8 SLP163<br><br>
TAF AMD CYTR 290808Z 2908/3006 32007KT 3SM -RASN BR OVC009 TEMPO 2908/2911 P6SM -RA SCT009 OVC025 FM291100 33008G18KT P6SM SCT010 OVC025 TEMPO 2911/2916 4SM -RASN BR BKN010 OVC025 FM291600 33012G22KT P6SM SCT030 BKN070 FM291900 33012G22KT P6SM BKN070 FM300000 33012KT P6SM SCT070 BKN120 RMK NXT FCST BY 291200Z<br><br>
<br><br>
