RETRIEVED AT : Oct 07 2017 13:10 Local <br>
  RETRIEVED AT: Oct 07 2017 17:10 UTC<br><br>
CYSN 071700Z 19011KT 15SM SCT130 BKN240 25/18 A2985 RMK AC3CI3 SLP109 DENSITY ALT 1700FT<br><br>
CYSN 071600Z 18008KT 15SM BKN130 22/19 A2989 RMK AC7 SLP121 DENSITY ALT 1300FT<br><br>
TAF CYSN 071239Z 0713/0801 13006KT P6SM OVC110 TEMPO 0713/0717 P6SM -SHRA BECMG 0714/0716 20012G22KT FM071900 20015G25KT P6SM SCT150 BECMG 0723/0801 18015KT RMK NXT FCST BY 072000Z<br><br>
<br><br>
CYHM 071700Z 20015G22KT 15SM SCT130 BKN150 25/17 A2985 RMK AC3AC3 SLP106 DENSITY ALT 2200FT<br><br>
CYHM 071600Z 21009KT 15SM FEW062 SCT130 BKN160 23/18 A2989 RMK SC2AC2AC2 SLP120 DENSITY ALT 1900FT<br><br>
TAF CYHM 071138Z 0712/0812 20008KT P6SM SCT050 BKN120 TEMPO 0712/0717 P6SM -SHRA BECMG 0714/0716 20015G25KT FM071700 20015G25KT P6SM SCT130 BECMG 0717/0719 20015G30KT BECMG 0722/0724 20012KT FM080200 20012KT WS010/18040KT P6SM BKN080 FM080600 23025G40KT 4SM -SHRA BR BKN020 OVC040 PROB30 0806/0809 2SM +TSRA BKN008 OVC020CB FM080900 23025G35KT P6SM BKN025 RMK NXT FCST BY 071800Z<br><br>
<br><br>
KIAG 071653Z 17006KT 10SM CLR 24/18 A2988 RMK AO2 SLP115 T02440183<br><br>
KIAG 071553Z 18005KT 10SM SCT120 22/17 A2992 RMK AO2 SLP129 T02220172<br><br>
KIAG 071502Z 0715/0812 16005KT P6SM SCT050 BKN150 FM071800 20013KT P6SM BKN150 FM080200 19010G16KT P6SM BKN070 FM080800 20021G39KT 6SM -SHRA OVC025<br><br>
<br><br>
KBUF 071654Z 18011KT 10SM SCT130 BKN170 BKN230 26/17 A2990 RMK AO2 SLP120 T02560167<br><br>
KBUF 071554Z 19006KT 10SM FEW100 BKN130 BKN160 23/18 A2992 RMK AO2 SLP131 T02280178<br><br>
KBUF 071502Z 0715/0812 17006KT P6SM SCT050 BKN150 FM071800 20012KT P6SM BKN150 FM080700 18018G34KT P6SM VCSH OVC035 FM080900 20021G39KT 6SM -SHRA OVC015<br><br>
<br><br>
CYYZ 071700Z 13008KT 15SM BKN130 BKN160 20/18 A2984 RMK AC5AC2 SLP107 DENSITY ALT 1400FT<br><br>
CYYZ 071627Z 14008KT 15SM FEW007 BKN120 BKN230 19/18 A2986 RMK SF1AC7CI1 SF TR CI TR PRESFR SLP111 DENSITY ALT 1300FT<br><br>
CYYZ 071603Z 16007KT 12SM -RA FEW007 OVC140 19/17 A2988 RMK SF1AC7 SLP121 DENSITY ALT 1300FT<br><br>
CYYZ 071600Z 16007KT 12SM FEW007 OVC140 19/17 A2988 RMK SF1AC7 SLP120 DENSITY ALT 1300FT<br><br>
CYYZ 071527Z 15008KT 15SM FEW007 FEW070 OVC130 19/17 A2990 RMK SF1AC1AC6 SLP126 DENSITY ALT 1200FT<br><br>
TAF CYYZ 071439Z 0715/0818 15008KT P6SM BKN120 TEMPO 0715/0718 P6SM -SHRA SCT050 OVC100 BECMG 0715/0717 20010G20KT FM072000 20015G25KT P6SM SCT200 BECMG 0800/0802 18015KT FM080200 18010KT WS005/18035KT P6SM FEW200 FM080500 18010KT WS010/18040KT 4SM -SHRA BR SCT020 BKN040 PROB30 0805/0809 VRB30G40KT 2SM +TSRA BKN008 OVC020CB FM080900 24030G40KT P6SM BKN025 BECMG 0810/0812 24015G30KT FM081400 26015G25KT P6SM FEW040 RMK NXT FCST BY 071800Z<br><br>
<br><br>
CYOO 071706Z AUTO 12007KT 9SM FEW100 BKN130 20/17 A2985 RMK SLP111 DENSITY ALT 1100FT<br><br>
CYOO 071700Z AUTO 11008KT 9SM -RA FEW100 BKN140 19/17 A2986 RMK SLP113 DENSITY ALT 1100FT<br><br>
CYOO 071648Z AUTO 12006KT 9SM -RA SCT100 BKN130 19/17 A2987 RMK PRESFR SLP116 DENSITY ALT 1100FT<br><br>
CYOO 071600Z AUTO 13006KT 9SM BKN120 BKN140 19/17 A2991 RMK SLP130 DENSITY ALT 1000FT<br><br>
CYOO 071555Z AUTO 13009KT 9SM BKN120 BKN140 19/16 A2991 RMK SLP131 DENSITY ALT 1000FT<br><br>
CYOO 071543Z AUTO 14007KT 9SM -RA OVC120 19/16 A2992 RMK SLP134 DENSITY ALT 1000FT<br><br>
CYOO has no TAF <br><br>
<br><br>
CYTR 071700Z 18003KT 15SM -RA FEW010 BKN100 OVC130 20/18 A2991 RMK SF1AC7AC1 PCPN VRY LGT SLP131<br><br>
CYTR 071624Z 17005KT 15SM -RA FEW008 OVC083 20/18 A2993 RMK SF1AC7 PCPN VRY LGT SLP136<br><br>
CYTR 071600Z 19010KT 15SM FEW008 OVC083 20/18 A2995 RMK SF2AC6 SLP142<br><br>
TAF AMD CYTR 071340Z 0713/0812 22010KT P6SM SCT005 OVC025 TEMPO 0713/0715 3SM -RA BR BKN005 OVC010 FM071500 18010KT P6SM SCT015 BKN040 TEMPO 0715/0717 5SM -RA BR BKN015 OVC040 FM072000 20010KT P6SM FEW040 SCT150 FM080600 20012KT P6SM FEW010 SCT040 FM080900 24015KT 3SM -SHRA BR BKN010 OVC030 RMK NXT FCST BY 071800Z<br><br>
<br><br>
