RETRIEVED AT : Jun 16 2019 05:05 Local <br>
  RETRIEVED AT: Jun 16 2019 09:05 UTC<br><br>
CYSN has no TAF <br><br>
<br><br>
CYHM 160800Z CCA 06010G16KT 1SM R12/6000FT/N DZ BR OVC002 13/13 A2984 RMK FG3ST5 SLP105 DENSITY ALT 900FT<br><br>
TAF CYHM 160538Z 1606/1706 05008KT 6SM BR OVC010 TEMPO 1606/1610 11/2SM -DZ BR OVC005 PROB40 1606/1609 3/4SM -RA -DZ BR OVC003 FM161000 04012KT P6SM FEW005 OVC012 TEMPO 1610/1612 5SM -DZ BR BKN005 OVC012 FM161400 04012KT P6SM BKN020 OVC050 FM161600 06012KT P6SM BKN025 FM170500 03005KT P6SM BKN120 RMK NXT FCST BY 161200Z<br><br>
<br><br>
KIAG 160853Z AUTO 05007KT 10SM OVC013 13/12 A2984 RMK AO2 SLP106 T01280117 55010<br><br>
KIAG 160818Z AUTO 06006KT 10SM OVC016 13/12 A2983 RMK AO2 T01330117<br><br>
KIAG 160753Z AUTO 07007KT 10SM FEW005 BKN012 OVC016 13/12 A2983 RMK AO2 SLP105 T01330117<br><br>
KIAG 160743Z AUTO 08007KT 10SM SCT005 OVC010 13/12 A2985 RMK AO2 T01330122<br><br>
KIAG 160719Z AUTO 05009KT 4SM BR OVC004 14/13 A2985 RMK AO2 T01390133<br><br>
KIAG 160903Z 1609/1706 04006KT P6SM OVC012 FM161200 05008KT P6SM OVC007 FM161700 05008KT P6SM BKN015 FM162000 05007KT P6SM SCT025 BKN120<br><br>
<br><br>
KBUF 160854Z 03005KT 1SM R23/3500VP6000FT BR OVC001 14/13 A2983 RMK AO2 SLP102 60000 T01440133 56010<br><br>
KBUF 160849Z 04007KT 1SM R23/6000VP6000FT BR OVC001 14/13 A2983 RMK AO2<br><br>
KBUF 160818Z 04009KT 1 1/2SM BR OVC002 14/13 A2983 RMK AO2 T01440133<br><br>
KBUF 160754Z 04006KT 1 1/2SM R23/6000VP6000FT BR OVC001 14/14 A2984 RMK AO2 SLP104 T01440139<br><br>
KBUF 160746Z 03008KT 1 1/2SM BR OVC001 14/14 A2984 RMK AO2 T01440139<br><br>
KBUF 160715Z 02008KT 3SM BR OVC002 15/14 A2985 RMK AO2 T01500139<br><br>
KBUF 160903Z 1609/1706 04006KT 1SM -DZ BR OVC002 FM161400 05008KT P6SM OVC007 FM161700 05008KT P6SM BKN015 FM162100 05007KT P6SM SCT025 BKN120<br><br>
<br><br>
CYYZ 160800Z 06007KT 15SM FEW025 BKN049 13/11 A2986 RMK CU1SC5 CU TR SLP112<br><br>
TAF CYYZ 160839Z 1609/1712 06010KT P6SM BKN050 BECMG 1612/1614 08010KT FM170000 14005KT P6SM FEW050 BECMG 1700/1702 32005KT RMK NXT FCST BY 161200Z<br><br>
<br><br>
CYOO 160800Z AUTO 36006KT 9SM CLR 10/09 A2986 RMK SLP113<br><br>
TAF CYOO 160738Z 1608/1620 01005KT P6SM BKN100 FM161500 08010KT P6SM SKC BECMG 1618/1620 16008KT RMK FCST BASED ON AUTO OBS. NXT FCST BY 161400Z<br><br>
<br><br>
CYTR 160800Z 36004KT 15SM FEW100 SCT240 09/09 A2985 RMK AC1CI2 SLP111<br><br>
TAF CYTR 160530Z 1606/1706 VRB03KT P6SM FEW050 BKN240 PROB30 1606/1609 1SM BR FM161300 04010KT P6SM SCT240 FM161800 21010KT P6SM SCT030 BECMG 1623/1701 VRB03KT RMK NXT FCST BY 161200Z<br><br>
<br><br>
