RETRIEVED AT : May 15 2020 11:05 Local <br>
  RETRIEVED AT: May 15 2020 15:05 UTC<br><br>
CYSN 151400Z 22009G15KT 15SM BKN049 OVC100 16/16 A2985 RMK SC6AC2 SLP110 DENSITY ALT 600FT<br><br>
CYSN 151347Z 21011KT 15SM OVC045 16/16 A2985 RMK SC8 SLP110 DENSITY ALT 600FT<br><br>
CYSN 151325Z 21008KT 5SM -RA BR BKN030 OVC090 16/16 A2985 RMK SC5AC3 SLP112 DENSITY ALT 600FT<br><br>
TAF CYSN 151238Z 1513/1601 21012KT P6SM -RA OVC030 TEMPO 1513/1515 5SM SHRA BR OVC015 FM151500 22012G22KT P6SM BKN030 TEMPO 1515/1517 5SM -SHRA BR OVC015 FM151700 23015G25KT P6SM -SHRA OVC025 TEMPO 1517/1522 4SM SHRA BR OVC015 PROB30 1517/1521 VRB25G35KT 2SM TSRA BR BKN008 OVC015CB FM152200 30010G20KT P6SM BKN015 OVC025 FM160000 33008KT P6SM SCT025 RMK NXT FCST BY 152000Z<br><br>
<br><br>
CYHM 151452Z 21012G19KT 15SM BKN008 BKN100 18/17 A2980 RMK CU6AC1 SLP093 DENSITY ALT 1500FT<br><br>
CYHM 151446Z 20013KT 15SM SCT006 BKN100 BKN250 18/17 A2980 RMK CF4AC2CI1 SLP094 DENSITY ALT 1500FT<br><br>
CYHM 151426Z 20013KT 12SM BKN005 BKN100 17/16 A2981 RMK CF5AC1 SLP098 DENSITY ALT 1400FT<br><br>
CYHM 151400Z 19012KT 9SM BKN004 BKN110 16/15 A2982 RMK CF5AC2 SLP101 DENSITY ALT 1200FT<br><br>
CYHM 151352Z 19012KT 9SM -RA BKN005 BKN039 OVC110 16/15 A2982 RMK CF5SC1AC2 PCPN VRY LGT PRESFR SLP102 DENSITY ALT 1200FT<br><br>
CYHM 151315Z 19010KT 7SM -RA FEW004 FEW010 BKN056 OVC085 15/15 A2985 RMK CF1SC2SC4AC2 CF TR PRESFR SLP112 DENSITY ALT 1100FT<br><br>
TAF AMD CYHM 151405Z 1514/1612 20010G20KT P6SM SCT004 BKN040 TEMPO 1514/1516 4SM -SHRA BR BKN004 OVC030 FM151600 22015G25KT P6SM SCT020 BKN030 TEMPO 1516/1518 BKN020 OVC030 FM151800 22018G28KT P6SM SCT015 BKN040 TEMPO 1518/1521 3SM -SHRA BR BKN015 OVC040 FM152100 30010KT P6SM BKN030 TEMPO 1521/1524 BKN020 FM160000 35008KT P6SM SKC BECMG 1601/1603 VRB03KT FM160700 VRB03KT P6SM SKC PROB30 1607/1612 1SM BR BKN003 RMK NXT FCST BY 151800Z<br><br>
<br><br>
KIAG 151453Z 19011KT 10SM FEW045 SCT110 18/16 A2982 RMK AO2 RAB26E37 SLP100 P0001 60002 T01830161 58026<br><br>
KIAG 151439Z 19010KT 10SM SCT025 BKN045 BKN120 17/16 A2982 RMK AO2 RAB26E37 PRESFR P0001 T01720161<br><br>
KIAG 151423Z 21007KT 10SM BKN023 OVC047 16/14 A2985 RMK AO2 T01560144<br><br>
KIAG 151353Z 22007KT 10SM FEW022 BKN070 OVC100 16/15 A2986 RMK AO2 RAB05E51 SLP114 P0001 T01560150<br><br>
KIAG 151501Z 1515/1612 21013G22KT P6SM SCT040 BKN120 FM151900 24014G24KT 4SM -SHRA OVC025 FM152200 27006KT P6SM VCSH BKN007 FM160300 VRB03KT P6SM BKN015<br><br>
<br><br>
KBUF 151454Z 20012KT 10SM FEW036 SCT045 SCT075 BKN140 BKN240 19/16 A2984 RMK AO2 RAB20E47 PRESFR SLP103 P0003 60004 T01940161 58025<br><br>
KBUF 151359Z 20010KT 10SM FEW036 SCT075 BKN100 BKN140 BKN250 19/16 A2986<br><br>
KBUF 151354Z 21009KT 10SM FEW036 SCT075 OVC100 19/16 A2986 RMK AO2 RAE10B33E45 SLP112 P0000 T01890156<br><br>
KBUF 151501Z 1515/1612 22013G22KT P6SM SCT040 BKN120 FM151900 24014G24KT 4SM -SHRA OVC025 FM152200 27010KT P6SM VCSH OVC007 FM160100 VRB03KT P6SM BKN007<br><br>
<br><br>
CYYZ 151452Z 15003KT 120V180 5/8SM R33R/2600V4500FT/N R06L/3500V6000FT/U R05/P6000FT/N BR OVC002 11/11 A2980 RMK FG6ST2 SLP096<br><br>
CYYZ 151446Z 16003KT 130V210 1/2SM R33R/3000FT/D R06L/4000FT/N R05/P6000FT/N FG VV001 11/11 A2980 RMK FG8 SLP097<br><br>
CYYZ 151418Z 13007KT 1/2SM R15L/5000FT/N R33R/2600FT/N R24R/2400FT/N R23/3000VP6000FT/D -RA FG VV001 09/09 A2979 RMK FG8 PRESFR SLP093<br><br>
CYYZ 151400Z 15007KT 5/8SM R15L/P6000FT/D R24R/4500FT/D R23/5500VP6000FT/D -RA BR OVC002 09/09 A2981 RMK FG6ST2 SLP100<br><br>
TAF CYYZ 151448Z 1515/1618 16006KT 1/2SM FG VV001 TEMPO 1515/1517 6SM -SHRA BR BKN004 OVC030 FM151700 20012G22KT P6SM SCT008 BKN025 TEMPO 1517/1521 5SM -SHRA BR BKN008 OVC025 BECMG 1519/1521 30012G22KT FM152100 35012KT P6SM BKN015 OVC025 FM160000 02012KT P6SM FEW030 FM160800 36006KT P6SM SKC BECMG 1613/1615 03010KT RMK NXT FCST BY 151800Z<br><br>
<br><br>
CYOO 151400Z AUTO 12005KT 1SM -RA BR OVC004 10/10 A2982 RMK PRESFR SLP103<br><br>
TAF CYOO 151339Z 1514/1602 VRB03KT 2SM SHRA BR OVC004 TEMPO 1514/1516 6SM -SHRA BR OVC008 FM151600 21010G20KT 2SM BR OVC006 TEMPO 1516/1519 6SM -SHRA BR SCT006 OVC012 FM151900 23012G22KT 3SM -SHRA BR OVC007 TEMPO 1519/1521 P6SM -SHRA OVC015 FM152100 32010G20KT P6SM BKN012 OVC030 FM160100 33008KT P6SM SCT020 RMK FCST BASED ON AUTO OBS. NXT FCST BY 152000Z<br><br>
<br><br>
CYTR 151400Z 25002KT 3SM -SHRA BR OVC015 11/10 A2986 RMK SC8 VIS VRB 2 1/4-4 SLP115<br><br>
CYTR 151337Z 19006KT 6SM BR OVC020 11/10 A2988 RMK SC8 SLP120<br><br>
CYTR 151307Z 19004KT 6SM -SHRA BR OVC020 12/09 A2988 RMK SC8 SLP121<br><br>
TAF CYTR 151130Z 1512/1612 21005KT 6SM BR FEW012 BKN025 OVC070 TEMPO 1512/1515 4SM -SHRA BR BKN012 OVC020 PROB30 1512/1515 2SM -SHRA BR OVC008 FM151500 20005KT 4SM BR SCT005 OVC015 TEMPO 1515/1521 11/2SM -SHRA BR OVC005 PROB30 1517/1521 VRB15G25KT 3/4SM TSRA BR BKN005 OVC030CB FM152100 25012KT P6SM -SHRA SCT006 BKN012 OVC040 FM152300 32007KT P6SM SCT025 RMK NXT FCST BY 151800Z<br><br>
<br><br>
