RETRIEVED AT : Sep 24 2017 23:10 Local <br>
  RETRIEVED AT: Sep 25 2017 03:10 UTC<br><br>
CYSN has no TAF <br><br>
<br><br>
CYHM 250300Z 28003KT 15SM SKC 22/18 A3011 RMK SLP195 DENSITY ALT 1600FT<br><br>
CYHM 250200Z 25003KT 15SM SKC 23/18 A3011 RMK SLP196 DENSITY ALT 1700FT<br><br>
TAF CYHM 242340Z 2500/2524 VRB03KT P6SM SKC RMK NXT FCST BY 250600Z<br><br>
<br><br>
KIAG 250253Z 00000KT 8SM CLR 23/19 A3010 RMK AO2 SLP187 T02330189 51004<br><br>
KIAG 250153Z 00000KT 8SM CLR 24/19 A3010 RMK AO2 SLP186 T02390189<br><br>
KIAG 250241Z 2503/2524 VRB03KT P6SM SKC FM250800 00000KT 4SM BR SKC FM251200 VRB03KT P6SM FEW250 FM251700 14004KT P6SM FEW250 FM252000 09007KT P6SM FEW250<br><br>
<br><br>
KBUF 250254Z 14003KT 9SM CLR 23/20 A3011 RMK AO2 SLP193 T02330200 51003<br><br>
KBUF 250154Z 18003KT 10SM CLR 26/20 A3011 RMK AO2 SLP192 T02560200<br><br>
KBUF 250241Z 2503/2524 VRB04KT P6SM SKC FM250800 VRB03KT 4SM BR SKC FM251200 VRB03KT P6SM FEW250 FM252000 07006KT P6SM FEW250<br><br>
<br><br>
CYYZ 250300Z VRB02KT 15SM SKC 26/19 A3010 RMK SLP189 DENSITY ALT 1800FT<br><br>
CYYZ 250200Z 15004KT 15SM SKC 27/19 A3009 RMK SLP189 DENSITY ALT 1900FT<br><br>
TAF CYYZ 250238Z 2503/2606 VRB03KT P6SM SKC FM251700 15008KT P6SM SCT240 RMK NXT FCST BY 250600Z<br><br>
<br><br>
CYOO 250300Z AUTO 34002KT 9SM CLR 21/18 A3009 RMK SLP190 DENSITY ALT 1000FT<br><br>
CYOO 250200Z AUTO 36003KT 9SM CLR 21/18 A3009 RMK SLP190 DENSITY ALT 1100FT<br><br>
CYOO has no TAF <br><br>
<br><br>
CYTR 250300Z 00000KT 6SM BR SKC 21/20 A3007 RMK SLP184<br><br>
CYTR 250200Z 00000KT 8SM SKC 22/20 A3007 RMK SLP183<br><br>
TAF CYTR 242330Z 2500/2524 VRB03KT P6SM SKC TEMPO 2504/2512 3SM BR BECMG 2515/2517 20008KT RMK NXT FCST BY 250600Z<br><br>
<br><br>
