RETRIEVED AT : Oct 15 2017 11:10 Local <br>
  RETRIEVED AT: Oct 15 2017 15:10 UTC<br><br>
CYSN 151500Z 21023G29KT 15SM SCT030 OVC043 23/19 A2966 RMK SC3SC5 SLP045 DENSITY ALT 1700FT<br><br>
CYSN 151400Z 21022G33KT 12SM OVC041 23/19 A2969 RMK SC8 SLP054 DENSITY ALT 1700FT<br><br>
TAF CYSN 151238Z 1513/1601 21012G22KT P6SM SCT020 BKN070 BKN140 TEMPO 1513/1517 BKN020 OVC050 BECMG 1513/1515 22020G35KT FM151700 22025G40KT P6SM BKN030 BKN060 TEMPO 1519/1522 6SM -SHRA BR OVC020 PROB30 1519/1522 VRB30G45KT 2SM TSRA BR OVC015CB FM152200 26020G35KT P6SM BKN025 TEMPO 1522/1601 BKN020 RMK NXT FCST BY 152000Z<br><br>
<br><br>
CYHM 151500Z 21021G27KT 15SM BKN020 OVC030 22/19 A2966 RMK SC5SC3 SLP045 DENSITY ALT 2100FT<br><br>
CYHM 151400Z 21021G27KT 15SM BKN022 BKN070 22/19 A2969 RMK SC5AC2 SLP053 DENSITY ALT 2000FT<br><br>
TAF CYHM 151143Z 1512/1612 20010G20KT WS005/22035KT P6SM SCT015 BKN070 TEMPO 1512/1518 BKN015 OVC050 BECMG 1513/1515 22020G35KT FM151800 23025G40KT P6SM -SHRA OVC025 PROB30 1518/1521 VRB30G50KT 2SM +TSRA BR OVC020CB FM152100 24020G35KT P6SM BKN025 BECMG 1523/1524 29018G30KT BECMG 1603/1604 31012KT FM161000 31008KT P6SM SKC RMK NXT FCST BY 151800Z<br><br>
<br><br>
KIAG 151453Z 22021G30KT 10SM SCT030 OVC043 24/17 A2969 RMK AO2 PK WND 21031/1443 SLP051 T02390172 58022<br><br>
KIAG 151353Z 22017G28KT 10SM BKN038 OVC070 24/17 A2972 RMK AO2 PK WND 21031/1341 SLP061 T02390167<br><br>
KIAG 151504Z 1515/1612 22021G30KT P6SM SCT030 OVC045 FM151800 21024G35KT P6SM BKN050 FM152000 23026G42KT 3SM SHRA OVC015 FM152200 26024G38KT P6SM SCT035 FM160200 30016G26KT P6SM BKN025 FM160800 31012KT P6SM BKN035<br><br>
<br><br>
KBUF 151454Z 22018G28KT 10SM SCT030 SCT042 BKN049 BKN210 BKN270 24/18 A2971 RMK AO2 PK WND 23028/1449 SLP059 T02390178 58021<br><br>
KBUF 151354Z 20016G23KT 10SM FEW028 BKN034 BKN150 OVC220 23/17 A2974 RMK AO2 SLP068 T02280172<br><br>
KBUF 151504Z 1515/1612 22018G28KT P6SM SCT030 BKN050 FM151800 21024G35KT P6SM BKN050 FM152000 23026G42KT 3SM SHRA OVC015 FM152200 26024G38KT P6SM SCT035 FM160200 29016G26KT P6SM BKN030 FM160800 31012KT P6SM BKN030<br><br>
<br><br>
CYYZ 151500Z 22012G18KT 15SM FEW025 OVC040 22/19 A2963 RMK CF1SC7 SLP035 DENSITY ALT 1900FT<br><br>
CYYZ 151400Z 21010G16KT 15SM BKN020 BKN075 21/19 A2965 RMK SC7AC1 AC TR SLP041 DENSITY ALT 1800FT<br><br>
TAF CYYZ 151438Z 1515/1618 22012G22KT P6SM BKN020 BKN070 TEMPO 1515/1518 SCT020 BKN070 BECMG 1515/1517 23025G40KT FM151800 22025G40KT P6SM -SHRA BKN025 OVC060 TEMPO 1518/1521 3SM -SHRA BR OVC015 PROB30 1518/1521 VRB35G50KT 1SM +TSRA BR OVC015CB FM152100 25020G35KT P6SM SCT025 BKN120 TEMPO 1521/1524 BKN025 BKN120 FM160000 28022G32KT P6SM BKN025 BECMG 1600/1602 31018G28KT FM160600 33012G22KT P6SM BKN020 BECMG 1607/1609 34008KT FM161400 33010G20KT P6SM FEW015 SCT040 RMK NXT FCST BY 151800Z<br><br>
<br><br>
CYOO 151500Z AUTO 22012G17KT 9SM BKN022 OVC029 20/17 A2964 RMK SLP037 DENSITY ALT 1400FT<br><br>
CYOO 151400Z AUTO 19007KT 9SM BKN024 OVC034 19/17 A2966 RMK SLP046 DENSITY ALT 1300FT<br><br>
CYOO 151347Z AUTO 19006KT 9SM BKN024 OVC034 19/17 A2967 RMK SLP049 DENSITY ALT 1200FT<br><br>
CYOO has no TAF <br><br>
<br><br>
CYTR 151500Z 21015KT 15SM OVC029 21/17 A2965 RMK SC8 SLP042<br><br>
CYTR 151400Z 21010KT 15SM BKN029 OVC074 20/16 A2968 RMK SC7AC1 SLP052<br><br>
TAF CYTR 151130Z 1512/1612 VRB03KT P6SM SCT015 OVC030 TEMPO 1512/1518 5SM -SHRA BR OVC015 BECMG 1512/1514 22015G25KT FM151800 24020G35KT P6SM SCT010 OVC025 TEMPO 1518/1524 3SM -SHRA BR OVC010 PROB30 1519/1522 VRB35G50KT 1SM TSRA BR BKN005 OVC010CB FM160000 24022G38KT P6SM BKN030 BECMG 1602/1604 28020G30KT BECMG 1606/1608 32010G20KT RMK NXT FCST BY 151800Z<br><br>
<br><br>
