RETRIEVED AT : Mar 22 2020 10:05 Local <br>
  RETRIEVED AT: Mar 22 2020 14:05 UTC<br><br>
CYSN 221300Z 12010G17KT 15SM FEW025 M02/M08 A3067 RMK SC1 SC TR SLP391<br><br>
TAF CYSN 221238Z 2213/2301 11005KT P6SM FEW020 FM221600 07012KT P6SM FEW030 FM230000 06010KT P6SM BKN180 RMK NXT FCST BY 222000Z<br><br>
<br><br>
CYHM 221300Z 05009KT 15SM FEW030 FEW250 M04/M09 A3062 RMK SC1CI1 SC TR CI TR SLP385<br><br>
TAF CYHM 221138Z 2212/2312 03008KT P6SM FEW030 TEMPO 2212/2217 BKN020 BECMG 2214/2216 06012G22KT FM222300 05012G22KT P6SM BKN120 BKN200 FM230300 05012KT P6SM OVC070 FM230600 05010KT 11/2SM -SN OVC010 FM230800 05010KT 3/4SM -SN BR VV004 RMK NXT FCST BY 221800Z<br><br>
<br><br>
KIAG 221353Z 12013KT 10SM CLR M02/M09 A3065 RMK AO2 SLP397 T10221089<br><br>
KIAG 221253Z 11009KT 10SM CLR M04/M09 A3065 RMK AO2 SLP399 T10391089<br><br>
KIAG 221133Z 2212/2312 10007KT P6SM FEW250 FM222000 08012KT P6SM FEW250 FM230300 11010KT P6SM BKN090 FM230500 15009KT 2SM -SN OVC035 FM230900 15012KT 2SM -SN OVC015<br><br>
<br><br>
KBUF 221354Z 10016KT 10SM FEW025 M02/M12 A3064 RMK AO2 SLP389 T10171122<br><br>
KBUF 221327Z 10013KT 10SM FEW025 M02/M12 A3065 RMK AO2 T10221122<br><br>
KBUF 221254Z 10013KT 10SM CLR M03/M11 A3065 RMK AO2 SLP390 T10331111<br><br>
KBUF 221133Z 2212/2312 09006KT P6SM SKC FM222000 08012KT P6SM FEW250 FM230300 11010KT P6SM BKN090 FM230500 15009KT 2SM -SN OVC035 FM230900 15012KT 2SM -SN OVC015<br><br>
<br><br>
CYYZ 221300Z 08015KT 15SM SCT030 M04/M11 A3066 RMK SC3 SLP393<br><br>
TAF CYYZ 221138Z 2212/2318 06012KT P6SM FEW020 FM221300 08012KT P6SM SCT020 TEMPO 2213/2216 BKN020 FM221600 10012G22KT P6SM BKN025 FM222000 09012G22KT P6SM FEW030 BKN220 FM230000 09012KT P6SM BKN120 BKN200 FM230400 09010KT P6SM OVC070 FM230800 09010KT 11/2SM -SN OVC010 FM231000 09010KT 3/4SM -SNRA BR VV005 FM231400 10010KT 1SM -RA BR OVC002 RMK NXT FCST BY 221500Z<br><br>
<br><br>
CYOO 221300Z AUTO 08008KT 9SM CLR M04/M14 A3069 RMK SLP402<br><br>
TAF CYOO 221338Z 2214/2302 08012KT P6SM SKC BECMG 2215/2217 09012G22KT BECMG 2223/2301 07012KT RMK FCST BASED ON AUTO OBS. NXT FCST BY 222000Z<br><br>
<br><br>
CYTR 221300Z 08006KT 15SM FEW200 M05/M13 A3074 RMK CI1 SLP416<br><br>
TAF CYTR 221130Z 2212/2312 05005KT P6SM SKC BECMG 2213/2215 08010KT FM222300 08005KT P6SM FEW120 SCT250 FM230500 06008KT P6SM FEW050 OVC100 BECMG 2306/2308 14012G22KT FM230800 14012G22KT 5SM -RASN BR SCT012 OVC020 RMK NXT FCST BY 221800Z<br><br>
<br><br>
