RETRIEVED AT : Mar 15 2020 07:05 Local <br>
  RETRIEVED AT: Mar 15 2020 11:05 UTC<br><br>
CYSN has no TAF <br><br>
<br><br>
CYHM 151000Z 02009KT 15SM BKN130 M02/M07 A3052 RMK AC7 SLP349<br><br>
TAF CYHM 150539Z 1506/1606 02007KT P6SM FEW140 BKN210 FM151200 03012KT P6SM FEW030 FM151800 06015KT P6SM SKC BECMG 1523/1601 05010KT RMK NXT FCST BY 151200Z<br><br>
<br><br>
KIAG 151053Z 04009KT 10SM CLR M02/M08 A3054 RMK AO2 SLP359 T10171078<br><br>
KIAG 150953Z AUTO 04008KT 10SM CLR M01/M06 A3052 RMK AO2 SLP350 T10061056<br><br>
KIAG 150902Z 1509/1606 02006KT P6SM BKN130 FM151200 04008KT P6SM FEW250 FM160100 VRB03KT P6SM FEW250<br><br>
<br><br>
KBUF 151054Z 03007KT 10SM FEW140 FEW170 M01/M06 A3053 RMK AO2 SLP347 T10111061<br><br>
KBUF 150954Z 01005KT 10SM FEW055 BKN140 BKN280 M01/M04 A3051 RMK AO2 SLP340 T10061044<br><br>
KBUF 150902Z 1509/1606 03005KT P6SM BKN130 FM151200 03008KT P6SM FEW250 FM160100 07005KT P6SM FEW250<br><br>
<br><br>
CYYZ 151000Z 06009G15KT 15SM BKN140 M02/M11 A3056 RMK AC6 SLP360<br><br>
TAF CYYZ 150838Z 1509/1612 05012KT P6SM BKN140 BECMG 1509/1511 SKC FM151200 02012KT P6SM SKC BECMG 1518/1520 05008KT FM152100 08011KT P6SM SKC BECMG 1523/1601 11008KT BECMG 1602/1604 06008KT FM160600 05009KT P6SM FEW030 BECMG 1610/1612 11009KT RMK NXT FCST BY 151200Z<br><br>
<br><br>
CYOO 151000Z AUTO 03005KT 9SM BKN150 M03/M12 A3057 RMK SLP360<br><br>
TAF CYOO 150740Z 1508/1520 01010KT P6SM OVC150 FM151200 05005KT P6SM SKC BECMG 1513/1515 04008KT BECMG 1518/1520 09005KT RMK FCST BASED ON AUTO OBS. NXT FCST BY 151400Z<br><br>
<br><br>
CYTR 151000Z 03009KT 15SM FEW160 M03/M14 A3057 RMK AC1 SLP357<br><br>
TAF CYTR 150530Z 1506/1606 02008KT P6SM SKC RMK NXT FCST BY 151200Z<br><br>
<br><br>
