RETRIEVED AT : Sep 30 2017 19:10 Local <br>
  RETRIEVED AT: Sep 30 2017 23:10 UTC<br><br>
CYSN 302300Z 00000KT 15SM SKC 11/04 A3038 RMK SLP291<br><br>
CYSN 302200Z 07004KT 050V120 15SM FEW045 13/02 A3037 RMK SC1 SC TR SLP288<br><br>
TAF CYSN 301938Z 3020/0101 36010KT P6SM FEW040 FM302300 VRB03KT P6SM SKC RMK NXT FCST WILL BE ISSUED AT 011245Z<br><br>
<br><br>
CYHM 302300Z 11004KT 15SM SKC 12/02 A3038 RMK SLP293<br><br>
CYHM 302200Z VRB02KT 15SM FEW050 13/01 A3037 RMK SC1 SC TR SLP290<br><br>
TAF CYHM 301738Z 3018/0118 01012KT P6SM FEW030 BECMG 3020/3022 04007KT BECMG 0102/0104 VRB03KT RMK NXT FCST BY 010000Z<br><br>
<br><br>
KIAG 302253Z 00000KT 10SM CLR 13/02 A3038 RMK AO2 SLP292 T01280022<br><br>
KIAG 302153Z 00000KT 10SM FEW039 14/02 A3037 RMK AO2 SLP290 T01440022<br><br>
KIAG 302138Z 3022/0118 01008KT P6SM SCT050 FM010000 00000KT P6SM SKC FM011500 21004KT P6SM SKC<br><br>
<br><br>
KBUF 302254Z 35004KT 10SM FEW042 11/04 A3037 RMK AO2 SLP289 T01110044<br><br>
KBUF 302154Z 34008KT 10SM FEW042 13/04 A3037 RMK AO2 SLP287 T01280039<br><br>
KBUF 302138Z 3022/0118 36005KT P6SM SCT050 FM010000 VRB03KT P6SM SKC FM011500 24004KT P6SM SKC<br><br>
<br><br>
CYYZ 302300Z 36006KT 15SM FEW030 13/01 A3037 RMK SC1 SC TR SLP291<br><br>
CYYZ 302200Z 35007KT 15SM SKC 14/00 A3037 RMK SLP288<br><br>
TAF CYYZ 302038Z 3021/0124 34007KT P6SM FEW040 FM011200 31005KT P6SM FEW040 BECMG 0115/0117 20008KT BECMG 0123/0124 VRB03KT RMK NXT FCST BY 010000Z<br><br>
<br><br>
CYOO 302300Z AUTO 32004KT 9SM CLR 12/03 A3038 RMK SLP291<br><br>
CYOO 302200Z AUTO 32004KT 270V340 9SM CLR 14/02 A3037 RMK SLP287<br><br>
CYOO has no TAF <br><br>
<br><br>
CYTR 302300Z 00000KT 15SM FEW040 FEW200 11/05 A3036 RMK SC1CI1 SLP285<br><br>
CYTR 302200Z 36003KT 15SM FEW050 14/03 A3035 RMK SC1 SLP281<br><br>
TAF CYTR 301730Z 3018/0118 02008KT P6SM BKN030 FM302300 34005KT P6SM SKC BECMG 0102/0104 VRB03KT BECMG 0116/0118 25008KT RMK NXT FCST BY 010000Z<br><br>
<br><br>
