RETRIEVED AT : May 27 2018 05:00 Local <br>
  RETRIEVED AT: May 27 2018 09:00 UTC<br><br>
CYSN has no TAF <br><br>
<br><br>
TAF AMD CYHM 270703Z 2707/2806 06005KT P6SM FEW100 FM270900 05005KT 6SM BR SCT006 TEMPO 2709/2714 2SM BR OVC006 PROB40 2709/2713 1/2SM FG VV002 FM271400 15005KT P6SM BKN015 FM271800 19010KT P6SM BKN025 BECMG 2718/2720 FEW030 FM280400 22005KT P6SM SCT050 PROB30 2804/2806 3SM TSRA BR BKN050CB RMK NXT FCST BY 271200Z<br><br>
<br><br>
KIAG 270853Z AUTO 21004KT 10SM CLR 20/15 A2987 RMK AO2 SLP111 T02000150 51005<br><br>
KIAG 270753Z AUTO 14003KT 8SM SCT110 19/14 A2987 RMK AO2 SLP111 T01940144<br><br>
KIAG 270526Z 2706/2806 VRB03KT P6SM SCT200 FM272000 VRB03KT P6SM SCT060 SCT200 FM272300 VRB03KT P6SM FEW250 FM280400 VRB03KT P6SM VCFG FEW003<br><br>
<br><br>
KBUF 270526Z 2706/2806 VRB03KT P6SM SCT070 SCT200 FM271900 VRB03KT P6SM VCSH BKN050 FM272300 VRB03KT P6SM SCT045 SCT200<br><br>
<br><br>
CYYZ 270800Z 09004KT 15SM SKC 17/14 A2987 RMK SLP116 DENSITY ALT 1100FT<br><br>
TAF CYYZ 270838Z 2709/2812 VRB03KT P6SM SKC PROB30 2710/2713 2SM BR BKN007 FM271400 16008KT P6SM FEW015 BECMG 2718/2720 17012KT BECMG 2722/2724 13008KT FM280300 20005KT P6SM -SHRA BKN070 PROB30 2804/2806 VRB15G25KT 2SM +TSRA BR BKN050CB FM280600 23005KT P6SM FEW050 BECMG 2809/2811 30007KT RMK NXT FCST BY 271200Z<br><br>
<br><br>
CYOO 270800Z AUTO VRB02KT 9SM FEW003 15/13 A2988 RMK SLP121 DENSITY ALT 600FT<br><br>
CYOO has no TAF <br><br>
<br><br>
CYTR 270800Z 05004KT 15SM BKN110 18/16 A2989 RMK AC6 SLP122<br><br>
TAF CYTR 270530Z 2706/2806 04005KT P6SM BKN100 TEMPO 2706/2709 3SM -SHRA BR PROB30 2706/2709 1SM BR FM270900 04005KT 6SM BR SCT100 TEMPO 2709/2713 2SM BR PROB40 2709/2712 1/2SM FG VV002 FM271300 08005KT P6SM SCT100 BECMG 2714/2716 16010KT FM271700 18012KT P6SM FEW030 FEW080 TEMPO 2718/2802 6SM -SHRA BR BKN030 PROB30 2720/2801 VRB15G25KT 2SM TSRA BR BKN030CB FM280200 18008KT P6SM BKN100 RMK NXT FCST BY 271200Z<br><br>
<br><br>
