RETRIEVED AT : Oct 26 2018 22:05 Local <br>
  RETRIEVED AT: Oct 27 2018 02:05 UTC<br><br>
CYSN 270100Z 09009KT 15SM OVC120 06/02 A2993 RMK AC8 LAST STFD OBS/NEXT 271100 UTC SLP139<br><br>
CYSN has no TAF <br><br>
<br><br>
CYHM 270100Z 06015G21KT 15SM OVC080 06/02 A2990 RMK AC8 SLP134<br><br>
TAF CYHM 262341Z 2700/2724 04010G20KT P6SM FEW080 OVC130 FM270200 06012G22KT P6SM OVC025 TEMPO 2702/2708 P6SM -RA OVC015 FM270800 06015G25KT 3SM -RA BR SCT004 OVC010 FM271000 06015G25KT 2SM -RA BR OVC004 FM271700 06015G25KT 4SM -RA BR OVC006 BECMG 2722/2724 04012G22KT RMK NXT FCST BY 270600Z<br><br>
<br><br>
KIAG 270153Z 09010KT 10SM OVC100 06/M01 A2992 RMK AO2 SLP141 T00561006<br><br>
KIAG 270053Z 09009G19KT 10SM SCT110 06/00 A2993 RMK AO2 SLP145 T00560000<br><br>
KIAG 262320Z 2700/2724 09011KT P6SM OVC100 FM270500 08013KT P6SM OVC070 FM270800 08011G19KT P6SM VCSH OVC045 FM271100 07012G22KT P6SM -RA OVC035 FM271400 07013G23KT 6SM -RA BR OVC015 FM271700 06015G24KT 3SM -RA BR OVC007<br><br>
<br><br>
KBUF 270154Z 08009KT 10SM FEW045 SCT055 OVC095 06/01 A2992 RMK AO2 SLP135 T00560006<br><br>
KBUF 270054Z 08013KT 10SM FEW050 BKN100 OVC140 06/01 A2993 RMK AO2 SLP140 T00610006<br><br>
KBUF 262320Z 2700/2724 09010KT P6SM OVC100 FM270400 09012KT P6SM OVC060 FM270700 08010G17KT P6SM VCSH OVC045 FM271000 07011G20KT P6SM -RA OVC035 FM271300 07012G21KT 6SM -RA BR OVC015 FM271600 06014G23KT 3SM -RA BR OVC007<br><br>
<br><br>
CYYZ 270100Z 09014G24KT 15SM FEW015 FEW065 OVC100 05/01 A2995 RMK SF1SC1AS7 SF TR SLP149<br><br>
TAF CYYZ 262341Z 2700/2806 09012G22KT P6SM FEW030 OVC090 TEMPO 2702/2706 P6SM -SHRA BKN030 OVC090 FM270600 07012G22KT P6SM -RA OVC015 TEMPO 2706/2709 P6SM NSW OVC025 FM271100 06012G22KT 6SM -RA BR SCT006 OVC012 PROB30 2711/2715 OVC006 FM271700 06015G25KT P6SM -RA FEW009 OVC015 FM272200 04010G20KT 4SM -RASN BR OVC008 FM280300 02010KT P6SM -SNRA OVC020 RMK NXT FCST BY 270300Z<br><br>
<br><br>
CYOO 270100Z AUTO 07011G20KT 9SM BKN065 OVC083 04/M01 A2999 RMK SLP161<br><br>
CYOO has no TAF <br><br>
<br><br>
CYTR 270100Z 06006KT 15SM OVC066 04/M02 A3005 RMK AC8 SLP179<br><br>
TAF CYTR 262330Z 2700/2724 09005KT P6SM BKN080 BKN250 TEMPO 2710/2720 5SM -SHRA BR BKN010 OVC040 BECMG 2712/2714 05012G22KT FM272000 05015G25KT 4SM -RA BR OVC020 TEMPO 2720/2724 2SM -RASN BR OVC008 RMK NXT FCST BY 270600Z<br><br>
<br><br>
