RETRIEVED AT : May 24 2020 13:05 Local <br>
  RETRIEVED AT: May 24 2020 17:05 UTC<br><br>
CYSN 241600Z 19010KT 15SM FEW030 SCT180 27/17 A3004 RMK SC1AC3 SC TR SLP174 DENSITY ALT 1600FT<br><br>
TAF CYSN 241238Z 2413/2501 VRB03KT P6SM SCT090 BKN250 BECMG 2413/2415 19008KT FM241800 20010KT P6SM -SHRA BKN040 PROB30 2418/2424 3SM TSRA BKN030CB RMK NXT FCST BY 242000Z<br><br>
<br><br>
CYHM 241600Z 20011G17KT 15SM FEW025 FEW170 BKN250 25/17 A3006 RMK CU1AC2CI3 CU TR SLP177 DENSITY ALT 2000FT<br><br>
TAF CYHM 241138Z 2412/2512 04005KT P6SM FEW020 SCT100 TEMPO 2412/2413 11/2SM BR FM241500 18012KT P6SM SCT050 FM241800 19012KT P6SM -SHRA BKN060 PROB30 2420/2424 2SM TSRA BKN050CB FM250000 21008KT P6SM FEW070 RMK NXT FCST BY 241800Z<br><br>
<br><br>
KIAG 241653Z VRB05KT 10SM CLR 27/16 A3004 RMK AO2 SLP171 T02670156<br><br>
KIAG 241553Z 17008KT 10SM CLR 26/17 A3006 RMK AO2 SLP177 T02560167<br><br>
KIAG 241504Z 2415/2512 20012KT P6SM SCT050 FM241900 20012KT P6SM VCSH BKN050 FM250300 19010KT 6SM -SHRA BKN040 FM250900 20008KT P6SM SCT025 BKN040<br><br>
<br><br>
KBUF 241654Z 19010KT 10SM FEW045 FEW100 SCT180 BKN250 BKN290 27/15 A3006 RMK AO2 SLP175 T02670150<br><br>
KBUF 241554Z 20008KT 10SM SCT041 SCT120 SCT200 SCT250 26/16 A3008 RMK AO2 SLP182 T02610161<br><br>
KBUF 241502Z 2415/2512 20010KT P6SM FEW050 SCT250 FM250000 20010KT P6SM VCSH BKN050 FM250300 20008KT 6SM -SHRA BKN040 FM250900 20008KT P6SM SCT025 BKN040<br><br>
<br><br>
CYYZ 241600Z 16011KT 130V190 15SM FEW050TCU SCT240 23/17 A3005 RMK TCU1CI2 SLP177 DENSITY ALT 1500FT<br><br>
TAF CYYZ 241438Z 2415/2518 14008KT P6SM FEW050 SCT260 FM241800 15012KT P6SM BKN050 TEMPO 2420/2424 P6SM -SHRA FM250000 VRB03KT P6SM SCT020 OVC040 TEMPO 2500/2505 5SM -SHRA BR OVC020 PROB30 2500/2505 11/2SM TSRA BR OVC015CB FM250600 VRB03KT P6SM FEW040 BECMG 2507/2509 24006KT FM251500 26008KT P6SM SKC BECMG 2516/2518 27012KT RMK NXT FCST BY 241800Z<br><br>
<br><br>
CYOO 241600Z AUTO 16005KT 120V210 9SM CLR 22/17 A3007 RMK SLP185 DENSITY ALT 1200FT<br><br>
TAF CYOO 241343Z 2414/2502 13008KT P6SM FEW030 BKN240 FM241800 14012KT P6SM SCT050 BKN180 FM242000 12010KT P6SM -SHRA BKN050 PROB30 2423/2502 VRB15G25KT 5SM TSRA BKN050CB RMK FCST BASED ON AUTO OBS. NXT FCST BY 242000Z<br><br>
<br><br>
CYTR 241600Z 15006KT 15SM FEW036 SCT100 BKN250 21/12 A3012 RMK SC1AC3CI2 SLP200<br><br>
TAF CYTR 241130Z 2412/2512 VRB03KT P6SM FEW120 BKN250 FM241300 15008KT P6SM BKN110 OVC250 FM241900 15010KT P6SM FEW030 SCT090 FM250100 19008KT P6SM -SHRA FEW020 BKN040 OVC060 PROB30 2501/2505 VRB15G25KT 2SM TSRA BR SCT020 OVC030CB FM250500 20005KT 3SM -SHRA BR SCT005 OVC010 RMK NXT FCST BY 241800Z<br><br>
<br><br>
