RETRIEVED AT : May 25 2020 06:05 Local <br>
  RETRIEVED AT: May 25 2020 10:05 UTC<br><br>
CYSN has no TAF <br><br>
<br><br>
CYHM 250900Z 20009KT 15SM FEW060 SCT073 19/17 A3001 RMK SC2AC3 SLP160 DENSITY ALT 1300FT<br><br>
TAF AMD CYHM 250641Z 2506/2606 20008KT P6SM FEW040 SCT080 TEMPO 2506/2508 P6SM -SHRA VCTS SCT040CB BKN080 FM251600 21012KT P6SM SCT040 FM251900 22012KT P6SM SCT060 TEMPO 2520/2601 P6SM VCTS FEW040CB BKN060 RMK NXT FCST BY 251200Z<br><br>
<br><br>
KIAG 250953Z AUTO 22007KT 10SM SCT065 BKN080 18/15 A3001 RMK AO2 LTG DSNT SW SLP158 T01830150 $<br><br>
KIAG 250853Z AUTO 21010KT 10SM FEW100 18/14 A2999 RMK AO2 SLP151 T01830144 53009 $<br><br>
KIAG 250955Z 2510/2606 20012KT P6SM VCTS SCT050CB BKN150 FM251100 21012G18KT P6SM SCT150 FM251800 22010KT P6SM SCT250 FM260000 20005KT P6SM SKC<br><br>
<br><br>
KBUF 250954Z 20008KT 10SM FEW050 BKN095 BKN250 20/15 A3002 RMK AO2 LTG DSNT SW SLP161 T02000150<br><br>
KBUF 250854Z 19009KT 10SM BKN110 20/15 A3000 RMK AO2 SLP155 T02000150 51006<br><br>
KBUF 250952Z 2510/2606 18012KT P6SM VCSH BKN150 TEMPO 2510/2511 5SM -TSRA OVC040CB FM251200 20010G16KT P6SM SCT150 FM251800 23012KT P6SM SCT250 FM260000 20005KT P6SM SKC<br><br>
<br><br>
CYYZ 250900Z 22009G15KT 15SM BKN060 BKN100 21/18 A2997 RMK SC6AC1 SLP149 DENSITY ALT 1400FT<br><br>
TAF CYYZ 250838Z 2509/2612 18005KT P6SM FEW060 BECMG 2510/2512 24012KT FM252000 20012KT P6SM SCT060 TEMPO 2520/2602 P6SM VCTS FEW040CB BKN060 FM260200 22008KT P6SM FEW060 BECMG 2604/2606 13007KT FM260900 09006KT P6SM FEW080 PROB30 2609/2612 3/4SM BR RMK NXT FCST BY 251200Z<br><br>
<br><br>
CYOO 250900Z AUTO 12005KT 9SM CLR 17/16 A2997 RMK SLP151 DENSITY ALT 700FT<br><br>
TAF CYOO 250738Z 2508/2520 VRB03KT P6SM FEW020 SCT080 FM251800 21010KT P6SM SCT060 TEMPO 2518/2520 P6SM VCTS FEW040CB BKN060 RMK FCST BASED ON AUTO OBS. NXT FCST BY 251400Z<br><br>
<br><br>
CYTR 250926Z 13005KT 7SM FEW016 BKN046 BKN075 16/13 A3001 RMK CU1SC6AC2 CVCTV CLD TOPS DIST W SLP162<br><br>
CYTR 250900Z 14005KT 7SM -SHRA FEW020 BKN036 OVC065 16/13 A3000 RMK SC1SC6SC2 /R14/ SLP158<br><br>
CYTR 250834Z 14003KT 7SM -SHRA FEW015 BKN025 OVC047 16/14 A3001 RMK SF2SC6SC1 CB EMBD DIST SE MOVG E OCNL LTGIC SLP162<br><br>
CYTR 250809Z 16005KT 5SM -TSRA BR SCT013 OVC025 16/13 A3001 RMK SF4SC4 CB EMBD OVRHD MOVG E OCNL LTGICCC SLP162<br><br>
TAF AMD CYTR 250658Z 2506/2606 VRB03KT P6SM -SHRA FEW012 BKN025 OVC070 TEMPO 2506/2509 VRB15G25KT 2SM TSRA BR SCT012 OVC020CB FM250900 20005KT 3SM -SHRA BR SCT006 BKN012 OVC025 TEMPO 2509/2510 P6SM NSW FEW006 SCT012 OVC025 PROB30 2509/2510 VRB15G25KT 11/2SM TSRA BR SCT006 OVC012CB FM251000 20005KT 2SM BR BKN006 OVC012 TEMPO 2510/2513 6SM BR SCT006 BKN012 OVC025 PROB30 2510/2513 1SM -DZ BR OVC004 FM251300 20005KT 6SM BR SCT008 OVC012 TEMPO 2513/2515 P6SM NSW FEW008 SCT012 OVC025 FM251500 20005KT P6SM BKN015 BECMG 2515/2517 22010KT FEW015 FM251900 22010KT P6SM FEW040 BECMG 2600/2602 VRB03KT RMK NXT FCST BY 251200Z<br><br>
<br><br>
