RETRIEVED AT : May 18 2018 23:40 Local <br>
  RETRIEVED AT: May 19 2018 03:40 UTC<br><br>
CYSN has no TAF <br><br>
<br><br>
TAF CYHM 182338Z 1900/1924 05020G30KT P6SM FEW140 BKN240 BECMG 1900/1902 06015G25KT FM190300 06015KT P6SM BKN150 FM190800 06010KT P6SM -SHRA OVC025 FM191000 10010KT 11/2SM -RA BR BKN004 OVC010 TEMPO 1915/1922 3SM -RA BR OVC010 FM192200 06012KT 5SM BR BKN006 OVC012 RMK NXT FCST BY 190600Z<br><br>
<br><br>
KIAG 190255Z 1903/1924 09012KT P6SM FEW060 BKN150 FM190500 10008KT P6SM OVC050 FM190700 10007KT 6SM -RA OVC025 FM191400 15008KT 6SM RA OVC015 FM191900 16005KT P6SM -RA BKN035 FM192300 19009KT P6SM VCSH OVC060<br><br>
<br><br>
KBUF 190254Z 08010KT 10SM FEW055 BKN170 OVC270 17/02 A3019 RMK AO2 SLP222 T01720022 58004<br><br>
KBUF 190154Z 08012KT 10SM FEW060 SCT160 OVC280 17/02 A3020 RMK AO2 SLP225 T01720017<br><br>
KBUF 190255Z 1903/1924 08012KT P6SM FEW060 BKN150 FM190500 11008KT P6SM OVC050 FM190700 12007KT 6SM -RA OVC025 FM191400 15012G19KT 6SM RA OVC015 FM191900 18010G16KT P6SM -RA BKN035 FM192200 19010G16KT P6SM VCSH OVC060<br><br>
<br><br>
CYYZ 190300Z 09004KT 15SM BKN230 14/M02 A3021 RMK CC6 SLP235<br><br>
CYYZ 190200Z 08005KT 15SM SCT220 BKN260 14/M04 A3022 RMK CC4CI1 SLP236<br><br>
TAF CYYZ 190238Z 1903/2006 08008KT P6SM SCT220 BKN260 FM190900 10008KT P6SM OVC030 TEMPO 1909/1911 P6SM -SHRA SCT008 OVC020 FM191100 11010KT 5SM -SHRA BR BKN008 OVC020 FM191300 10012KT 2SM -RA BR BKN003 OVC006 FM192300 10007KT 6SM BR BKN007 OVC010 FM200300 16006KT 4SM -RA BR OVC004 RMK NXT FCST BY 190600Z<br><br>
<br><br>
CYOO has no TAF <br><br>
<br><br>
CYTR 190300Z CCA 06005KT 15SM OVC250 13/M01 A3025 RMK CI8 SLP247<br><br>
CYTR 190200Z 06007KT 15SM BKN250 14/M02 A3026 RMK CI6 SLP249<br><br>
TAF CYTR 182330Z 1900/1924 06010KT P6SM BKN250 FM191000 12010KT P6SM BKN030 OVC160 FM191300 12012G22KT 3SM -RA BR BKN012 OVC020 PROB30 1915/1918 1SM TSRA BR OVC010CB FM192000 14008KT 6SM -DZ BR OVC012 RMK NXT FCST BY 190600Z<br><br>
<br><br>
