RETRIEVED AT : Dec 05 2017 09:10 Local <br>
  RETRIEVED AT: Dec 05 2017 14:10 UTC<br><br>
CYSN 051400Z 19020G33KT 10SM -SHRA OVC032 10/08 A2972 RMK SC8 CVCTV CLD EMBD SLP065<br><br>
CYSN 051300Z 19023G34KT 6SM -SHRA SCT033 OVC080 09/08 A2973 RMK SC4AC4 CVCTV CLD EMBD PRESFR SLP072<br><br>
TAF CYSN 051350Z 0514/0602 21020G35KT P6SM BKN030 OVC080 TEMPO 0514/0516 5SM -SHRA BR BKN012 OVC030 FM051900 23025G40KT P6SM BKN040 BKN240 BECMG 0523/0601 24020G30KT RMK NXT FCST BY 052000Z<br><br>
<br><br>
CYHM 051400Z 20021G30KT 10SM OVC018 10/08 A2971 RMK SC8 SLP065<br><br>
CYHM 051300Z 19025G32KT 15SM -RA SCT016 OVC032 09/07 A2971 RMK SC4SC4 SLP064<br><br>
TAF CYHM 051139Z 0512/0612 19018G28KT P6SM SCT012 OVC030 TEMPO 0512/0516 5SM -SHRA BR BKN012 OVC030 BECMG 0513/0515 21020G35KT FM051600 23025G40KT P6SM SCT012 BKN240 TEMPO 0516/0521 BKN012 FM052100 24020G30KT P6SM SCT020 TEMPO 0521/0524 6SM -SHSNRA BKN020 FM060000 24018G28KT P6SM BKN030 FM060700 24015G25KT P6SM FEW040 RMK NXT FCST BY 051800Z<br><br>
<br><br>
KIAG 051400Z 18018G25KT 7SM -RA BKN029 BKN050 OVC075 10/07 A2976 RMK AO2 P0000 T01000067<br><br>
KIAG 051353Z 18019G25KT 3SM -RA SCT027 BKN034 OVC070 10/07 A2976 RMK AO2 PK WND 19028/1322 SLP084 P0009 T01000067<br><br>
KIAG 051323Z 19022G28KT 5SM RA BKN028 BKN041 OVC060 10/07 A2978 RMK AO2 PK WND 19028/1322 P0005 T01000067<br><br>
KIAG 051253Z 20015KT 8SM -RA BKN030 OVC038 10/06 A2980 RMK AO2 SLP095 P0005 T01000061<br><br>
KIAG 051126Z 0512/0612 19015G25KT 6SM -RA OVC045 FM051500 20023G35KT P6SM OVC025 FM051900 22020G35KT P6SM OVC050 FM052000 23020G30KT P6SM OVC140 FM060800 25020G35KT P6SM SCT090<br><br>
<br><br>
KBUF 051354Z COR 19019G29KT 9SM -RA FEW027 SCT037 OVC070 09/07 A2979 RMK AO2 PK WND 20029/1330 SLP092 P0004 T00940072<br><br>
KBUF 051254Z 19019G24KT 10SM -RA BKN035 OVC070 09/07 A2981 RMK AO2 PK WND 21028/1230 SLP096 P0003 T00940072<br><br>
KBUF 051126Z 0512/0612 19015G25KT 6SM -RA OVC035 FM051500 20020G35KT P6SM VCSH OVC035 FM051800 22019G33KT P6SM OVC025 FM052100 24017G30KT P6SM OVC130 FM060400 26022G35KT P6SM BKN060 FM060900 24020G35KT 1/2SM SN OVC007<br><br>
<br><br>
CYYZ 051400Z 20017G27KT 12SM OVC014 10/08 A2968 RMK SF8 SLP056<br><br>
CYYZ 051350Z 20016G23KT 10SM OVC014 10/08 A2968 RMK SF8 SLP056<br><br>
CYYZ 051300Z 19014G20KT 12SM -RA BKN012 OVC017 09/08 A2970 RMK SF6SF2 SLP062<br><br>
CYYZ 051212Z 18011G20KT 6SM -RA FEW008 OVC011 08/07 A2971 RMK SF2SF6 SLP066<br><br>
TAF CYYZ 051139Z 0512/0618 19010G22KT 6SM -RA BR SCT012 OVC030 TEMPO 0512/0516 3SM -SHRA BR BKN012 OVC030 BECMG 0513/0514 20015G30KT FM051600 21020G35KT P6SM SCT015 BKN240 TEMPO 0516/0518 BKN015 BKN240 FM051800 23025G40KT P6SM SCT020 BKN220 BECMG 0520/0522 23020G30KT FM060000 24020G30KT P6SM BKN030 FM060300 24018G28KT P6SM SCT040 FM061000 24015G25KT P6SM FEW040 BECMG 0615/0616 25020G35KT RMK NXT FCST BY 051500Z<br><br>
<br><br>
CYOO 051400Z AUTO 18009G16KT 9SM OVC018 08/06 A2971 RMK SLP066<br><br>
CYOO 051332Z AUTO 15008KT 9SM SCT005 OVC018 07/06 A2973 RMK SLP072<br><br>
CYOO 051331Z AUTO 15008KT 8SM -RA SCT005 OVC018 07/06 A2973 RMK SLP072<br><br>
CYOO 051323Z AUTO 15008KT 6SM -RA BR BKN005 OVC018 07/06 A2973 RMK SLP072<br><br>
CYOO 051300Z AUTO 13008KT 3SM -RA BR OVC005 07/06 A2974 RMK SLP076<br><br>
CYOO 051248Z AUTO 13010G15KT 3SM -RA BR OVC008 07/06 A2975 RMK SLP078<br><br>
CYOO 051234Z AUTO 12009KT 2 1/2SM -RA BR OVC012 07/05 A2975 RMK SLP080<br><br>
CYOO 051228Z AUTO 12009KT 2 1/2SM -RA BR OVC012 07/05 A2976 RMK SLP081<br><br>
CYOO has no TAF <br><br>
<br><br>
CYTR 051400Z 18009KT 1 3/4SM -RA BR FEW006 OVC016 08/07 A2981 RMK SF2SC6 SLP096<br><br>
CYTR 051317Z 19010G15KT 1 3/4SM -RA BR SCT006 OVC016 07/07 A2982 RMK SF3SC5 SLP100<br><br>
CYTR 051300Z 18010G17KT 1 3/4SM RA BR SCT006 OVC016 07/07 A2982 RMK SF3SC5 SLP099<br><br>
CYTR 051252Z 18009G15KT 1 3/4SM RA BR FEW006 OVC016 07/07 A2982 RMK SF2SC6 SLP100<br><br>
CYTR 051227Z 17011G16KT 2SM -SHRA BR FEW006 OVC016 07/07 A2983 RMK SF2SC6 SLP103<br><br>
CYTR 051212Z 18009KT 3SM -SHRA BR SCT006 OVC025 08/07 A2983 RMK SF3SC5 SLP105<br><br>
TAF AMD CYTR 051239Z 0512/0612 17012G22KT P6SM -RA SCT006 OVC025 TEMPO 0512/0518 11/2SM -RA BR BKN006 OVC015 FM051800 20012G22KT P6SM SCT015 OVC025 TEMPO 0518/0523 P6SM -SHRA BKN015 OVC025 BECMG 0518/0520 24015G25KT FM052300 24018G28KT P6SM SCT015 BKN030 BKN180 FM060400 24018G28KT P6SM SCT030 RMK NXT FCST BY 051800Z<br><br>
<br><br>
