RETRIEVED AT : May 02 2018 06:40 Local <br>
  RETRIEVED AT: May 02 2018 10:40 UTC<br><br>
CYSN has no TAF <br><br>
<br><br>
CYHM 021000Z 23011KT 15SM FEW200 BKN250 15/04 A2998 RMK CC1CI5 SLP153 DENSITY ALT 900FT<br><br>
CYHM 020900Z 22010KT 15SM BKN250 14/04 A2997 RMK CI5 SLP149 DENSITY ALT 800FT<br><br>
TAF CYHM 020538Z 0206/0306 22010KT WS010/23040KT P6SM FEW280 FM021500 21018G28KT P6SM FEW070 SCT150 BKN280 BECMG 0216/0218 23025G40KT FM022000 24025G35KT P6SM BKN050 FM022300 24015KT P6SM BKN030 PROB40 0223/0306 VRB15G35KT 1SM +TSRA BKN020CB RMK NXT FCST BY 021200Z<br><br>
<br><br>
KIAG 020953Z AUTO 22009KT 10SM CLR 16/03 A3000 RMK AO2 SLP155 T01560033<br><br>
KIAG 020853Z AUTO 22013KT 10SM CLR 17/03 A2999 RMK AO2 SLP153 T01670028 56001<br><br>
KIAG 020902Z 0209/0306 23012KT P6SM SCT250 WS015/25045KT FM021200 22010KT P6SM FEW200 FM021600 22020G40KT P6SM BKN200 FM022100 24022KT P6SM BKN060 FM022300 24018KT P6SM BKN040<br><br>
<br><br>
KBUF 020954Z 23012KT 10SM FEW250 14/03 A3001 RMK AO2 SLP162 T01440033<br><br>
KBUF 020854Z 23010KT 10SM CLR 16/02 A3002 RMK AO2 SLP164 T01610022 53003<br><br>
KBUF 020902Z 0209/0306 23010KT P6SM SCT250 WS015/25045KT FM021300 23013KT P6SM SCT250 FM021600 23017G40KT P6SM SCT250 FM022100 24020KT P6SM BKN060 FM030000 24016KT P6SM BKN045<br><br>
<br><br>
CYYZ 021000Z 25014KT 15SM SCT160 BKN260 18/04 A2993 RMK AC4CI1 SLP136 DENSITY ALT 1100FT<br><br>
CYYZ 020900Z 25013KT 15SM SCT180 SCT260 18/04 A2992 RMK AC3CI1 SLP133 DENSITY ALT 1100FT<br><br>
TAF CYYZ 020838Z 0209/0312 24010KT WS010/25040KT P6SM FEW150 SCT280 FM021500 24015G25KT P6SM FEW060 SCT150 BKN280 BECMG 0216/0218 23020G30KT FM022200 26015KT P6SM BKN040 PROB40 0222/0301 VRB15G35KT 1SM +TSRA BKN020CB FM030200 26012KT P6SM SCT040 PROB30 0305/0308 2SM TSRA BKN030CB FM030800 25005KT 6SM -SHRA BKN020 OVC090 PROB30 0308/0311 2SM TSRA BKN040CB FM031100 36010KT 3SM -SHRA BR BKN007 OVC015 RMK NXT FCST BY 021200Z<br><br>
<br><br>
CYOO 021000Z AUTO 11003KT 9SM OVC170 08/04 A2993 RMK SLP138<br><br>
CYOO 020900Z AUTO 05002KT 9SM CLR 08/04 A2993 RMK SLP138<br><br>
CYOO has no TAF <br><br>
<br><br>
CYTR 021000Z 24007KT 15SM FEW120 BKN250 16/03 A2991 RMK AC2CI2 SLP131<br><br>
CYTR 020900Z 24012KT 15SM BKN120 16/03 A2990 RMK AC6 SLP128<br><br>
TAF CYTR 020531Z 0206/0306 21010KT P6SM FEW250 BECMG 0212/0214 24012G22KT SCT150 FM021500 24015G25KT P6SM SCT080 BKN200 FM021900 24018G28KT P6SM SCT050 BKN100 TEMPO 0219/0302 P6SM -SHRA BKN050 OVC080 PROB30 0219/0302 24020G35KT 2SM -TSRA BR OVC030CB FM030200 26012KT P6SM SCT030 BKN200 RMK NXT FCST BY 021200Z<br><br>
<br><br>
