RETRIEVED AT : May 09 2020 07:05 Local <br>
  RETRIEVED AT: May 09 2020 11:05 UTC<br><br>
CYSN has no TAF <br><br>
<br><br>
CYHM 091000Z 26008KT 15SM -SN FEW028 BKN043 M02/M06 A2993 RMK CF1SC7 CF TR PCPN VRY LGT SLP147<br><br>
TAF AMD CYHM 090916Z 0909/1006 28009KT P6SM -SHSN BKN030 TEMPO 0909/0914 4SM -SHSN FM091400 28018G28KT 4SM -SHSN BKN040 FM091800 28018G28KT P6SM BKN050 FM100000 28012G22KT P6SM BKN050 BECMG 1002/1004 26009KT RMK NXT FCST BY 091200Z<br><br>
<br><br>
KIAG 091053Z 29007KT 10SM SCT033 BKN040 OVC049 M01/M06 A2994 RMK AO2 SLP151 T10061061<br><br>
KIAG 090953Z AUTO 30008KT 10SM FEW024 SCT046 OVC075 M01/M06 A2993 RMK AO2 UPB26E27SNE26B27E28 SLP148 P0000 T10111056<br><br>
KIAG 090940Z AUTO 30009KT 10SM FEW026 BKN034 OVC075 M01/M06 A2992 RMK AO2 UPB26E27SNE26B27E28 P0000 T10111056<br><br>
KIAG 090932Z AUTO 31009KT 9SM BKN026 BKN034 OVC045 M01/M06 A2992 RMK AO2 UPB26E27SNE26B27E28 P0000 T10111056<br><br>
KIAG 090925Z AUTO 31008KT 9SM -SN SCT026 OVC033 M01/M06 A2992 RMK AO2 P0000 T10111056<br><br>
KIAG 090915Z AUTO 32010KT 9SM -SN BKN026 OVC033 M01/M06 A2992 RMK AO2 P0000 T10111056<br><br>
KIAG 090916Z 0909/1006 30012KT P6SM -SHSN SCT025 BKN035 FM091400 28019G28KT P6SM -SHSN BKN035 FM091500 28020G31KT 2SM -SN SCT025 BKN050 TEMPO 0915/0917 1/2SM SN BKN025 FM091700 28022G35KT P6SM BKN040 FM100200 27012KT P6SM SCT080<br><br>
<br><br>
KBUF 091054Z 27008KT 10SM FEW030 SCT037 BKN070 BKN230 M01/M06 A2993 RMK AO2 SNB18E25 SLP143 P0000 T10061061 $<br><br>
KBUF 091009Z 28007KT 10SM BKN025 BKN031 BKN046 M01/M06 A2993 RMK AO2 T10061061 $<br><br>
KBUF 090954Z 29006KT 9SM FEW027 BKN048 BKN065 M01/M06 A2992 RMK AO2 SNE50 SLP141 P0000 T10111061 $<br><br>
KBUF 090927Z 28010KT 9SM -SN SCT031 BKN049 OVC055 M01/M06 A2992 RMK AO2 P0000 T10111056 $<br><br>
KBUF 090916Z 0909/1006 28010KT P6SM -SHSN SCT025 BKN035 TEMPO 0909/0910 3SM -SHSN BKN025 FM091300 27015G25KT P6SM -SHSN BKN035 FM091600 27020G29KT 1SM -SN SCT025 OVC040 TEMPO 0916/0918 1/2SM SN BKN015 FM091800 27024G35KT P6SM VCSH OVC045 FM100100 26011KT P6SM BKN080<br><br>
<br><br>
CYYZ 091000Z 25007KT 15SM FEW080 M04/M07 A2992 RMK AC1 FROIN SLP141<br><br>
TAF CYYZ 090839Z 0909/1012 29010KT P6SM SCT060 TEMPO 0910/0912 3SM -SHSN BKN030 PROB30 0910/0912 2SM -SHSN OVC020 FM091200 28015KT P6SM BKN040 TEMPO 0912/0918 3SM -SHSN PROB30 0912/0915 2SM -SHSN OVC020 FM091800 29015G25KT P6SM SCT040 BKN080 FM092100 29020G30KT P6SM BKN050 BECMG 0922/0924 29015G25KT FM100300 27012KT P6SM BKN030 BKN060 BECMG 1007/1009 31008KT BECMG 1010/1012 19007KT RMK NXT FCST BY 091200Z<br><br>
<br><br>
CYOO 091000Z AUTO 25005KT 9SM CLR M03/M06 A2990 RMK SLP132<br><br>
TAF CYOO 090739Z 0908/0920 28008KT P6SM SCT050 TEMPO 0908/0920 3SM -SHSNRA BKN050 BECMG 0913/0915 29015G25KT RMK FCST BASED ON AUTO OBS. NXT FCST BY 091400Z<br><br>
<br><br>
CYTR 091000Z 29005KT 15SM FEW120 FEW250 M03/M09 A2987 RMK AC1CI2 SLP119<br><br>
TAF CYTR 090530Z 0906/1006 31008KT P6SM FEW080 FM091500 30012G22KT P6SM BKN040 TEMPO 0915/0918 6SM -SHRASN BR BKN030 FM091800 29015G25KT P6SM BKN060 BECMG 1001/1003 28012KT FM100300 28012KT P6SM SCT030 BKN200 RMK NXT FCST BY 091200Z<br><br>
<br><br>
