RETRIEVED AT : May 16 2020 08:05 Local <br>
  RETRIEVED AT: May 16 2020 12:05 UTC<br><br>
CYSN 161100Z 04006KT 4SM BR OVC003 09/09 A3013 RMK SF8 SLP205<br><br>
CYSN has no TAF <br><br>
<br><br>
CYHM 161153Z 05011KT 1/4SM R12/4000VP6000FT/D FG VV002 08/08 A3015 RMK FG8 SLP214<br><br>
CYHM 161124Z 04009KT 1 1/4SM BR OVC002 08/08 A3014 RMK FG2CF6 SLP209<br><br>
CYHM 161112Z 05009KT 2SM BR OVC002 08/08 A3013 RMK FG1CF7 SLP206<br><br>
CYHM 161100Z 04007KT 15SM FEW004 FEW150 FEW220 08/08 A3013 RMK CF1AC1CI1 AC TR VIS NE 1 1/2 SLP205<br><br>
TAF CYHM 161139Z 1612/1712 04010KT 1SM BR OVC002 TEMPO 1612/1614 6SM BR SCT002 FM161400 05006KT P6SM SCT008 TEMPO 1614/1616 SCT008 BKN015 FM161600 05010KT P6SM SCT030 FM170100 06005KT P6SM SKC FM171000 06012KT P6SM SCT040 BKN200 RMK NXT FCST BY 161800Z<br><br>
<br><br>
KIAG 161153Z 07005KT 3SM BR OVC003 09/08 A3016 RMK AO2 SLP217 70009 T00890083 10100 20083 53031<br><br>
KIAG 161143Z 05007KT 3SM BR OVC002 08/08 A3015 RMK AO2 T00830083<br><br>
KIAG 161138Z 05008KT 1 1/2SM R28R/4500VP6000FT BR OVC002 08/08 A3014 RMK AO2 T00830083<br><br>
KIAG 161136Z 05007KT 1SM R28R/2400VP6000FT BR OVC002 08/08 A3014 RMK AO2 T00830083<br><br>
KIAG 161130Z 05007KT 1/2SM R28R/2000VP6000FT FG VV002 08/08 A3014 RMK AO2 T00830083<br><br>
KIAG 161123Z 05007KT 1/4SM R28R/1600VP6000FT FG VV002 08/08 A3014 RMK AO2 T00830083<br><br>
KIAG 161053Z 03007KT 1/4SM R28R/1400FT FG VV002 08/08 A3012 RMK AO2 SLP206 T00830083<br><br>
KIAG 161046Z AUTO 04007KT 1/4SM R28R/1200V1600FT FG VV002 08/08 A3012 RMK AO2 T00830078<br><br>
KIAG 161039Z AUTO 03010KT 1/2SM R28R/1200V2200FT FG VV002 08/08 A3012 RMK AO2 T00830078<br><br>
KIAG 161023Z AUTO 03008KT 3/4SM R28R/2800V4000FT BR OVC002 08/08 A3010 RMK AO2 T00830078<br><br>
KIAG 161013Z AUTO 02004KT 1SM R28R/4000VP6000FT BR OVC002 08/08 A3010 RMK AO2 T00830078<br><br>
KIAG 161009Z AUTO 02006KT 1 3/4SM R28R/4500VP6000FT BR OVC002 08/08 A3010 RMK AO2 T00830078<br><br>
KIAG 161120Z 1612/1712 02006KT 3SM BR OVC002 TEMPO 1612/1614 SCT002 BKN015 FM161400 02006KT P6SM BKN025 FM161600 01006KT P6SM SCT040 FM162200 03006KT P6SM SKC FM170600 09004KT P6SM SCT250<br><br>
<br><br>
KBUF 161201Z 05006KT 1/2SM R23/1200V3000FT FG VV002 09/08 A3016 RMK AO2 T00940083<br><br>
KBUF 161154Z 03006KT 1/8SM R23/1200V2000FT FG VV002 09/08 A3015 RMK AO2 SLP213 70016 T00940083 10094 20067 53029<br><br>
KBUF 161054Z 03007KT 1/8SM R23/1200V1400FT FG VV002 09/08 A3012 RMK AO2 SLP203 T00890078<br><br>
KBUF 161040Z 01005KT 1/4SM R23/1600V2000FT FG OVC002 09/08 A3011 RMK AO2 T00890083<br><br>
KBUF 161029Z 01004KT 1 3/4SM R23/3000VP6000FT BR OVC002 09/08 A3011 RMK AO2 T00890083<br><br>
KBUF 161013Z 35005KT 4SM BR OVC003 09/08 A3010 RMK AO2 CIG 002V006 T00940078<br><br>
KBUF 161120Z 1612/1712 36006KT 5SM BR BKN007 TEMPO 1612/1614 1SM BR BKN002 FM161430 01006KT P6SM BKN025 FM161600 36006KT P6SM SCT040 FM162200 04006KT P6SM SKC FM170400 09006KT P6SM SCT250<br><br>
<br><br>
CYYZ 161154Z 01007KT 15SM BKN010 10/08 A3015 RMK SC7 SLP215<br><br>
CYYZ 161100Z 36008KT 15SM BKN007 09/08 A3013 RMK SC7 SLP207<br><br>
TAF CYYZ 161139Z 1612/1718 36008KT 2SM BR BKN007 TEMPO 1612/1613 6SM BR BKN010 FM161300 36008KT P6SM FEW005 SCT015 TEMPO 1613/1615 BKN015 FM161500 36008KT P6SM SCT030 FM161900 13008KT P6SM FEW040 BECMG 1701/1703 07007KT FM171100 08012KT P6SM SCT050 SCT180 RMK NXT FCST BY 161500Z<br><br>
<br><br>
CYOO 161107Z AUTO 34010KT 9SM SCT008 10/09 A3013 RMK SLP205<br><br>
CYOO 161100Z AUTO 35010KT 9SM BKN008 10/09 A3012 RMK SLP203<br><br>
TAF CYOO 160738Z 1608/1620 34006KT 2SM BR BKN005 TEMPO 1608/1614 P6SM NSW SCT005 FM161400 34006KT P6SM SCT030 BECMG 1618/1620 17005KT RMK FCST BASED ON AUTO OBS. NXT FCST BY 161400Z<br><br>
<br><br>
CYTR 161100Z 03008KT 15SM SCT025 10/07 A3012 RMK SC3 SLP200<br><br>
TAF CYTR 161130Z 1612/1712 03005KT P6SM SCT025 FM161700 20008KT P6SM BKN030 FM170200 VRB03KT P6SM FEW030 BECMG 1706/1708 04007KT RMK NXT FCST BY 161800Z<br><br>
<br><br>
