RETRIEVED AT : Jan 18 2019 22:05 Local <br>
  RETRIEVED AT: Jan 19 2019 03:05 UTC<br><br>
CYSN 190200Z 34009KT 15SM FEW039 SCT170 M03/M10 A3020 RMK SC2AC1 LAST STFD OBS/NXT 191200Z SLP232<br><br>
CYSN has no TAF <br><br>
<br><br>
CYHM 190200Z 31004KT 15SM FEW020 BKN039 BKN130 M05/M09 A3019 RMK CU1SC5AC2 CU TR SLP237<br><br>
TAF CYHM 182338Z 1900/1924 30010KT P6SM BKN030 OVC200 TEMPO 1900/1901 P6SM -SHSN FM190300 33007KT P6SM FEW020 OVC100 BECMG 1904/1906 03010G20KT FM191000 04012G22KT 2SM -SN BLSN BKN015 OVC070 FM191400 04015G25KT 1SM -SN BLSN OVC015 FM191900 05020G30KT 1/2SM -SN BLSN VV005 RMK NXT FCST BY 190600Z<br><br>
<br><br>
KIAG 190253Z 34003KT 10SM CLR M05/M11 A3019 RMK AO2 SLP242 T10501111 51008<br><br>
KIAG 190153Z 31007KT 10SM FEW033 M05/M10 A3018 RMK AO2 SLP239 T10501100<br><br>
KIAG 190300Z 1903/1924 33005KT P6SM SCT040 BKN150 FM190500 36006KT P6SM BKN025 FM190800 04008KT P6SM BKN015 FM191300 06010G16KT 2SM -SN OVC015 FM191600 06013G20KT 1/2SM SN OVC007<br><br>
<br><br>
KBUF 190254Z 28004KT 10SM FEW022 SCT041 SCT170 M04/M11 A3019 RMK AO2 SLP235 T10441106 51012 $<br><br>
KBUF 190154Z 31007KT 10SM FEW025 BKN041 OVC140 M04/M10 A3018 RMK AO2 SLP230 T10391100 $<br><br>
KBUF 190300Z 1903/1924 31005KT P6SM SCT040 BKN150 FM190500 36006KT P6SM BKN025 FM190700 03006KT P6SM BKN015 FM191300 06009KT 2SM -SN OVC015 FM191600 06011G17KT 1/2SM SN OVC007<br><br>
<br><br>
CYYZ 190200Z 28009KT 15SM SCT045 BKN130 M04/M12 A3019 RMK SC4AC2 SLP233<br><br>
TAF CYYZ 190238Z 1903/2006 30010KT P6SM SCT040 BKN130 TEMPO 1903/1906 BKN040 BECMG 1903/1905 35012KT FM190600 36012KT P6SM FEW030 OVC110 FM191100 03012KT 21/2SM -SN BKN020 OVC060 FM191800 03010G20KT 11/2SM -SN BLSN OVC015 FM192300 03015G25KT 1/2SM -SN BLSN VV005 BECMG 2003/2005 01018G28KT RMK NXT FCST BY 190600Z<br><br>
<br><br>
CYOO 190256Z AUTO 33008KT 9SM -SN SCT024 OVC031 M04/M08 A3020 RMK SLP236<br><br>
CYOO 190233Z AUTO 31009KT 9SM -SN BKN024 BKN032 OVC041 M04/M08 A3019 RMK SLP233<br><br>
CYOO 190227Z AUTO 31008KT 9SM -SN SCT026 BKN032 OVC041 M04/M09 A3019 RMK SLP232<br><br>
CYOO 190200Z AUTO 30007KT 9SM BKN036 OVC044 M04/M10 A3018 RMK SLP228<br><br>
TAF AMD CYOO 190252Z 1902/1914 31008KT 5SM -SHSN BKN020 OVC040 TEMPO 1902/1907 P6SM NSW BKN025 OVC040 BECMG 1903/1905 01008KT FM190700 03008KT P6SM FEW025 BKN120 FM191200 04010KT 6SM -SN FEW020 OVC090 RMK FCST BASED ON AUTO OBS. NXT FCST BY 190800Z<br><br>
<br><br>
CYTR 190232Z 31008KT 15SM FEW024 OVC044 M03/M09 A3019 RMK SC2SC6 SLP228<br><br>
CYTR 190212Z 33005KT 15SM -SN BKN024 OVC044 M03/M07 A3018 RMK SC5SC3 PCPN VRY LGT SLP226<br><br>
CYTR 190200Z 31008KT 15SM OVC030 M03/M08 A3018 RMK SC8 SLP225<br><br>
CYTR 190148Z 30008KT 15SM OVC030 M03/M08 A3018 RMK SC8 SLP224<br><br>
CYTR 190120Z 30008KT 10SM -SN SCT030 OVC043 M03/M07 A3017 RMK SC4SC4 SLP223<br><br>
TAF AMD CYTR 190217Z 1902/1924 33008KT P6SM SCT020 BKN040 TEMPO 1902/1906 P6SM -SN BKN020 OVC040 BECMG 1904/1906 03008KT FM191000 03008KT P6SM OVC120 FM191300 03010KT 6SM -SN SCT030 OVC080 FM191500 03012KT 4SM -SN BKN030 OVC060 FM192100 04012KT 2SM -SN BKN015 OVC025 RMK NXT FCST BY 190600Z<br><br>
<br><br>
