RETRIEVED AT : Nov 04 2017 18:10 Local <br>
  RETRIEVED AT: Nov 04 2017 22:10 UTC<br><br>
CYSN 042200Z 07011KT 15SM FEW025 FEW170 BKN250 06/02 A3016 RMK SC1AC1CI5 SLP218<br><br>
CYSN 042100Z 08016G22KT 15SM FEW025 BKN250 08/03 A3017 RMK SC1CI6 SLP220<br><br>
TAF CYSN 041938Z 0420/0501 09012G22KT P6SM SCT120 BKN160 BKN230 FM050000 09010G20KT P6SM BKN040 BKN120 OVC220 RMK NXT FCST WILL BE ISSUED AT 051245Z<br><br>
<br><br>
CYHM 042200Z 06021G29KT 15SM FEW018 BKN065 BKN230 06/03 A3014 RMK SC1SC6CI1 CI TR SLP217<br><br>
CYHM 042100Z 06022G27KT 15SM SCT020 BKN190 BKN230 07/03 A3014 RMK SC4AC1CI1 SLP217<br><br>
TAF AMD CYHM 041810Z 0418/0518 05015G25KT P6SM SCT012 BKN150 OVC220 TEMPO 0418/0421 BKN012 OVC150 FM050000 07010G20KT P6SM SCT030 BKN140 TEMPO 0500/0502 P6SM -SHRA OVC030 FM050200 07008KT P6SM FEW012 OVC025 TEMPO 0502/0507 3SM -SHRA BR OVC012 PROB30 0504/0507 VRB15G25KT 2SM TSRA BR OVC008CB FM050700 10008KT 21/2SM -SHRA BR OVC008 PROB30 0507/0510 VRB15G25KT 11/2SM TSRA BR OVC005CB FM051000 18012G22KT 21/2SM -SHRA BR OVC008 BECMG 0512/0514 19015G25KT RMK NXT FCST BY 050000Z<br><br>
<br><br>
KIAG 042153Z 07015KT 10SM CLR 08/02 A3016 RMK AO2 SLP223 T00780017<br><br>
KIAG 042053Z 08016G20KT 10SM CLR 09/01 A3016 RMK AO2 SLP224 T00890011 56027<br><br>
KIAG 041732Z 0418/0518 08013KT P6SM BKN150 FM042200 09011KT P6SM BKN100 FM050100 09010KT P6SM VCSH BKN050 FM050500 16008KT P6SM OVC035 WS020/20040KT FM051000 18012KT 4SM SHRA OVC025 WS020/20045KT FM051400 18016G23KT P6SM VCSH OVC025<br><br>
<br><br>
KBUF 042154Z 07012KT 10SM FEW022 SCT150 BKN190 BKN250 07/02 A3015 RMK AO2 SLP216 T00720017<br><br>
KBUF 042054Z 08013G21KT 10SM FEW022 SCT150 BKN190 BKN250 08/02 A3015 RMK AO2 SLP217 T00830022 56030<br><br>
KBUF 041732Z 0418/0518 08013KT P6SM BKN150 FM042200 09012KT P6SM BKN120 FM050100 10009KT P6SM VCSH BKN050 FM050500 14009KT P6SM OVC045 WS020/20040KT FM051000 17014G20KT 4SM SHRA OVC025 WS020/20045KT FM051400 18017G25KT P6SM VCSH OVC025<br><br>
<br><br>
CYYZ 042200Z 08011G18KT 15SM FEW018 BKN170 BKN260 05/01 A3021 RMK CF2AC3CI2 SLP236<br><br>
CYYZ 042100Z 07014G22KT 15SM FEW025 FEW150 BKN260 06/01 A3020 RMK SC1AC1CI6 SC TR SLP234<br><br>
TAF CYYZ 042039Z 0421/0524 08015G25KT P6SM FEW025 FEW090 BKN220 FM050000 09012KT P6SM BKN040 BKN140 OVC220 TEMPO 0500/0502 6SM -SHRA BR OVC030 FM050200 09008KT P6SM -SHRA OVC030 TEMPO 0502/0506 4SM -SHRA BR OVC020 FM050600 09006KT 6SM -SHRA BR SCT006 OVC015 TEMPO 0506/0508 21/2SM -SHRA BR OVC006 FM050800 13008KT 11/2SM -SHRA BR BKN003 OVC006 FM051200 19012G22KT 2SM -SHRA BR BKN006 OVC012 FM051700 20010G20KT 4SM -SHRA BR BKN008 OVC015 FM052100 21010G20KT 6SM -SHRA BR SCT008 OVC015 RMK NXT FCST BY 050000Z<br><br>
<br><br>
CYOO 042200Z AUTO 08009G15KT 050V110 9SM SCT150 OVC210 05/M01 A3022 RMK SLP239<br><br>
CYOO 042100Z AUTO 07013G22KT 9SM OVC150 06/M01 A3023 RMK SLP243<br><br>
CYOO has no TAF <br><br>
<br><br>
CYTR 042200Z 06012KT 15SM SCT150 OVC220 05/00 A3027 RMK AC3CI5 SLP255<br><br>
CYTR 042100Z 07006KT 15SM FEW120 OVC250 06/M00 A3030 RMK AC2CI6 SLP266<br><br>
TAF CYTR 041730Z 0418/0518 07005KT P6SM OVC090 BECMG 0418/0420 07010G20KT FM050300 12012KT P6SM -DZ SCT020 BKN040 FM050600 14012G22KT P6SM -RA BKN020 OVC040 TEMPO 0506/0518 3SM -RA BR OVC010 BECMG 0512/0514 16020G30KT RMK NXT FCST BY 050000Z<br><br>
<br><br>
