RETRIEVED AT : Jul 03 2020 15:05 Local <br>
  RETRIEVED AT: Jul 03 2020 19:05 UTC<br><br>
CYSN 031800Z 31006KT 290V050 15SM FEW050 SCT140 BKN240 30/19 A2992 RMK CU2AC2CI2 SLP133 DENSITY ALT 2100FT<br><br>
TAF CYSN 031238Z 0313/0401 22005KT P6SM BKN250 FM031600 32010KT P6SM SCT050 BECMG 0320/0322 36012KT RMK NXT FCST BY 032000Z<br><br>
<br><br>
CYHM 031800Z 31006G15KT 300V030 15SM BKN048 31/21 A2994 RMK CU6 SLP137 DENSITY ALT 2800FT<br><br>
TAF CYHM 031738Z 0318/0418 32007KT P6SM BKN050 FM032000 34010KT P6SM BKN060 PROB30 0320/0323 VRB15G25KT 2SM TSRA BR BKN020 OVC050CB FM040000 36010KT P6SM FEW060 BECMG 0414/0416 04005KT RMK NXT FCST BY 040000Z<br><br>
<br><br>
KIAG 031853Z 35008KT 10SM BKN045 30/19 A2993 RMK AO2 SLP130 T03000189<br><br>
KIAG 031753Z 36008KT 10SM BKN042 29/19 A2994 RMK AO2 SLP133 T02890189 10294 20233 50002<br><br>
KIAG 031735Z 0318/0418 35007KT P6SM FEW080 FEW120 FM032100 02007KT P6SM FEW050 SCT120 FM040000 VRB04KT P6SM FEW050 SCT120 FM040500 VRB04KT P6SM FEW060 FEW200 FM041600 05005KT P6SM FEW250<br><br>
<br><br>
KBUF 031854Z 33011G18KT 10SM SCT045 BKN055 BKN250 32/19 A2994 RMK AO2 SLP133 T03170189<br><br>
KBUF 031754Z 01008KT 10SM BKN045 BKN250 31/18 A2995 RMK AO2 SLP137 T03110183 10311 20244 50004<br><br>
KBUF 031857Z 0319/0418 01008KT P6SM SCT050 FM032300 VRB04KT P6SM FEW050 SCT100 FM040600 VRB04KT P6SM FEW050 FEW250 FM041700 02005KT P6SM FEW250<br><br>
<br><br>
CYYZ 031800Z 34012G20KT 15SM FEW046 SCT260 32/19 A2994 RMK CU2CI2 SLP136 DENSITY ALT 2600FT<br><br>
TAF CYYZ 031738Z 0318/0424 01012G22KT P6SM SCT040 FM040000 35012KT P6SM FEW050 FM041600 36007KT P6SM SKC RMK NXT FCST BY 032100Z<br><br>
<br><br>
CYOO 031800Z AUTO 01010G16KT 320V030 9SM SCT047 SCT060 30/19 A2991 RMK SLP127 DENSITY ALT 2300FT<br><br>
TAF CYOO 031352Z 0314/0402 35012KT P6SM FEW060 SCT120 FM031700 35012KT P6SM SCT050 TEMPO 0317/0402 BKN050 RMK FCST BASED ON AUTO OBS. NXT FCST BY 032000Z<br><br>
<br><br>
CYTR 031800Z 20009KT 15SM SCT030 BKN085 28/21 A2989 RMK CU4AC2 SLP122<br><br>
TAF CYTR 031730Z 0318/0418 24008KT P6SM SCT030 BKN080 TEMPO 0318/0402 5SM -SHRA BR BKN030 BKN080 PROB40 0318/0401 VRB15G30KT 2SM TSRA BR SCT015 OVC030CB FM040200 VRB03KT P6SM BKN060 BECMG 0406/0408 01005KT FM041300 02008KT P6SM FEW070 RMK FCST BASED ON AUTO OBS 040200-041000Z. NXT FCST BY 040000Z<br><br>
<br><br>
