RETRIEVED AT : Oct 09 2017 03:10 Local <br>
  RETRIEVED AT: Oct 09 2017 07:10 UTC<br><br>
CYSN has no TAF <br><br>
<br><br>
CYHM 090705Z 10005KT 5SM RA BR BKN020 OVC034 15/14 A2984 RMK SC7SC1 SLP106 DENSITY ALT 1100FT<br><br>
CYHM 090700Z 07004KT 6SM -RA BR BKN021 OVC034 15/14 A2984 RMK SC7SC1 SLP106 DENSITY ALT 1100FT<br><br>
CYHM 090600Z 12006KT 15SM -RA BKN032 16/14 A2987 RMK SC7 SLP116 DENSITY ALT 1200FT<br><br>
CYHM 090525Z 12004KT 15SM -RA SCT056 BKN072 OVC120 16/15 A2988 RMK SC3AC3AC2 SLP118 DENSITY ALT 1200FT<br><br>
TAF CYHM 090538Z 0906/1006 06006KT P6SM -RA OVC050 TEMPO 0906/0908 4SM -SHRA BR OVC012 FM090800 05010KT 6SM -RA BR OVC010 TEMPO 0908/0914 2SM RA BR BKN005 OVC008 FM091400 03012KT P6SM OVC010 TEMPO 0914/0917 5SM -DZ BR OVC006 FM091700 02010KT P6SM OVC012 TEMPO 0917/0921 OVC008 FM092100 29006KT P6SM BKN020 FM092300 24006KT P6SM FEW030 RMK NXT FCST BY 091200Z<br><br>
<br><br>
KIAG 090653Z AUTO 09006KT 6SM -RA BR BKN026 BKN060 OVC090 17/15 A2986 RMK AO2 SLP110 P0005 T01720150<br><br>
KIAG 090646Z AUTO 08008KT 6SM -RA BR BKN027 OVC070 17/15 A2986 RMK AO2 PRESFR P0004 T01720150<br><br>
KIAG 090553Z AUTO 13005KT 5SM -RA BR OVC039 17/15 A2990 RMK AO2 SLP123 P0011 60012 T01720150 10178 20167 55005<br><br>
KIAG 090540Z 0906/1006 08007KT 4SM RA BR OVC035 FM091200 05014KT 3SM RA BR OVC012 FM091600 03015KT P6SM OVC007 FM092000 32007KT P6SM BKN007 FM100000 24005KT P6SM BKN020 FM100500 24006KT P6SM FEW130<br><br>
<br><br>
KBUF 090705Z 06007KT 2 1/2SM +RA BR BKN016 OVC024 17/16 A2987 RMK AO2 P0004 T01670156<br><br>
KBUF 090654Z 07008KT 9SM -RA OVC016 17/16 A2987 RMK AO2 SLP114 P0008 T01670156<br><br>
KBUF 090622Z 10006KT 8SM -RA BKN012 OVC017 17/16 A2989 RMK AO2 P0005 T01670161<br><br>
KBUF 090601Z 09006KT 4SM RA BR BKN017 BKN028 OVC050 17/16 A2990 RMK AO2 P0003 T01670161<br><br>
KBUF 090554Z 10007KT 3SM RA BR SCT017 BKN030 OVC060 17/16 A2990 RMK AO2 SLP123 P0010 60012 T01670156 10178 20167 55006<br><br>
KBUF 090543Z 11006KT 5SM RA BR SCT019 BKN029 OVC033 17/16 A2990 RMK AO2 P0007 T01670161<br><br>
KBUF 090540Z 0906/1006 12007KT 4SM RA BR OVC025 FM091200 07010KT 3SM RA OVC012 FM091500 02017KT 4SM RA OVC007 FM091900 36006KT P6SM BKN007 FM092300 28006KT P6SM BKN012 FM100500 24007KT P6SM BKN040<br><br>
<br><br>
CYYZ 090700Z 09004KT 6SM -RA SCT090 OVC120 17/16 A2987 RMK AC3AC5 SLP114 DENSITY ALT 1000FT<br><br>
CYYZ 090606Z 14005KT 15SM -RA OVC090 17/15 A2988 RMK AC8 SLP117 DENSITY ALT 1000FT<br><br>
CYYZ 090600Z 15006KT 15SM OVC090 17/15 A2988 RMK AC8 SLP117 DENSITY ALT 1000FT<br><br>
TAF CYYZ 090538Z 0906/1012 VRB03KT P6SM BKN130 OVC250 FM090700 10005KT P6SM -RA OVC120 TEMPO 0907/0909 4SM -RA BR BKN008 OVC070 FM090900 07006KT 6SM -RA BR BKN012 OVC025 TEMPO 0909/0914 2SM RA BR OVC005 PROB30 0909/0913 1SM RA BR OVC003 FM091400 04010KT P6SM -RA OVC012 TEMPO 0914/0916 5SM -RA BR BKN008 OVC015 FM091700 01010KT P6SM OVC015 FM092000 33010KT P6SM BKN030 TEMPO 0920/0922 BKN020 FM100100 28006KT P6SM FEW030 PROB30 1008/1012 1SM BR RMK NXT FCST BY 090900Z<br><br>
<br><br>
CYOO 090700Z AUTO 09005KT 9SM -RA FEW095 BKN130 16/15 A2988 RMK PRESFR SLP121 DENSITY ALT 700FT<br><br>
CYOO 090656Z AUTO 10005KT 9SM -RA FEW095 BKN130 16/15 A2989 RMK SLP122 DENSITY ALT 700FT<br><br>
CYOO 090620Z AUTO 09005KT 9SM BKN140 BKN160 16/15 A2989 RMK SLP124 DENSITY ALT 700FT<br><br>
CYOO 090609Z AUTO 09005KT 9SM -RA BKN130 OVC150 16/15 A2989 RMK SLP124 DENSITY ALT 700FT<br><br>
CYOO 090600Z AUTO 09006KT 9SM OVC130 16/15 A2989 RMK SLP124 DENSITY ALT 700FT<br><br>
CYOO has no TAF <br><br>
<br><br>
CYTR 090700Z 08002KT 8SM -SHRA SCT039 OVC080 15/15 A2991 RMK SC4AC4 SLP129<br><br>
CYTR 090649Z 10002KT 8SM -SHRA SCT039 OVC080 15/14 A2991 RMK SC4AC4 SLP130<br><br>
CYTR 090600Z 03004KT 8SM FEW120 OVC220 14/14 A2992 RMK AC2CI6 SLP134<br><br>
TAF CYTR 090530Z 0906/1006 VRB03KT P6SM -SHRA SCT015 OVC030 TEMPO 0906/0908 3SM -SHRA BR SCT006 OVC015 FM090800 12008KT 3SM -SHRA BR SCT006 OVC015 TEMPO 0908/0916 1SM SHRA BR OVC006 PROB30 0908/0914 3/4SM +SHRA BR OVC003 FM091600 06012KT P6SM SCT010 OVC020 TEMPO 0916/0920 5SM -SHRA BR OVC010 FM092000 34012KT P6SM BKN020 FM100000 VRB03KT P6SM SCT020 RMK NXT FCST BY 091200Z<br><br>
<br><br>
