RETRIEVED AT : Jul 05 2020 13:05 Local <br>
  RETRIEVED AT: Jul 05 2020 17:05 UTC<br><br>
CYSN 051600Z 34005KT 15SM BKN170 28/17 A2998 RMK AC6 SLP153 DENSITY ALT 1900FT<br><br>
TAF CYSN 051238Z 0513/0601 21006KT P6SM SCT250 BECMG 0514/0516 30008KT BECMG 0523/0601 07006KT RMK NXT FCST BY 052000Z<br><br>
<br><br>
CYHM 051600Z 26006KT 210V320 15SM BKN280 29/15 A3002 RMK CI7 SLP162 DENSITY ALT 2500FT<br><br>
TAF CYHM 051139Z 0512/0612 24007KT P6SM SCT250 BECMG 0517/0519 30007KT FM060000 36007KT P6SM FEW080 FM060300 VRB03KT P6SM SKC BECMG 0608/0610 05005KT RMK NXT FCST BY 051800Z<br><br>
<br><br>
KIAG 051653Z 29008KT 10SM CLR 30/13 A2999 RMK AO2 SLP149 T03000128<br><br>
KIAG 051553Z 27008KT 10SM CLR 29/14 A3000 RMK AO2 SLP153 T02890139<br><br>
KIAG 051404Z 0514/0612 23006KT P6SM BKN250 FM051700 26008KT P6SM SCT250 FM052300 22005KT P6SM SCT250<br><br>
<br><br>
KBUF 051654Z 23008KT 10SM SCT190 BKN230 BKN270 31/14 A3001 RMK AO2 SLP156 T03060139<br><br>
KBUF 051554Z 23005KT 10SM SCT180 BKN220 BKN270 29/12 A3002 RMK AO2 SLP160 T02940122<br><br>
KBUF 051404Z 0514/0612 23006KT P6SM BKN250 FM051700 25010KT P6SM SCT250 FM052300 22005KT P6SM SCT250<br><br>
<br><br>
CYYZ 051600Z 26009KT 15SM FEW180 BKN250 31/09 A2999 RMK AC1CI6 SLP154 DENSITY ALT 2500FT<br><br>
TAF CYYZ 051438Z 0515/0618 VRB03KT P6SM BKN250 BECMG 0516/0518 16010KT FM060100 36005KT P6SM SKC BECMG 0609/0611 07005KT BECMG 0615/0617 14010KT RMK NXT FCST BY 051800Z<br><br>
<br><br>
CYOO 051600Z AUTO 29005KT 230V320 9SM CLR 29/12 A2998 RMK SLP153 DENSITY ALT 2100FT<br><br>
TAF CYOO 051338Z 0514/0602 VRB03KT P6SM BKN250 BECMG 0514/0516 32010KT FM060000 36005KT P6SM SKC RMK FCST BASED ON AUTO OBS. NXT FCST BY 052000Z<br><br>
<br><br>
CYTR 051600Z 22008KT 15SM FEW048 OVC250 28/16 A2996 RMK CU1CS8 HALO SLP143<br><br>
TAF CYTR 051131Z 0512/0612 VRB03KT P6SM SCT030 BKN120 TEMPO 0512/0513 P6SM -SHRA FM051300 VRB03KT P6SM SCT200 BECMG 0515/0517 23010KT FM052000 28010G20KT P6SM SCT030 BKN200 FM060300 33008KT P6SM SCT060 BKN150 BECMG 0607/0609 VRB03KT RMK NXT FCST BY 051800Z<br><br>
<br><br>
