RETRIEVED AT : Oct 01 2017 22:10 Local <br>
  RETRIEVED AT: Oct 02 2017 02:10 UTC<br><br>
CYSN 020100Z 11004KT 15SM SKC 09/07 A3031 RMK LAST STFD OBS/NEXT 021100UTC SLP266<br><br>
CYSN has no TAF <br><br>
<br><br>
CYHM 020200Z 09003KT 15SM FEW250 09/06 A3030 RMK CI1 CI TR SLP267<br><br>
CYHM 020100Z 10004KT 15SM SKC 10/07 A3030 RMK SLP267<br><br>
TAF CYHM 012338Z 0200/0224 VRB03KT P6SM FEW030 BECMG 0215/0217 14010KT RMK NXT FCST BY 020600Z<br><br>
<br><br>
KIAG 020153Z 09003KT 10SM CLR 10/06 A3032 RMK AO2 SLP271 T01000061<br><br>
KIAG 020053Z 09003KT 10SM CLR 11/06 A3031 RMK AO2 SLP271 T01110061<br><br>
KIAG 012337Z 0200/0224 06005KT P6SM SKC FM020200 VRB03KT P6SM SKC FM021400 14004KT P6SM FEW200 FM021900 10007KT P6SM FEW200<br><br>
<br><br>
KBUF 020154Z 07005KT 10SM CLR 11/08 A3032 RMK AO2 SLP270 T01060078 $<br><br>
KBUF 020054Z 05006KT 10SM FEW250 11/08 A3032 RMK AO2 SLP271 T01110078 $<br><br>
KBUF 012337Z 0200/0224 05004KT P6SM FEW200 FM020200 VRB03KT P6SM SKC FM021300 14004KT P6SM FEW200 FM021900 10007KT P6SM FEW200<br><br>
<br><br>
CYYZ 020200Z 13002KT 15SM SKC 13/08 A3031 RMK SLP267<br><br>
CYYZ 020100Z 15003KT 15SM SKC 13/08 A3031 RMK SLP267<br><br>
TAF CYYZ 012338Z 0200/0306 VRB03KT P6SM FEW040 FM021600 12010KT P6SM SCT180 BECMG 0300/0302 VRB03KT RMK NXT FCST BY 020300Z<br><br>
<br><br>
CYOO 020200Z AUTO 36003KT 9SM CLR 07/05 A3032 RMK SLP271<br><br>
CYOO 020100Z AUTO 35003KT 9SM CLR 08/05 A3032 RMK SLP270<br><br>
CYOO has no TAF <br><br>
<br><br>
CYTR 020200Z 00000KT 15SM SKC 07/06 A3032 RMK SLP271<br><br>
CYTR 020100Z 00000KT 15SM FEW250 09/08 A3031 RMK CI1 SLP269<br><br>
TAF CYTR 012330Z 0200/0224 22008KT P6SM SCT250 BECMG 0200/0201 VRB03KT FM020800 03005KT P6SM SKC TEMPO 0208/0212 4SM BR PROB30 0208/0212 1/2SM FG FM021600 13005KT P6SM SCT250 RMK NXT FCST BY 020600Z<br><br>
<br><br>
