RETRIEVED AT : Oct 28 2018 06:05 Local <br>
  RETRIEVED AT: Oct 28 2018 10:05 UTC<br><br>
CYSN has no TAF <br><br>
<br><br>
CYHM 280952Z 30003KT 2 1/2SM -SN BKN008 OVC018 00/00 A2976 RMK SF6SC2 SLP088<br><br>
CYHM 280911Z 34005KT 2 1/2SM -SN BKN004 OVC017 00/00 A2976 RMK SF5SC3 SLP086<br><br>
CYHM 280900Z 34004KT 2 1/2SM -SN FEW004 SCT010 OVC024 00/00 A2975 RMK SF2SC1SC5 MOON VSBL SLP085<br><br>
CYHM 280823Z 33004KT 2 1/4SM -SN FEW003 BKN009 OVC016 00/00 A2976 RMK SF2SC5SC1 /S01/ MOON DIMLY VSBL SLP086<br><br>
TAF CYHM 280538Z 2806/2906 02010KT 2SM -SN BR OVC004 TEMPO 2806/2810 6SM -RASN BR OVC006 FM281000 36008KT 5SM -SNRA BR OVC008 TEMPO 2810/2812 6SM -SN SCT008 OVC012 FM281200 33005KT 6SM -RASN SCT008 OVC012 FM281500 23005KT P6SM -RA -DZ BKN010 OVC040 FM281900 23005KT P6SM BKN015 OVC040 FM282100 VRB03KT P6SM -SHRA OVC015 FM290300 35008KT P6SM OVC025 FM290500 31008KT P6SM SCT020 BKN050 RMK NXT FCST BY 281200Z<br><br>
<br><br>
KIAG 280953Z AUTO 34003KT 10SM OVC006 02/02 A2974 RMK AO2 RAE42 SLP084 P0000 T00220017<br><br>
KIAG 280853Z AUTO 36006KT 10SM -RA OVC006 02/01 A2974 RMK AO2 SLP083 P0000 60005 T00220011 55002<br><br>
