RETRIEVED AT : Mar 29 2019 22:05 Local <br>
  RETRIEVED AT: Mar 30 2019 02:05 UTC<br><br>
CYSN 300100Z 12002KT 15SM SCT140 06/M03 A3007 RMK AC3 LAST STFD OBS/NEXT 30 1100UTC SLP188<br><br>
CYSN has no TAF <br><br>
<br><br>
CYHM 300100Z 00000KT 15SM FEW100 BKN130 06/M02 A3006 RMK AC2AC4 SLP189<br><br>
TAF CYHM 292338Z 3000/3024 16008KT P6SM FEW100 BKN250 FM300200 05005KT P6SM SCT040 OVC080 TEMPO 3003/3005 P6SM -RA BKN020 OVC040 FM300500 05008KT P6SM SCT005 OVC030 TEMPO 3005/3007 2SM -RA BR OVC005 FM300700 05012KT 6SM -RA BR OVC006 TEMPO 3007/3009 11/2SM -RA BR OVC003 FM300900 05012G22KT 1SM -RA BR OVC002 BECMG 3010/3012 04008KT FM301500 22018G30KT 3SM -RA BR OVC006 BECMG 3021/3023 27010G20KT FM302300 27010G20KT 4SM -RA BR BKN008 OVC030 RMK NXT FCST BY 300600Z<br><br>
<br><br>
KIAG 300153Z 09003KT 10SM OVC100 06/M03 A3007 RMK AO2 SLP194 T00611028<br><br>
KIAG 300053Z 05003KT 10SM CLR 07/M04 A3007 RMK AO2 SLP194 T00671039<br><br>
KIAG 292338Z 3000/3024 VRB03KT P6SM SCT250 FM300200 VRB03KT P6SM BKN050 FM300500 08004KT P6SM VCSH OVC025 FM300700 08006KT 6SM -SHRA OVC020 FM301000 09007KT 6SM -RA BR OVC020 FM301500 19012KT 6SM -RA BR OVC025 FM302000 23012KT 6SM -RA BR OVC015<br><br>
<br><br>
KBUF 300154Z 05006KT 10SM BKN075 BKN110 BKN290 08/M03 A3008 RMK AO2 SLP190 T00781028<br><br>
KBUF 300054Z 04004KT 10SM FEW150 FEW280 08/M04 A3008 RMK AO2 SLP191 T00781039<br><br>
KBUF 292338Z 3000/3024 07004KT P6SM SCT060 FM300100 VRB03KT P6SM BKN045 FM300500 08005KT P6SM VCSH OVC025 FM300800 11007KT 6SM -SHRA OVC020 FM301300 17011KT 6SM -RA OVC025 FM301500 21014KT 6SM -RA BR OVC040 FM302000 22014KT 6SM -RA BR OVC025<br><br>
<br><br>
CYYZ 300100Z 36008KT 15SM BKN130 06/M04 A3008 RMK AC7 SLP193<br><br>
TAF CYYZ 292338Z 3000/3106 36010KT P6SM FEW140 SCT250 FM300300 05006KT P6SM SCT040 BKN100 TEMPO 3003/3005 BKN040 OVC080 FM300500 06008KT P6SM BKN030 OVC070 TEMPO 3005/3007 6SM -RA BR BKN015 OVC030 PROB30 3005/3007 4SM -RASNPL FM300700 06008KT P6SM -RA SCT015 OVC025 TEMPO 3007/3009 3SM -RA BR BKN008 OVC015 FM300900 08010G20KT 6SM -RA BR SCT006 OVC015 TEMPO 3009/3011 2SM -RA BR OVC006 FM301100 07008KT 11/2SM -RA BR OVC003 BECMG 3014/3016 14006KT BECMG 3016/3018 22018G28KT FM301800 22018G28KT 3SM -RA BR BKN006 OVC012 BECMG 3019/3021 23012G22KT BECMG 3022/3024 34010G20KT FM310300 33018G28KT 11/2SM -SNRA BR BKN008 OVC030 PROB30 3103/3106 2SM -SNPL RMK NXT FCST BY 300300Z<br><br>
<br><br>
CYOO 300100Z AUTO 01005KT 9SM SCT130 04/M05 A3009 RMK SLP196<br><br>
TAF CYOO 300142Z 3002/3014 VRB03KT P6SM BKN150 FM300300 05008KT P6SM FEW040 BKN100 FM300600 07010KT P6SM BKN040 OVC070 TEMPO 3006/3009 5SM -RA BR BKN020 OVC040 PROB30 3006/3009 4SM -RASNPL FM300900 06012G22KT 6SM -RA SCT006 OVC020 TEMPO 3009/3012 2SM -RA BR BKN006 OVC020 FM301200 06012G22KT 11/2SM -RA BR OVC004 RMK FCST BASED ON AUTO OBS. NXT FCST BY 300800Z<br><br>
<br><br>
CYTR 300100Z 19002KT 15SM SCT150 04/M03 A3011 RMK AC3 SLP200<br><br>
TAF CYTR 292330Z 3000/3024 22008KT P6SM FEW040 FEW250 BECMG 3000/3002 34005KT BECMG 3004/3006 08005KT FM300600 08005KT P6SM BKN080 FM300900 06010KT P6SM OVC030 TEMPO 3009/3012 5SM -SHRA BR OVC015 FM301200 09015KT 1SM -RA BR OVC005 TEMPO 3012/3018 3SM -RA BR OVC012 BECMG 3014/3016 20012G22KT FM301800 20012G22KT 2SM -RA BR OVC008 RMK NXT FCST BY 300600Z<br><br>
<br><br>
