RETRIEVED AT : Mar 07 2020 08:05 Local <br>
  RETRIEVED AT: Mar 07 2020 13:05 UTC<br><br>
CYSN 071200Z 35006KT 15SM FEW020 M04/M08 A3044 RMK SC1 SC TR SLP315<br><br>
CYSN has no TAF <br><br>
<br><br>
CYHM 071200Z 33005KT 15SM SKC M09/M12 A3043 RMK SLP320<br><br>
TAF CYHM 071138Z 0712/0812 34008KT P6SM SKC FM071800 25009KT P6SM FEW120 BECMG 0722/0724 23012KT RMK NXT FCST BY 071800Z<br><br>
<br><br>
KIAG 071253Z 35006KT 10SM CLR M04/M08 A3045 RMK AO2 SLP328 T10391083<br><br>
KIAG 071153Z 33005KT 10SM CLR M05/M09 A3042 RMK AO2 SLP318 70006 T10501089 11006 21056 51026<br><br>
KIAG 071134Z 0712/0812 34006KT P6SM SKC FM071600 30006KT P6SM FEW250 FM071800 26007KT P6SM FEW250 FM072300 22010G17KT P6SM SCT250 FM080800 22014G25KT P6SM SCT200<br><br>
<br><br>
KBUF 071254Z 34005KT 10SM FEW035 M03/M08 A3044 RMK AO2 SLP319 T10331078<br><br>
KBUF 071154Z 32004KT 10SM FEW040 M04/M09 A3041 RMK AO2 SLP307 4/001 60000 70018 T10441089 11006 21044 53027<br><br>
KBUF 071134Z 0712/0812 33006KT P6SM SKC FM071600 30007KT P6SM SKC FM071800 26008KT P6SM FEW250 FM072300 23010G18KT P6SM FEW250 FM080800 23014G25KT P6SM SCT250<br><br>
<br><br>
CYYZ 071200Z 02003KT 330V050 15SM FEW250 M07/M12 A3045 RMK CI1 CI TR SLP322<br><br>
TAF CYYZ 071138Z 0712/0818 32010KT P6SM SKC FM071700 24009KT P6SM FEW120 BECMG 0723/0801 24012KT FM081500 25010G20KT P6SM SKC RMK NXT FCST BY 071500Z<br><br>
<br><br>
CYOO 071200Z AUTO 33010KT 9SM CLR M07/M12 A3043 RMK SLP315<br><br>
TAF CYOO 070738Z 0708/0720 34005KT P6SM SKC FM071500 30006KT P6SM FEW120 BECMG 0715/0717 24009KT RMK FCST BASED ON AUTO OBS. NXT FCST BY 071400Z<br><br>
<br><br>
CYTR 071200Z 35006KT 15SM SKC M07/M13 A3042 RMK SLP308<br><br>
TAF CYTR 071130Z 0712/0812 35008KT P6SM SKC BECMG 0716/0718 26008KT FM072100 25008KT P6SM FEW110 BKN210 FM080100 24008KT P6SM SCT080 BKN100 FM080800 24008KT P6SM SCT170 BKN240 RMK NXT FCST BY 071800Z<br><br>
<br><br>
