RETRIEVED AT : May 31 2020 13:05 Local <br>
  RETRIEVED AT: May 31 2020 17:05 UTC<br><br>
CYSN 311600Z 31009KT 280V350 15SM SCT055 13/03 A3025 RMK CU3 SLP247<br><br>
TAF AMD CYSN 311302Z 3113/0101 33008KT P6SM FEW015 BKN040 TEMPO 3113/3118 BKN015 FM311800 30010KT P6SM SCT040 TEMPO 3118/0101 BKN040 RMK NXT FCST BY 312000Z<br><br>
<br><br>
CYHM 311600Z 34010KT 15SM BKN050 12/02 A3025 RMK CU7 SLP250<br><br>
TAF CYHM 311141Z 3112/0112 30005KT P6SM FEW030 BECMG 3116/3118 31012KT RMK NXT FCST BY 311800Z<br><br>
<br><br>
KIAG 311653Z 33009KT 10SM SCT050 12/01 A3024 RMK AO2 SLP246 T01220006<br><br>
KIAG 311553Z 36010KT 10SM FEW050 13/02 A3024 RMK AO2 SLP247 T01280017<br><br>
KIAG 311423Z 3114/0112 34012KT P6SM SCT050 FM312000 30010KT P6SM SCT050 FM312300 26007KT P6SM SCT070<br><br>
<br><br>
KBUF 311654Z 32012KT 10SM BKN060 BKN070 12/02 A3024 RMK AO2 SLP243 T01220017 $<br><br>
KBUF 311554Z 33008KT 10SM FEW040 BKN050 BKN065 11/02 A3024 RMK AO2 SLP243 T01110017 $<br><br>
KBUF 311423Z 3114/0112 32008KT P6SM BKN050 FM311600 34012KT P6SM SCT050 FM312000 30012KT P6SM SCT050 FM312300 26008KT P6SM SCT070<br><br>
<br><br>
CYYZ 311600Z 33013G23KT 15SM SCT048 BKN058 14/01 A3024 RMK CF3SC3 SLP244<br><br>
TAF CYYZ 311438Z 3115/0118 35015KT P6SM FEW030 FM311900 32015KT P6SM SCT060 TEMPO 3119/0101 BKN060 BECMG 3123/0101 33010KT FM010200 VRB03KT P6SM FEW060 BECMG 0107/0109 26012KT FM011600 27015G25KT P6SM SCT070 RMK NXT FCST BY 311800Z<br><br>
<br><br>
CYOO 311600Z AUTO 30015G21KT 280V340 9SM BKN055 13/01 A3022 RMK SLP236<br><br>
TAF CYOO 311338Z 3114/0102 35010G20KT P6SM FEW060 BECMG 3115/3117 30015KT RMK FCST BASED ON AUTO OBS. NXT FCST BY 312000Z<br><br>
<br><br>
CYTR 311600Z 31008KT 15SM BKN055 12/00 A3019 RMK SC7 SLP227<br><br>
TAF CYTR 311130Z 3112/0112 29005KT P6SM SCT030 BKN060 TEMPO 3112/3114 P6SM -SHRA FEW020 OVC030 FM311600 30010KT P6SM SCT060 TEMPO 3116/0101 BKN060 BECMG 3117/3119 30010G20KT FM010100 29007KT P6SM SKC FM010800 24005KT P6SM BKN070 RMK NXT FCST BY 311800Z<br><br>
<br><br>
