RETRIEVED AT : Jun 27 2020 16:05 Local <br>
  RETRIEVED AT: Jun 27 2020 20:05 UTC<br><br>
CYSN 271900Z 21014G20KT 15SM BKN024 24/21 A2970 RMK SC6 SLP058 DENSITY ALT 1700FT<br><br>
CYSN 271820Z 23015G21KT 180V240 15SM BKN022 24/21 A2971 RMK SC7 SLP060 DENSITY ALT 1700FT<br><br>
TAF CYSN 271939Z 2720/2801 23010G20KT P6SM BKN030 TEMPO 2720/2801 P6SM -SHRA BKN020 PROB30 2720/2724 VRB15G25KT 2SM TSRA BR BKN020 OVC030CB RMK NXT FCST WILL BE ISSUED AT 281245Z<br><br>
<br><br>
CYHM 271900Z 27011G17KT 220V290 15SM BKN025TCU BKN060 26/20 A2973 RMK TCU6SC1 SLP064 DENSITY ALT 2500FT<br><br>
TAF CYHM 271739Z 2718/2818 26012G22KT P6SM BKN030 TEMPO 2718/2720 P6SM -SHRA PROB30 2720/2724 VRB15G25KT 2SM TSRA BR BKN020 OVC030CB FM280000 24010G20KT P6SM BKN050 BECMG 2801/2803 25008KT FM280800 26006KT P6SM SCT070 FM281100 30006KT P6SM SKC FM281700 05006KT P6SM BKN040 RMK NXT FCST BY 280000Z<br><br>
<br><br>
KIAG 271953Z 22015G26KT 10SM SCT041 26/19 A2971 RMK AO2 PK WND 23026/1855 SLP055 T02560189<br><br>
KIAG 271853Z 23014KT 10SM FEW019 SCT075 BKN110 26/19 A2972 RMK AO2 PK WND 22026/1816 SLP061 T02560194<br><br>
KIAG 271721Z 2718/2818 23014G22KT P6SM VCSH BKN020 OVC025 FM272300 23010KT P6SM VCSH BKN040 FM280400 23005KT P6SM BKN060 FM281500 31005KT P6SM SCT250<br><br>
<br><br>
KBUF 271954Z 24020G27KT 10SM FEW014 BKN055 BKN200 22/19 A2973 RMK AO2 PK WND 23027/1952 SLP065 T02220189<br><br>
KBUF 271905Z 24018G27KT 10SM SCT013 SCT022 BKN060 BKN200 22/19 A2975 RMK AO2 PK WND 24027/1901 T02220189<br><br>
KBUF 271854Z 24019G27KT 10SM BKN013 BKN021 BKN200 22/19 A2975 RMK AO2 PK WND 25027/1845 SLP070 T02170189<br><br>
KBUF 271815Z 24014G24KT 10SM OVC010 21/18 A2976 RMK AO2 T02060183<br><br>
KBUF 271916Z 2719/2818 24017G27KT P6SM SCT015 BKN050 FM280000 24010KT P6SM VCSH BKN040 FM280600 23005KT P6SM BKN012 FM281200 27005KT P6SM BKN007 FM281300 27005KT P6SM SCT012<br><br>
<br><br>
CYYZ 271900Z 25015G22KT 15SM SCT043 BKN058 BKN250 28/18 A2968 RMK CU4SC2CI1 CI TR SLP051 DENSITY ALT 2500FT<br><br>
TAF CYYZ 271739Z 2718/2824 26010G20KT P6SM BKN040 TEMPO 2718/2720 P6SM -SHRA FM272000 30012G22KT P6SM SCT050 TEMPO 2720/2801 P6SM -SHRA VCTS BKN050CB FM280200 VRB03KT P6SM -SHRA BKN050 FM280500 VRB03KT P6SM FEW070 BECMG 2808/2810 34010KT BECMG 2810/2812 01010KT FM281700 02010KT P6SM BKN050 FM282200 08008KT P6SM SCT050 RMK NXT FCST BY 272100Z<br><br>
<br><br>
CYOO 271930Z AUTO 22010G17KT 9SM FEW049 SCT060 BKN081 BKN098 28/19 A2964 RMK LTNG DIST NE E SLP037 DENSITY ALT 2300FT<br><br>
CYOO 271900Z AUTO 21014G23KT 9SM VCTS SCT046 SCT060 SCT076 26/19 A2965 RMK LTNG DIST N NE SLP041 DENSITY ALT 2100FT<br><br>
CYOO 271836Z AUTO 22011G21KT 9SM VCTS SCT042 SCT050 BKN060 BKN077 26/19 A2966 RMK LTNG DIST N SLP045 DENSITY ALT 2000FT<br><br>
TAF CYOO 271938Z 2720/2808 23010G20KT P6SM SCT015 BKN030 TEMPO 2720/2721 VRB20G35KT 5SM -SHRA VCTS BR OVC020CB FM280500 VRB03KT 5SM BR FEW004 PROB30 2805/2808 1/2SM FG RMK FCST BASED ON AUTO OBS. NXT FCST BY 280200Z<br><br>
<br><br>
CYTR 271900Z 22009G15KT 10SM FEW009 SCT055 BKN250 22/20 A2966 RMK SF1CU3CI4 SLP044<br><br>
TAF AMD CYTR 271953Z 2719/2818 22010KT P6SM FEW008 SCT050 BKN250 TEMPO 2720/2722 VRB15G25KT 2SM TSRA BR OVC010CB FM272200 22010KT P6SM FEW008 SCT050 BKN250 TEMPO 2722/2724 P6SM -SHRA BKN015 OVC050 PROB30 2722/2724 VRB15G25KT 2SM TSRA BR OVC015CB FM280000 22005KT P6SM SCT050 PROB30 2808/2812 1SM BR OVC005 FM281400 VRB03KT P6SM -SHRA BKN030 BECMG 2814/2816 27005KT RMK NXT FCST BY 280000Z<br><br>
<br><br>
