RETRIEVED AT : Sep 01 2018 13:05 Local <br>
  RETRIEVED AT: Sep 01 2018 17:05 UTC<br><br>
CYSN 011600Z 19011KT 15SM FEW030 BKN230 29/21 A3015 RMK CU2CI5 SLP210 DENSITY ALT 1800FT<br><br>
TAF CYSN 011238Z 0113/0201 VRB03KT P6SM SKC BECMG 0114/0116 20010G20KT FEW030 FM012300 VRB03KT P6SM SKC RMK NXT FCST BY 012000Z<br><br>
<br><br>
CYHM 011600Z 21009KT 15SM FEW020 BKN250 27/22 A3017 RMK CU1CI6 SLP215 DENSITY ALT 2100FT<br><br>
TAF AMD CYHM 011452Z 0114/0212 18006KT P6SM BKN015 TEMPO 0114/0116 SCT015 FM011600 19010KT P6SM SCT030 BECMG 0116/0117 20010G20KT BECMG 0122/0124 20010KT FM020400 20010KT P6SM -SHRA BKN050 PROB30 0206/0212 2SM +TSRA BR BKN020 BKN050CB RMK NXT FCST BY 011800Z<br><br>
<br><br>
KIAG 011653Z 23010KT 10SM BKN031 28/21 A3016 RMK AO2 SLP210 T02830206<br><br>
KIAG 011553Z 20012KT 10SM CLR 27/20 A3018 RMK AO2 SLP217 T02720200<br><br>
KIAG 011503Z 0115/0212 21012KT P6SM SCT045 BKN250 FM012200 19008KT P6SM SCT250 FM020400 21008KT P6SM BKN040<br><br>
<br><br>
KBUF 011654Z 20010KT 10SM SCT040 BKN050 BKN230 28/19 A3018 RMK AO2 SLP215 T02830194<br><br>
KBUF 011554Z 19011KT 10SM SCT040 BKN230 28/21 A3019 RMK AO2 SLP218 T02830206<br><br>
KBUF 011503Z 0115/0212 20010KT P6SM SCT045 BKN250 FM012200 19008KT P6SM SCT250 FM020400 20008KT P6SM BKN040<br><br>
<br><br>
CYYZ 011600Z 24005KT 160V270 15SM FEW014 FEW040 OVC210 25/21 A3016 RMK CU1SC1CI6 SLP214 DENSITY ALT 1600FT<br><br>
CYYZ 011521Z 23008KT 10SM FEW008 SCT013 BKN240 24/21 A3017 RMK ST1CU2CI4 SLP217 DENSITY ALT 1500FT<br><br>
TAF CYYZ 011439Z 0115/0218 18005KT 6SM BR BKN008 TEMPO 0115/0116 P6SM NSW BKN015 FM011530 18007KT P6SM SCT015 TEMPO 0115/0116 BKN015 FM011600 20012KT P6SM SCT030 BECMG 0116/0117 18012G22KT FM011700 18012G22KT P6SM SCT030 TEMPO 0117/0122 BKN030 BECMG 0201/0203 21008KT FM020500 22008KT P6SM -SHRA BKN040 PROB30 0205/0211 2SM +TSRA BR BKN040CB FM021700 23015G25KT P6SM -SHRA BKN030 PROB30 0217/0218 VRB15G25KT 1SM +TSRA BR BKN015 OVC030CB RMK NXT FCST BY 011800Z<br><br>
<br><br>
CYOO 011642Z AUTO 22007KT 180V250 9SM SCT017 25/21 A3017 RMK SLP218 DENSITY ALT 1400FT<br><br>
CYOO 011600Z AUTO 19007KT 9SM OVC015 24/21 A3017 RMK SLP218 DENSITY ALT 1300FT<br><br>
CYOO has no TAF <br><br>
<br><br>
CYTR 011600Z 20007KT 15SM FEW030 SCT075 BKN240 25/21 A3018 RMK SC2AC2CI3 SLP220<br><br>
TAF AMD CYTR 011330Z 0113/0212 19008KT P6SM FEW010 SCT020 BKN030 TEMPO 0113/0115 FEW010 BKN020 FM011500 20010KT P6SM FEW025 BECMG 0122/0124 20005KT FM020900 20005KT P6SM -SHRA BKN025 OVC080 RMK NXT FCST BY 011800Z<br><br>
<br><br>
