RETRIEVED AT : May 16 2020 07:05 Local <br>
  RETRIEVED AT: May 16 2020 11:05 UTC<br><br>
CYSN has no TAF <br><br>
<br><br>
CYHM 161000Z 04003KT 15SM MIFG FEW200 07/07 A3009 RMK CI1 SLP193<br><br>
TAF AMD CYHM 160717Z 1607/1706 VRB03KT 6SM BR SCT004 TEMPO 1607/1614 1/2SM FG BKN004 FM161400 05006KT P6SM SCT008 FM161600 05010KT P6SM SCT030 FM170100 06005KT P6SM SKC RMK NXT FCST BY 161200Z<br><br>
<br><br>
KIAG 161053Z 03007KT 1/4SM R28R/1400FT FG VV002 08/08 A3012 RMK AO2 SLP206 T00830083<br><br>
KIAG 161046Z AUTO 04007KT 1/4SM R28R/1200V1600FT FG VV002 08/08 A3012 RMK AO2 T00830078<br><br>
KIAG 161039Z AUTO 03010KT 1/2SM R28R/1200V2200FT FG VV002 08/08 A3012 RMK AO2 T00830078<br><br>
KIAG 161023Z AUTO 03008KT 3/4SM R28R/2800V4000FT BR OVC002 08/08 A3010 RMK AO2 T00830078<br><br>
KIAG 161013Z AUTO 02004KT 1SM R28R/4000VP6000FT BR OVC002 08/08 A3010 RMK AO2 T00830078<br><br>
KIAG 161009Z AUTO 02006KT 1 3/4SM R28R/4500VP6000FT BR OVC002 08/08 A3010 RMK AO2 T00830078<br><br>
KIAG 161005Z AUTO 04007KT 3SM BR OVC002 08/08 A3009 RMK AO2 T00830078<br><br>
KIAG 160953Z AUTO 02007KT 5SM BR OVC004 08/08 A3009 RMK AO2 SLP193 T00830078<br><br>
KIAG 160946Z AUTO 02007KT 5SM BR OVC004 09/08 A3008 RMK AO2 CIG 003V006 T00890078<br><br>
KIAG 160932Z AUTO 36010KT 7SM BKN006 09/08 A3008 RMK AO2 T00940083<br><br>
KIAG 160923Z AUTO 36010KT 8SM SCT006 09/08 A3007 RMK AO2 T00940083<br><br>
KIAG 161104Z 1611/1706 02006KT 1/4SM FG VV002 FM161300 VRB03KT 4SM BR BKN015 FM161600 02006KT P6SM SCT040 FM170200 06006KT P6SM SKC<br><br>
<br><br>
KBUF 161054Z 03007KT 1/8SM R23/1200V1400FT FG VV002 09/08 A3012 RMK AO2 SLP203 T00890078<br><br>
KBUF 161040Z 01005KT 1/4SM R23/1600V2000FT FG OVC002 09/08 A3011 RMK AO2 T00890083<br><br>
KBUF 161029Z 01004KT 1 3/4SM R23/3000VP6000FT BR OVC002 09/08 A3011 RMK AO2 T00890083<br><br>
KBUF 161013Z 35005KT 4SM BR OVC003 09/08 A3010 RMK AO2 CIG 002V006 T00940078<br><br>
KBUF 160954Z 35005KT 8SM OVC005 09/08 A3009 RMK AO2 SLP190 T00890078<br><br>
KBUF 160947Z 01004KT 3SM BR OVC005 09/08 A3008 RMK AO2 T00890078<br><br>
KBUF 160938Z 00000KT 1/2SM R23/2400VP6000FT FG SCT002 OVC008 07/07 A3008 RMK AO2 T00720067<br><br>
KBUF 160932Z 00000KT 1/4SM R23/1600V3500FT FG BKN002 OVC008 07/06 A3008 RMK AO2 T00720061<br><br>
KBUF 160925Z 23003KT 1/4SM R23/1200V2000FT FG VV002 07/06 A3008 RMK AO2 T00670061<br><br>
KBUF 161104Z 1611/1706 02006KT 1SM BR BKN007 TEMPO 1611/1613 1/2SM FG VV002 FM161400 VRB03KT P6SM BKN015 FM161600 01006KT P6SM SCT040 FM162300 04006KT P6SM SKC<br><br>
<br><br>
CYYZ 161000Z 35009KT 15SM OVC006 09/08 A3009 RMK ST8 SLP194<br><br>
TAF CYYZ 160838Z 1609/1712 36010KT 6SM BR BKN006 TEMPO 1609/1611 3/4SM BR BKN003 FM161100 36010KT 2SM BR BKN005 TEMPO 1611/1613 6SM BR BKN010 FM161300 36008KT P6SM FEW005 SCT015 FM161900 13008KT P6SM FEW040 BECMG 1701/1703 07007KT RMK NXT FCST BY 161200Z<br><br>
<br><br>
CYOO 161000Z AUTO 01007KT 9SM OVC006 09/09 A3008 RMK SLP191<br><br>
TAF CYOO 160738Z 1608/1620 34006KT 2SM BR BKN005 TEMPO 1608/1614 P6SM NSW SCT005 FM161400 34006KT P6SM SCT030 BECMG 1618/1620 17005KT RMK FCST BASED ON AUTO OBS. NXT FCST BY 161400Z<br><br>
<br><br>
CYTR 161000Z 34002KT 15SM SCT027 09/08 A3009 RMK SC3 SLP192<br><br>
TAF CYTR 160530Z 1606/1706 VRB03KT 6SM BR SKC TEMPO 1606/1612 2SM BR PROB30 1606/1610 1/2SM FG VV003 FM161200 34005KT P6SM FEW030 FM161700 20008KT P6SM BKN030 FM170200 VRB03KT P6SM FEW030 RMK NXT FCST BY 161200Z<br><br>
<br><br>
