RETRIEVED AT : Jun 06 2018 05:05 Local <br>
  RETRIEVED AT: Jun 06 2018 09:05 UTC<br><br>
CYSN has no TAF <br><br>
<br><br>
CYHM 060800Z 33005KT 15SM FEW020 BKN050 08/06 A2985 RMK SC2SC3 SLP113<br><br>
TAF CYHM 060538Z 0606/0706 VRB03KT P6SM BKN050 BECMG 0612/0614 02007KT BECMG 0615/0617 24006KT FM070500 23007KT P6SM BKN100 RMK NXT FCST BY 061200Z<br><br>
<br><br>
KIAG 060900Z AUTO 35006KT 10SM BKN016 OVC044 12/07 A2985 RMK AO2 T01220072<br><br>
KIAG 060853Z AUTO 34008KT 10SM SCT016 OVC044 12/08 A2985 RMK AO2 SLP110 T01220078 53008<br><br>
KIAG 060753Z AUTO 34005KT 10SM OVC039 12/07 A2983 RMK AO2 SLP102 T01220072<br><br>
KIAG 060536Z 0606/0706 32007KT P6SM OVC025 FM061300 33006KT P6SM OVC025 FM061800 31006KT P6SM BKN035 FM062100 00000KT P6SM SCT200 FM070200 20006KT P6SM SCT200<br><br>
<br><br>
KBUF 060854Z 33007KT 10SM FEW015 BKN027 OVC036 11/08 A2985 RMK AO2 SLP107 T01060083 53008 $<br><br>
KBUF 060754Z 33008KT 10SM FEW017 OVC023 11/08 A2983 RMK AO2 SLP101 T01110078 $<br><br>
KBUF 060536Z 0606/0706 34006KT P6SM OVC025 FM061300 32005KT P6SM OVC025 FM061900 29005KT P6SM OVC035 FM062300 26005KT P6SM FEW250 FM070200 20006KT P6SM SCT200<br><br>
<br><br>
CYYZ 060800Z 36014KT 15SM BKN025 10/06 A2985 RMK SC7 SLP110<br><br>
TAF CYYZ 060838Z 0609/0712 35012KT P6SM BKN025 TEMPO 0609/0616 BKN020 FM061600 34010KT P6SM BKN040 BECMG 0619/0621 19008KT FM070200 20008KT P6SM FEW040 BKN180 FM070500 26008KT P6SM BKN100 FM070900 24005KT P6SM BKN060 RMK NXT FCST BY 061200Z<br><br>
<br><br>
CYOO 060825Z AUTO 34007KT 9SM SCT022 10/06 A2984 RMK SLP107<br><br>
CYOO 060800Z AUTO 34007KT 9SM BKN024 10/06 A2983 RMK SLP104<br><br>
CYOO 060750Z AUTO 34007KT 9SM BKN024 10/06 A2983 RMK SLP104<br><br>
CYOO has no TAF <br><br>
<br><br>
CYTR 060800Z 35004KT 15SM SCT025 OVC066 11/08 A2980 RMK SC3AC5 SLP094<br><br>
TAF CYTR 060530Z 0606/0706 34006KT P6SM FEW025 BKN050 OVC080 FM061000 34006KT P6SM BKN020 TEMPO 0610/0614 BKN025 FM061400 04005KT P6SM OVC025 TEMPO 0614/0616 OVC020 BECMG 0618/0620 20008KT FM062200 20008KT P6SM SCT040 BECMG 0700/0702 18005KT RMK NXT FCST BY 061200Z<br><br>
<br><br>
