RETRIEVED AT : Oct 16 2017 13:10 Local <br>
  RETRIEVED AT: Oct 16 2017 17:10 UTC<br><br>
CYSN 161700Z 34011G17KT 15SM BKN035 09/01 A3023 RMK SC7 SLP239<br><br>
CYSN 161600Z 34010G16KT 15SM FEW030 BKN036 08/02 A3022 RMK SC2SC5 SLP238<br><br>
TAF CYSN 161238Z 1613/1701 34007KT P6SM BKN020 TEMPO 1613/1618 SCT025 FM161800 32007G19KT P6SM FEW030 FM170000 31011KT P6SM SKC RMK NXT FCST BY 162000Z<br><br>
<br><br>
CYHM 161700Z 32010KT 270V010 15SM FEW040 BKN051 BKN240 09/M01 A3022 RMK CU2SC3CI1 CI TR SLP242<br><br>
CYHM 161600Z 32009G17KT 300V360 15SM SCT034 BKN040 08/01 A3023 RMK CU3SC3 SLP245<br><br>
TAF AMD CYHM 161635Z 1616/1712 32009G19KT P6SM SCT030 BKN040 FM161800 31010G20KT P6SM FEW030 BECMG 1622/1624 30008KT FM170300 VRB03KT P6SM SKC BECMG 1708/1710 23010KT RMK NXT FCST BY 161800Z<br><br>
<br><br>
KIAG 161653Z 32013KT 10SM BKN036 09/00 A3022 RMK AO2 SLP241 T00890000 $<br><br>
KIAG 161553Z 32016KT 10SM BKN030 09/01 A3021 RMK AO2 SLP237 T00890011 $<br><br>
KIAG 161504Z 1615/1712 35010KT P6SM BKN027 FM162200 29006KT P6SM SCT050 FM170100 VRB03KT P6SM FEW250<br><br>
<br><br>
KBUF 161654Z 33012KT 10SM SCT030 BKN047 08/02 A3021 RMK AO2 SLP234 SHRA DSNT NE-E T00780022<br><br>
KBUF 161554Z 32008KT 10SM FEW026 BKN037 BKN045 08/02 A3020 RMK AO2 SLP231 SHRA DSNT N-E T00830022<br><br>
KBUF 161504Z 1615/1712 33009KT P6SM SCT035 BKN045 FM162100 31009KT P6SM SCT050 FM170000 VRB03KT P6SM FEW250<br><br>
<br><br>
CYYZ 161700Z 33013KT 320V030 15SM SCT030 BKN040 08/M00 A3022 RMK CU3SC3 SLP238<br><br>
CYYZ 161617Z 34009KT 15SM FEW025 SCT030 BKN048 07/01 A3023 RMK CU2SC2SC3 SLP244<br><br>
CYYZ 161605Z 35010KT 15SM -SHRA FEW025 SCT030 BKN045 06/01 A3023 RMK CU2SC2SC3 SLP244<br><br>
CYYZ 161600Z 35011G19KT 15SM FEW025 SCT030 BKN045 06/01 A3023 RMK CU2SC2SC3 SLP243<br><br>
TAF CYYZ 161438Z 1615/1718 34012KT P6SM BKN040 TEMPO 1615/1618 BKN020 FM161800 33012G22KT P6SM BKN030 FM162200 32010G20KT P6SM FEW040 BECMG 1623/1624 32010KT BECMG 1701/1703 VRB03KT FM170500 25008KT P6SM BKN030 FM171400 24010G20KT P6SM FEW030 BECMG 1717/1718 24018G28KT RMK NXT FCST BY 161800Z<br><br>
<br><br>
CYOO 161700Z AUTO 34010G16KT 290V360 9SM OVC041 07/M01 A3021 RMK SLP235<br><br>
CYOO 161621Z AUTO 32016G21KT 9SM BKN035 OVC045 07/M03 A3022 RMK SLP238<br><br>
CYOO 161600Z AUTO 34006KT 9SM SCT038 OVC046 07/00 A3022 RMK SLP238<br><br>
CYOO has no TAF <br><br>
<br><br>
CYTR 161700Z 35006KT 15SM BKN029 BKN045 08/01 A3018 RMK SC6SC2 SLP224<br><br>
CYTR 161600Z 33007KT 15SM BKN029 BKN045 07/00 A3019 RMK SC6SC2 SLP225<br><br>
TAF CYTR 161130Z 1612/1712 32005KT P6SM SCT020 BKN030 TEMPO 1612/1615 P6SM -SHRA BKN020 OVC030 BECMG 1613/1615 32012KT FM162000 32012KT P6SM SCT050 FM170000 30005KT P6SM FEW080 BECMG 1702/1704 VRB03KT FM170900 VRB03KT P6SM BKN020 OVC040 RMK NXT FCST BY 161800Z<br><br>
<br><br>
