RETRIEVED AT : Mar 27 2020 11:05 Local <br>
  RETRIEVED AT: Mar 27 2020 15:05 UTC<br><br>
CYSN 271445Z 36006KT 310V020 15SM OVC014 04/01 A3002 RMK SC8 SLP169<br><br>
CYSN 271400Z 03004KT 310V060 15SM OVC016 04/00 A3002 RMK SC8 SLP169<br><br>
TAF CYSN 271238Z 2713/2801 03007KT P6SM OVC015 BECMG 2715/2717 FEW015 FM271800 01008KT P6SM FEW025 BECMG 2723/2724 07005KT RMK NXT FCST BY 272000Z<br><br>
<br><br>
CYHM 271400Z 36006KT 15SM OVC011 02/M00 A3001 RMK SC8 SLP170<br><br>
TAF CYHM 271138Z 2712/2812 03010KT P6SM OVC012 TEMPO 2712/2715 OVC008 FM271500 06008KT P6SM BKN015 BECMG 2715/2717 FEW015 FM280600 04010KT P6SM BKN200 FM281100 05012KT P6SM BKN130 OVC200 RMK NXT FCST BY 271800Z<br><br>
<br><br>
KIAG 271453Z 35006KT 10SM OVC017 04/00 A3001 RMK AO2 SLP173 T00390000 50020<br><br>
KIAG 271353Z 34006KT 10SM OVC015 03/00 A3002 RMK AO2 SLP175 T00330000<br><br>
KIAG 271330Z VRB03KT 10SM OVC015 03/00 A3000 RMK AO2 T00330000<br><br>
KIAG 271427Z 2714/2812 36006KT P6SM OVC015 FM271600 35004KT P6SM BKN025 FM271900 VRB03KT P6SM SCT060 FM280200 08005KT P6SM FEW250 FM280900 09007KT P6SM BKN150<br><br>
<br><br>
KBUF 271454Z 01003KT 10SM BKN017 05/00 A3001 RMK AO2 SLP167 T00500000 51025<br><br>
KBUF 271354Z 05005KT 10SM BKN015 04/00 A3001 RMK AO2 SLP167 T00440000<br><br>
KBUF 271344Z 03005KT 10SM OVC015 04/00 A3000 RMK AO2 T00440000<br><br>
KBUF 271427Z 2714/2812 05005KT P6SM OVC015 FM271600 35004KT P6SM OVC025 FM271900 VRB03KT P6SM BKN035 FM272100 00000KT P6SM SCT060 FM280200 08005KT P6SM FEW250 FM280500 11005KT P6SM SCT250<br><br>
<br><br>
CYYZ 271400Z 06008KT 15SM OVC012 03/M00 A3002 RMK SC8 SLP175<br><br>
TAF CYYZ 271438Z 2715/2818 05010KT P6SM OVC012 BECMG 2716/2718 15008KT FEW025 FM271800 15008KT P6SM FEW025 BECMG 2800/2802 02007KT FM280800 06008KT P6SM BKN180 FM281200 08012KT P6SM BKN140 BKN180 FM281700 08015KT P6SM -SHRA BKN030 OVC080 RMK NXT FCST BY 271800Z<br><br>
<br><br>
CYOO 271400Z AUTO 35006KT 9SM FEW012 03/01 A3002 RMK SLP172<br><br>
CYOO 271347Z AUTO 32006KT 300V010 9SM SCT012 03/00 A3002 RMK SLP171<br><br>
CYOO 271343Z AUTO 34008KT 9SM BKN012 BKN140 03/01 A3001 RMK SLP170<br><br>
TAF CYOO 271338Z 2714/2802 34008KT P6SM FEW012 TEMPO 2714/2716 BKN012 BECMG 2716/2718 18008KT FEW025 FM280000 VRB03KT P6SM FEW030 RMK FCST BASED ON AUTO OBS. NXT FCST BY 272000Z<br><br>
<br><br>
CYTR 271400Z 33006KT 15SM OVC010 02/M01 A3003 RMK SC8 SLP174<br><br>
TAF CYTR 271130Z 2712/2812 VRB03KT P6SM FEW010 SCT160 TEMPO 2712/2715 BKN010 PROB30 2712/2715 BKN008 FM271500 VRB03KT P6SM SCT020 BKN130 FM271900 22005KT P6SM FEW020 BECMG 2722/2724 VRB03KT FM280800 VRB03KT P6SM SCT180 PROB30 2808/2812 2SM BR RMK NXT FCST BY 271800Z<br><br>
<br><br>
