RETRIEVED AT : Oct 01 2017 01:10 Local <br>
  RETRIEVED AT: Oct 01 2017 05:10 UTC<br><br>
CYSN has no TAF <br><br>
<br><br>
CYHM 010500Z 15004KT 15SM SKC 06/02 A3040 RMK SLP302<br><br>
CYHM 010400Z 00000KT 15SM SKC 07/03 A3041 RMK SLP303<br><br>
TAF CYHM 302338Z 0100/0124 VRB03KT P6SM FEW050 FM012100 10008KT P6SM FEW030 RMK NXT FCST BY 010600Z<br><br>
<br><br>
KIAG 010453Z AUTO 00000KT 8SM CLR 06/03 A3040 RMK AO2 SLP301 T00610028 401560056<br><br>
KIAG 010353Z AUTO 00000KT 7SM CLR 07/03 A3041 RMK AO2 SLP304 T00670028<br><br>
KIAG 010220Z 0102/0124 00000KT P6SM SKC FM011300 VRB05KT P6SM SKC<br><br>
<br><br>
KBUF 010454Z 14004KT 10SM CLR 06/04 A3041 RMK AO2 SLP301 T00610039 401500056 $<br><br>
KBUF 010354Z 16003KT 10SM CLR 06/04 A3041 RMK AO2 SLP304 T00610044<br><br>
KBUF 010220Z 0102/0124 00000KT P6SM SKC FM011300 VRB05KT P6SM SKC<br><br>
<br><br>
CYYZ 010500Z 31005KT 15SM SKC 07/03 A3040 RMK SLP301<br><br>
CYYZ 010400Z 31008KT 15SM SKC 08/03 A3041 RMK SLP302<br><br>
TAF CYYZ 010238Z 0103/0206 36007KT P6SM SKC BECMG 0112/0114 31005KT BECMG 0115/0117 20008KT FM020000 VRB03KT P6SM SKC RMK NXT FCST BY 010600Z<br><br>
<br><br>
CYOO 010500Z AUTO VRB02KT 9SM CLR 05/03 A3040 RMK SLP299<br><br>
CYOO 010400Z AUTO 00000KT 9SM CLR 05/03 A3040 RMK SLP300<br><br>
CYOO has no TAF <br><br>
<br><br>
CYTR 010500Z 00000KT 15SM SKC 04/04 A3039 RMK SLP296<br><br>
CYTR 010400Z 00000KT 15SM SKC 05/04 A3040 RMK SLP296<br><br>
TAF CYTR 302330Z 0100/0124 VRB03KT P6SM FEW040 FEW200 BECMG 0116/0118 22008KT BECMG 0123/0124 VRB03KT RMK NXT FCST BY 010600Z<br><br>
<br><br>
