RETRIEVED AT : Aug 29 2018 20:40 Local <br>
  RETRIEVED AT: Aug 30 2018 00:40 UTC<br><br>
CYSN 300000Z 22010KT 15SM SCT058 BKN120 24/20 A2990 RMK SC4AC3 SLP125 DENSITY ALT 1500FT<br><br>
CYSN 292300Z 23008KT 15SM BKN120 25/20 A2989 RMK AC7 SLP123 DENSITY ALT 1600FT<br><br>
TAF CYSN 291938Z 2920/3001 26015G25KT P6SM BKN050 TEMPO 2920/2922 P6SM -SHRA BECMG 2922/2924 27010KT FM300000 27010KT P6SM BKN040 RMK NXT FCST WILL BE ISSUED AT 301245Z<br><br>
<br><br>
CYHM 300000Z 26005KT 15SM FEW040CB BKN049 BKN078 23/21 A2995 RMK CB1SC4AC1 CB TOP NE CONTRAILS SLP139 DENSITY ALT 1900FT<br><br>
CYHM 292300Z 22006KT 15SM SCT051 BKN140 25/21 A2993 RMK SC3AC2 SLP134 DENSITY ALT 2100FT<br><br>
TAF CYHM 292338Z 3000/3024 24006KT P6SM SCT040 BKN140 TEMPO 3000/3009 BKN030 BECMG 3000/3002 32008KT FM300900 32008KT P6SM SKC PROB30 3009/3012 1SM BR FM301200 03008KT P6SM FEW020 SCT030 TEMPO 3012/3015 BKN020 FM301700 06008KT P6SM BKN030 FM302200 07008KT P6SM FEW030 RMK NXT FCST BY 300600Z<br><br>
<br><br>
KIAG 292353Z 22011KT 10SM CLR 22/20 A2993 RMK AO2 RAE07 SLP128 P0000 60000 T02220200 10294 20222 53016<br><br>
KIAG 292253Z 22010KT 10SM -RA BKN110 23/20 A2992 RMK AO2 LTG DSNT SE SLP125 P0000 T02280200<br><br>
KIAG 292320Z 3000/3024 23008KT P6SM VCSH OVC090 FM300300 27007KT P6SM OVC040 FM300500 32008KT P6SM OVC035 FM301000 34008KT P6SM BKN015 FM301500 01009KT P6SM BKN025 FM302000 04009KT P6SM SCT035<br><br>
<br><br>
KBUF 292354Z 23007KT 10SM FEW010 FEW060 BKN110 BKN150 BKN220 22/21 A2994 RMK AO2 RAE10B22E38 TSE16 SLP134 TS MOVD E P0000 60004 T02220206 10306 20222 51014<br><br>
KBUF 292318Z 20008KT 10SM FEW010 SCT060 BKN095 BKN200 22/21 A2993 RMK AO2 LTG DSNT E RAE10 TSE16 TS MOVD E CB DSNT E TCU DSNT N P0000 T02220211<br><br>
KBUF 292254Z 20009KT 10SM -TSRA BKN060CB BKN080 BKN090 22/21 A2992 RMK AO2 LTG DSNT E AND SE SLP128 RAB21 TSB21 FRQ LTGICCCCG E-S-SW TS E-S-SW MOV E P0001 T02220206<br><br>
KBUF 292320Z 3000/3024 22009KT P6SM VCSH BKN060 FM300300 24008KT P6SM OVC040 FM300500 29008KT P6SM OVC025 FM300900 34006KT P6SM OVC015 FM301600 36008KT P6SM OVC025 FM301900 04009KT P6SM BKN035 FM302300 05007KT P6SM SCT035<br><br>
<br><br>
CYYZ 300000Z 35009KT 15SM BKN032 BKN060 24/20 A2992 RMK SC5SC2 SLP129 DENSITY ALT 1800FT<br><br>
CYYZ 292300Z 27015KT 15SM VCSH BKN040 OVC060 26/19 A2989 RMK SC7SC1 CU ASOCTD SLP121 DENSITY ALT 2000FT<br><br>
TAF CYYZ 292338Z 3000/3106 27012KT P6SM BKN040 BECMG 3001/3003 33012KT FM300300 33010KT P6SM SCT040 TEMPO 3003/3006 BKN040 FM300900 33008KT P6SM SCT015 TEMPO 3009/3015 BKN015 FM301500 02010KT P6SM BKN025 FM301800 04008KT P6SM BKN030 BECMG 3101/3103 08008KT RMK NXT FCST BY 300300Z<br><br>
<br><br>
CYOO 300024Z AUTO 33009KT 9SM FEW049 BKN060 OVC084 22/21 A2991 RMK SLP128 DENSITY ALT 1300FT<br><br>
CYOO 300014Z AUTO 36008G16KT 9SM -RA BKN049 OVC065 22/21 A2990 RMK SLP125 DENSITY ALT 1300FT<br><br>
CYOO 300000Z AUTO 33011KT 9SM SCT047 BKN055 BKN066 OVC077 23/19 A2991 RMK SLP127 DENSITY ALT 1500FT<br><br>
CYOO 292339Z AUTO 33012KT 9SM FEW039 BKN048 BKN065 OVC077 24/20 A2990 RMK SLP125 DENSITY ALT 1500FT<br><br>
CYOO 292328Z AUTO 32014G19KT 9SM -RA SCT037 BKN046 OVC055 24/20 A2989 RMK PRESRR SLP123 DENSITY ALT 1600FT<br><br>
CYOO 292327Z AUTO 32014G19KT 9SM FEW033 SCT042 BKN050 OVC060 25/20 A2989 RMK WSHFT AT 2316Z PRESRR SLP122 DENSITY ALT 1700FT<br><br>
CYOO 292300Z AUTO 26006KT 9SM SCT065 SCT079 27/19 A2987 RMK SLP114 DENSITY ALT 1900FT<br><br>
CYOO has no TAF <br><br>
<br><br>
CYTR 300000Z 28002KT 15SM SCT030 BKN095 BKN240 26/21 A2988 RMK SC3AC3CI1 SLP116<br><br>
CYTR 292300Z 25005KT 15SM FEW030 BKN095 BKN240 26/22 A2986 RMK SC1AC4CI2 SLP110<br><br>
TAF CYTR 292330Z 3000/3024 23005KT P6SM FEW030 BKN090 BKN240 FM300100 31008KT P6SM SCT015 BKN050 TEMPO 3001/3003 5SM -SHRA BR BKN015 OVC050 FM300800 36007KT P6SM SCT010 BKN030 TEMPO 3008/3014 BKN010 OVC025 FM301400 02012KT P6SM SCT015 BKN040 TEMPO 3014/3017 BKN015 OVC040 FM301700 04008KT P6SM BKN030 RMK NXT FCST BY 300600Z<br><br>
<br><br>
