RETRIEVED AT : Nov 05 2017 06:10 Local <br>
  RETRIEVED AT: Nov 05 2017 11:10 UTC<br><br>
CYSN has no TAF <br><br>
<br><br>
CYHM 051100Z 08004KT 2 1/4SM -RA BR BKN002 OVC009 09/09 A2989 RMK SF6SC2 SLP129<br><br>
CYHM 051036Z 09006KT 3SM -RA BR SCT002 OVC015 08/08 A2990 RMK SF3SC5 VIS VRB 2 - 4 PRESFR SLP131<br><br>
CYHM 051000Z 08004KT 6SM -RA FEW008 OVC017 08/08 A2992 RMK SF1SC7 SLP137<br><br>
CYHM 050912Z 05003KT 7SM -RA OVC009 07/07 A2993 RMK SC8 SLP142<br><br>
TAF AMD CYHM 051042Z 0510/0606 09006KT WS005/18020KT 11/2SM -DZ BR BKN003 OVC015 TEMPO 0510/0512 6SM -SHRA BR SCT003 OVC015 FM051200 18012KT 6SM -SHRA BR SCT005 OVC012 TEMPO 0512/0521 21/2SM -DZ BR OVC005 BECMG 0514/0515 20015G25KT FM052100 21012G22KT 3SM -SHRA BR BKN006 OVC015 PROB40 0521/0524 VRB20G35KT 1SM +TSRA BR BKN004 OVC020CB FM060000 23010KT 4SM -DZ BR OVC006 FM060400 30010KT 6SM BR SCT006 OVC010 RMK NXT FCST BY 051200Z<br><br>
<br><br>
KIAG 051053Z AUTO 17008KT 6SM -RA BKN024 OVC034 12/09 A2993 RMK AO2 RAE0959B52 SLP141 P0001 T01220089<br><br>
KIAG 050953Z AUTO 18009KT 7SM -RA BKN023 OVC030 12/09 A2995 RMK AO2 RAB23 SLP146 P0003 T01170089<br><br>
KIAG 050906Z 0509/0606 17008KT P6SM OVC028 FM051200 17014G21KT 6SM -RA OVC030 FM051700 19016G25KT P6SM VCSH OVC025 FM052300 18012G21KT 4SM RA OVC025<br><br>
<br><br>
KBUF 051054Z 17009KT 6SM -RA BR BKN026 BKN032 OVC050 11/09 A2995 RMK AO2 LTG DSNT E RAB0958E09B34 SLP145 P0000 T01110094 $<br><br>
KBUF 050954Z 16010KT 10SM BKN027 OVC040 11/09 A2995 RMK AO2 RAE11 SLP147 P0000 T01060089 $<br><br>
KBUF 050906Z 0509/0606 16010KT P6SM -RA BKN028 OVC045 FM051200 19018G26KT P6SM OVC025 FM051900 19018G26KT P6SM VCSH OVC025 FM052300 18014G22KT 4SM +RA OVC020<br><br>
<br><br>
CYYZ 051100Z 14007KT 6SM -DZ BR OVC005 09/08 A2991 RMK ST8 SLP136<br><br>
CYYZ 051030Z 12009KT 6SM -DZ BR FEW006 OVC009 09/08 A2991 RMK SF1ST7 SLP136<br><br>
CYYZ 051000Z 12006KT 080V140 10SM FEW005 OVC010 08/08 A2993 RMK SF2ST6 SLP141<br><br>
TAF CYYZ 050838Z 0509/0612 13007KT 6SM -DZ BR SCT005 OVC012 TEMPO 0509/0512 2SM -SHRA BR BKN005 OVC012 PROB30 0509/0512 1SM -SHRA BR BKN002 OVC005 FM051200 18010KT P6SM -SHRA SCT008 OVC015 TEMPO 0512/0522 3SM -DZ BR BKN008 OVC015 BECMG 0515/0517 20015G25KT FM052200 21010G20KT 6SM -SHRA BR SCT010 OVC025 PROB30 0523/0602 VRB20G35KT 11/2SM +TSRA BR BKN006 OVC030CB FM060200 25008KT 6SM -DZ BR BKN015 OVC040 FM060500 31010KT P6SM SCT015 OVC030 RMK NXT FCST BY 051200Z<br><br>
<br><br>
CYOO 051100Z AUTO 11010KT 2 1/2SM BR OVC003 08/07 A2994 RMK SLP142<br><br>
CYOO 051020Z AUTO 10008KT 2 1/2SM BR OVC003 08/07 A2995 RMK SLP148<br><br>
CYOO 051000Z AUTO 11006KT 2 1/2SM -RA BR OVC003 08/07 A2996 RMK SLP150<br><br>
CYOO 050942Z AUTO 11009KT 2 1/2SM -RA BR OVC003 08/07 A2996 RMK SLP151<br><br>
CYOO 050932Z AUTO 11008KT 2 1/4SM BR OVC003 08/07 A2997 RMK SLP152<br><br>
CYOO 050930Z AUTO 11009KT 2 1/4SM -RA BR OVC003 08/07 A2997 RMK SLP152<br><br>
CYOO 050912Z AUTO 11008KT 3SM -RA BR BKN005 OVC010 08/06 A2997 RMK SLP154<br><br>
CYOO has no TAF <br><br>
<br><br>
CYTR 051100Z 18008KT 2SM -RA BR OVC006 10/09 A3000 RMK SF8 VIS VRB 1 1/2-2 1/2 SLP163<br><br>
CYTR 051000Z 16006KT 3SM -RA BR OVC009 10/08 A3002 RMK SF8 VIS VRB 2 1/4-4 SLP170<br><br>
CYTR 050952Z 16006KT 3SM -RA BR OVC011 09/09 A3002 RMK SF8 VIS VRB 2 1/4-4 SLP168<br><br>
CYTR 050927Z 14004KT 4SM -SHRA BR OVC015 09/09 A3003 RMK SF8 VIS VRB 3-5 SLP171<br><br>
CYTR 050911Z 14007KT 3SM SHRA BR OVC015 09/08 A3002 RMK SF8 VIS VRB 2 1/4-4 SLP170<br><br>
TAF AMD CYTR 050913Z 0509/0606 12012KT 6SM -RA BR SCT008 OVC020 TEMPO 0509/0523 3SM -RA BR OVC008 FM052300 19012G22KT 3SM -SHRA BR BKN006 OVC020 TEMPO 0523/0604 1SM +SHRA BR FM060400 20010KT 2SM BR BKN004 OVC010 RMK NXT FCST BY 051200Z<br><br>
<br><br>
