RETRIEVED AT : Mar 08 2020 06:05 Local <br>
  RETRIEVED AT: Mar 08 2020 10:05 UTC<br><br>
CYSN has no TAF <br><br>
<br><br>
CYHM 080900Z 20007KT 15SM OVC075 00/M02 A3034 RMK AC8 SLP284<br><br>
TAF CYHM 080539Z 0806/0906 22010KT P6SM BKN100 BKN250 FM081200 22010KT P6SM SKC BECMG 0814/0816 23015G25KT BECMG 0820/0822 23018G30KT FM090000 22012G22KT P6SM BKN150 RMK NXT FCST BY 081200Z<br><br>
<br><br>
KIAG 080953Z AUTO 23012KT 10SM OVC085 02/M03 A3036 RMK AO2 SLP294 T00221028<br><br>
KIAG 080853Z AUTO 23011KT 10SM OVC095 02/M03 A3035 RMK AO2 SLP293 T00171028 58004<br><br>
KIAG 080849Z 0809/0906 22011G17KT P6SM SCT100 FM081300 23015G22KT P6SM FEW200 FM081800 23015G28KT P6SM SKC FM090000 22010G19KT P6SM FEW250 FM090100 22010G19KT P6SM SCT200 WS020/23040KT<br><br>
<br><br>
KBUF 080954Z 23013G20KT 10SM BKN090 04/M05 A3036 RMK AO2 SLP289 T00391050<br><br>
KBUF 080854Z 22010KT 10SM BKN090 BKN130 03/M04 A3037 RMK AO2 SLP292 T00281044 55003<br><br>
KBUF 080849Z 0809/0906 21009KT P6SM SCT150 FM081500 24012G22KT P6SM SCT150 FM082300 21009KT P6SM FEW250 FM090100 21010G17KT P6SM SCT250 FM090200 21010G18KT P6SM SCT200 WS020/23040KT<br><br>
<br><br>
CYYZ 080900Z 19009KT 15SM SCT075 BKN160 01/M03 A3033 RMK AC4AC1 SLP278<br><br>
TAF CYYZ 080839Z 0809/0912 18010KT P6SM BKN090 BECMG 0809/0810 SCT090 FM081300 25010G20KT P6SM FEW090 FM081800 22012G25KT P6SM SKC BECMG 0820/0822 22015G25KT FM090000 24012G22KT P6SM BKN150 BECMG 0906/0908 23010G20KT FM090900 23012KT P6SM BKN100 RMK NXT FCST BY 081200Z<br><br>
<br><br>
CYOO 080900Z AUTO 21006KT 9SM BKN080 01/M02 A3032 RMK SLP276<br><br>
TAF CYOO 080738Z 0808/0820 23005KT P6SM OVC090 FM081300 22006KT P6SM FEW100 FM081500 23012KT P6SM SKC BECMG 0817/0819 22010G20KT RMK FCST BASED ON AUTO OBS. NXT FCST BY 081400Z<br><br>
<br><br>
CYTR 080900Z 23006KT 15SM SCT087 01/M03 A3033 RMK AC3 SLP276<br><br>
TAF CYTR 080530Z 0806/0906 24010KT P6SM BKN080 BKN130 FM081500 24012KT P6SM SCT200 BECMG 0817/0819 23012G22KT BECMG 0822/0824 24010KT FM090300 24010KT P6SM BKN120 RMK NXT FCST BY 081200Z<br><br>
<br><br>
