RETRIEVED AT : May 29 2020 21:05 Local <br>
  RETRIEVED AT: May 30 2020 01:05 UTC<br><br>
CYSN 300000Z 27011G16KT 10SM BKN021 17/15 A2982 RMK SC7 SLP100 DENSITY ALT 800FT<br><br>
TAF AMD CYSN 292017Z 2920/3001 22020G30KT P6SM FEW025 BKN090 BKN190 TEMPO 2920/2922 VRB20G30KT 5SM TSRA BR BKN020 BKN040CB FM292200 27015G25KT P6SM -SHRA BKN015 TEMPO 2922/3001 P6SM NSW SCT015 BKN025 BECMG 2922/2924 32012KT RMK NXT FCST BY 301245Z<br><br>
<br><br>
CYHM 300022Z 30007KT 12SM -SHRA BKN023 16/13 A2987 RMK SC7 CVCTV CLD EMBD SLP117 DENSITY ALT 1200FT<br><br>
CYHM 300000Z 28006KT 260V320 15SM BKN023 BKN037 BKN240 16/13 A2986 RMK SC5SC1CI1 SLP113 DENSITY ALT 1200FT<br><br>
TAF CYHM 292354Z 3000/3024 29012KT P6SM FEW015 BKN050 TEMPO 3000/3003 BKN015 FM300300 29012KT P6SM FEW050 BECMG 3004/3006 29008KT FM300600 25005KT P6SM SKC FM300900 25006KT P6SM FEW010 SCT020 TEMPO 3009/3012 BKN010 FM301500 29015KT P6SM BKN020 BECMG 3015/3017 BKN030 FM301700 30018KT P6SM BKN040 FM302000 31020KT P6SM SCT050 TEMPO 3021/3024 BKN050 RMK NXT FCST BY 300600Z<br><br>
<br><br>
KIAG 300053Z 29011KT 10SM OVC019 16/14 A2985 RMK AO2 RAB38E48 SLP107 P0000 T01610139 $<br><br>
KIAG 292353Z 28010KT 10SM BKN020 BKN026 OVC031 17/14 A2983 RMK AO2 RAE2254 SLP098 P0000 60013 T01670144 10222 20167 51012 $<br><br>
KIAG 292331Z 3000/3024 29009KT P6SM BKN020 OVC035 FM300200 27010KT P6SM BKN035 FM301100 23007KT P6SM BKN040 FM301500 26010G17KT P6SM VCSH BKN035 FM302300 30012G18KT P6SM SCT100<br><br>
<br><br>
KBUF 300054Z 27009G17KT 7SM OVC005 14/14 A2986 RMK AO2 PRESRR SLP111 T01390139 $<br><br>
KBUF 292354Z 23010G18KT 8SM OVC005 14/14 A2983 RMK AO2 SLP099 60054 T01440144 10217 20144 51021 $<br><br>
KBUF 292331Z 3000/3024 23018G23KT P6SM OVC006 FM300200 24012KT P6SM OVC020 FM300400 26011KT P6SM OVC035 FM300900 24007KT P6SM BKN080 FM301200 23008KT P6SM BKN025 FM301500 24012G19KT P6SM VCSH BKN035 FM302200 28011G18KT P6SM SCT050<br><br>
<br><br>
CYYZ 300000Z 31015KT 15SM FEW025 FEW038 BKN080 BKN140 17/12 A2983 RMK CF1SC2AC4AC1 CF TR SLP104 DENSITY ALT 1000FT<br><br>
TAF CYYZ 292354Z 3000/3106 33015KT P6SM SCT025 SCT110 BKN180 TEMPO 3000/3002 BKN020 BECMG 3002/3004 31010KT FM300500 26005KT P6SM SKC FM300900 24005KT P6SM SCT020 TEMPO 3010/3013 BKN020 FM301400 29010G20KT P6SM SCT030 BECMG 3016/3018 29015G25KT BKN030 FM302000 32018KT P6SM BKN050 FM302300 34012KT P6SM BKN030 FM310300 33010KT P6SM SCT025 TEMPO 3103/3106 BKN025 RMK NXT FCST BY 300300Z<br><br>
<br><br>
CYOO 300035Z AUTO 28012G17KT 9SM BKN021 OVC035 16/13 A2981 RMK SLP095 DENSITY ALT 800FT<br><br>
CYOO 300000Z AUTO 31010G21KT 9SM FEW017 BKN055 BKN160 BKN180 16/13 A2979 RMK SLP089 DENSITY ALT 800FT<br><br>
TAF AMD CYOO 292249Z 2922/3008 31012G22KT P6SM -SHRA SCT015 BKN025 TEMPO 2922/3002 5SM -SHRA BR BKN015 BECMG 3002/3003 P6SM NSW FM300300 29010KT P6SM BKN040 FM300500 28008KT P6SM FEW060 RMK FCST BASED ON AUTO OBS. NXT FCST BY 300200Z<br><br>
<br><br>
CYTR 300000Z 21009KT 15SM FEW004 SCT035 BKN080 17/16 A2973 RMK SF1SC3AC3 SLP067<br><br>
TAF CYTR 292330Z 3000/3024 28010KT P6SM SCT012 OVC030 TEMPO 3000/3004 P6SM -SHRA BKN012 OVC025 FM300400 29008KT P6SM BKN012 TEMPO 3004/3012 SCT012 FM301200 25008KT P6SM -SHRA FEW015 BKN040 FM301500 22010KT P6SM -SHRA BKN015 OVC040 FM302100 28012G22KT P6SM SCT015 BKN040 RMK NXT FCST BY 300600Z<br><br>
<br><br>
