RETRIEVED AT : Jun 28 2020 07:05 Local <br>
  RETRIEVED AT: Jun 28 2020 11:05 UTC<br><br>
CYSN has no TAF <br><br>
<br><br>
CYHM 281000Z 25006KT 15SM FEW045 FEW250 16/15 A2975 RMK SC1CI1 SC TR CI TR SLP073 DENSITY ALT 1300FT<br><br>
TAF CYHM 280538Z 2806/2906 28006KT P6SM FEW040 SCT080 FM281100 30006KT P6SM SKC FM281700 05006KT P6SM BKN040 BECMG 2820/2822 12008KT FM290200 02006KT P6SM FEW040 RMK NXT FCST BY 281200Z<br><br>
<br><br>
KIAG 281053Z 28005KT 10SM CLR 18/17 A2974 RMK AO2 SLP067 T01830172<br><br>
KIAG 280953Z AUTO 25006KT 6SM BR SCT017 18/18 A2972 RMK AO2 SLP060 T01830178<br><br>
KIAG 280934Z AUTO 27007KT 5SM BR FEW010 BKN018 18/18 A2971 RMK AO2 T01830178<br><br>
KIAG 280920Z AUTO 25006KT 2SM BR FEW008 FEW012 18/17 A2971 RMK AO2 T01780172<br><br>
KIAG 280859Z 2809/2906 25006KT P6SM SCT025 SCT080 FM281100 VRB04KT P6SM SCT250 FM281700 31007KT P6SM FEW120 FM282200 29006KT P6SM FEW250<br><br>
<br><br>
KBUF 281054Z 26005KT 7SM FEW004 FEW009 18/18 A2975 RMK AO2 SLP071 T01830178 $<br><br>
KBUF 281030Z 27008KT 5SM BR SCT004 SCT045 BKN180 18/18 A2974 RMK AO2 T01830178 $<br><br>
KBUF 281015Z 27009KT 4SM BR OVC004 18/18 A2974 RMK AO2 T01830183 $<br><br>
KBUF 281003Z 26007KT 4SM BR FEW004 OVC012 19/19 A2973 RMK AO2 T01890189 $<br><br>
KBUF 280954Z 25006KT 4SM BR BKN013 BKN070 19/19 A2973 RMK AO2 SLP065 T01890189 $<br><br>
KBUF 280946Z 25006KT 5SM BR BKN013 BKN070 18/18 A2973 RMK AO2 T01830183 $<br><br>
KBUF 280859Z 2809/2906 25006KT P6SM SCT025 BKN050 FM281200 25005KT P6SM BKN090 FM282100 27008KT P6SM FEW250<br><br>
<br><br>
CYYZ 281000Z 32011KT 15SM FEW080 18/15 A2972 RMK AC1 AC TR SLP065 DENSITY ALT 1300FT<br><br>
TAF CYYZ 280840Z 2809/2912 28008KT P6SM SKC BECMG 2810/2812 34012KT FM281700 35012KT P6SM SCT050 TEMPO 2817/2824 BKN050 FM290000 01010KT P6SM FEW050 RMK NXT FCST BY 281200Z<br><br>
<br><br>
CYOO 281000Z AUTO 34005KT 9SM CLR 18/18 A2970 RMK SLP058 DENSITY ALT 1100FT<br><br>
TAF AMD CYOO 280819Z 2808/2820 30003KT P6SM SCT030 TEMPO 2808/2812 2SM BR FEW003 BKN030 PROB30 2808/2812 1/2SM FG BKN002 FM281200 32006KT P6SM SKC FM281700 33008KT P6SM SCT050 TEMPO 2817/2820 BKN050 RMK FCST BASED ON AUTO OBS. NXT FCST BY 281400Z<br><br>
<br><br>
CYTR 281000Z 31002KT 15SM SCT030 19/18 A2969 RMK SC3 SLP053<br><br>
TAF CYTR 280530Z 2806/2906 VRB03KT P6SM BKN070 FM280800 VRB03KT P6SM FEW005 BKN030 PROB30 2808/2812 1SM BR OVC005 FM281200 VRB03KT P6SM SCT030 FM281600 25008KT P6SM BKN050 TEMPO 2816/2901 6SM -SHRA PROB30 2818/2901 2SM -TSRA BR BKN050CB FM290400 VRB03KT P6SM FEW050 RMK NXT FCST BY 281200Z<br><br>
<br><br>
