RETRIEVED AT : Oct 02 2017 17:10 Local <br>
  RETRIEVED AT: Oct 02 2017 21:10 UTC<br><br>
CYSN 022100Z 05011KT 15SM BKN250 20/12 A3035 RMK CI7 SLP279 DENSITY ALT 500FT<br><br>
CYSN 022000Z 03011G17KT 15SM SCT250 21/11 A3034 RMK CI3 SLP277 DENSITY ALT 700FT<br><br>
TAF CYSN 021939Z 0220/0301 12008KT P6SM FEW240 RMK NXT FCST WILL BE ISSUED AT 031245Z<br><br>
<br><br>
CYHM 022100Z 05011KT 15SM BKN250 17/10 A3036 RMK CI7 CONTRAILS SLP287 DENSITY ALT 800FT<br><br>
CYHM 022000Z 05011KT 15SM BKN250 19/09 A3036 RMK CI6 CONTRAILS SLP285 DENSITY ALT 1000FT<br><br>
TAF CYHM 021742Z 0218/0318 06008KT P6SM FEW050 BECMG 0304/0306 14005KT BECMG 0312/0314 20008KT FM031700 21012KT P6SM SKC RMK NXT FCST BY 030000Z<br><br>
<br><br>
KIAG 022053Z 05004KT 10SM CLR 23/05 A3036 RMK AO2 SLP281 T02330050 55008<br><br>
KIAG 021953Z VRB03KT 10SM CLR 24/04 A3035 RMK AO2 SLP281 T02390044<br><br>
KIAG 022043Z 0221/0318 VRB04KT P6SM SCT250 FM030500 16005KT P6SM FEW200 FM031400 20008KT P6SM FEW250<br><br>
<br><br>
KBUF 022054Z 03006KT 10SM FEW180 SCT300 22/07 A3036 RMK AO2 SLP280 T02220072 55010<br><br>
KBUF 021954Z VRB05KT 10SM FEW160 FEW260 FEW310 22/05 A3035 RMK AO2 SLP279 T02220050<br><br>
KBUF 022043Z 0221/0318 VRB04KT P6SM SCT250 FM030600 16006KT P6SM SKC FM031400 20008KT P6SM SKC<br><br>
<br><br>
CYYZ 022100Z 10009KT 15SM SCT250 19/07 A3036 RMK CI4 SLP285 DENSITY ALT 700FT<br><br>
CYYZ 022000Z 06007KT 050V120 15SM SCT250 19/06 A3037 RMK CI3 SLP288 DENSITY ALT 700FT<br><br>
TAF CYYZ 022042Z 0221/0324 14008KT P6SM FEW180 BECMG 0301/0303 15005KT BECMG 0313/0315 20012KT RMK NXT FCST BY 030000Z<br><br>
<br><br>
CYOO 022100Z AUTO 10007KT 9SM CLR 18/06 A3039 RMK SLP296<br><br>
CYOO 022000Z AUTO 09009KT 9SM CLR 18/08 A3039 RMK SLP295<br><br>
CYOO has no TAF <br><br>
<br><br>
CYTR 022100Z 18004KT 15SM FEW250 19/08 A3041 RMK CI2 SLP300<br><br>
CYTR 022000Z 15004KT 15SM FEW250 19/08 A3040 RMK CI2 SLP297<br><br>
TAF CYTR 021730Z 0218/0318 21008KT P6SM SCT250 BECMG 0222/0224 10005KT SCT150 FM031000 18005KT 6SM BR FEW005 PROB30 0310/0313 3/4SM BR OVC005 FM031300 18005KT P6SM SCT250 RMK NXT FCST BY 030000Z<br><br>
<br><br>
