RETRIEVED AT : May 15 2020 22:06 Local <br>
  RETRIEVED AT: May 16 2020 02:06 UTC<br><br>
CYSN 160100Z 35005KT 15SM FEW030 FEW250 12/12 A2993 RMK SC1CI1 LAST STFD OBS/NEXT 16 1100UTC SLP137<br><br>
CYSN has no TAF <br><br>
<br><br>
CYHM 160100Z 01005KT 15SM FEW020 FEW140 13/11 A2994 RMK SC1AC1 SC TR SLP141 DENSITY ALT 800FT<br><br>
TAF AMD CYHM 160024Z 1600/1624 35010KT P6SM SCT020 BKN130 TEMPO 1600/1602 BKN020 BECMG 1602/1604 01005KT FM160600 04006KT P6SM SKC PROB40 1606/1611 1/2SM FG VV002 FM161100 05008KT 1SM BR OVC003 BECMG 1611/1613 P6SM NSW FEW006 FM161600 05010KT P6SM SKC RMK NXT FCST BY 160600Z<br><br>
<br><br>
KIAG 160153Z 34005KT 10SM CLR 12/11 A2995 RMK AO2 SLP145 T01170106<br><br>
KIAG 160053Z 34006KT 10SM SCT007 BKN033 13/12 A2992 RMK AO2 SLP136 T01330122<br><br>
KIAG 160042Z 34007KT 10SM BKN007 OVC033 13/12 A2992 RMK AO2 T01330122<br><br>
KIAG 152339Z 1600/1624 01006KT P6SM SCT006 BKN025 TEMPO 1600/1602 6SM BR BKN006 FM160300 31005KT P6SM BKN007 FM160700 31004KT 4SM BR BKN007 FM161100 35004KT 6SM BR BKN010 FM161300 02006KT P6SM BKN040<br><br>
<br><br>
KBUF 160154Z 34004KT 10SM FEW005 FEW013 FEW028 13/12 A2996 RMK AO2 SLP144 T01330117<br><br>
KBUF 160141Z 33005KT 10SM FEW006 SCT013 SCT031 14/12 A2995 RMK AO2 T01390122<br><br>
KBUF 160139Z 34006KT 7SM SCT006 BKN013 14/12 A2995 RMK AO2 T01390122<br><br>
KBUF 160113Z 33008KT 7SM BKN008 OVC032 14/13 A2994 RMK AO2 CIG 005V009 T01440128<br><br>
KBUF 160054Z 33005KT 7SM SCT007 BKN031 BKN065 14/13 A2993 RMK AO2 SLP134 T01440128<br><br>
KBUF 160044Z 34005KT 5SM BR SCT005 BKN031 BKN065 15/13 A2992 RMK AO2 T01500128<br><br>
KBUF 160009Z 23003KT 3SM BR BKN006 BKN011 OVC036 14/13 A2990 RMK AO2 OCNL BINOVC T01390128<br><br>
KBUF 160058Z 1601/1624 23004KT 6SM BR SCT007 BKN030 TEMPO 1601/1603 BKN007 FM160300 32005KT 6SM BR BKN005 FM160700 VRB04KT 4SM BR BKN003 FM161100 34004KT 6SM BR BKN010 FM161300 35006KT P6SM BKN040<br><br>
<br><br>
CYYZ 160100Z 35008KT 15SM FEW035 FEW140 SCT250 13/10 A2993 RMK CF1AC1CI3 CF TR AC TR SLP139<br><br>
TAF CYYZ 152339Z 1600/1706 36012KT P6SM FEW050 FM160700 36006KT P6SM SKC TEMPO 1607/1613 4SM BR PROB40 1607/1612 2SM BR BKN003 FM161300 03008KT P6SM FEW005 SCT015 FM161900 15008KT P6SM SKC BECMG 1701/1703 07007KT RMK NXT FCST BY 160300Z<br><br>
<br><br>
CYOO 160100Z AUTO 29003KT 9SM CLR 12/11 A2991 RMK SLP132<br><br>
TAF CYOO 160138Z 1602/1614 VRB03KT P6SM FEW020 FM160700 34006KT P6SM SCT005 PROB30 1607/1612 2SM BR BKN005 RMK FCST BASED ON AUTO OBS. NXT FCST BY 160800Z<br><br>
<br><br>
CYTR 160100Z 00000KT 15SM SCT027 BKN100 15/12 A2988 RMK SC3AC2 SLP119<br><br>
TAF CYTR 152330Z 1600/1624 32005KT P6SM SCT025 BKN080 FM160100 33005KT P6SM BKN025 FM160600 33005KT P6SM SKC PROB30 1606/1610 1SM BR FM161700 20008KT P6SM BKN030 RMK NXT FCST BY 160600Z<br><br>
<br><br>
