RETRIEVED AT : May 23 2020 12:05 Local <br>
  RETRIEVED AT: May 23 2020 16:05 UTC<br><br>
CYSN 231500Z VRB02KT 5SM BR FEW010 BKN040 OVC072 19/19 A3006 RMK SC2SC4AC2 SLP180 DENSITY ALT 800FT<br><br>
TAF AMD CYSN 231412Z 2314/2401 VRB03KT 4SM BR FEW010 BKN040 BECMG 2314/2316 P6SM NSW FM231700 05008KT P6SM BKN040 BECMG 2322/2324 VRB03KT RMK NXT FCST BY 232000Z<br><br>
<br><br>
CYHM 231500Z 25006KT 15SM FEW010 BKN060 OVC075 20/17 A3008 RMK CU1SC7AC1 CU TR SLP187 DENSITY ALT 1400FT<br><br>
TAF CYHM 231138Z 2312/2412 VRB03KT P6SM FEW020 BKN100 BECMG 2313/2315 23006KT FM231800 10008KT P6SM -SHRA BKN040 PROB30 2318/2324 4SM TSRA BKN030CB FM240000 12006KT P6SM SCT040 BECMG 2401/2403 VRB03KT FM240600 VRB03KT P6SM SKC PROB40 2406/2412 3/4SM BR RMK NXT FCST BY 231800Z<br><br>
<br><br>
KIAG 231553Z 00000KT 6SM -RA BKN050 OVC055 18/16 A3008 RMK AO2 RAB48 SLP187 P0000 T01830156<br><br>
KIAG 231453Z 24004KT 3SM BR BKN049 BKN060 OVC075 18/17 A3006 RMK AO2 RAB10E52 SLP179 P0001 60001 T01780167 51015<br><br>
KIAG 231343Z 2314/2412 VRB03KT 6SM BR SCT004 BKN035 OVC060 TEMPO 2314/2316 4SM BR FM231600 35004KT P6SM SCT035 BKN050 FM232000 03005KT P6SM BKN050 FM240600 10005KT P6SM SCT050 FM240900 13005KT P6SM SCT045<br><br>
<br><br>
KBUF 231601Z 22007KT 10SM BKN006 OVC043 17/14 A3010 RMK AO2 T01670144<br><br>
KBUF 231554Z 21007KT 10SM OVC004 17/14 A3010 RMK AO2 SLP191 T01670144<br><br>
KBUF 231454Z 24009KT 10SM BKN004 OVC041 17/15 A3007 RMK AO2 SLP182 T01670150 53018<br><br>
KBUF 231444Z 22007KT 10SM BKN004 OVC041 17/15 A3006 RMK AO2 T01720150<br><br>
KBUF 231407Z 25004KT 6SM BR SCT003 BKN040 OVC060 17/16 A3005 RMK AO2 T01720156<br><br>
KBUF 231341Z 2314/2412 VRB03KT 6SM BR OVC004 TEMPO 2315/2316 SCT004 BKN050 FM231600 VRB03KT P6SM BKN050 FM240100 08005KT P6SM SCT100<br><br>
<br><br>
CYYZ 231500Z 16010KT 15SM FEW150 21/13 A3007 RMK AC1 SLP183 DENSITY ALT 1300FT<br><br>
TAF CYYZ 231438Z 2315/2418 VRB03KT P6SM FEW150 FM231700 13010KT P6SM SCT050 FM240000 15008KT P6SM -SHRA OVC030 BECMG 2404/2406 08005KT FM240800 VRB03KT 11/2SM BR BKN006 FM241300 15012KT P6SM SCT006 BKN020 FM241600 17012G22KT P6SM FEW020 OVC030 RMK NXT FCST BY 231800Z<br><br>
<br><br>
TAF CYOO 231349Z 2314/2402 VRB03KT P6SM SKC FM231700 15007KT P6SM SCT040 RMK FCST BASED ON AUTO OBS. NXT FCST BY 232000Z<br><br>
<br><br>
CYTR 231500Z 12005KT 15SM FEW220 24/12 A3005 RMK CI2 SLP175<br><br>
TAF CYTR 231130Z 2312/2412 VRB03KT P6SM FEW100 SCT220 FM231300 VRB03KT P6SM SKC BECMG 2315/2317 20010KT BECMG 2402/2404 05005KT FM241000 09005KT P6SM SCT080 BKN150 RMK NXT FCST BY 231800Z<br><br>
<br><br>
