RETRIEVED AT : Sep 02 2018 14:05 Local <br>
  RETRIEVED AT: Sep 02 2018 18:05 UTC<br><br>
CYSN 021700Z 19015KT 15SM SCT140 BKN250 25/23 A3009 RMK AC3CI4 SLP190 DENSITY ALT 1300FT<br><br>
TAF AMD CYSN 021311Z 0213/0301 22012KT P6SM SCT020 BKN060 TEMPO 0213/0218 P6SM -SHRA BKN020 OVC060 FM021800 23012G22KT P6SM BKN040 FM022200 21008KT P6SM SCT060 BECMG 0223/0301 VRB03KT RMK NXT FCST BY 022000Z<br><br>
<br><br>
CYHM 021700Z 23010KT 15SM FEW010 BKN160 BKN200 24/22 A3014 RMK CU1AC5CI1 SLP205 DENSITY ALT 1800FT<br><br>
TAF CYHM 021739Z 0218/0318 23010G20KT P6SM SCT020 TEMPO 0218/0221 BKN020 FM022200 22008KT P6SM FEW040 FM031400 24010KT P6SM -SHRA SCT010 BKN030 BECMG 0316/0318 24010G20KT RMK NXT FCST BY 030000Z<br><br>
<br><br>
KIAG 021753Z 20012KT 10SM SCT010 24/22 A3013 RMK AO2 SLP200 P0001 60003 T02390217 10256 20228 56010<br><br>
KIAG 021700Z 21011KT 10SM BKN008 23/22 A3013 RMK AO2 T02330217<br><br>
KIAG 021653Z 21011KT 10SM BKN010 BKN055 BKN100 23/22 A3013 RMK AO2 RAB09E44 SLP200 P0002 T02330222<br><br>
KIAG 021727Z 0218/0318 22012KT P6SM BKN100 FM021900 23015G21KT P6SM SCT200 FM030000 22009KT P6SM FEW140 FM031300 23013KT P6SM SCT050 FM031600 23016G23KT P6SM SCT040 SCT250<br><br>
<br><br>
KBUF 021754Z 21010KT 10SM FEW009 SCT050 BKN130 BKN180 24/22 A3015 RMK AO2 RAE15 SLP207 P0000 60002 T02390217 10250 20222 56012<br><br>
KBUF 021739Z 20013KT 10SM SCT009 SCT050 BKN130 BKN180 23/22 A3015 RMK AO2 RAE15 P0000 T02330222<br><br>
KBUF 021705Z 21010KT 10SM -RA SCT013 BKN050 BKN110 23/22 A3016 RMK AO2 P0000 T02280217<br><br>
KBUF 021654Z 20011KT 10SM -RA BKN013 BKN050 OVC100 23/22 A3016 RMK AO2 RAB28 SLP208 P0001 T02330217<br><br>
KBUF 021646Z 21011KT 10SM -RA BKN013 BKN060 OVC110 23/22 A3016 RMK AO2 RAB28 P0001 T02330217<br><br>
KBUF 021625Z 21011KT 10SM SCT013 SCT060 BKN085 BKN150 BKN220 24/22 A3016<br><br>
KBUF 021727Z 0218/0318 22012KT P6SM VCSH BKN100 FM021900 24015G22KT P6SM SCT200 FM022300 23008KT P6SM SCT150 FM031300 23013KT P6SM SCT050 FM031600 24015G22KT P6SM SCT250<br><br>
<br><br>
CYYZ 021700Z 23014KT 15SM FEW020 SCT040 BKN160 BKN220 26/22 A3010 RMK CU1SC2AC3CI1 SLP191 DENSITY ALT 1800FT<br><br>
CYYZ 021636Z 20006KT 150V230 15SM VCSH FEW014 SCT030 BKN150 26/23 A3008 RMK CU1SC3AC3 CB TOPS DIST NE SLP186 DENSITY ALT 1800FT<br><br>
CYYZ 021623Z 16005KT 12SM -SHRA SCT027CB BKN044 BKN120 26/22 A3007 RMK CB3SC3AC1 CB N-SE PRESFR SLP183 DENSITY ALT 1800FT<br><br>
CYYZ 021608Z 25007KT 6SM -TSRA BKN027CB OVC045 26/21 A3012 RMK CB6SC2 OCNL LTGIC W-N SLP198 DENSITY ALT 1800FT<br><br>
TAF CYYZ 021739Z 0218/0324 23010G20KT P6SM FEW020 SCT040 TEMPO 0218/0221 BKN020 BKN040 FM022100 23010KT P6SM BKN040 TEMPO 0221/0301 P6SM -SHRA FM030100 23007KT P6SM SCT040 FM030600 24008KT P6SM FEW050 BECMG 0314/0316 25010G20KT FM031700 25010G20KT P6SM -SHRA BKN040 FM032300 36010KT P6SM SCT040 RMK NXT FCST BY 022100Z<br><br>
<br><br>
CYOO 021731Z AUTO 20014G19KT 190V250 9SM SCT012 SCT030 26/23 A3009 RMK SLP189 DENSITY ALT 1600FT<br><br>
CYOO 021712Z AUTO 21009KT 140V220 9SM -RA FEW090 26/23 A3008 RMK SLP185 DENSITY ALT 1600FT<br><br>
CYOO 021700Z AUTO 17009G15KT 150V230 9SM FEW038 26/23 A3006 RMK PRESFR SLP177 DENSITY ALT 1600FT<br><br>
CYOO has no TAF <br><br>
<br><br>
CYTR 021734Z 23011G17KT 15SM SCT015 BKN034 BKN220 26/23 A3009 RMK SC4SC1CI2 SLP189<br><br>
CYTR 021700Z 22011KT 15SM BKN015 BKN065 26/23 A3010 RMK SC6SC2 SLP192<br><br>
CYTR 021655Z 22012KT 15SM BKN015 BKN065 26/23 A3010 RMK SC6SC2 SLP192<br><br>
TAF CYTR 021730Z 0218/0318 22010G20KT P6SM SCT015 BKN070 TEMPO 0218/0220 P6SM -SHRA BKN015 OVC070 BECMG 0223/0301 24006KT FM030100 24006KT P6SM SCT030 BKN060 BECMG 0315/0317 26010G20KT SCT030 RMK NXT FCST BY 030000Z<br><br>
<br><br>
