RETRIEVED AT : May 31 2020 20:05 Local <br>
  RETRIEVED AT: Jun 01 2020 00:05 UTC<br><br>
CYSN 312300Z 22012KT 15SM FEW040 BKN065 OVC085 13/07 A3022 RMK SC2SC4AC2 SLP236<br><br>
TAF AMD CYSN 312119Z 3121/0101 VRB03KT P6SM FEW060 TEMPO 3121/0101 BKN060 RMK NXT FCST WILL BE ISSUED AT 011245Z<br><br>
<br><br>
CYHM 312300Z 34008KT 15SM BKN067 14/02 A3022 RMK AC7 SLP238<br><br>
TAF CYHM 312338Z 0100/0124 33007KT P6SM BKN060 TEMPO 0100/0103 SCT060 FM010300 24007KT P6SM SCT060 BECMG 0113/0115 25015KT RMK NXT FCST BY 010600Z<br><br>
<br><br>
KIAG 312353Z 23009KT 10SM BKN070 OVC090 12/06 A3023 RMK AO2 RAB24E33 SLP241 P0000 60000 T01170061 10150 20117 53001<br><br>
KIAG 312253Z 22012KT 10SM FEW039 BKN060 OVC090 12/06 A3021 RMK AO2 SLP237 T01220056<br><br>
KIAG 312327Z 0100/0124 24010KT P6SM FEW035 BKN070 FM010500 27007KT P6SM SCT070 FM011200 27010KT P6SM FEW250 FM011400 24015G25KT P6SM FEW250 FM012200 23012G20KT P6SM FEW250<br><br>
<br><br>
KBUF 312354Z 24011KT 10SM BKN070 BKN090 10/06 A3023 RMK AO2 SLP243 T01000061 10133 20100 53002 $<br><br>
KBUF 312254Z 25013G21KT 10SM FEW035 BKN075 BKN150 10/03 A3022 RMK AO2 SLP238 T01000033 $<br><br>
KBUF 312327Z 0100/0124 24014KT P6SM FEW035 BKN070 FM010600 27006KT P6SM SCT070 FM011200 27010KT P6SM FEW250 FM011400 26015G25KT P6SM FEW250 FM012200 24012G20KT P6SM FEW250<br><br>
<br><br>
CYYZ 312300Z VRB02KT 15SM BKN075 BKN100 14/01 A3020 RMK AC7AC1 AC TR SLP232<br><br>
TAF CYYZ 312338Z 0100/0206 VRB03KT P6SM SCT060 BKN100 TEMPO 0100/0104 BKN060 FM010400 VRB03KT P6SM SCT060 BECMG 0104/0106 22008KT BECMG 0108/0110 28007KT FM011500 27015G25KT P6SM SCT070 FM020300 20010KT P6SM FEW080 BKN140 RMK NXT FCST BY 010300Z<br><br>
<br><br>
CYOO 312300Z AUTO 30008G15KT 9SM SCT120 13/01 A3020 RMK SLP231<br><br>
TAF CYOO 311938Z 3120/0108 32015G25KT P6SM SCT060 TEMPO 3120/3122 BKN060 FM312200 32015G25KT P6SM BKN060 TEMPO 3122/0104 P6SM -SHRA FM010400 29006KT P6SM SCT040 RMK FCST BASED ON AUTO OBS. NXT FCST BY 010200Z<br><br>
<br><br>
CYTR 312300Z 30013G20KT 15SM SCT060 14/01 A3016 RMK SC4 SLP214<br><br>
TAF CYTR 312330Z 0100/0124 30010G20KT P6SM SCT060 FM010100 30008KT P6SM FEW100 BECMG 0104/0106 VRB03KT FM011400 24005KT P6SM BKN080 BECMG 0114/0116 24010G20KT BECMG 0119/0121 29012G22KT RMK NXT FCST BY 010600Z<br><br>
<br><br>
