RETRIEVED AT : Oct 14 2017 18:10 Local <br>
  RETRIEVED AT: Oct 14 2017 22:10 UTC<br><br>
CYSN 142200Z 05004KT 040V100 8SM -RA FEW020 OVC085 16/15 A3012 RMK SC2AC6 SLP201 DENSITY ALT 400FT<br><br>
CYSN 142100Z 05005KT 010V070 8SM -RA FEW025 OVC072 17/15 A3013 RMK SC2AC6 SLP205 DENSITY ALT 400FT<br><br>
TAF CYSN 141939Z 1420/1501 34005KT 5SM -SHRA BR BKN015 OVC030 TEMPO 1420/1501 P6SM NSW SCT015 BKN040 OVC120 BECMG 1421/1423 07008KT RMK NXT FCST WILL BE ISSUED AT 151245Z<br><br>
<br><br>
CYHM 142200Z 03007KT 2SM -RA BR BKN062 OVC092 15/15 A3013 RMK FG1SC6AC1 SLP206 DENSITY ALT 800FT<br><br>
CYHM 142152Z 03006KT 2 1/2SM -RA BR FEW018 BKN059 OVC092 16/15 A3013 RMK CU1SC6AC1 SLP207 DENSITY ALT 800FT<br><br>
CYHM 142100Z 05006KT 7SM -SHRA FEW022 BKN052 OVC094 17/15 A3013 RMK CU1SC5AC2 SLP207 DENSITY ALT 1000FT<br><br>
TAF CYHM 141740Z 1418/1518 VRB03KT 5SM -SHRA BR BKN012 OVC025 TEMPO 1418/1424 P6SM NSW SCT012 OVC025 BECMG 1420/1422 07006KT FM150000 07008KT 5SM -SHRA BR BKN040 OVC080 PROB30 1500/1505 11/2SM BR FM150500 12005KT P6SM BKN090 OVC200 BECMG 1507/1509 19008KT FM151100 21015G25KT P6SM BKN020 BECMG 1513/1515 21020G35KT RMK NXT FCST BY 150000Z<br><br>
<br><br>
KIAG 142153Z 04007KT 6SM -RA OVC065 18/14 A3012 RMK AO2 RAB27 SLP201 P0000 T01780139<br><br>
KIAG 142053Z 01007KT 10SM FEW070 BKN100 BKN120 19/14 A3013 RMK AO2 SLP204 T01940144 55009<br><br>
KIAG 142108Z 1421/1518 01007KT P6SM VCSH OVC070 FM150100 07007KT P6SM OVC035 FM150400 10008KT P6SM BKN060 FM151000 20016G23KT P6SM BKN060 FM151600 21022G34KT P6SM BKN045<br><br>
<br><br>
KBUF 142154Z 36008KT 10SM BKN070 BKN130 OVC220 20/14 A3012 RMK AO2 SLP199 T02000144<br><br>
KBUF 142054Z 35005KT 10SM BKN070 BKN130 OVC220 21/15 A3013 RMK AO2 SLP202 T02110150 55013<br><br>
KBUF 142108Z 1421/1518 35006KT P6SM BKN070 FM150200 09006KT P6SM BKN060 FM150500 15007KT P6SM SCT060 FM150800 19012G18KT P6SM SCT080 FM151600 21022G34KT P6SM BKN045<br><br>
<br><br>
CYYZ 142200Z 10003KT 6SM -RA FEW025 OVC058 17/15 A3012 RMK CU1SC7 SLP203 DENSITY ALT 700FT<br><br>
CYYZ 142100Z 03003KT 8SM -RA SCT025 OVC055 18/14 A3013 RMK CU4SC4 SLP207 DENSITY ALT 800FT<br><br>
CYYZ 142052Z 04003KT 10SM -RA FEW025 OVC055 18/14 A3013 RMK CF1SC7 SLP207 DENSITY ALT 900FT<br><br>
TAF CYYZ 142038Z 1421/1524 VRB03KT P6SM SCT015 BKN050 OVC150 TEMPO 1421/1422 5SM -SHRA BR BKN015 OVC050 FM142200 09007KT 3SM -SHRA BR BKN008 OVC015 TEMPO 1422/1505 6SM -SHRA BR SCT008 OVC015 PROB30 1501/1505 2SM -DZ BR BKN003 OVC008 FM150500 10005KT P6SM SCT005 BKN070 OVC120 TEMPO 1505/1507 5SM -RA -DZ BR BKN004 OVC070 FM150800 15005KT 6SM BR BKN040 OVC100 FM151100 19010KT WS005/21030KT P6SM BKN015 OVC025 FM151400 22020G35KT P6SM OVC020 FM151800 22025G40KT P6SM -SHRA OVC025 PROB30 1518/1521 VRB30G50KT 2SM +TSRA BR OVC020CB FM152100 25025G40KT P6SM BKN025 RMK NXT FCST BY 150000Z<br><br>
<br><br>
CYOO 142200Z AUTO 16003KT 7SM BKN031 OVC070 17/15 A3013 RMK SLP206 DENSITY ALT 600FT<br><br>
CYOO 142100Z AUTO 00000KT 9SM SCT022 OVC033 18/14 A3014 RMK SLP210 DENSITY ALT 700FT<br><br>
CYOO 142054Z AUTO 32002KT 9SM SCT022 OVC031 18/14 A3015 RMK SLP213 DENSITY ALT 600FT<br><br>
CYOO 142024Z AUTO 00000KT 9SM BKN020 OVC027 19/14 A3014 RMK SLP210 DENSITY ALT 700FT<br><br>
CYOO has no TAF <br><br>
<br><br>
CYTR 142200Z 16003KT 15SM OVC030 17/16 A3014 RMK SC8 SLP209<br><br>
CYTR 142100Z 24004KT 15SM BKN025 OVC035 17/16 A3015 RMK SC6SC2 SLP211<br><br>
TAF AMD CYTR 142208Z 1422/1518 VRB03KT P6SM SCT012 OVC030 TEMPO 1422/1502 4SM -RA BR OVC012 FM150200 12008KT P6SM -RA SCT008 OVC020 TEMPO 1502/1509 4SM -RA BR OVC008 FM150900 18012KT P6SM BKN030 BECMG 1513/1515 22020G30KT RMK NXT FCST BY 150000Z<br><br>
<br><br>
