RETRIEVED AT : Sep 08 2018 17:05 Local <br>
  RETRIEVED AT: Sep 08 2018 21:05 UTC<br><br>
CYSN 082000Z 05011G18KT 15SM FEW030 BKN250 15/08 A3024 RMK SC1CI6 SLP243<br><br>
TAF CYSN 081938Z 0820/0901 07012G22KT P6SM FEW025 BKN250 RMK NXT FCST WILL BE ISSUED AT 091245Z<br><br>
<br><br>
CYHM 082000Z 04015G22KT 15SM FEW030 BKN240 15/09 A3025 RMK SC1CI7 SC TR SLP247<br><br>
TAF CYHM 081738Z 0818/0918 04017G27KT P6SM FEW030 BKN200 TEMPO 0818/0824 BKN030 OVC200 FM090000 06012G22KT P6SM BKN200 BECMG 0912/0914 08015G25KT FM091600 08018G28KT P6SM FEW030 OVC180 RMK NXT FCST BY 090000Z<br><br>
<br><br>
KIAG 082053Z 05008KT 10SM CLR 16/07 A3024 RMK AO2 SLP242 T01560072 56005<br><br>
KIAG 081953Z 05010KT 10SM CLR 16/07 A3025 RMK AO2 SLP243 T01560067<br><br>
KIAG 081736Z 0818/0918 06014KT P6SM SCT035 OVC200 FM082100 06012KT P6SM OVC200 FM090000 07008KT P6SM BKN250 FM091400 09012G20KT P6SM OVC200<br><br>
<br><br>
KBUF 082054Z 04010KT 10SM FEW080 SCT220 BKN250 16/07 A3023 RMK AO2 SLP238 T01610072 56006<br><br>
KBUF 081954Z 03012KT 10SM FEW035 SCT200 BKN250 16/07 A3024 RMK AO2 SLP239 T01610067<br><br>
KBUF 081736Z 0818/0918 05014KT P6SM SCT035 OVC200 FM082100 06012KT P6SM OVC200 FM090000 06008KT P6SM BKN250 FM091500 08012G20KT P6SM OVC200<br><br>
<br><br>
CYYZ 082000Z 10004KT 030V120 15SM BKN180 BKN220 17/03 A3026 RMK AS7CI1 CI TR SLP249 DENSITY ALT 600FT<br><br>
TAF CYYZ 082038Z 0821/0924 07007KT P6SM FEW050 BKN180 BECMG 0901/0903 06010KT FM091000 04013KT P6SM SCT030 OVC180 BECMG 0913/0915 08015G25KT BKN030 OVC160 FM091900 08015G25KT P6SM SCT030 OVC150 BECMG 0922/0924 08015KT RMK NXT FCST BY 090000Z<br><br>
<br><br>
CYOO 082000Z AUTO 02008KT 9SM CLR 17/05 A3026 RMK SLP251<br><br>
CYOO has no TAF <br><br>
<br><br>
CYTR 082000Z 36007KT 15SM FEW150 BKN210 17/05 A3026 RMK AC2CS6 SLP248<br><br>
TAF CYTR 081730Z 0818/0918 03010G20KT P6SM FEW150 BKN210 BECMG 0823/0901 03005KT FM091200 05010KT P6SM FEW100 SCT250 BECMG 0913/0915 07012G22KT RMK NXT FCST BY 090000Z<br><br>
<br><br>
