RETRIEVED AT : Jul 03 2020 20:05 Local <br>
  RETRIEVED AT: Jul 04 2020 00:05 UTC<br><br>
CYSN 032300Z 33006KT 15SM FEW050 FEW130 SCT230 31/19 A2988 RMK CU1AC1CI2 SLP117 DENSITY ALT 2300FT<br><br>
TAF CYSN 031938Z 0320/0401 34010KT P6SM SCT050 RMK NXT FCST WILL BE ISSUED AT 041245Z<br><br>
<br><br>
CYHM 032300Z 32010G16KT 15SM FEW050TCU FEW240 30/19 A2993 RMK TCU1CI1 SLP131 DENSITY ALT 2700FT<br><br>
TAF CYHM 032338Z 0400/0424 32010KT P6SM FEW050 BECMG 0414/0416 04005KT BECMG 0420/0422 VRB03KT RMK NXT FCST BY 040600Z<br><br>
<br><br>
KIAG 032353Z 33005KT 10SM CLR 29/17 A2990 RMK AO2 SLP117 T02940172 10311 20283 55004<br><br>
KIAG 032253Z 33007KT 10SM FEW110 30/18 A2990 RMK AO2 SLP118 T03000183<br><br>
KIAG 032323Z 0400/0424 34006KT P6SM SCT100 FM040300 VRB04KT P6SM FEW100 FM041400 02006KT P6SM SCT250<br><br>
<br><br>
KBUF 032354Z 21009KT 10SM FEW055 FEW090 FEW290 28/19 A2992 RMK AO2 SLP125 MDT CU DSNT N T02830189 10322 20278 56002<br><br>
KBUF 032254Z 23009KT 10SM SCT055 SCT220 BKN290 28/19 A2992 RMK AO2 SLP125 T02830189<br><br>
KBUF 032323Z 0400/0424 23008KT P6SM SCT050 BKN250 FM040200 VRB04KT P6SM SCT250 FM041400 36006KT P6SM FEW050 SCT250<br><br>
<br><br>
CYYZ 032300Z 34014KT 15SM FEW050 30/20 A2991 RMK CU1 SLP127 DENSITY ALT 2500FT<br><br>
TAF CYYZ 032338Z 0400/0506 35012KT P6SM FEW050 FM041600 36007KT P6SM SKC RMK NXT FCST BY 040300Z<br><br>
<br><br>
CYOO 032300Z AUTO 33015KT 9SM CLR 30/20 A2988 RMK SLP118 DENSITY ALT 2300FT<br><br>
TAF CYOO 031938Z 0320/0408 34012KT P6SM SCT050 RMK FCST BASED ON AUTO OBS. NXT FCST BY 040200Z<br><br>
<br><br>
CYTR 032300Z 18003KT 15SM FEW110 BKN250 27/21 A2988 RMK AC2CI4 SLP118<br><br>
TAF CYTR 032330Z 0400/0424 VRB03KT P6SM FEW030 SCT100 TEMPO 0400/0402 P6SM -SHRA BKN030 OVC100 FM040200 VRB03KT P6SM BKN060 FM040700 01005KT P6SM FEW060 BECMG 0417/0419 20008KT RMK FCST BASED ON AUTO OBS 040200-041000Z. NXT FCST BY 040600Z<br><br>
<br><br>
