RETRIEVED AT : Mar 30 2020 05:05 Local <br>
  RETRIEVED AT: Mar 30 2020 09:05 UTC<br><br>
CYSN has no TAF <br><br>
<br><br>
CYHM 300800Z 24011G19KT 15SM -RA FEW032 OVC046 07/04 A2971 RMK SC1SC7 SLP065<br><br>
TAF CYHM 300542Z 3006/3106 23012G22KT P6SM FEW020 BKN040 TEMPO 3006/3009 P6SM -SHRA BKN020 OVC030 FM300900 23012G22KT P6SM -SHRA OVC015 TEMPO 3009/3012 P6SM NSW SCT015 OVC025 BECMG 3014/3016 26012G22KT FM302200 27010G20KT P6SM BKN015 OVC030 BECMG 3100/3102 27008KT FM310500 01008KT P6SM BKN007 OVC012 RMK NXT FCST BY 301200Z<br><br>
<br><br>
KIAG 300853Z AUTO 23017G23KT 10SM FEW080 OVC110 07/03 A2974 RMK AO2 SLP076 60000 T00720033 55006<br><br>
KIAG 300753Z AUTO 21011KT 10SM FEW065 OVC095 07/04 A2974 RMK AO2 RAE09 SLP075 P0000 T00670039<br><br>
KIAG 300901Z 3009/3106 23017G25KT P6SM SCT080 OVC110 FM301200 23013G23KT P6SM OVC030 TEMPO 3013/3015 4SM -SHRA OVC015 FM301500 23013G23KT 6SM -SHRA BR OVC015 FM302200 24010G18KT 6SM -SHRA OVC012 FM310100 26009KT P6SM OVC015 FM310300 25008KT P6SM OVC007<br><br>
<br><br>
KBUF 300854Z 22020G27KT 10SM FEW055 BKN090 OVC110 08/04 A2976 RMK AO2 PK WND 21031/0818 RAE01B20E40 SLP080 P0000 60000 T00780044 55006<br><br>
KBUF 300754Z 23019G28KT 10SM -RA OVC049 08/04 A2976 RMK AO2 PK WND 22028/0752 RAB36 SLP078 P0000 T00830044<br><br>
KBUF 300901Z 3009/3106 22020G30KT P6SM BKN090 OVC110 FM301200 24014G25KT P6SM OVC030 TEMPO 3013/3015 4SM -SHRA OVC015 FM301500 24015G27KT 6SM -SHRA BR OVC012 FM301800 24015G26KT 6SM -SHRA OVC007 FM302300 24011G17KT 6SM -SHRA OVC012 FM310200 25009KT P6SM OVC007<br><br>
<br><br>
CYYZ 300800Z 22006KT 190V250 15SM FEW025 SCT035 BKN065 08/03 A2970 RMK CF1SC2SC4 SLP061<br><br>
TAF CYYZ 300838Z 3009/3112 24010G20KT P6SM -RA SCT020 BKN030 OVC070 TEMPO 3009/3012 BKN015 OVC030 FM301200 25012G22KT P6SM -SHRA OVC015 TEMPO 3012/3021 P6SM NSW SCT015 OVC025 BECMG 3016/3018 26010G20KT FM302100 29010G20KT P6SM -SHRA OVC015 FM310300 36010KT P6SM BKN009 OVC012 RMK NXT FCST BY 301200Z<br><br>
<br><br>
CYOO 300831Z AUTO 24003KT 9SM BKN031 BKN040 OVC075 07/06 A2970 RMK SLP061<br><br>
CYOO 300800Z AUTO 21004KT 9SM -RA BKN030 OVC041 06/06 A2970 RMK SLP061<br><br>
TAF CYOO 300738Z 3008/3020 21010KT P6SM FEW020 BKN030 TEMPO 3008/3012 P6SM -SHRA BKN015 OVC030 FM301200 24010G20KT P6SM -SHRA OVC015 TEMPO 3012/3020 P6SM NSW SCT015 OVC025 RMK FCST BASED ON AUTO OBS. NXT FCST BY 301400Z<br><br>
<br><br>
CYTR 300800Z 21004KT 15SM FEW035 OVC095 07/04 A2972 RMK SC2AC6 SLP067<br><br>
TAF CYTR 300530Z 3006/3106 22008G18KT P6SM FEW050 OVC080 TEMPO 3006/3013 5SM -SHRA BR BKN030 OVC050 FM301300 23010G20KT P6SM -SHRA BKN010 OVC025 TEMPO 3013/3018 P6SM NSW SCT010 OVC025 FM301800 24012G22KT 4SM -SHRA BR OVC010 BECMG 3021/3023 24008KT FM310100 VRB03KT P6SM -SHRA BKN006 OVC010 RMK NXT FCST BY 301200Z<br><br>
<br><br>
