RETRIEVED AT : Feb 24 2020 07:05 Local <br>
  RETRIEVED AT: Feb 24 2020 12:05 UTC<br><br>
CYSN has no TAF <br><br>
<br><br>
CYHM 241100Z 21007KT 15SM FEW250 00/M02 A2988 RMK CI1 SLP128<br><br>
TAF CYHM 241138Z 2412/2512 21008KT P6SM FEW250 FM242300 VRB03KT P6SM SCT030 OVC130 FM250900 04008KT P6SM BKN030 OVC080 RMK NXT FCST BY 241800Z<br><br>
<br><br>
KIAG 241153Z 21009KT 10SM CLR 03/M03 A2990 RMK AO2 SLP135 T00281028 10056 20028 51006<br><br>
KIAG 241053Z AUTO 23010KT 10SM CLR 03/M03 A2989 RMK AO2 SLP133 T00281028<br><br>
KIAG 241136Z 2412/2512 23010KT P6SM FEW250 FM241400 23010G16KT P6SM SCT250 FM242000 29004KT P6SM BKN200 FM250800 04007KT P6SM OVC025 FM251100 05008KT 2SM -RA BR OVC012<br><br>
<br><br>
KBUF 241154Z 20009KT 10SM FEW260 03/M04 A2991 RMK AO2 SLP133 T00331039 10072 20028 51005<br><br>
KBUF 241054Z 19009KT 10SM FEW260 03/M04 A2991 RMK AO2 SLP133 T00331044<br><br>
KBUF 241136Z 2412/2512 19010KT P6SM FEW250 FM241400 23011G21KT P6SM SCT250 FM250200 05004KT P6SM OVC045 FM250800 06007KT P6SM OVC025 FM251000 05007KT 6SM -RA OVC015<br><br>
<br><br>
CYYZ 241100Z 20008KT 15SM FEW250 00/M02 A2986 RMK CI1 CI TR SLP120<br><br>
TAF CYYZ 241138Z 2412/2518 21008KT P6SM FEW250 FM241800 26008KT P6SM FEW030 BECMG 2421/2423 VRB03KT FM250000 02007KT P6SM FEW030 BKN150 FM251000 03010KT P6SM BKN030 OVC090 FM251500 06012KT P6SM SCT020 BKN090 RMK NXT FCST BY 241500Z<br><br>
<br><br>
CYOO 241100Z AUTO 35002KT 9SM CLR M04/M04 A2987 RMK SLP121<br><br>
TAF CYOO 240738Z 2408/2420 22005KT P6SM SKC BECMG 2414/2416 24008KT RMK FCST BASED ON AUTO OBS. NXT FCST BY 241400Z<br><br>
<br><br>
CYTR 241100Z 23006KT 15SM FEW250 03/M00 A2988 RMK CI1 SLP121<br><br>
TAF CYTR 241130Z 2412/2512 23008KT P6SM FEW250 BECMG 2415/2417 24010G20KT FM241800 24010KT P6SM FEW030 BKN210 BECMG 2500/2502 VRB03KT FM250600 25005KT P6SM SCT010 BKN100 RMK NXT FCST BY 241800Z<br><br>
<br><br>
