RETRIEVED AT : May 12 2018 20:05 Local <br>
  RETRIEVED AT: May 13 2018 00:05 UTC<br><br>
CYSN 122300Z 36005KT 15SM BKN250 13/01 A3008 RMK CI7 SLP188<br><br>
TAF CYSN 121938Z 1220/1301 03008KT P6SM BKN230 BECMG 1221/1223 VRB03KT FEW230 RMK NXT FCST WILL BE ISSUED AT 131245Z<br><br>
<br><br>
CYHM 122300Z 05007KT 15SM FEW150 BKN250 13/M01 A3009 RMK AC1CI7 AC TR SLP197<br><br>
TAF CYHM 122339Z 1300/1324 05005KT P6SM BKN240 FM130600 04005KT P6SM BKN140 FM131000 04006KT 6SM BR SCT006 BKN010 FM131300 04006KT P6SM BKN200 BECMG 1314/1316 04010KT BECMG 1316/1318 SCT200 FM132100 05007KT P6SM SCT200 RMK NXT FCST BY 130600Z<br><br>
<br><br>
KIAG 122353Z 04004KT 10SM CLR 14/01 A3008 RMK AO2 SLP191 T01390011 10172 20133 55003<br><br>
KIAG 122253Z 04012KT 10SM CLR 16/00 A3007 RMK AO2 SLP187 T01610000<br><br>
KIAG 122337Z 1300/1324 04010KT P6SM FEW200 FM130300 VRB03KT P6SM FEW200 FM131400 10009KT P6SM SCT130 FM131900 VRB03KT P6SM BKN060 FM132000 00000KT P6SM BKN035<br><br>
<br><br>
KBUF 122354Z 02005KT 10SM FEW060 SCT140 BKN200 16/04 A3008 RMK AO2 SLP189 T01560039 10172 20144 55002<br><br>
KBUF 122254Z 02009KT 10SM FEW060 SCT200 17/06 A3007 RMK AO2 SLP185 T01720056<br><br>
KBUF 122337Z 1300/1324 03008KT P6SM SCT200 FM130600 11004KT P6SM BKN140 FM131500 11009KT P6SM SCT110 FM131800 16005KT P6SM BKN035 FM132000 20005KT P6SM BKN035<br><br>
<br><br>
CYYZ 122300Z 16006KT 15SM BKN270 13/M03 A3009 RMK CI7 SLP193<br><br>
TAF CYYZ 122339Z 1300/1406 15005KT P6SM BKN260 BECMG 1302/1304 VRB03KT FM130600 VRB03KT P6SM BKN140 BECMG 1315/1317 10008KT SCT200 FM132300 18007KT P6SM SCT200 BECMG 1323/1401 VRB03KT RMK NXT FCST BY 130300Z<br><br>
<br><br>
CYOO 122300Z AUTO 17004KT 9SM CLR 12/M04 A3009 RMK SLP195<br><br>
CYOO has no TAF <br><br>
<br><br>
CYTR 122300Z 21005KT 15SM BKN240 13/M01 A3007 RMK CI5 SLP185<br><br>
TAF CYTR 122330Z 1300/1324 21008KT P6SM SCT240 BECMG 1300/1302 VRB03KT BECMG 1313/1315 14008KT RMK NXT FCST BY 130600Z<br><br>
<br><br>
