RETRIEVED AT : May 11 2018 20:05 Local <br>
  RETRIEVED AT: May 12 2018 00:05 UTC<br><br>
CYSN 112300Z 03005KT 15SM OVC120 10/M02 A3013 RMK AC8 SLP207<br><br>
TAF CYSN 111938Z 1120/1201 VRB03KT P6SM BKN150 OVC220 FM112300 04005KT P6SM OVC120 TEMPO 1123/1201 P6SM -SHRA RMK NXT FCST WILL BE ISSUED AT 121245Z<br><br>
<br><br>
CYHM 112336Z VRB02KT 15SM -RA FEW070 OVC110 09/M01 A3015 RMK AC2AC6 SLP217<br><br>
CYHM 112300Z 08007KT 15SM OVC098 10/M01 A3012 RMK AC8 SLP205<br><br>
TAF CYHM 112341Z 1200/1224 06010KT P6SM -RA OVC100 FM120500 06008KT P6SM -RA FEW030 OVC050 TEMPO 1205/1211 5SM RA OVC030 FM121100 04012KT P6SM OVC025 FM121700 05015KT P6SM FEW030 BKN250 RMK NXT FCST BY 120600Z<br><br>
<br><br>
KIAG 112353Z 01005KT 10SM BKN110 11/M04 A3015 RMK AO2 SLP216 T01111039 10133 20111 53000<br><br>
KIAG 112253Z 00000KT 10SM CLR 12/M02 A3014 RMK AO2 SLP212 T01221022<br><br>
KIAG 112342Z 1200/1224 00000KT P6SM OVC080 TEMPO 1200/1201 4SM -SHRA OVC040 FM120800 08005KT 6SM -SHRA OVC045 FM121000 08006KT 6SM -SHRA OVC030 FM121400 05007KT P6SM OVC020 FM121700 04008KT P6SM BKN040 FM122100 06006KT P6SM BKN250<br><br>
<br><br>
KBUF 112354Z 02006KT 10SM FEW080 BKN110 OVC150 13/M01 A3014 RMK AO2 SLP209 VIRGA VC N T01281011 10150 20128 53001<br><br>
KBUF 112254Z 03006KT 10SM FEW085 BKN130 OVC170 13/M01 A3013 RMK AO2 SLP206 T01331006<br><br>
KBUF 112342Z 1200/1224 05006KT 6SM -SHRA OVC080 FM120100 08005KT P6SM OVC080 FM120500 10004KT 6SM -SHRA OVC060 FM120900 10006KT 6SM -SHRA OVC025 FM121500 05008KT P6SM OVC012 FM122000 05005KT P6SM BKN050 FM122200 05005KT P6SM BKN250<br><br>
<br><br>
CYYZ 112300Z 14008KT 15SM OVC130 09/M03 A3013 RMK AC8 SLP209<br><br>
TAF CYYZ 112341Z 1200/1306 14007KT P6SM OVC130 FM120400 09005KT P6SM OVC080 FM120700 02005KT P6SM OVC040 TEMPO 1207/1211 P6SM -SHRA FM121100 04008KT P6SM FEW015 OVC030 TEMPO 1211/1214 P6SM -SHRA BKN015 OVC030 FM121400 06010KT P6SM BKN030 FM121700 09008KT P6SM FEW015 SCT050 BECMG 1218/1220 13008KT FM130100 VRB03KT P6SM FEW240 RMK NXT FCST BY 120300Z<br><br>
<br><br>
CYOO 112300Z AUTO 21005KT 9SM SCT180 09/M04 A3014 RMK SLP212<br><br>
CYOO has no TAF <br><br>
<br><br>
CYTR 112300Z 22008KT 15SM SCT160 OVC220 09/M02 A3013 RMK AC3CS5 HALO SLP207<br><br>
TAF CYTR 112330Z 1200/1224 22008KT P6SM FEW160 OVC220 BECMG 1200/1202 VRB03KT FM120900 VRB03KT P6SM BKN100 BECMG 1214/1216 09008KT SCT180 RMK NXT FCST BY 120600Z<br><br>
<br><br>
