RETRIEVED AT : Mar 21 2020 17:05 Local <br>
  RETRIEVED AT: Mar 21 2020 21:05 UTC<br><br>
CYSN 212000Z 02004KT 350V080 15SM FEW210 M02/M11 A3054 RMK CI1 SLP349<br><br>
TAF CYSN 211939Z 2120/2201 01006KT P6SM SKC RMK NXT FCST WILL BE ISSUED AT 221245Z<br><br>
<br><br>
CYHM 212000Z 04007KT 15SM FEW240 M00/M13 A3051 RMK CI1 CI TR SLP344<br><br>
TAF CYHM 211741Z 2118/2218 05008KT P6SM SKC BECMG 2210/2212 06012KT BECMG 2214/2216 09010G20KT RMK NXT FCST BY 220000Z<br><br>
<br><br>
KIAG 212053Z 34006KT 10SM CLR M02/M12 A3051 RMK AO2 SLP349 T10171122 56007<br><br>
KIAG 211953Z 33009KT 10SM CLR M02/M11 A3051 RMK AO2 SLP351 T10171106<br><br>
KIAG 211720Z 2118/2218 10008KT P6SM SCT025 FM211900 36007KT P6SM SKC FM220000 03003KT P6SM SCT200 FM221000 08006KT P6SM SKC<br><br>
<br><br>
KBUF 212054Z 35007KT 330V030 10SM FEW038 FEW200 01/M09 A3049 RMK AO2 SLP334 T00061089 55006<br><br>
KBUF 211954Z 01008KT 10SM FEW038 FEW200 01/M08 A3049 RMK AO2 SLP334 T00111083<br><br>
KBUF 211720Z 2118/2218 01007KT P6SM SKC FM220000 05003KT P6SM SCT200 FM221000 08006KT P6SM SKC<br><br>
<br><br>
CYYZ 212000Z 35005KT 280V060 15SM FEW200 01/M17 A3052 RMK CI2 SLP346<br><br>
TAF CYYZ 212038Z 2121/2224 04008G18KT P6SM SKC FM220000 01010KT P6SM SCT170 BECMG 2211/2213 06010KT SKC FM221400 08012KT P6SM SCT020 BECMG 2215/2217 09015G25KT RMK NXT FCST BY 220000Z<br><br>
<br><br>
CYOO 212000Z AUTO VRB06KT 9SM SCT190 00/M15 A3052 RMK SLP343<br><br>
TAF CYOO 211939Z 2120/2208 35008KT P6SM SKC FM220000 36008KT P6SM SCT170 BECMG 2205/2207 04008KT RMK FCST BASED ON AUTO OBS. NXT FCST BY 220200Z<br><br>
<br><br>
CYTR 212000Z 34007KT 15SM BKN220 00/M13 A3051 RMK CI5 SLP339<br><br>
TAF CYTR 211730Z 2118/2218 01008KT P6SM FEW200 BECMG 2203/2205 03005KT FM221300 07010KT P6SM SKC RMK NXT FCST BY 220000Z<br><br>
<br><br>
