RETRIEVED AT : Oct 21 2017 14:10 Local <br>
  RETRIEVED AT: Oct 21 2017 18:10 UTC<br><br>
CYSN 211800Z 21010KT 15SM BKN250 23/10 A3023 RMK CI7 SLP239 DENSITY ALT 1000FT<br><br>
CYSN 211700Z 20010KT 15SM OVC250 22/10 A3024 RMK CI8 SLP241 DENSITY ALT 900FT<br><br>
TAF CYSN 211238Z 2113/2201 20010KT P6SM BKN240 BECMG 2123/2124 18007KT RMK NXT FCST BY 212000Z<br><br>
<br><br>
CYHM 211800Z 21012KT 15SM FEW140 SCT160 BKN220 21/10 A3024 RMK AC1AS2CI4 SLP242 DENSITY ALT 1400FT<br><br>
CYHM 211700Z 20008KT 170V230 15SM BKN250 21/13 A3025 RMK CS7 SLP247 DENSITY ALT 1300FT<br><br>
TAF CYHM 211738Z 2118/2218 20010KT P6SM BKN240 FM220000 16006KT P6SM BKN220 FM220800 20007KT P6SM SCT220 PROB30 2208/2214 3/4SM BR FM221400 20012G22KT P6SM SCT240 RMK NXT FCST BY 220000Z<br><br>
<br><br>
KIAG 211753Z 21010KT 10SM CLR 23/07 A3024 RMK AO2 SLP243 T02330072 10233 20083 58011<br><br>
KIAG 211653Z 20009KT 10SM CLR 23/08 A3026 RMK AO2 SLP247 T02280083<br><br>
KIAG 211724Z 2118/2218 20008KT P6SM BKN220 FM212100 19004KT P6SM BKN220 FM220800 18008KT P6SM BKN220<br><br>
<br><br>
KBUF 211754Z 22008KT 10SM FEW150 BKN200 OVC250 22/06 A3026 RMK AO2 SLP246 T02220056 10228 20089 58011<br><br>
KBUF 211654Z 22009KT 10SM FEW150 BKN200 OVC250 22/06 A3027 RMK AO2 SLP250 T02220056<br><br>
KBUF 211724Z 2118/2218 22008KT P6SM BKN220 FM212100 21004KT P6SM BKN220 FM220000 17004KT P6SM BKN220 FM221500 19008KT P6SM BKN220<br><br>
<br><br>
CYYZ 211800Z 15008KT 15SM FEW180 BKN220 BKN250 20/12 A3022 RMK AC2CC3CI2 SLP237 DENSITY ALT 1000FT<br><br>
CYYZ 211700Z 15005KT 110V170 15SM FEW180 OVC250 19/13 A3024 RMK AS2CS6 HALO SLP241 DENSITY ALT 800FT<br><br>
TAF CYYZ 211738Z 2118/2224 16012KT P6SM BKN240 BECMG 2123/2201 16005KT BECMG 2205/2207 SCT250 FM221500 18012G22KT P6SM SCT240 RMK NXT FCST BY 212100Z<br><br>
<br><br>
CYOO 211800Z AUTO 20005KT 9SM CLR 18/10 A3024 RMK SLP243 DENSITY ALT 500FT<br><br>
CYOO 211700Z AUTO 19006KT 9SM CLR 17/10 A3025 RMK SLP248<br><br>
CYOO has no TAF <br><br>
<br><br>
CYTR 211800Z 19009KT 15SM FEW095 OVC250 18/13 A3024 RMK AC2CS6 HALO SLP243<br><br>
CYTR 211700Z 21008KT 15SM FEW095 OVC250 17/12 A3025 RMK AC2CS6 HALO SLP247<br><br>
TAF CYTR 211730Z 2118/2218 21010KT P6SM BKN250 BECMG 2122/2124 VRB03KT BECMG 2215/2217 20008KT RMK NXT FCST BY 220000Z<br><br>
<br><br>
