RETRIEVED AT : Apr 05 2020 04:05 Local <br>
  RETRIEVED AT: Apr 05 2020 08:05 UTC<br><br>
CYSN has no TAF <br><br>
<br><br>
CYHM 050700Z 23006KT 15SM OVC042 08/05 A2999 RMK SC8 SLP160<br><br>
TAF CYHM 050539Z 0506/0606 23007KT P6SM -SHRA SCT030 OVC050 FM050700 29007KT P6SM SCT008 OVC040 TEMPO 0507/0510 5SM BR BKN008 OVC040 FM051000 29008KT P6SM BKN010 OVC030 TEMPO 0510/0514 SCT010 OVC030 FM051400 33010KT P6SM SCT015 BKN140 FM051800 36005KT P6SM FEW025 SCT120 BECMG 0519/0521 06008KT FM060400 02005KT P6SM SKC RMK NXT FCST BY 051200Z<br><br>
<br><br>
KIAG 050753Z AUTO 21003KT 10SM OVC050 06/04 A2999 RMK AO2 SLP162 T00610044<br><br>
KIAG 050653Z AUTO 19004KT 10SM OVC055 06/04 A2999 RMK AO2 RAB12E53 SLP165 P0001 T00610039<br><br>
KIAG 050540Z 0506/0606 20003KT P6SM VCSH OVC060 FM051300 32008KT P6SM OVC025 FM052100 31008KT P6SM BKN150 FM060000 33004KT P6SM SCT250<br><br>
<br><br>
KBUF 050754Z 17003KT 10SM OVC050 07/05 A2999 RMK AO2 RAE15 SLP158 P0001 T00720050<br><br>
KBUF 050654Z 20005KT 10SM -RA OVC060 07/05 A3000 RMK AO2 SLP163 RAB30 P0001 T00720050<br><br>
KBUF 050540Z 0506/0606 22003KT P6SM VCSH OVC080 FM051400 32006KT P6SM OVC020 FM052000 30008KT P6SM SCT020 BKN150 FM060000 28005KT P6SM SCT250<br><br>
<br><br>
CYYZ 050700Z 08007KT 15SM OVC060 07/06 A2998 RMK SC8 SLP158<br><br>
TAF CYYZ 050539Z 0506/0612 16008KT P6SM -SHRA SCT030 OVC060 FM050700 VRB03KT P6SM SCT006 OVC025 TEMPO 0507/0509 4SM BR BKN006 OVC025 FM050900 35008KT P6SM SCT008 BKN012 OVC040 TEMPO 0509/0515 SCT012 OVC040 PROB30 0509/0513 OVC008 FM051500 34015KT P6SM SCT015 BKN180 FM052100 36008KT P6SM SKC BECMG 0609/0611 33008KT RMK NXT FCST BY 050900Z<br><br>
<br><br>
CYOO 050758Z AUTO 35002KT 7SM BKN033 OVC055 06/06 A2999 RMK SLP159<br><br>
CYOO 050742Z AUTO 35002KT 6SM -RA BR SCT035 OVC055 06/06 A2999 RMK SLP160<br><br>
CYOO 050702Z AUTO 01002KT 6SM BR BKN035 OVC060 06/06 A2999 RMK SLP160<br><br>
CYOO 050700Z AUTO 01002KT 5SM BR BKN035 OVC060 06/06 A2999 RMK SLP161<br><br>
CYOO 050642Z AUTO 02004KT 5SM BR BKN037 OVC060 06/06 A2999 RMK SLP160<br><br>
CYOO 050628Z AUTO 02002KT 6SM BR SCT041 OVC065 06/06 A2999 RMK SLP161<br><br>
TAF CYOO 050738Z 0508/0520 VRB03KT P6SM SCT008 OVC025 TEMPO 0508/0511 4SM -RA -DZ BR BKN008 OVC025 PROB40 0508/0511 3SM -DZ BR OVC006 FM051100 32010KT P6SM OVC007 TEMPO 0511/0515 BKN012 OVC030 FM051500 32015KT P6SM SCT015 BKN180 TEMPO 0515/0517 BKN015 RMK FCST BASED ON AUTO OBS. NXT FCST BY 051400Z<br><br>
<br><br>
CYTR 050739Z 23003KT 10SM -SHRA OVC026 05/05 A3001 RMK SC8 SLP165<br><br>
CYTR 050715Z 25002KT 15SM FEW003 OVC026 05/05 A3001 RMK SC2SC6 SLP164<br><br>
CYTR 050700Z 25003KT 7SM BKN003 BKN026 05/05 A3001 RMK SC5SC2 SLP164<br><br>
CYTR 050625Z 22004KT 2 1/2SM BR BKN003 05/05 A3001 RMK SC6 VIS VRB 1-4 SLP164<br><br>
TAF CYTR 050530Z 0506/0606 21005KT 1/8SM FG VV001 BECMG 0506/0507 P6SM -SHRA SCT015 OVC040 FM050700 VRB03KT P6SM -SHRA SCT015 OVC040 TEMPO 0507/0509 3SM -SHRA BR BKN015 OVC040 PROB40 0507/0509 1/2SM -SHRA FG VV001 FM050900 VRB03KT 6SM -DZ BR OVC008 TEMPO 0509/0513 2SM -DZ BR PROB30 0509/0513 1SM -DZ BR OVC002 FM051300 31005KT P6SM OVC015 FM051700 32010KT P6SM BKN025 FM060000 31008KT P6SM SKC RMK NXT FCST BY 051200Z<br><br>
<br><br>
