RETRIEVED AT : Nov 04 2018 01:05 Local <br>
  RETRIEVED AT: Nov 04 2018 06:05 UTC<br><br>
CYSN has no TAF <br><br>
<br><br>
CYHM 040500Z 18003KT 15SM OVC035 01/00 A3035 RMK SC8 SLP288<br><br>
TAF CYHM 040540Z 0406/0506 VRB03KT P6SM FEW030 TEMPO 0406/0408 BKN030 FM041400 07007KT P6SM FEW030 BKN140 BECMG 0415/0417 09010G20KT FM050200 12012KT P6SM BKN180 RMK NXT FCST BY 041200Z<br><br>
<br><br>
KIAG 040553Z 24004KT 10SM BKN044 01/M02 A3038 RMK AO2 SLP299 T00111017 10050 20000 51027<br><br>
KIAG 040453Z 26005KT 10SM CLR 01/M02 A3035 RMK AO2 SLP290 T00111017 400610011<br><br>
KIAG 040520Z 0406/0506 25005KT P6SM SCT040 FM040900 VRB03KT P6SM SCT040 BKN250 FM041400 10005KT P6SM BKN100 FM041800 10010KT P6SM BKN100 FM050400 13007KT P6SM SCT050 BKN100<br><br>
<br><br>
KBUF 040554Z 26004KT 10SM FEW043 FEW090 03/M01 A3038 RMK AO2 SLP294 T00281006 10050 20028 51026 $<br><br>
KBUF 040454Z 26004KT 10SM BKN043 04/M01 A3035 RMK AO2 SLP284 T00391006 400610028 $<br><br>
KBUF 040520Z 0406/0506 25004KT P6SM BKN040 FM040900 VRB04KT P6SM SCT040 BKN250 FM041400 10006KT P6SM BKN100 FM050300 13008KT P6SM SCT050 BKN100<br><br>
<br><br>
CYYZ 040500Z 24006KT 15SM FEW040 01/M02 A3034 RMK SC1 SC TR SLP281<br><br>
TAF CYYZ 040540Z 0406/0512 24005KT P6SM FEW040 FM041100 VRB03KT P6SM SCT200 FM041500 07005KT P6SM FEW030 BKN180 FM041800 11012KT P6SM SCT030 BKN150 FM042300 09010G20KT P6SM BKN100 FM050300 11015KT P6SM BKN180 FM050800 14015KT 5SM -RA BR OVC020 FM051100 15015KT 2SM -RA BR OVC007 RMK NXT FCST BY 040900Z<br><br>
<br><br>
CYOO 040500Z AUTO 24003KT 9SM CLR 00/M01 A3033 RMK SLP277<br><br>
CYOO has no TAF <br><br>
<br><br>
CYTR 040500Z 23006KT 15SM BKN035 04/01 A3033 RMK SC7 SLP275<br><br>
TAF CYTR 040530Z 0406/0506 25005KT P6SM SCT030 TEMPO 0406/0408 BKN030 FM041000 VRB03KT P6SM SCT020 FM041700 10008KT P6SM FEW020 SCT100 SCT250 FM050000 07008KT P6SM FEW020 SCT080 BKN200 BECMG 0504/0506 12010KT RMK NXT FCST BY 041200Z<br><br>
<br><br>
