RETRIEVED AT : Oct 09 2017 07:10 Local <br>
  RETRIEVED AT: Oct 09 2017 11:10 UTC<br><br>
CYSN 091100Z 02009KT 4SM -RA BR OVC005 16/15 A2978 RMK SF8 SLP085 DENSITY ALT 700FT<br><br>
CYSN has no TAF <br><br>
<br><br>
CYHM 091100Z 04013KT 2 1/2SM RA BR OVC003 14/14 A2978 RMK FG1SF7 SLP087 DENSITY ALT 1100FT<br><br>
CYHM 091050Z 05010KT 2 1/2SM RA BR BKN003 BKN018 14/14 A2978 RMK SF5SC2 SLP087 DENSITY ALT 1100FT<br><br>
CYHM 091000Z 03012KT 2 1/2SM RA BR FEW004 SCT017 BKN033 OVC068 14/13 A2978 RMK CF2SC1SC3AC2 SLP086 DENSITY ALT 1000FT<br><br>
CYHM 090948Z 04011KT 2 1/2SM RA BR FEW003 SCT017 OVC034 13/13 A2979 RMK CF1SC2SC5 SLP089 DENSITY ALT 1000FT<br><br>
TAF CYHM 090538Z 0906/1006 06006KT P6SM -RA OVC050 TEMPO 0906/0908 4SM -SHRA BR OVC012 FM090800 05010KT 6SM -RA BR OVC010 TEMPO 0908/0914 2SM RA BR BKN005 OVC008 FM091400 03012KT P6SM OVC010 TEMPO 0914/0917 5SM -DZ BR OVC006 FM091700 02010KT P6SM OVC012 TEMPO 0917/0921 OVC008 FM092100 29006KT P6SM BKN020 FM092300 24006KT P6SM FEW030 RMK NXT FCST BY 091200Z<br><br>
<br><br>
KIAG 091053Z 04009KT 3SM +RA BR BKN007 BKN011 OVC017 16/14 A2977 RMK AO2 SLP081 P0033 T01610139<br><br>
KIAG 091046Z AUTO VRB05KT 2 1/2SM +RA BR BKN009 OVC017 16/14 A2977 RMK AO2 CIG 005V011 P0030 T01610139<br><br>
KIAG 091040Z AUTO 03012KT 3SM RA BR FEW007 BKN011 OVC023 16/14 A2978 RMK AO2 P0028 T01610139<br><br>
KIAG 091033Z AUTO 02009KT 3SM RA BR BKN008 BKN011 OVC021 16/14 A2978 RMK AO2 P0026 T01610139<br><br>
KIAG 091025Z AUTO 01008KT 2SM R28R/5000VP6000FT RA BR BKN008 OVC023 16/14 A2978 RMK AO2 P0023 T01610139<br><br>
KIAG 091017Z AUTO 03013KT 1 1/4SM R28R/4500VP6000FT +RA BR OVC006 16/14 A2977 RMK AO2 P0020 T01610139<br><br>
KIAG 091013Z AUTO 03009KT 2 1/2SM +RA BR OVC006 16/14 A2977 RMK AO2 P0011 T01610139<br><br>
KIAG 091002Z AUTO 03008KT 5SM RA BR OVC005 16/14 A2978 RMK AO2 P0002 T01610139<br><br>
KIAG 090953Z AUTO 04007KT 4SM RA BR OVC004 16/14 A2978 RMK AO2 SLP084 P0012 T01610139<br><br>
KIAG 090937Z AUTO 05008KT 5SM RA BR BKN004 BKN025 OVC032 16/14 A2979 RMK AO2 P0005 T01610139<br><br>
KIAG 090933Z AUTO 05008KT 5SM -RA BR SCT006 BKN025 OVC032 16/14 A2979 RMK AO2 P0004 T01610139<br><br>
KIAG 090910Z 0909/1006 06011KT P6SM -RA OVC015 FM091200 05014KT 3SM RA BR OVC012 FM091600 03015KT P6SM OVC007 FM092000 32007KT P6SM BKN007 FM100000 24005KT P6SM BKN020 FM100500 24006KT P6SM FEW130<br><br>
<br><br>
KBUF 091058Z 02005KT 7SM -RA BKN006 BKN024 OVC038 17/16 A2975 RMK AO2 P0000 T01670156<br><br>
KBUF 091054Z 03006KT 9SM -RA SCT006 SCT024 OVC038 17/15 A2975 RMK AO2 SLP073 P0009 T01670150<br><br>
KBUF 091041Z 05009KT 3SM +RA BKN006 BKN035 OVC049 17/14 A2976 RMK AO2 P0004 T01670139<br><br>
KBUF 090954Z 07011KT 9SM -RA SCT007 BKN055 OVC090 17/16 A2976 RMK AO2 SLP077 P0003 T01670156<br><br>
KBUF 090910Z 0909/1006 06011KT P6SM -RA FEW005 BKN030 FM091200 07010KT 3SM RA OVC012 FM091500 02017KT 4SM RA OVC007 FM091900 36006KT P6SM BKN007 FM092300 28006KT P6SM BKN012 FM100500 24007KT P6SM BKN040<br><br>
<br><br>
CYYZ 091100Z 06006KT 6SM -RA BR SCT007 OVC030 15/15 A2980 RMK SF3NS5 SLP092 DENSITY ALT 900FT<br><br>
CYYZ 091043Z 05006KT 6SM -RA BR SCT007 OVC028 16/15 A2981 RMK SF3NS5 SLP095 DENSITY ALT 900FT<br><br>
CYYZ 091000Z 06004KT 6SM -RA BR SCT003 BKN007 15/15 A2982 RMK SF3NS4 CIG RAG SLP098 DENSITY ALT 900FT<br><br>
TAF CYYZ 090838Z 0909/1012 07006KT 6SM -RA BR BKN012 OVC025 TEMPO 0909/0914 2SM RA BR OVC005 PROB30 0909/0913 1SM RA BR OVC003 FM091400 04010KT P6SM -RA OVC012 TEMPO 0914/0916 5SM -RA BR BKN008 OVC015 FM091700 01010KT P6SM OVC015 FM092000 33010KT P6SM BKN030 TEMPO 0920/0922 BKN020 FM100100 28006KT P6SM FEW030 PROB30 1008/1012 1SM BR RMK NXT FCST BY 091200Z<br><br>
<br><br>
CYOO 091105Z AUTO VRB02KT 9SM -RA FEW005 OVC033 16/15 A2982 RMK SLP099 DENSITY ALT 700FT<br><br>
CYOO 091100Z AUTO 08002KT 9SM FEW005 OVC033 16/15 A2982 RMK SLP099 DENSITY ALT 700FT<br><br>
CYOO 091008Z AUTO 05004KT 030V100 6SM RA BR SCT007 SCT015 BKN035 OVC042 16/14 A2983 RMK SLP103 DENSITY ALT 700FT<br><br>
CYOO 091006Z AUTO 05003KT 030V100 6SM -RA BR SCT007 BKN015 BKN035 OVC042 16/14 A2983 RMK SLP103 DENSITY ALT 700FT<br><br>
CYOO 091003Z AUTO 07003KT 050V120 5SM -RA BR BKN007 BKN015 OVC035 16/14 A2983 RMK SLP104 DENSITY ALT 700FT<br><br>
CYOO 091000Z AUTO 08003KT 5SM -RA BR SCT007 BKN015 OVC035 16/14 A2984 RMK SLP105 DENSITY ALT 700FT<br><br>
CYOO 090959Z AUTO 08003KT 5SM -RA BR SCT007 BKN015 BKN035 OVC042 16/14 A2984 RMK SLP105 DENSITY ALT 700FT<br><br>
CYOO 090956Z AUTO 09003KT 070V150 5SM -RA BR SCT007 SCT015 BKN035 OVC042 16/14 A2984 RMK SLP105 DENSITY ALT 700FT<br><br>
CYOO 090946Z AUTO 13005KT 090V180 5SM -RA BR SCT005 SCT009 BKN013 OVC035 16/15 A2984 RMK SLP106 DENSITY ALT 700FT<br><br>
CYOO 090937Z AUTO 15007KT 120V180 3SM RA BR BKN005 OVC013 16/15 A2985 RMK SLP109 DENSITY ALT 700FT<br><br>
CYOO 090917Z AUTO 14005KT 090V170 2 1/2SM RA BR BKN007 OVC011 16/15 A2985 RMK SLP109 DENSITY ALT 800FT<br><br>
CYOO has no TAF <br><br>
<br><br>
CYTR 091100Z 00000KT 3SM RA BR SCT005 OVC015 16/16 A2986 RMK SF3SF5 /R13/ SLP113<br><br>
CYTR 091042Z 07005KT 3SM +RA BR BKN005 OVC029 16/16 A2984 RMK SF6SC2 SLP107<br><br>
CYTR 091000Z 12004KT 4SM RA BR BKN002 OVC026 16/16 A2985 RMK SF5SC3 SLP108<br><br>
CYTR 090947Z 00000KT 6SM RA BR BKN002 OVC026 16/16 A2986 RMK SF5SC3 SLP111<br><br>
CYTR 090921Z 16005KT 5SM -RA BR OVC003 17/16 A2986 RMK SF8 SLP114<br><br>
TAF AMD CYTR 091004Z 0910/1006 VRB03KT 2SM SHRA BR OVC002 TEMPO 0910/0916 6SM -SHRA BR SCT002 OVC015 BECMG 0910/0912 12008KT FM091600 06012KT P6SM SCT010 OVC020 TEMPO 0916/0920 5SM -SHRA BR OVC010 FM092000 34012KT P6SM BKN020 FM100000 VRB03KT P6SM SCT020 RMK NXT FCST BY 091200Z<br><br>
<br><br>
