RETRIEVED AT : Nov 12 2017 09:10 Local <br>
  RETRIEVED AT: Nov 12 2017 14:10 UTC<br><br>
CYSN 121400Z 17006KT 15SM OVC055 03/M03 A3036 RMK SC8 SLP287<br><br>
CYSN 121300Z 16005KT 15SM BKN056 OVC079 03/M03 A3035 RMK SC5AC3 SLP284<br><br>
TAF CYSN 121338Z 1214/1302 16005KT P6SM OVC060 BECMG 1216/1218 27005KT FM122100 27005KT P6SM OVC030 TEMPO 1221/1223 P6SM -RA FM122300 VRB03KT 6SM -RA BR OVC015 TEMPO 1223/1302 OVC025 PROB30 1301/1302 OVC009 RMK NXT FCST BY 122000Z<br><br>
<br><br>
CYHM 121400Z 23002KT 15SM BKN054 OVC077 01/M04 A3034 RMK SC7AC1 SLP286<br><br>
CYHM 121300Z 11002KT 15SM SCT053 OVC077 01/M05 A3033 RMK SC4AC4 SLP284<br><br>
TAF CYHM 121138Z 1212/1312 VRB03KT P6SM OVC040 FM121700 23005KT P6SM BKN040 OVC060 FM121900 23005KT P6SM -RA OVC040 TEMPO 1219/1222 5SM -RASN FM122200 05005KT 4SM -RASN BKN015 OVC025 FM130100 04005KT 3SM -SNRA OVC008 PROB30 1301/1304 2SM -SNRA BR OVC005 FM130400 03005KT 2SM -SNRA BR OVC005 FM131000 VRB03KT 2SM -DZ BR OVC003 PROB30 1310/1312 2SM -FZDZ BR RMK NXT FCST BY 121800Z<br><br>
<br><br>
KIAG 121353Z 16006KT 10SM BKN055 OVC080 03/M07 A3036 RMK AO2 SLP296 T00331067 $<br><br>
KIAG 121253Z 15004KT 10SM OVC080 02/M08 A3035 RMK AO2 SLP293 T00221078 $<br><br>
KIAG 121136Z 1212/1312 00000KT P6SM OVC060 FM121500 17004KT P6SM OVC045 FM130000 VRB03KT P6SM VCSH OVC045 FM130300 VRB03KT 4SM -RASN OVC035 FM130700 VRB03KT P6SM OVC030<br><br>
<br><br>
KBUF 121354Z 17005KT 10SM BKN045 BKN060 OVC150 01/M08 A3037 RMK AO2 SLP292 T00061078<br><br>
KBUF 121254Z 15005KT 10SM OVC050 00/M08 A3036 RMK AO2 SLP290 T00001083<br><br>
KBUF 121136Z 1212/1312 16005KT P6SM OVC060 FM121500 19005KT P6SM OVC045 FM130000 00000KT P6SM VCSH OVC045 FM130300 00000KT 4SM -RASN OVC045 FM130700 VRB03KT P6SM OVC035<br><br>
<br><br>
CYYZ 121400Z 00000KT 15SM FEW045 OVC050 02/M05 A3035 RMK SC2SC6 SLP287<br><br>
CYYZ 121300Z 00000KT 15SM OVC052 01/M05 A3034 RMK SC8 SLP283<br><br>
TAF CYYZ 121138Z 1212/1318 VRB03KT P6SM OVC050 TEMPO 1212/1213 P6SM -SN FM121600 15005KT P6SM OVC040 TEMPO 1220/1222 P6SM -RASN FM122200 17005KT 6SM -RASN OVC030 FM130100 22007KT 4SM -SNRA OVC025 PROB30 1301/1304 2SM -SN OVC015 FM130400 VRB03KT 3SM -SNRA BR FEW008 OVC015 PROB30 1304/1310 2SM -SN BR OVC008 FM131000 29005KT P6SM BKN010 OVC050 FM131400 27008KT P6SM BKN015 RMK NXT FCST BY 121500Z<br><br>
<br><br>
CYOO 121400Z AUTO 07004KT 9SM OVC044 01/M04 A3036 RMK SLP290<br><br>
CYOO 121300Z AUTO 07002KT 9SM OVC048 01/M04 A3036 RMK SLP288<br><br>
CYOO has no TAF <br><br>
<br><br>
CYTR 121400Z 03005KT 15SM BKN050 OVC120 00/M06 A3039 RMK SC7AC1 SLP297<br><br>
CYTR 121300Z 03005KT 15SM BKN054 M01/M06 A3039 RMK SC7 SLP297<br><br>
TAF CYTR 121130Z 1212/1312 VRB03KT P6SM OVC060 FM122000 17005KT P6SM SCT030 BKN060 BECMG 1223/1301 06004KT FM130700 06006KT P6SM -RASN BKN020 OVC040 RMK NXT FCST BY 121800Z<br><br>
<br><br>
