RETRIEVED AT : Sep 02 2018 12:05 Local <br>
  RETRIEVED AT: Sep 02 2018 16:05 UTC<br><br>
CYSN 021545Z 22020G25KT 8SM -SHRA SCT017 BKN055 BKN250 26/22 A3013 RMK CU4SC2CI1 SLP203 DENSITY ALT 1400FT<br><br>
CYSN 021500Z 22012G20KT 15SM SCT014 BKN130 25/22 A3013 RMK SC4AC3 SLP204 DENSITY ALT 1400FT<br><br>
CYSN 021447Z 23015KT 12SM BKN013 BKN070 25/22 A3014 RMK SC5AC2 SLP205 DENSITY ALT 1400FT<br><br>
CYSN 021428Z 22012KT 12SM SCT018 BKN055 BKN200 26/22 A3012 RMK CF3SC2CI1 SLP201 DENSITY ALT 1400FT<br><br>
TAF AMD CYSN 021311Z 0213/0301 22012KT P6SM SCT020 BKN060 TEMPO 0213/0218 P6SM -SHRA BKN020 OVC060 FM021800 23012G22KT P6SM BKN040 FM022200 21008KT P6SM SCT060 BECMG 0223/0301 VRB03KT RMK NXT FCST BY 022000Z<br><br>
<br><br>
CYHM 021527Z 21009KT 15SM FEW008 SCT072 BKN150 BKN210 23/22 A3016 RMK SC2AC2AC1CI2 SLP211 DENSITY ALT 1600FT<br><br>
CYHM 021500Z 22010KT 15SM TS BKN008 BKN077 23/22 A3016 RMK SC5AC2 CB EMBD TS S MOVG E SLP213 DENSITY ALT 1700FT<br><br>
TAF AMD CYHM 021507Z 0215/0312 24007KT P6SM SCT008 BKN040 TEMPO 0215/0216 3SM TSRA BR BKN008 OVC010CB FM021600 22010G20KT P6SM SCT030 SCT140 PROB30 0217/0221 VRB15G25KT 1SM +TSRA BR BKN015 OVC030CB FM030000 22008KT P6SM FEW040 RMK NXT FCST BY 021800Z<br><br>
<br><br>
KIAG 021553Z 22014KT 10SM BKN010 BKN050 BKN095 24/22 A3016 RMK AO2 RAE07 SLP207 P0000 T02390217<br><br>
KIAG 021507Z 22014KT 10SM BKN014 BKN050 23/21 A3016 RMK AO2 RAE07 P0000 T02280211<br><br>
KIAG 021453Z COR 23014KT 9SM -RA BKN014 BKN050 BKN060 23/22 A3016 RMK AO2 RAB06E15B41 SLP210 T02330217 51010<br><br>
KIAG 021415Z 23011KT 10SM OVC013 24/22 A3015 RMK AO2 RAB06E15 TS SW MOV E P0000 T02440217<br><br>
KIAG 021501Z 0215/0312 23013KT P6SM -SHRA OVC015 FM021800 23015G24KT P6SM SCT200 FM030000 22010KT P6SM SCT200 FM030600 21008KT P6SM SCT050<br><br>
<br><br>
KBUF 021554Z 23010KT 10SM SCT009 BKN018 BKN030 BKN140 22/22 A3018 RMK AO2 RAE54 SLP218 P0001 T02220217<br><br>
KBUF 021543Z 22012KT 10SM -RA SCT009 BKN013 BKN018 OVC130 22/21 A3019 RMK AO2 P0001 T02220211<br><br>
KBUF 021535Z COR 21011KT 10SM -RA BKN009 BKN015 OVC120 22/21 A3019 RMK AO2 P0001 T02220211<br><br>
KBUF 021508Z 21014G18KT 10SM -RA SCT011 BKN025 BKN041 OVC140 22/21 A3019 RMK AO2 P0001 T02220211<br><br>
KBUF 021454Z 23012KT 10SM -RA FEW017 BKN040 BKN100 BKN140 BKN220 22/21 A3019 RMK AO2 PK WND 24026/1415 RAB40 SLP220 P0000 60000 T02220206 53013<br><br>
KBUF 021439Z 23014KT 10SM FEW017 SCT025 SCT070 BKN140 BKN200 23/19 A3017<br><br>
KBUF 021501Z 0215/0312 23012KT P6SM -RA SCT015 OVC040 FM021800 24015G24KT P6SM SCT200 FM030000 23010KT P6SM SCT200 FM030600 20006KT P6SM SCT050<br><br>
<br><br>
CYYZ 021550Z 24010G16KT 15SM -SHRA SCT025 BKN032 OVC080 26/21 A3012 RMK SC3SC4AC1 CVCTV CLD EMBD SLP199 DENSITY ALT 1800FT<br><br>
CYYZ 021500Z 23008KT 15SM BKN022 BKN220 27/22 A3012 RMK SC7CI1 CI TR SLP199 DENSITY ALT 1900FT<br><br>
TAF AMD CYYZ 021538Z 0215/0318 23010G20KT P6SM BKN030 BKN130 TEMPO 0215/0216 BKN020 OVC130 FM021600 23010G20KT P6SM BKN030 TEMPO 0216/0217 P6SM VCTS BKN015 OVC030CB FM021700 23010G20KT P6SM BKN030 TEMPO 0217/0221 BKN020 FM022100 23010KT P6SM SCT040 TEMPO 0221/0302 BKN040 FM030600 24008KT P6SM FEW050 FM031600 24010G20KT P6SM -SHRA BKN040 RMK NXT FCST BY 021800Z<br><br>
<br><br>
CYOO 021500Z AUTO 21006KT 160V220 9SM SCT016 BKN060 26/23 A3012 RMK SLP198 DENSITY ALT 1500FT<br><br>
CYOO 021459Z AUTO 20006KT 160V220 9SM SCT016 BKN060 26/22 A3012 RMK SLP198 DENSITY ALT 1500FT<br><br>
CYOO 021428Z AUTO 20006KT 160V230 9SM BKN014 25/23 A3011 RMK SLP196 DENSITY ALT 1500FT<br><br>
CYOO has no TAF <br><br>
<br><br>
CYTR 021500Z 23010KT 15SM BKN013 BKN050 25/22 A3011 RMK SC5SC2 SLP196<br><br>
CYTR 021441Z 23009KT 15SM BKN013 OVC068 25/22 A3011 RMK SC6AC2 SLP198<br><br>
TAF AMD CYTR 021449Z 0214/0312 23010KT P6SM SCT012 BKN070 TEMPO 0214/0219 P6SM -SHRA BKN012 OVC070 BECMG 0214/0216 22010G20KT FM030000 24006KT P6SM SCT030 BKN060 RMK NXT FCST BY 021800Z<br><br>
<br><br>
