RETRIEVED AT : May 16 2020 16:05 Local <br>
  RETRIEVED AT: May 16 2020 20:05 UTC<br><br>
CYSN 161900Z 02006KT 360V070 15SM FEW030 FEW250 17/10 A3019 RMK SC1CI1 SLP226 DENSITY ALT 400FT<br><br>
TAF CYSN 161938Z 1620/1701 02006KT P6SM FEW030 RMK NXT FCST WILL BE ISSUED AT 171245Z<br><br>
<br><br>
TAF CYHM 161741Z 1618/1718 05007KT P6SM FEW030 FM170100 06005KT P6SM SKC FM171000 06012KT P6SM SCT040 BKN180 FM171600 05015G25KT P6SM SCT040 BKN140 RMK NXT FCST BY 170000Z<br><br>
<br><br>
KIAG 161953Z 04009KT 10SM FEW040 18/08 A3018 RMK AO2 SLP222 T01830078<br><br>
KIAG 161853Z 05010KT 10SM CLR 18/08 A3019 RMK AO2 SLP225 T01780083<br><br>
KIAG 161723Z 1618/1718 VRB05KT P6SM BKN040 FM162200 05005KT P6SM SCT250 FM170400 08005KT P6SM SCT250 FM171400 09011G18KT P6SM OVC100<br><br>
<br><br>
KBUF 161954Z 04005KT 10SM SCT042 19/08 A3018 RMK AO2 SLP219 T01890083<br><br>
KBUF 161854Z 36009KT 10SM SCT037 19/08 A3018 RMK AO2 SLP222 T01890083<br><br>
KBUF 161723Z 1618/1718 VRB05KT P6SM BKN035 FM162200 04006KT P6SM SCT250 FM170200 07006KT P6SM SCT250 FM171500 09011G17KT P6SM OVC100<br><br>
<br><br>
CYYZ 161900Z 13008KT 100V170 15SM BKN050 BKN200 15/08 A3019 RMK SC6CI1 CI TR SLP226<br><br>
TAF AMD CYYZ 161743Z 1618/1724 14012KT P6SM BKN030 TEMPO 1618/1621 SCT030 FM162100 13008KT P6SM SCT040 BECMG 1701/1703 07007KT FM170900 08008KT P6SM SCT050 BKN220 FM171200 09012KT P6SM SCT050 OVC150 BECMG 1717/1719 09012G22KT FM172100 09012G22KT P6SM -RA BKN030 OVC070 RMK NXT FCST BY 162100Z<br><br>
<br><br>
CYOO 161900Z AUTO 20008KT 9SM FEW050 14/08 A3021 RMK SLP233<br><br>
TAF CYOO 161938Z 1620/1708 20008KT P6SM FEW050 TEMPO 1620/1701 BKN050 BECMG 1622/1624 12005KT FM170100 VRB03KT P6SM FEW050 FM170600 05007KT P6SM FEW040 SCT240 RMK FCST BASED ON AUTO OBS. NXT FCST BY 170200Z<br><br>
<br><br>
CYTR 161900Z 33007KT 15SM OVC030 15/07 A3021 RMK SC8 SLP230<br><br>
TAF CYTR 161731Z 1618/1718 31005KT P6SM BKN030 BECMG 1618/1619 20008KT FM170200 VRB03KT P6SM FEW030 BECMG 1706/1708 04007KT FM171200 05010KT P6SM BKN200 RMK NXT FCST BY 170000Z<br><br>
<br><br>
