RETRIEVED AT : Jul 05 2020 01:05 Local <br>
  RETRIEVED AT: Jul 05 2020 05:05 UTC<br><br>
CYSN has no TAF <br><br>
<br><br>
CYHM 050400Z 34004KT 15SM FEW230 21/09 A3000 RMK CI2 SLP158 DENSITY ALT 1600FT<br><br>
TAF CYHM 042338Z 0500/0524 VRB03KT P6SM FEW250 BECMG 0513/0515 25007KT BECMG 0522/0524 02005KT RMK NXT FCST BY 050600Z<br><br>
<br><br>
KIAG 050453Z AUTO 00000KT 6SM HZ CLR 19/13 A2998 RMK AO2 SLP148 T01940133 403000194<br><br>
KIAG 050353Z AUTO 00000KT 6SM HZ CLR 22/13 A2999 RMK AO2 SLP149 T02170128<br><br>
KIAG 050246Z 0503/0524 VRB03KT P6SM BKN250 FM051300 23005KT P6SM FEW250 FM051800 27010KT P6SM FEW060 SCT250<br><br>
<br><br>
KBUF 050454Z 17004KT 3SM HZ FEW270 22/16 A2999 RMK AO2 SLP152 T02170156 403220217<br><br>
KBUF 050354Z 23004KT 2SM HZ FEW260 23/18 A3000 RMK AO2 SLP153 T02280178<br><br>
KBUF 050349Z 23004KT 2 1/2SM HZ FEW260 23/17 A3000 RMK AO2<br><br>
KBUF 050328Z 21003KT 3SM HZ FEW260 23/13 A2999 RMK AO2 T02330128<br><br>
KBUF 050401Z 0504/0524 VRB03KT 2SM HZ SCT250 FM051200 24006KT P6SM SCT250 FM051800 25010KT P6SM FEW060 SCT250<br><br>
<br><br>
CYYZ 050400Z VRB02KT 15SM FEW260 22/08 A2999 RMK CI2 SLP154 DENSITY ALT 1500FT<br><br>
TAF CYYZ 050239Z 0503/0606 32010KT P6SM FEW240 BECMG 0503/0505 35005KT FM051700 17010KT P6SM FEW070 BECMG 0600/0602 36007KT RMK NXT FCST BY 050600Z<br><br>
<br><br>
CYOO 050400Z AUTO VRB03KT 9SM CLR 22/11 A2997 RMK SLP149 DENSITY ALT 1300FT<br><br>
TAF CYOO 050139Z 0502/0514 34007KT P6SM SKC RMK FCST BASED ON AUTO OBS. NXT FCST BY 050800Z<br><br>
<br><br>
CYTR 050400Z AUTO 00000KT 9SM CLR 20/15 A2996 RMK SLP144<br><br>
TAF CYTR 042330Z 0500/0524 20008KT P6SM SCT250 FM050200 35005KT P6SM SCT080 FM050900 VRB03KT P6SM BKN080 BECMG 0515/0517 23008KT FM052000 25012KT P6SM BKN030 BKN200 RMK FCST BASED ON AUTO OBS 050200-051000Z. NXT FCST BY 050600Z<br><br>
<br><br>
