RETRIEVED AT : May 17 2020 13:05 Local <br>
  RETRIEVED AT: May 17 2020 17:05 UTC<br><br>
CYSN 171600Z 05012KT 15SM BKN180 17/10 A3014 RMK CC7 PRESFR SLP208 DENSITY ALT 400FT<br><br>
TAF CYSN 171239Z 1713/1801 08012KT P6SM BKN220 BECMG 1715/1717 06015KT FM171800 04015KT P6SM BKN120 OVC200 FM172100 06015G25KT P6SM -RA BKN040 OVC080 TEMPO 1721/1801 2SM -RA BR BKN020 OVC040 RMK NXT FCST BY 172000Z<br><br>
<br><br>
CYHM 171600Z 05018G25KT 15SM BKN120 OVC180 12/07 A3016 RMK AC6AC2 SLP218<br><br>
TAF CYHM 171138Z 1712/1812 05015KT P6SM BKN200 FM171600 05015G25KT P6SM SCT040 BKN120 OVC200 FM172000 05015G25KT P6SM -RA SCT020 BKN040 OVC080 TEMPO 1720/1803 5SM -RA BR BKN020 OVC040 FM180300 04015G30KT 2SM -RA BR OVC006 RMK NXT FCST BY 171800Z<br><br>
<br><br>
KIAG 171653Z 08012G19KT 10SM CLR 18/09 A3013 RMK AO2 SLP206 T01830089 $<br><br>
KIAG 171553Z 09011KT 10SM CLR 18/08 A3015 RMK AO2 SLP212 T01780083 $<br><br>
KIAG 171529Z 1715/1812 08012G20KT P6SM BKN120 FM172000 07012G20KT 6SM -SHRA OVC040 FM172300 08012KT 4SM -RA BR OVC025 FM180300 08012KT 4SM RA BR OVC015 FM180600 07014KT 2SM RA BR OVC007<br><br>
<br><br>
KBUF 171654Z 06013KT 10SM SCT100 BKN140 BKN170 OVC230 19/09 A3013 RMK AO2 SLP202 T01890094<br><br>
KBUF 171554Z 07012KT 10SM FEW100 BKN180 BKN250 19/09 A3015 RMK AO2 SLP209 T01890094<br><br>
KBUF 171529Z 1715/1812 08012G18KT P6SM BKN100 FM171900 08012G18KT 6SM -SHRA OVC040 FM172300 08012KT 4SM -RA BR OVC025 FM180200 08010KT 4SM RA BR OVC015 FM180600 08010KT 2SM RA BR OVC007<br><br>
<br><br>
CYYZ 171600Z 09014G23KT 15SM FEW180 BKN200 15/06 A3019 RMK AC1CS6 SLP227<br><br>
TAF CYYZ 171438Z 1715/1818 09015KT P6SM BKN150 OVC200 BECMG 1715/1716 09015G25KT FM172100 09015G25KT P6SM BKN030 OVC070 TEMPO 1722/1802 3SM -SHRA BR OVC030 FM180200 08018KT 2SM -RA BR OVC008 TEMPO 1802/1815 1SM -RA BR OVC004 BECMG 1812/1814 09020G35KT RMK NXT FCST BY 171800Z<br><br>
<br><br>
CYOO 171600Z AUTO 10017G24KT 9SM SCT170 SCT190 16/06 A3021 RMK SLP233<br><br>
TAF CYOO 171340Z 1714/1802 07009KT P6SM BKN200 FM171600 09012KT P6SM BKN150 FM180000 09012KT P6SM BKN050 OVC080 TEMPO 1800/1802 P6SM -RA SCT020 OVC050 RMK FCST BASED ON AUTO OBS. NXT FCST BY 172000Z<br><br>
<br><br>
CYTR 171600Z 09008KT 15SM FEW040 BKN190 BKN220 18/06 A3024 RMK CF1AS6CC2 CUFRA TR SLP241<br><br>
TAF CYTR 171130Z 1712/1812 VRB03KT P6SM BKN220 BECMG 1716/1718 09010KT OVC150 FM172200 06008KT P6SM SCT060 OVC100 TEMPO 1722/1802 P6SM -RA BKN060 OVC100 FM180200 05005KT P6SM -RA SCT030 OVC050 TEMPO 1802/1809 5SM -RA BR BKN030 OVC050 FM180900 05010G20KT P6SM -RA SCT020 OVC050 TEMPO 1809/1812 5SM -RA BR BKN020 OVC050 RMK NXT FCST BY 171800Z<br><br>
<br><br>
