RETRIEVED AT : Sep 01 2018 03:05 Local <br>
  RETRIEVED AT: Sep 01 2018 07:05 UTC<br><br>
CYSN has no TAF <br><br>
<br><br>
CYHM 010600Z 00000KT 15SM MIFG FEW250 14/14 A3017 RMK CI2 SLP218<br><br>
TAF CYHM 010538Z 0106/0206 VRB03KT P6SM SKC PROB30 0106/0112 1/2SM FG VV002 FM011400 20012G22KT P6SM FEW030 FM020400 20010KT P6SM -SHRA BKN050 PROB30 0204/0206 2SM +TSRA BR BKN020 BKN050CB RMK NXT FCST BY 011200Z<br><br>
<br><br>
KIAG 010653Z AUTO 00000KT 8SM CLR 16/14 A3016 RMK AO2 SLP212 T01560144<br><br>
KIAG 010553Z AUTO 00000KT 10SM FEW032 16/15 A3016 RMK AO2 SLP213 T01610150 10200 20150 55003<br><br>
KIAG 010539Z 0106/0206 VRB03KT P6SM SCT040 FM011300 21010KT P6SM SCT040 FM012200 19008KT P6SM SCT250 FM020400 20010KT P6SM BKN040<br><br>
<br><br>
KBUF 010654Z 17003KT 10SM BKN030 BKN038 19/17 A3017 RMK AO2 SLP213 T01890172<br><br>
KBUF 010631Z 15005KT 10SM BKN030 BKN038 19/17 A3017 RMK AO2 T01940172<br><br>
KBUF 010554Z 14005KT 10SM BKN028 BKN040 19/17 A3017 RMK AO2 SLP214 T01940172 10217 20189 55001<br><br>
KBUF 010542Z 14005KT 10SM BKN028 19/17 A3017 RMK AO2 T01940172<br><br>
KBUF 010539Z 0106/0206 16004KT P6SM SCT040 FM011300 20010KT P6SM SCT040 FM012200 19008KT P6SM SCT250 FM020400 20008KT P6SM BKN040<br><br>
<br><br>
CYYZ 010600Z 31002KT 15SM FEW017 SCT230 17/15 A3017 RMK SC1CI2 SLP217 DENSITY ALT 700FT<br><br>
TAF CYYZ 010538Z 0106/0212 VRB03KT P6SM SKC PROB30 0109/0112 1SM BR FM011400 21008KT P6SM FEW020 FM011600 20010G20KT P6SM SCT030 BECMG 0116/0117 18012G22KT BECMG 0201/0203 22006KT FM020500 22005KT P6SM -SHRA BKN040 PROB30 0205/0211 2SM +TSRA BR BKN040CB RMK NXT FCST BY 010900Z<br><br>
<br><br>
CYOO 010626Z AUTO 02004KT 9SM SCT021 15/15 A3016 RMK SLP215<br><br>
CYOO 010600Z AUTO VRB02KT 9SM BKN021 15/15 A3017 RMK SLP220<br><br>
CYOO 010555Z AUTO 34002KT 9SM BKN021 15/15 A3018 RMK SLP221<br><br>
CYOO has no TAF <br><br>
<br><br>
CYTR 010600Z 04004KT 15SM BKN011 BKN033 18/17 A3016 RMK SF5SC2 SLP215<br><br>
TAF CYTR 010530Z 0106/0206 VRB03KT P6SM FEW012 BKN040 TEMPO 0106/0116 BKN012 OVC040 PROB30 0106/0112 2SM BR OVC008 FM011600 20008KT P6SM FEW025 RMK NXT FCST BY 011200Z<br><br>
<br><br>
