RETRIEVED AT : Dec 12 2017 08:10 Local <br>
  RETRIEVED AT: Dec 12 2017 13:10 UTC<br><br>
CYSN 121300Z 26010G19KT 3SM -SN OVC016 M01/M02 A2952 RMK SC8 SLP003<br><br>
CYSN 121200Z 25008KT 2SM -SN BKN003 OVC010 M01/M01 A2951 RMK SF5SC3 SLP999<br><br>
CYSN has no TAF <br><br>
<br><br>
CYHM 121300Z 29014G26KT 2SM -SN DRSN BKN018 OVC042 M04/M05 A2954 RMK SN2SC3SC3 SLP017<br><br>
CYHM 121253Z 29016G26KT 1 3/4SM -SN DRSN BKN013 OVC030 M03/M05 A2953 RMK SN2SC3SC3 SLP014<br><br>
CYHM 121234Z 29012KT 1 3/4SM -SN SCT014 BKN032 OVC042 M03/M04 A2953 RMK SN2SC2SC3SC1 SLP013<br><br>
CYHM 121200Z CCA 27008KT 4SM -SN BKN045 BKN055 M04/M04 A2952 RMK SN1SC4SC2 SLP008<br><br>
TAF CYHM 121138Z 1212/1312 27010KT 6SM -SN SCT030 OVC050 TEMPO 1212/1214 21/2SM -SN BLSN OVC025 BECMG 1212/1214 30015G25KT FM121400 29020G35KT P6SM -SN SCT030 OVC050 TEMPO 1214/1216 3SM -SHSN BLSN OVC030 FM121900 30020G30KT P6SM SCT050 BECMG 1220/1222 29015KT RMK NXT FCST BY 121800Z<br><br>
<br><br>
KIAG 121120Z 1212/1312 28005KT 1SM -SN OVC015 FM121500 29013G20KT 1SM -SN OVC015 FM121800 27017G27KT P6SM VCSH OVC035 FM130200 30018G27KT 1SM -SN BLSN OVC015<br><br>
<br><br>
KBUF 121306Z 27008KT 3/4SM R23/5000V6000FT -SN BR BKN005 BKN013 OVC019 M01/M01 A2950 RMK AO2 P0001 T10061011 $<br><br>
KBUF 121254Z 25005KT 3/4SM R23/4500V5500FT -SN BR FEW005 BKN011 OVC025 M01/M01 A2950 RMK AO2 SLP000 P0001 T10111011 $<br><br>
KBUF 121233Z 25004KT 1 3/4SM -SN BR FEW005 BKN011 OVC025 M01/M02 A2950 RMK AO2 P0001 T10111017 $<br><br>
KBUF 121220Z 26004KT 1 3/4SM -SN BR FEW005 OVC025 M01/M02 A2950 RMK AO2 P0000 T10111017 $<br><br>
KBUF 121154Z 00000KT 2SM -SN BR FEW004 OVC030 M01/M02 A2950 RMK AO2 SLP997 4/005 P0002 60021 70030 T10111017 11006 21017 56013 $<br><br>
KBUF 121148Z 31003KT 2SM -SN BR FEW004 OVC030 M01/M02 A2949 RMK AO2 P0002 $<br><br>
KBUF 121141Z 31003KT 1 3/4SM -SN BR SCT004 OVC024 M01/M01 A2949 RMK AO2 P0001 T10111011 $<br><br>
KBUF 121131Z 32005KT 1 3/4SM -SN BR BKN004 OVC020 M01/M01 A2949 RMK AO2 P0001 T10061011 $<br><br>
KBUF 121122Z 26004KT 1 3/4SM -SN BR SCT004 OVC022 M01/M01 A2950 RMK AO2 P0001 T10061011 $<br><br>
KBUF 121120Z 1212/1312 26006KT 1SM -SN OVC015 FM121500 28013G20KT 1SM -SN OVC015 FM121800 27017G27KT P6SM VCSH OVC035 FM130200 28016G25KT 1SM -SN BLSN BKN015<br><br>
<br><br>
CYYZ 121300Z 27006KT 1 1/4SM -SN OVC010 M03/M04 A2952 RMK SN3SC5 SLP006<br><br>
CYYZ 121243Z 27008KT 4SM -SN SCT016 OVC022 M03/M04 A2952 RMK SC4SC4 SLP007<br><br>
CYYZ 121232Z 28007KT 4SM -SN BKN012 OVC022 M03/M04 A2952 RMK SC5SC3 SLP006<br><br>
CYYZ 121200Z 28007KT 4SM -SN OVC009 M03/M04 A2951 RMK SC8 /S04/ SLP005<br><br>
TAF CYYZ 121138Z 1212/1318 33007KT 4SM -SN BKN008 OVC015 TEMPO 1212/1215 6SM -SN SCT010 OVC025 BECMG 1212/1214 30015G25KT FM121500 30020G30KT P6SM -SN BKN030 OVC060 FM121700 29020G30KT P6SM SCT030 FM130200 33015G25KT P6SM -SHSN BKN025 TEMPO 1302/1305 2SM -SHSN BLSN OVC020 BECMG 1305/1307 33015KT FM131600 31015KT P6SM FEW025 RMK NXT FCST BY 121500Z<br><br>
<br><br>
CYOO 121308Z AUTO 28005KT 4SM -SN SCT010 BKN016 BKN027 OVC040 M05/M06 A2951 RMK SLP002<br><br>
CYOO 121303Z AUTO 31005KT 3SM -SN FEW010 SCT018 BKN025 OVC040 M05/M06 A2951 RMK SLP002<br><br>
CYOO 121300Z AUTO 31004KT 2SM -SN FEW010 SCT018 BKN025 OVC040 M05/M06 A2951 RMK SLP002<br><br>
CYOO 121255Z AUTO 31003KT 2 1/4SM -SN FEW010 SCT016 OVC029 M05/M06 A2951 RMK SLP001<br><br>
CYOO 121254Z AUTO 31003KT 280V340 2 1/4SM -SN SCT010 SCT016 BKN024 OVC029 M05/M06 A2951 RMK SLP001<br><br>
CYOO 121252Z AUTO 30003KT 280V010 2 1/4SM -SN SCT010 SCT016 OVC029 M05/M06 A2951 RMK VIS VRB 1 1/4-3 SLP001<br><br>
CYOO 121234Z AUTO 36002KT 3SM -SN BKN025 OVC032 M05/M06 A2951 RMK SLP001<br><br>
CYOO 121226Z AUTO 01003KT 3SM -SN BKN023 OVC032 M05/M06 A2951 RMK SLP001<br><br>
CYOO 121218Z AUTO 36003KT 2 1/4SM -SN OVC023 M05/M06 A2951 RMK SLP001<br><br>
CYOO 121216Z AUTO 34003KT 2 1/4SM -SN OVC025 M05/M06 A2951 RMK SLP001<br><br>
CYOO 121200Z AUTO 01004KT 3SM -SN OVC027 M05/M06 A2951 RMK SLP003<br><br>
CYOO 121147Z AUTO 02004KT 3SM -SN OVC027 M05/M06 A2952 RMK SLP004<br><br>
CYOO 121139Z AUTO 02004KT 2 1/2SM -SN OVC029 M04/M06 A2952 RMK VIS VRB 1 1/2-3 SLP004<br><br>
CYOO 121133Z AUTO 03004KT 4SM -SN OVC033 M04/M06 A2952 RMK SLP004<br><br>
CYOO 121116Z AUTO 03004KT 6SM -SN OVC047 M04/M05 A2952 RMK SLP004<br><br>
CYOO 121112Z AUTO 02004KT 3SM -SN OVC047 M04/M05 A2952 RMK SLP004<br><br>
CYOO has no TAF <br><br>
<br><br>
CYTR 121300Z CCA 03008KT 7SM -SN OVC015 M07/M09 A2953 RMK SC8 SLP004<br><br>
CYTR 121247Z 03007KT 3SM -SN OVC015 M07/M09 A2953 RMK SC8 SLP007<br><br>
CYTR 121200Z 04007KT 1 1/2SM -SN OVC010 M08/M09 A2955 RMK SN5NS3 /S04/ SLP012<br><br>
TAF CYTR 121130Z 1212/1312 05010KT 11/2SM -SN OVC010 TEMPO 1212/1216 3SM -SN OVC020 FM121600 02010KT 6SM -SN BKN015 OVC030 TEMPO 1216/1221 2SM -SN OVC012 FM122100 29012G22KT 3SM -SN BLSN BKN020 OVC040 BECMG 1302/1304 33012G22KT FM130900 32012G22KT P6SM BKN020 RMK NXT FCST BY 121800Z<br><br>
<br><br>
