RETRIEVED AT : Jul 05 2020 21:05 Local <br>
  RETRIEVED AT: Jul 06 2020 01:05 UTC<br><br>
CYSN 060000Z 04003KT 15SM SCT240 30/16 A2994 RMK CI4 SLP137 DENSITY ALT 2100FT<br><br>
TAF CYSN 051938Z 0520/0601 32008KT P6SM SCT250 BECMG 0523/0601 07006KT RMK NXT FCST WILL BE ISSUED AT 061245Z<br><br>
<br><br>
CYHM 060000Z 04006KT 15SM SCT250 28/15 A2996 RMK CC4 SLP145 DENSITY ALT 2400FT<br><br>
TAF CYHM 052341Z 0600/0624 VRB03KT P6SM BKN250 FM061400 04012KT P6SM SCT100 BKN250 RMK NXT FCST BY 060600Z<br><br>
<br><br>
KIAG 060053Z 04004KT 10SM CLR 26/13 A2997 RMK AO2 SLP142 T02610128<br><br>
KIAG 052353Z 04005KT 10SM CLR 29/13 A2996 RMK AO2 SLP137 60000 T02890128 10322 20289 53002<br><br>
KIAG 052338Z 0600/0624 34007KT P6SM SCT250 FM060100 18003KT P6SM SCT200 FM061500 05006KT P6SM SCT200 FM061700 06005KT P6SM FEW050<br><br>
<br><br>
KBUF 060054Z 07003KT 10SM SCT200 BKN250 29/13 A2998 RMK AO2 SLP147 T02940133<br><br>
KBUF 052354Z 27003KT 10SM SCT230 BKN270 31/14 A2997 RMK AO2 SLP143 T03060139 10328 20306 53001<br><br>
KBUF 052338Z 0600/0624 23007KT P6SM SCT250 FM061500 06004KT P6SM SCT120 FM061900 03006KT P6SM SCT050<br><br>
<br><br>
CYYZ 060000Z 02010KT 15SM FEW180 SCT260 29/15 A2996 RMK AC1CI3 SLP144 DENSITY ALT 2400FT<br><br>
TAF CYYZ 052341Z 0600/0706 VRB03KT P6SM BKN250 FM061300 10010KT P6SM SCT090 FM070000 10008KT P6SM SKC RMK NXT FCST BY 060300Z<br><br>
<br><br>
CYOO 060000Z AUTO 35008KT 9SM CLR 28/15 A2995 RMK SLP143 DENSITY ALT 2000FT<br><br>
TAF CYOO 051938Z 0520/0608 30007KT P6SM BKN250 BECMG 0523/0601 01005KT RMK FCST BASED ON AUTO OBS. NXT FCST BY 060200Z<br><br>
<br><br>
CYTR 060000Z 31004KT 15SM FEW070 BKN250 29/17 A2993 RMK AC2CI5 SLP135<br><br>
TAF CYTR 052330Z 0600/0624 30008KT P6SM FEW060 BKN250 TEMPO 0600/0605 6SM -SHRA BR BKN030 OVC120 FM060500 VRB03KT P6SM SCT100 FM061600 21008KT P6SM SCT040 RMK FCST BASED ON AUTO OBS 060200-061000Z. NXT FCST BY 060600Z<br><br>
<br><br>
