RETRIEVED AT : Oct 03 2017 05:10 Local <br>
  RETRIEVED AT: Oct 03 2017 09:10 UTC<br><br>
CYSN has no TAF <br><br>
<br><br>
CYHM 030900Z VRB02KT 15SM FEW250 10/10 A3039 RMK CI1 CI TR SLP296<br><br>
CYHM 030800Z 08004KT 15SM FEW250 08/08 A3038 RMK CI1 SLP293<br><br>
TAF CYHM 030548Z 0306/0406 04006KT P6SM SKC FM030800 VRB03KT P6SM SKC PROB30 0309/0313 11/2SM BR FM031500 20012KT P6SM SKC BECMG 0318/0320 20012G22KT RMK NXT FCST BY 031200Z<br><br>
<br><br>
KIAG 030853Z AUTO 10004KT 10SM CLR 08/05 A3041 RMK AO2 SLP299 T00830050 53005<br><br>
KIAG 030753Z AUTO 07003KT 10SM CLR 09/06 A3040 RMK AO2 SLP296 T00940061<br><br>
KIAG 030854Z 0309/0406 15004KT P6SM FEW250 FM031400 21009KT P6SM SKC FM040000 19008KT P6SM FEW250<br><br>
<br><br>
KBUF 030854Z 14005KT 10SM CLR 11/07 A3042 RMK AO2 SLP301 T01110067 53004<br><br>
KBUF 030754Z 00000KT 10SM CLR 11/07 A3041 RMK AO2 SLP298 T01060067<br><br>
KBUF 030854Z 0309/0406 15005KT P6SM FEW250 FM031400 21009KT P6SM SKC FM040000 19008KT P6SM FEW250<br><br>
<br><br>
CYYZ 030900Z 03002KT 15SM FEW250 09/07 A3040 RMK CI1 SLP297<br><br>
CYYZ 030800Z 01004KT 360V070 15SM FEW250 10/08 A3038 RMK CI1 SLP292<br><br>
TAF CYYZ 030838Z 0309/0412 VRB03KT P6SM SKC BECMG 0314/0316 20012KT FM032000 21012G22KT P6SM SKC BECMG 0401/0403 20010KT FM040900 22010G20KT P6SM BKN050 RMK NXT FCST BY 031200Z<br><br>
<br><br>
CYOO 030900Z AUTO 07004KT 9SM CLR 12/11 A3041 RMK SLP299<br><br>
CYOO 030800Z AUTO 08006KT 9SM CLR 13/11 A3040 RMK SLP296<br><br>
CYOO has no TAF <br><br>
<br><br>
CYTR 030900Z 03005KT 15SM FEW250 06/05 A3044 RMK CI1 SLP308<br><br>
CYTR 030800Z 04005KT 15SM FEW250 05/05 A3043 RMK CI2 SLP307<br><br>
TAF CYTR 030530Z 0306/0406 01005KT P6SM FEW240 FM031000 18005KT 6SM BR FEW005 TEMPO 0310/0313 4SM BR PROB30 0310/0313 2SM BR FM031300 18008KT P6SM SCT250 RMK NXT FCST BY 031200Z<br><br>
<br><br>
