RETRIEVED AT : Jun 16 2019 20:05 Local <br>
  RETRIEVED AT: Jun 17 2019 00:05 UTC<br><br>
CYSN 162300Z 35004KT 15SM FEW050 SCT150 15/12 A2989 RMK SC1AC2 SLP123 DENSITY ALT 500FT<br><br>
TAF CYSN 161938Z 1620/1701 12006KT P6SM SCT080 BKN230 BECMG 1620/1622 02005KT RMK NXT FCST WILL BE ISSUED AT 171245Z<br><br>
<br><br>
CYHM 162300Z VRB02KT 15SM SCT150 BKN220 17/11 A2990 RMK AC4CI1 SLP129 DENSITY ALT 1300FT<br><br>
TAF CYHM 162338Z 1700/1724 VRB03KT P6SM SCT120 BECMG 1712/1714 04012KT FM172300 04007KT P6SM FEW040 RMK NXT FCST BY 170600Z<br><br>
<br><br>
KIAG 162353Z 04005KT 10SM CLR 18/12 A2990 RMK AO2 SLP125 60000 T01780117 10183 20161 51005<br><br>
KIAG 162253Z 09004KT 10SM BKN110 18/11 A2990 RMK AO2 RAB16E26 SLP125 P0000 T01830111<br><br>
KIAG 162332Z 1700/1724 04004KT P6SM BKN100 FM170300 VRB03KT P6SM SCT100 TEMPO 1708/1712 4SM BR FM171300 09005KT P6SM SCT080 FM171500 07008KT P6SM BKN080<br><br>
<br><br>
KBUF 162354Z 07005KT 10SM FEW090 BKN130 17/11 A2990 RMK AO2 SLP126 60000 T01670111 10172 20144 50005<br><br>
KBUF 162254Z 03003KT 10SM FEW050 BKN090 BKN130 17/11 A2990 RMK AO2 RAE15 SLP126 P0000 T01670111<br><br>
KBUF 162332Z 1700/1724 05005KT P6SM OVC080 FM170500 VRB03KT P6SM SCT090 TEMPO 1708/1712 4SM BR FM171300 09005KT P6SM SCT080 FM171400 09006KT P6SM BKN080<br><br>
<br><br>
CYYZ 162300Z 08007KT 070V140 15SM FEW040 SCT140 SCT250 19/10 A2989 RMK CF1AC3CI1 CF TR SLP123 DENSITY ALT 1300FT<br><br>
TAF CYYZ 162338Z 1700/1806 08007KT P6SM FEW040 SCT120 BECMG 1702/1704 32005KT FM171200 01005KT P6SM SCT080 BECMG 1712/1714 09006KT BECMG 1715/1717 15010KT FM172300 13005KT P6SM SCT080 BECMG 1804/1806 33005KT RMK NXT FCST BY 170300Z<br><br>
<br><br>
CYOO 162300Z AUTO 20006KT 190V260 9SM CLR 20/11 A2990 RMK SLP126 DENSITY ALT 1100FT<br><br>
TAF CYOO 161938Z 1620/1708 18005KT P6SM SCT170 BECMG 1700/1702 VRB03KT RMK FCST BASED ON AUTO OBS. NXT FCST BY 170200Z<br><br>
<br><br>
CYTR 162300Z 20007KT 15SM FEW040 FEW100 SCT200 17/11 A2989 RMK SC1AC1CI2 SLP123<br><br>
TAF CYTR 162330Z 1700/1724 20008KT P6SM FEW040 FEW100 SCT200 BECMG 1701/1703 VRB03KT FM170300 VRB03KT P6SM SCT040 SCT100 PROB30 1705/1711 1SM BR FM171400 17005KT P6SM FEW050 SCT100 BECMG 1716/1718 20010KT FM171800 20010KT P6SM BKN100 RMK NXT FCST BY 170600Z<br><br>
<br><br>
