RETRIEVED AT : Apr 25 2020 07:04 Local <br>
  RETRIEVED AT: Apr 25 2020 11:04 UTC<br><br>
CYSN has no TAF <br><br>
<br><br>
CYHM 251000Z 06002KT 15SM FEW220 M00/M04 A3003 RMK CI1 SLP178<br><br>
TAF CYHM 250538Z 2506/2606 VRB03KT P6SM FEW060 BECMG 2512/2514 05010KT BECMG 2516/2518 04010G20KT FM252100 04012G22KT P6SM BKN140 FM260300 04012G22KT P6SM SCT060 OVC100 RMK NXT FCST BY 251200Z<br><br>
<br><br>
KIAG 251053Z 00000KT 10SM CLR M02/M03 A3005 RMK AO2 SLP190 T10171033<br><br>
KIAG 250953Z AUTO 00000KT 10SM CLR M01/M03 A3003 RMK AO2 SLP180 T10111033<br><br>
KIAG 250906Z 2509/2606 VRB03KT P6SM BKN060 FM251300 08004KT P6SM FEW250 FM251800 05008KT P6SM SCT200 FM260200 08008KT P6SM OVC070 FM260500 07009KT 6SM -RA OVC040<br><br>
<br><br>
KBUF 251054Z 04005KT 10SM FEW080 FEW220 02/M02 A3005 RMK AO2 SLP182 T00171022<br><br>
KBUF 250954Z 02004KT 10SM FEW100 FEW180 02/M03 A3003 RMK AO2 SLP175 T00171033<br><br>
KBUF 250906Z 2509/2606 VRB03KT P6SM BKN060 FM251000 VRB03KT P6SM FEW250 FM260000 07009KT P6SM BKN120 FM260400 08009KT P6SM OVC040 FM260500 08009KT 6SM -RA OVC040<br><br>
<br><br>
CYYZ 251000Z VRB02KT 15SM FEW200 01/M02 A3004 RMK CI1 CI TR SLP178<br><br>
TAF CYYZ 250838Z 2509/2612 05006KT P6SM SKC FM251500 09012KT P6SM SCT180 FM252200 07010KT P6SM BKN150 FM260900 05012KT P6SM SCT060 OVC120 TEMPO 2609/2612 P6SM -SHRA BKN060 OVC120 RMK NXT FCST BY 251200Z<br><br>
<br><br>
CYOO 251000Z AUTO 36007KT 9SM CLR 01/M01 A3002 RMK SLP172<br><br>
TAF CYOO 250738Z 2508/2520 36005KT P6SM SKC BECMG 2513/2515 12008KT FEW180 RMK FCST BASED ON AUTO OBS. NXT FCST BY 251400Z<br><br>
<br><br>
CYTR 251000Z 32003KT 15SM FEW080 00/M02 A3004 RMK AC1 AC TR SLP176<br><br>
TAF CYTR 250530Z 2506/2606 34007KT P6SM FEW070 BECMG 2506/2508 VRB03KT FM252100 09005KT P6SM BKN160 BECMG 2600/2602 05005KT RMK NXT FCST BY 251200Z<br><br>
<br><br>
