RETRIEVED AT : Jun 21 2020 13:05 Local <br>
  RETRIEVED AT: Jun 21 2020 17:05 UTC<br><br>
TAF CYSN 211238Z 2113/2201 20010KT P6SM SKC FM211800 23012KT P6SM SCT070 BECMG 2122/2124 29010KT RMK NXT FCST BY 212000Z<br><br>
<br><br>
TAF CYHM 211138Z 2112/2212 VRB03KT P6SM SKC FM211500 20012KT P6SM SCT080 FM212100 20010KT P6SM SCT080 BECMG 2202/2204 20005KT RMK NXT FCST BY 211800Z<br><br>
<br><br>
KIAG 211506Z 2115/2212 21008KT P6SM SCT050 FM220200 19006KT P6SM SCT100<br><br>
<br><br>
KBUF 211506Z 2115/2212 22008KT P6SM SCT050 TEMPO 2118/2122 BKN050 FM220000 19006KT P6SM SCT100<br><br>
<br><br>
TAF CYYZ 211438Z 2115/2218 15012KT P6SM FEW060 FM211900 15012KT P6SM SCT080 TEMPO 2119/2201 P6SM -SHRA VCTS BKN080CB FM220100 12008KT P6SM FEW080 FM220700 VRB03KT P6SM FEW080 PROB30 2207/2212 2SM BR FM221200 24008KT P6SM FEW080 BECMG 2214/2216 16010G20KT RMK NXT FCST BY 211800Z<br><br>
<br><br>
TAF CYOO 211338Z 2114/2202 16008KT P6SM SKC BECMG 2118/2120 13010KT FM220000 08005KT P6SM FEW060 SCT200 RMK FCST BASED ON AUTO OBS. NXT FCST BY 212000Z<br><br>
<br><br>
TAF CYTR 211130Z 2112/2212 VRB03KT P6SM FEW080 FEW250 FM211400 20008KT P6SM FEW040 BECMG 2202/2204 VRB03KT RMK NXT FCST BY 211800Z<br><br>
<br><br>
