RETRIEVED AT : May 16 2018 03:40 Local <br>
  RETRIEVED AT: May 16 2018 07:40 UTC<br><br>
CYSN has no TAF <br><br>
<br><br>
CYHM 160700Z 03006KT 15SM FEW250 11/06 A3004 RMK CI1 SLP174<br><br>
CYHM 160600Z 04004KT 15SM SKC 11/07 A3005 RMK SLP178<br><br>
TAF CYHM 160539Z 1606/1706 06006KT P6SM FEW250 FM160800 03005KT P6SM FEW030 FM161100 04006KT P6SM FEW004 PROB30 1611/1614 11/2SM BR BKN004 FM161500 04008KT P6SM FEW015 FM161800 05008KT P6SM SKC BECMG 1702/1704 VRB03KT RMK NXT FCST BY 161200Z<br><br>
<br><br>
KIAG 160653Z AUTO 00000KT 10SM CLR 12/06 A3003 RMK AO2 SLP172 T01170061<br><br>
KIAG 160553Z AUTO 35003KT 10SM CLR 13/06 A3004 RMK AO2 SLP174 T01330061 10200 20128 51005<br><br>
KIAG 160528Z 1606/1706 VRB03KT P6SM FEW250 FM161800 03004KT P6SM FEW250 FM170000 VRB03KT P6SM FEW250<br><br>
<br><br>
KBUF 160654Z 05003KT 10SM FEW250 15/11 A3004 RMK AO2 SLP172 T01500111<br><br>
KBUF 160554Z 00000KT 7SM FEW037 16/12 A3004 RMK AO2 SLP170 T01560117 10206 20150 50003<br><br>
KBUF 160528Z 1606/1706 00000KT P6SM FEW250 FM162000 06005KT P6SM SCT250 FM162300 VRB03KT P6SM SCT250<br><br>
<br><br>
CYYZ 160700Z 35010KT 15SM FEW250 11/03 A3004 RMK CI1 SLP175<br><br>
CYYZ 160600Z 35006KT 15SM FEW250 11/04 A3004 RMK CI1 SLP177<br><br>
TAF CYYZ 160539Z 1606/1712 34007KT P6SM FEW250 BECMG 1608/1610 VRB03KT FM161100 06005KT P6SM FEW006 FM161600 09005KT P6SM SKC BECMG 1616/1618 15008KT BECMG 1700/1702 VRB03KT FM171000 32005KT P6SM SKC RMK NXT FCST BY 160900Z<br><br>
<br><br>
CYOO 160700Z AUTO 36004KT 9SM CLR 11/02 A3003 RMK SLP173<br><br>
CYOO 160600Z AUTO 01006KT 9SM CLR 11/04 A3003 RMK SLP172<br><br>
CYOO has no TAF <br><br>
<br><br>
CYTR 160700Z 06009KT 15SM BKN019 12/04 A3006 RMK SC6 SLP180<br><br>
CYTR 160627Z 06006KT 15SM BKN016 12/09 A3005 RMK SC7 SLP177<br><br>
CYTR 160600Z 07002KT 2SM BR BKN004 13/11 A3005 RMK SF7 SLP176<br><br>
TAF AMD CYTR 160712Z 1607/1706 06008KT P6SM SCT020 TEMPO 1607/1609 BKN020 FM161200 06005KT P6SM SCT025 BECMG 1616/1618 20010KT BECMG 1623/1701 VRB03KT FM170100 VRB03KT P6SM SKC RMK NXT FCST BY 161200Z<br><br>
<br><br>
