RETRIEVED AT : Dec 10 2017 12:10 Local <br>
  RETRIEVED AT: Dec 10 2017 17:10 UTC<br><br>
CYSN 101700Z 27013G20KT 230V290 15SM OVC048 M01/M07 A2984 RMK SC8 SLP111<br><br>
CYSN 101600Z 25016G25KT 15SM OVC049 M01/M08 A2987 RMK SC8 SLP121<br><br>
TAF CYSN 101340Z 1014/1102 25018G28KT P6SM SCT030 OVC100 FM101900 25020G30KT 4SM -SHSN BKN030 OVC060 TEMPO 1019/1101 P6SM NSW SCT030 BKN060 PROB30 1019/1101 21/2SM -SHSN OVC015 FM110100 25020G30KT P6SM BKN030 OVC060 RMK NXT FCST BY 102000Z<br><br>
<br><br>
CYHM 101700Z 24019G25KT 3SM -SN FEW016 BKN021 OVC030 M03/M06 A2982 RMK CF2SC3SC3 SLP113<br><br>
CYHM 101639Z 25015G22KT 3SM -SN SCT016 OVC028 M03/M06 A2983 RMK SC4SC4 SLP114<br><br>
CYHM 101600Z 24016KT 1 1/2SM -SN SCT016 OVC035 M03/M06 A2984 RMK SN3CF1SC4 SLP119<br><br>
CYHM 101539Z 24015G24KT 10SM -SN FEW050 BKN062 OVC070 M03/M07 A2984 RMK SC2SC4AC2 SLP119<br><br>
TAF AMD CYHM 101623Z 1016/1112 25015G25KT P6SM -SN SCT015 BKN040 TEMPO 1016/1018 11/2SM -SN BKN015 OVC040 FM101800 26015G30KT P6SM -SN BKN030 OVC050 TEMPO 1018/1106 21/2SM -SN OVC020 PROB30 1103/1105 11/2SM -SHSN VV008 FM110600 33008KT P6SM SCT030 RMK NXT FCST BY 101800Z<br><br>
<br><br>
KIAG 101505Z 1015/1112 26015G23KT P6SM BKN070 FM110000 25015G23KT P6SM BKN035 FM110200 25015G23KT P6SM VCSH BKN035 FM110500 28012KT P6SM VCSH BKN035 FM110700 31008KT P6SM BKN035<br><br>
<br><br>
KBUF 101654Z 27013G24KT 9SM -SN FEW038 BKN050 OVC070 M02/M07 A2983 RMK AO2 SLP109 PCPN VRY LGT P0000 T10221072<br><br>
KBUF 101554Z 28013G22KT 9SM -SN BKN046 OVC070 M02/M08 A2986 RMK AO2 PK WND 26031/1523 SLP121 SNB28 P0000 T10221078<br><br>
KBUF 101505Z 1015/1112 26016G24KT P6SM BKN080 FM101900 25016G24KT 2SM -SN OVC015 FM110200 25014G20KT P6SM VCSH OVC035 FM110500 27010KT P6SM VCSH BKN035 FM110800 30007KT P6SM BKN035<br><br>
<br><br>
CYYZ 101700Z 24012G20KT 10SM -SN SCT016 OVC022 M02/M06 A2981 RMK CF4SC4 SLP105<br><br>
CYYZ 101600Z 23016KT 7SM -SN SCT018 OVC035 M03/M07 A2983 RMK CF3SC5 SLP110<br><br>
CYYZ 101518Z 24014G19KT 15SM -SN FEW022 OVC042 M02/M09 A2983 RMK CF1SC7 SLP112<br><br>
TAF CYYZ 101438Z 1015/1118 25012G22KT P6SM FEW015 OVC040 FM101600 25015G25KT P6SM -SN BKN030 OVC060 TEMPO 1016/1101 5SM -SN OVC020 FM110100 25015KT 6SM -SN OVC030 TEMPO 1101/1104 3SM -SN OVC020 PROB30 1102/1104 33012G22KT 11/4SM -SN OVC015 FM110400 35012KT P6SM -SHSN BKN030 FM110600 35010KT P6SM SCT030 FM111500 09008KT P6SM BKN180 RMK NXT FCST BY 101800Z<br><br>
<br><br>
CYOO 101700Z AUTO 25012G17KT 9SM -SN SCT029 BKN036 OVC050 M02/M08 A2980 RMK SLP099<br><br>
CYOO 101600Z AUTO 26012G17KT 9SM -SN BKN039 OVC046 M03/M07 A2982 RMK SLP107<br><br>
CYOO has no TAF <br><br>
<br><br>
CYTR 101700Z 28004KT 8SM -SHSN SCT024 OVC072 M02/M05 A2980 RMK SC4AC4 SLP097<br><br>
CYTR 101641Z 28005KT 6SM -SHSN SCT024 OVC083 M02/M04 A2981 RMK SC4AC4 SLP099<br><br>
CYTR 101600Z 32007KT 1 1/2SM -SHSN OVC021 M03/M05 A2981 RMK SN5SC3 VIS VRB 1-2 SLP101<br><br>
CYTR 101547Z 33007KT 1 1/2SM -SHSN OVC024 M03/M05 A2982 RMK SN5SC3 SLP101<br><br>
TAF AMD CYTR 101602Z 1016/1112 32007KT 6SM -SN SCT012 OVC030 TEMPO 1016/1019 11/2SM -SHSN BKN012 OVC025 BECMG 1017/1019 25015G25KT FM101900 25015G25KT P6SM -SN SCT020 BKN070 TEMPO 1019/1023 3SM -SHSN BKN020 FM102300 26015G25KT P6SM FEW015 BKN030 TEMPO 1023/1102 11/2SM -SHSN BKN012 OVC030 FM110200 30012KT P6SM SCT030 BKN050 FM110600 33010KT P6SM SCT050 FM111000 33005KT P6SM FEW220 RMK NXT FCST BY 101800Z<br><br>
<br><br>
