RETRIEVED AT : Mar 15 2020 04:05 Local <br>
  RETRIEVED AT: Mar 15 2020 08:05 UTC<br><br>
CYSN has no TAF <br><br>
<br><br>
CYHM 150700Z 02004KT 15SM SCT140 M02/M06 A3048 RMK AC3 SLP334<br><br>
TAF CYHM 150539Z 1506/1606 02007KT P6SM FEW140 BKN210 FM151200 03012KT P6SM FEW030 FM151800 06015KT P6SM SKC BECMG 1523/1601 05010KT RMK NXT FCST BY 151200Z<br><br>
<br><br>
KIAG 150753Z AUTO 01005KT 10SM CLR M02/M04 A3047 RMK AO2 SLP334 T10171044<br><br>
KIAG 150653Z AUTO 35003KT 10SM CLR M02/M04 A3048 RMK AO2 SLP334 T10171044<br><br>
KIAG 150520Z 1506/1606 36005KT P6SM BKN110 FM150800 02006KT P6SM SCT120 FM151200 04008KT P6SM FEW250 FM160100 VRB03KT P6SM FEW250<br><br>
<br><br>
KBUF 150754Z 35006KT 10SM BKN140 BKN160 00/M04 A3047 RMK AO2 SLP326 T00001039<br><br>
KBUF 150654Z 34006KT 10SM FEW030 BKN140 BKN190 00/M03 A3047 RMK AO2 SLP327 T00001033<br><br>
KBUF 150520Z 1506/1606 01004KT P6SM SCT025 BKN110 FM150900 03006KT P6SM SCT120 FM151300 03008KT P6SM FEW250 FM160100 07005KT P6SM FEW250<br><br>
<br><br>
CYYZ 150700Z 04009KT 15SM BKN140 M01/M06 A3049 RMK AC6 SLP335<br><br>
TAF CYYZ 150539Z 1506/1612 02006KT P6SM FEW120 FM151200 02012KT P6SM SKC BECMG 1518/1520 05008KT FM152100 08011KT P6SM SKC BECMG 1523/1601 11008KT BECMG 1602/1604 06008KT FM160600 05009KT P6SM FEW030 BECMG 1610/1612 11009KT RMK NXT FCST BY 150900Z<br><br>
<br><br>
CYOO 150700Z AUTO 01011KT 9SM OVC150 M01/M07 A3049 RMK SLP331<br><br>
TAF CYOO 150740Z 1508/1520 01010KT P6SM OVC150 FM151200 05005KT P6SM SKC BECMG 1513/1515 04008KT BECMG 1518/1520 09005KT RMK FCST BASED ON AUTO OBS. NXT FCST BY 151400Z<br><br>
<br><br>
CYTR 150700Z 01008KT 15SM FEW170 M01/M12 A3050 RMK AC1 SLP334<br><br>
TAF CYTR 150530Z 1506/1606 02008KT P6SM SKC RMK NXT FCST BY 151200Z<br><br>
<br><br>
