RETRIEVED AT : Feb 22 2020 14:05 Local <br>
  RETRIEVED AT: Feb 22 2020 19:05 UTC<br><br>
CYSN 221800Z 23022G27KT 15SM FEW030 SCT250 03/M03 A3017 RMK SC2CI2 SLP223<br><br>
TAF CYSN 221338Z 2214/2302 24010G20KT P6SM SKC FM221700 24012G22KT P6SM SCT025 RMK NXT FCST BY 222000Z<br><br>
<br><br>
CYHM 221800Z 24016KT 15SM FEW040 FEW250 04/M05 A3014 RMK CF1CI1 CF TR SLP218<br><br>
TAF CYHM 221742Z 2218/2318 24012G22KT P6SM SKC BECMG 2305/2307 24010KT FM230900 24010KT P6SM BKN220 FM231500 23010G20KT P6SM SCT030 BKN180 RMK NXT FCST BY 230000Z<br><br>
<br><br>
KIAG 221853Z 23024G30KT 10SM BKN026 02/M04 A3016 RMK AO2 PK WND 22030/1853 SLP227 T00171039<br><br>
KIAG 221753Z 23016G27KT 10SM BKN026 02/M04 A3017 RMK AO2 PK WND 23028/1658 SLP232 T00171044 10022 21022 58013<br><br>
KIAG 221722Z 2218/2318 23018G26KT P6SM BKN025 FM221900 23016G24KT P6SM SCT030 FM222300 23014G22KT P6SM SKC FM231200 22014G22KT P6SM SCT200<br><br>
<br><br>
KBUF 221854Z 24022G32KT 10SM FEW027 02/M06 A3016 RMK AO2 PK WND 23036/1830 SLP222 T00221061<br><br>
KBUF 221754Z 22025G31KT 10SM SCT024 02/M06 A3019 RMK AO2 PK WND 23035/1718 SLP231 T00171056 10022 21006 58011<br><br>
KBUF 221717Z 23020G34KT 10SM SCT024 02/M05 A3021 RMK AO2 PK WND 23034/1717 T00171050<br><br>
KBUF 221722Z 2218/2318 24020G30KT P6SM SCT025 FM222000 24016G24KT P6SM SCT030 FM230100 23014G22KT P6SM SKC FM231200 22014G22KT P6SM SCT200<br><br>
<br><br>
CYYZ 221800Z 22014G20KT 15SM FEW250 04/M05 A3013 RMK CI2 SLP211<br><br>
TAF CYYZ 221742Z 2218/2324 24012G22KT P6SM SKC BECMG 2302/2304 23010KT FM230900 23010KT P6SM BKN270 FM231500 22010G20KT P6SM SCT030 BKN180 FM232100 22012G22KT P6SM SCT030 RMK NXT FCST BY 222100Z<br><br>
<br><br>
CYOO 221800Z AUTO 21012G17KT 9SM CLR 02/M05 A3013 RMK SLP210<br><br>
TAF CYOO 221339Z 2214/2302 25010KT P6SM SKC FM221600 25012G22KT P6SM SCT030 TEMPO 2216/2221 BKN030 BECMG 2300/2302 23012KT RMK FCST BASED ON AUTO OBS. NXT FCST BY 222000Z<br><br>
<br><br>
CYTR 221800Z 23014KT 15SM SKC 01/M05 A3013 RMK SLP209<br><br>
TAF CYTR 221730Z 2218/2318 22010KT P6SM FEW250 BECMG 2221/2223 25008KT FM231200 26008KT P6SM SCT020 BKN300 BECMG 2315/2317 24010G20KT RMK NXT FCST BY 230000Z<br><br>
<br><br>
