RETRIEVED AT : Nov 12 2017 07:10 Local <br>
  RETRIEVED AT: Nov 12 2017 12:10 UTC<br><br>
CYSN 121200Z 16004KT 15SM OVC080 02/M04 A3035 RMK AC8 SLP284<br><br>
CYSN has no TAF <br><br>
<br><br>
CYHM 121200Z 10002KT 15SM SCT059 OVC078 M00/M04 A3033 RMK SC3AC5 SLP283<br><br>
CYHM 121100Z 00000KT 15SM OVC047 00/M04 A3033 RMK SC8 SLP285<br><br>
TAF CYHM 121138Z 1212/1312 VRB03KT P6SM OVC040 FM121700 23005KT P6SM BKN040 OVC060 FM121900 23005KT P6SM -RA OVC040 TEMPO 1219/1222 5SM -RASN FM122200 05005KT 4SM -RASN BKN015 OVC025 FM130100 04005KT 3SM -SNRA OVC008 PROB30 1301/1304 2SM -SNRA BR OVC005 FM130400 03005KT 2SM -SNRA BR OVC005 FM131000 VRB03KT 2SM -DZ BR OVC003 PROB30 1310/1312 2SM -FZDZ BR RMK NXT FCST BY 121800Z<br><br>
<br><br>
KIAG 121153Z 13005KT 10SM OVC060 02/M08 A3036 RMK AO2 SLP294 T00171083 10017 20006 51007 $<br><br>
KIAG 121053Z AUTO 00000KT 10SM OVC060 01/M08 A3035 RMK AO2 SLP293 T00111083 $<br><br>
KIAG 121136Z 1212/1312 00000KT P6SM OVC060 FM121500 17004KT P6SM OVC045 FM130000 VRB03KT P6SM VCSH OVC045 FM130300 VRB03KT 4SM -RASN OVC035 FM130700 VRB03KT P6SM OVC030<br><br>
<br><br>
KBUF 121154Z 16005KT 10SM OVC050 M01/M09 A3036 RMK AO2 SLP291 T10061089 11006 21017 51007<br><br>
KBUF 121054Z 16005KT 10SM OVC075 M01/M09 A3035 RMK AO2 SLP288 T10061089<br><br>
KBUF 121136Z 1212/1312 16005KT P6SM OVC060 FM121500 19005KT P6SM OVC045 FM130000 00000KT P6SM VCSH OVC045 FM130300 00000KT 4SM -RASN OVC045 FM130700 VRB03KT P6SM OVC035<br><br>
<br><br>
CYYZ 121200Z 00000KT 15SM OVC050 01/M05 A3034 RMK SC8 SLP282<br><br>
CYYZ 121100Z 26002KT 15SM BKN044 OVC080 01/M05 A3034 RMK SC6AC2 SLP284<br><br>
TAF CYYZ 121138Z 1212/1318 VRB03KT P6SM OVC050 TEMPO 1212/1213 P6SM -SN FM121600 15005KT P6SM OVC040 TEMPO 1220/1222 P6SM -RASN FM122200 17005KT 6SM -RASN OVC030 FM130100 22007KT 4SM -SNRA OVC025 PROB30 1301/1304 2SM -SN OVC015 FM130400 VRB03KT 3SM -SNRA BR FEW008 OVC015 PROB30 1304/1310 2SM -SN BR OVC008 FM131000 29005KT P6SM BKN010 OVC050 FM131400 27008KT P6SM BKN015 RMK NXT FCST BY 121500Z<br><br>
<br><br>
CYOO 121200Z AUTO 07002KT 9SM SCT046 BKN055 OVC072 00/M04 A3034 RMK SLP284<br><br>
CYOO 121100Z AUTO 05002KT 9SM OVC050 00/M04 A3034 RMK SLP283<br><br>
CYOO has no TAF <br><br>
<br><br>
CYTR 121200Z 02002KT 15SM OVC056 M01/M06 A3038 RMK SC8 SLP294<br><br>
CYTR 121100Z 03003KT 15SM OVC063 M01/M06 A3037 RMK SC8 SLP291<br><br>
TAF CYTR 121130Z 1212/1312 VRB03KT P6SM OVC060 FM122000 17005KT P6SM SCT030 BKN060 BECMG 1223/1301 06004KT FM130700 06006KT P6SM -RASN BKN020 OVC040 RMK NXT FCST BY 121800Z<br><br>
<br><br>
