RETRIEVED AT : Sep 23 2017 13:10 Local <br>
  RETRIEVED AT: Sep 23 2017 17:10 UTC<br><br>
CYSN 231700Z 26007KT 230V300 15SM FEW060 FEW150 31/17 A3012 RMK SC1AC1 SLP200 DENSITY ALT 2000FT<br><br>
CYSN 231600Z 26007KT 190V280 15SM SKC 29/15 A3012 RMK SLP201 DENSITY ALT 1900FT<br><br>
TAF CYSN 231238Z 2313/2401 22007KT P6SM FEW120 RMK NXT FCST BY 232000Z<br><br>
<br><br>
CYHM 231700Z 28006KT 210V290 15SM FEW060 FEW075 FEW250 29/18 A3015 RMK CU1AC1CI1 CI TR SLP209 DENSITY ALT 2300FT<br><br>
CYHM 231600Z 27006KT 15SM FEW035 FEW150 FEW250 28/16 A3016 RMK CF1AC1CI1 CF TR CI TR SLP212 DENSITY ALT 2200FT<br><br>
TAF CYHM 231139Z 2312/2412 27005KT P6SM SKC BECMG 2316/2318 06006KT BECMG 2400/2402 VRB03KT RMK NXT FCST BY 231800Z<br><br>
<br><br>
KIAG 231653Z 24005KT 8SM CLR 30/16 A3014 RMK AO2 SLP200 T03000161<br><br>
KIAG 231553Z 25006KT 10SM CLR 28/17 A3014 RMK AO2 SLP203 T02780172<br><br>
KIAG 231502Z 2315/2412 22006KT P6SM SCT250 FM231700 24008KT P6SM SCT100 FM240100 20004KT P6SM SKC FM240700 VRB03KT 3SM BR SKC<br><br>
<br><br>
KBUF 231654Z VRB04KT 10SM FEW250 28/14 A3015 RMK AO2 SLP207 T02780144<br><br>
KBUF 231554Z 24006KT 10SM FEW250 27/14 A3015 RMK AO2 SLP207 T02670139<br><br>
KBUF 231502Z 2315/2412 22005KT P6SM SCT250 FM231700 24009KT P6SM SCT100 FM240100 20004KT P6SM SKC<br><br>
<br><br>
CYYZ 231700Z 33003KT 270V060 15SM SCT140 BKN250 31/15 A3012 RMK AC4CC1 SLP198 DENSITY ALT 2400FT<br><br>
CYYZ 231600Z 29005KT 240V020 15SM FEW060 FEW150 31/14 A3013 RMK SC1AC1 SLP200 DENSITY ALT 2300FT<br><br>
TAF CYYZ 231441Z 2315/2418 24005KT P6SM FEW140 BECMG 2316/2318 16008KT FM231900 15007KT P6SM SCT050 TEMPO 2320/2323 P6SM -SHRA BKN050 BECMG 2400/2402 VRB03KT FM241600 16008KT P6SM SKC RMK NXT FCST BY 231800Z<br><br>
<br><br>
CYOO 231700Z AUTO 21006KT 130V240 9SM FEW140 29/17 A3012 RMK SLP199 DENSITY ALT 1900FT<br><br>
CYOO 231600Z AUTO 27006KT 240V320 9SM CLR 28/16 A3012 RMK SLP199 DENSITY ALT 1800FT<br><br>
CYOO has no TAF <br><br>
<br><br>
CYTR 231700Z 19008KT 15SM SKC 26/20 A3009 RMK SLP190<br><br>
CYTR 231600Z 20008KT 15SM FEW250 25/19 A3009 RMK CI1 SLP192<br><br>
TAF CYTR 231130Z 2312/2412 VRB03KT P6SM FEW120 SCT250 FM231300 VRB03KT P6SM FEW030 FEW120 TEMPO 2313/2316 BKN030 BKN120 BECMG 2314/2316 23008KT FM231600 23008KT P6SM FEW030 BECMG 2400/2402 VRB03KT RMK NXT FCST BY 231800Z<br><br>
<br><br>
