RETRIEVED AT : Jun 01 2018 03:37 Local <br>
  RETRIEVED AT: Jun 01 2018 07:37 UTC<br><br>
CYSN has no TAF <br><br>
<br><br>
TAF CYHM 010538Z 0106/0206 18006KT P6SM SCT060 TEMPO 0106/0108 5SM -SHRA BR BKN040 FM010800 VRB03KT 6SM BR FEW020 TEMPO 0108/0113 2SM BR PROB30 0108/0113 3/4SM BR FM011300 VRB03KT P6SM BKN025 OVC160 FM011600 04010KT P6SM -SHRA BKN060 PROB30 0117/0122 VRB15G25KT 2SM TSRA BR BKN060CB FM012300 02010G20KT P6SM BKN030 BECMG 0204/0206 03015G25KT RMK NXT FCST BY 011200Z<br><br>
<br><br>
KIAG 010653Z AUTO 20008KT 10SM CLR 23/19 A2974 RMK AO2 SLP063 T02280189<br><br>
KIAG 010553Z AUTO 20008KT 10SM CLR 23/19 A2974 RMK AO2 SLP064 T02330189 10239 20228 56003<br><br>
KIAG 010534Z 0106/0206 20008KT P6SM SCT014 FM011400 22006KT P6SM SCT025 BKN035 FM011700 30006KT 4SM -SHRA VCTS BKN050CB FM012000 33007KT P6SM BKN045 FM020200 34008KT P6SM BKN025<br><br>
<br><br>
KBUF 010654Z 20005KT 10SM FEW120 BKN250 22/19 A2975 RMK AO2 SLP070 T02170194<br><br>
KBUF 010554Z 19006KT 10SM FEW140 BKN250 22/19 A2975 RMK AO2 SLP071 T02170194 10228 20211 56004<br><br>
KBUF 010534Z 0106/0206 19008KT P6SM SCT140 SCT250 FM011200 23009KT P6SM BKN025 FM011800 23008KT P6SM BKN035 FM012300 31006KT P6SM BKN025 FM020500 02007KT P6SM BKN020<br><br>
<br><br>
CYYZ 010700Z 14004KT 15SM SCT110 20/18 A2971 RMK AC4 SLP059 DENSITY ALT 1600FT<br><br>
CYYZ 010600Z 15003KT 15SM BKN110 21/18 A2973 RMK AC6 SLP066 DENSITY ALT 1600FT<br><br>
TAF CYYZ 010538Z 0106/0212 18005KT P6SM SCT060 TEMPO 0106/0108 P6SM -SHRA BKN040 FM010800 VRB03KT 6SM BR FEW030 TEMPO 0108/0112 3SM BR PROB30 0108/0112 3/4SM BR FM011200 VRB03KT P6SM FEW006 FM011600 35010KT P6SM SCT015 BKN050 TEMPO 0116/0118 P6SM -SHRA BKN015 FM011800 36012KT P6SM SCT050 TEMPO 0118/0120 P6SM -SHRA BKN040 BECMG 0121/0123 36012G22KT FM020400 36012G22KT P6SM BKN030 BECMG 0210/0212 03008G18KT RMK NXT FCST BY 010900Z<br><br>
<br><br>
CYOO 010700Z AUTO VRB02KT 9SM BKN065 18/17 A2973 RMK SLP067 DENSITY ALT 1100FT<br><br>
CYOO 010600Z AUTO 10002KT 9SM CLR 18/17 A2973 RMK SLP068 DENSITY ALT 1100FT<br><br>
CYOO has no TAF <br><br>
<br><br>
TAF CYTR 010530Z 0106/0206 VRB03KT P6SM BKN120 TEMPO 0108/0110 SCT006 BKN020 FM011000 VRB03KT 5SM BR BKN006 OVC012 TEMPO 0110/0115 P6SM NSW FEW006 SCT012 BKN030 FM011500 21008KT P6SM SCT030 FM020000 03010KT P6SM BKN030 RMK NXT FCST BY 011200Z<br><br>
<br><br>
