RETRIEVED AT : Oct 01 2017 14:10 Local <br>
  RETRIEVED AT: Oct 01 2017 18:10 UTC<br><br>
CYSN 011800Z 02006KT 360V150 15SM FEW030 FEW250 17/06 A3035 RMK CU1CI2 CU TR SLP280<br><br>
CYSN 011700Z 17003KT 15SM FEW120 SCT250 18/05 A3038 RMK AC1CI2 SLP291<br><br>
TAF CYSN 011238Z 0113/0201 VRB03KT P6SM FEW030 BECMG 0115/0116 12005KT RMK NXT FCST BY 012000Z<br><br>
<br><br>
CYHM 011800Z VRB02KT 15SM FEW035 SCT250 17/06 A3035 RMK CU1CI3 SLP281<br><br>
CYHM 011700Z 18003KT 090V240 15SM FEW030 FEW030 FEW100 SCT250 17/07 A3037 RMK CU1SC1AC1CI2 CU TR AC TR SLP289<br><br>
TAF CYHM 011740Z 0118/0218 VRB03KT P6SM FEW030 BECMG 0215/0217 14010KT RMK NXT FCST BY 020000Z<br><br>
<br><br>
KIAG 011753Z 03004KT 10SM CLR 18/03 A3036 RMK AO2 SLP286 T01780028 10178 20044 58021<br><br>
KIAG 011653Z 08004KT 10SM CLR 18/05 A3039 RMK AO2 SLP295 T01780050<br><br>
KIAG 011720Z 0118/0218 06005KT P6SM SKC FM020100 VRB03KT P6SM SKC FM021300 14004KT P6SM SCT200<br><br>
<br><br>
KBUF 011754Z 00000KT 10SM FEW050 FEW220 FEW270 16/03 A3036 RMK AO2 SLP284 T01610028 10167 20044 58023 $<br><br>
KBUF 011654Z 03004KT 10SM FEW050 FEW200 16/03 A3039 RMK AO2 SLP295 T01560033 $<br><br>
KBUF 011720Z 0118/0218 VRB03KT P6SM SKC FM012100 04005KT P6SM SKC FM020200 VRB03KT P6SM SKC FM021300 14004KT P6SM SCT200<br><br>
<br><br>
CYYZ 011800Z 20006KT 160V240 15SM FEW040 SCT260 16/06 A3035 RMK CF1CI3 CF TR SLP283<br><br>
CYYZ 011700Z 14006KT 120V220 15SM FEW040 SCT250 16/06 A3037 RMK CF1CI3 CF TR SLP290<br><br>
TAF CYYZ 011740Z 0118/0224 VRB03KT P6SM FEW040 FM021600 12010KT P6SM SCT180 RMK NXT FCST BY 012100Z<br><br>
<br><br>
CYOO 011800Z AUTO 22003KT 170V280 9SM CLR 16/05 A3036 RMK SLP284<br><br>
CYOO 011700Z AUTO 23004KT 130V260 9SM CLR 16/05 A3038 RMK SLP292<br><br>
CYOO has no TAF <br><br>
<br><br>
CYTR 011800Z 21008KT 15SM FEW050 FEW250 16/07 A3036 RMK SC1CI1 SLP282<br><br>
CYTR 011700Z 27004KT 15SM FEW050 FEW250 16/06 A3039 RMK SC1CI1 SLP293<br><br>
TAF CYTR 011730Z 0118/0218 28005KT P6SM FEW050 FEW250 BECMG 0118/0120 22008KT BECMG 0123/0201 VRB03KT FM020800 03005KT P6SM SKC TEMPO 0208/0212 4SM BR PROB30 0208/0212 1/2SM FG FM021600 13006KT P6SM SKC RMK NXT FCST BY 020000Z<br><br>
<br><br>
