RETRIEVED AT : Mar 15 2020 18:05 Local <br>
  RETRIEVED AT: Mar 15 2020 22:05 UTC<br><br>
CYSN 152100Z 06010KT 15SM SKC 02/M15 A3061 RMK SLP371<br><br>
TAF CYSN 151938Z 1520/1601 04015KT P6SM SKC BECMG 1523/1601 08008KT RMK NXT FCST WILL BE ISSUED AT 161245Z<br><br>
<br><br>
CYHM 152100Z 07010G15KT 15SM FEW240 02/M11 A3058 RMK CI1 SLP368<br><br>
TAF CYHM 151739Z 1518/1618 05010G20KT P6SM SKC BECMG 1523/1601 05010KT RMK NXT FCST BY 160000Z<br><br>
<br><br>
KIAG 152153Z 03011KT 10SM CLR 02/M14 A3059 RMK AO2 SLP373 T00171144<br><br>
KIAG 152053Z 03012KT 10SM CLR 02/M12 A3060 RMK AO2 SLP376 T00171122 56009<br><br>
KIAG 152130Z 1522/1618 04012KT P6SM SKC FM160000 10005KT P6SM SKC FM161400 13005KT P6SM SCT250<br><br>
<br><br>
KBUF 152154Z 03013KT 10SM FEW200 02/M13 A3058 RMK AO2 SLP364 T00221133<br><br>
KBUF 152054Z 02009KT 10SM FEW200 03/M12 A3058 RMK AO2 SLP364 T00331122 56009<br><br>
KBUF 152129Z 1521/1618 03010KT P6SM SKC FM160000 06004KT P6SM SKC FM161400 14006KT P6SM SCT250<br><br>
<br><br>
CYYZ 152100Z 17013KT 15SM FEW230 02/M10 A3061 RMK CI1 CI TR SLP374<br><br>
CYYZ 152022Z 15011G17KT 15SM FEW230 02/M11 A3060 RMK CI1 CI TR SLP373<br><br>
CYYZ 152016Z 16013KT 15SM FEW230 03/M11 A3061 RMK CI1 CI TR WSHFT 2000 SLP374<br><br>
TAF CYYZ 152040Z 1521/1624 17010G20KT P6SM SKC TEMPO 1521/1523 35010G20KT BECMG 1523/1601 08008KT FM161100 10012KT P6SM SKC BECMG 1612/1614 11010G20KT BECMG 1623/1624 09008KT RMK NXT FCST BY 160000Z<br><br>
<br><br>
CYOO 152100Z AUTO 01004KT 340V080 9SM CLR 03/M15 A3061 RMK SLP374<br><br>
TAF CYOO 151938Z 1520/1608 08006KT P6SM SKC BECMG 1600/1602 VRB03KT BECMG 1604/1606 07008KT RMK FCST BASED ON AUTO OBS. NXT FCST BY 160200Z<br><br>
<br><br>
CYTR 152100Z 02006KT 15SM SKC 03/M16 A3063 RMK SLP377<br><br>
TAF CYTR 151730Z 1518/1618 05008KT P6SM SKC BECMG 1609/1611 SCT240 BECMG 1614/1616 10008KT RMK NXT FCST BY 160000Z<br><br>
<br><br>
