RETRIEVED AT : Sep 09 2018 14:05 Local <br>
  RETRIEVED AT: Sep 09 2018 18:05 UTC<br><br>
CYSN 091700Z 09013KT 15SM FEW025 FEW120 OVC220 14/08 A3020 RMK SC1AC1CI6 SLP228<br><br>
TAF CYSN 091238Z 0913/1001 08010G20KT P6SM FEW025 OVC250 BECMG 0914/0916 08015G25KT FM092100 09015G25KT P6SM -RA SCT030 OVC100 RMK NXT FCST BY 092000Z<br><br>
<br><br>
CYHM 091700Z 07020G27KT 15SM FEW030 OVC190 14/07 A3019 RMK SC1AC8 SC TR SLP227<br><br>
TAF CYHM 091745Z 0918/1018 08020G30KT P6SM FEW030 OVC200 FM092300 09018G28KT P6SM BKN040 OVC100 FM100200 07015G25KT P6SM -RA BKN020 OVC060 FM100400 07015G25KT 5SM -RA BR BKN008 OVC015 FM100600 07015G25KT 2SM -RA BR OVC004 PROB30 1008/1012 1/4SM SHRA FG VV001 FM101200 08015G25KT 3SM -DZ BR OVC005 RMK NXT FCST BY 100000Z<br><br>
<br><br>
KIAG 091753Z 08016G20KT 10SM CLR 14/07 A3020 RMK AO2 SLP231 T01440067 10150 20106 58006<br><br>
KIAG 091653Z 08012KT 10SM CLR 14/07 A3020 RMK AO2 SLP233 T01390072<br><br>
KIAG 091733Z 0918/1018 08014G20KT P6SM OVC150 FM092200 08012KT P6SM OVC100 FM100300 10012KT 6SM -RA OVC060 FM100700 10014G22KT 2SM +RA BR OVC025 FM101200 10016G24KT 6SM -RA OVC015 FM101700 10014G22KT P6SM VCSH BKN025<br><br>
<br><br>
KBUF 091754Z 08012KT 10SM FEW050 BKN160 BKN200 OVC240 15/07 A3019 RMK AO2 SLP224 T01500067 10150 20106 58007<br><br>
KBUF 091654Z 08013G21KT 10SM FEW050 FEW100 BKN150 OVC200 14/07 A3020 RMK AO2 SLP227 T01440072<br><br>
KBUF 091733Z 0918/1018 08014G20KT P6SM OVC150 FM092200 09012KT P6SM OVC100 FM100200 10010KT 6SM -RA OVC060 FM100600 09014KT 2SM +RA BR OVC025 FM101200 10014G22KT 6SM -RA OVC015 FM101700 11012G20KT P6SM VCSH BKN025<br><br>
<br><br>
CYYZ 091700Z 08013G25KT 15SM FEW025 BKN038 OVC180 15/10 A3022 RMK CF1SC5AS3 CF TR SLP238<br><br>
TAF CYYZ 091745Z 0918/1024 09015G25KT P6SM FEW030 OVC200 TEMPO 0918/0921 BKN030 OVC200 BECMG 0922/0924 08015KT FM100300 09012G22KT P6SM BKN030 OVC100 FM100600 10012G22KT P6SM -RA BKN020 OVC070 FM100800 10018G28KT 5SM -RA BR OVC008 PROB40 1008/1014 2SM -RA BR BKN003 OVC008 FM101400 10018G28KT 5SM -DZ BR OVC006 PROB30 1014/1020 BKN003 FM102000 10012G22KT 5SM -DZ BR OVC006 PROB30 1020/1023 BKN003 FM102300 09010KT 5SM BR OVC006 PROB30 1023/1024 BKN003 RMK NXT FCST BY 092100Z<br><br>
<br><br>
CYOO 091700Z AUTO 08013G23KT 9SM CLR 15/07 A3026 RMK SLP251<br><br>
CYOO has no TAF <br><br>
<br><br>
CYTR 091700Z 07008KT 15SM FEW025 BKN150 OVC200 15/05 A3030 RMK SC1AS6CI2 SLP262<br><br>
TAF CYTR 091730Z 0918/1018 07010G20KT P6SM FEW025 OVC200 BECMG 0922/0924 07010KT FM100400 08010KT P6SM FEW040 OVC150 FM101000 12010KT P6SM -RA BKN030 OVC060 FM101300 12015KT 3SM -RA BR SCT006 OVC012 RMK NXT FCST BY 100000Z<br><br>
<br><br>
