RETRIEVED AT : Dec 05 2017 11:10 Local <br>
  RETRIEVED AT: Dec 05 2017 16:10 UTC<br><br>
CYSN 051600Z 19020G30KT 15SM OVC034 11/08 A2970 RMK SC8 SLP059<br><br>
CYSN 051500Z 19023G33KT 15SM OVC032 10/08 A2973 RMK SC8 SLP069<br><br>
CYSN 051428Z 19020G32KT 15SM OVC026 10/08 A2973 RMK SC8 SLP069<br><br>
TAF CYSN 051350Z 0514/0602 21020G35KT P6SM BKN030 OVC080 TEMPO 0514/0516 5SM -SHRA BR BKN012 OVC030 FM051900 23025G40KT P6SM BKN040 BKN240 BECMG 0523/0601 24020G30KT RMK NXT FCST BY 052000Z<br><br>
<br><br>
TAF CYHM 051139Z 0512/0612 19018G28KT P6SM SCT012 OVC030 TEMPO 0512/0516 5SM -SHRA BR BKN012 OVC030 BECMG 0513/0515 21020G35KT FM051600 23025G40KT P6SM SCT012 BKN240 TEMPO 0516/0521 BKN012 FM052100 24020G30KT P6SM SCT020 TEMPO 0521/0524 6SM -SHSNRA BKN020 FM060000 24018G28KT P6SM BKN030 FM060700 24015G25KT P6SM FEW040 RMK NXT FCST BY 051800Z<br><br>
<br><br>
KIAG 051553Z 19019G30KT 10SM OVC027 11/07 A2974 RMK AO2 PK WND 18030/1544 SLP074 T01110067<br><br>
KIAG 051453Z 19022G28KT 10SM BKN029 BKN050 OVC075 11/07 A2976 RMK AO2 PK WND 19029/1414 RAE52 SLP080 P0000 60014 T01060067 58010<br><br>
KIAG 051504Z 0515/0612 20023G32KT P6SM BKN025 OVC035 FM051900 22020G35KT P6SM OVC050 FM052000 23020G30KT P6SM OVC140 FM060800 25020G35KT P6SM SCT090<br><br>
<br><br>
KBUF 051554Z 19021G28KT 10SM FEW013 BKN029 OVC060 11/08 A2976 RMK AO2 PK WND 19032/1534 RAE54 SLP080 CIG 027V032 P0000 T01060078<br><br>
KBUF 051454Z 19020G30KT 10SM -RA FEW013 BKN029 OVC060 10/07 A2978 RMK AO2 PK WND 20032/1355 SLP087 PCPN VRY LGT P0002 60009 T01000072 58007<br><br>
KBUF 051451Z 19021G32KT 10SM -RA FEW013 BKN029 OVC060 10/07 A2978 RMK AO2 PK WND 20032/1355 PCPN VRY LGT P0002<br><br>
KBUF 051504Z 0515/0612 20020G35KT P6SM VCSH BKN025 OVC035 FM051800 22019G33KT P6SM OVC025 FM052100 24017G30KT P6SM OVC130 FM060400 26022G35KT P6SM BKN060 FM060900 24020G35KT 1/2SM SN OVC007<br><br>
<br><br>
CYYZ 051600Z 20017G27KT 15SM BKN016 OVC023 11/08 A2964 RMK SF7SF1 SLP043 DENSITY ALT 600FT<br><br>
CYYZ 051500Z 20014G23KT 15SM OVC015 11/08 A2967 RMK SC8 SLP052<br><br>
CYYZ 051440Z 20020G29KT 15SM OVC015 11/08 A2967 RMK SC8 SLP053<br><br>
TAF CYYZ 051441Z 0515/0618 20015G25KT P6SM -SHRA OVC015 TEMPO 0515/0517 P6SM NSW BKN030 FM051700 23025G40KT P6SM BKN040 BKN220 BECMG 0520/0522 23020G35KT FM060000 24020G30KT P6SM BKN030 FM060300 24018G28KT P6SM SCT040 FM061000 24015G25KT P6SM FEW040 BECMG 0615/0616 25020G35KT RMK NXT FCST BY 051800Z<br><br>
<br><br>
CYOO 051600Z AUTO 20015G23KT 9SM OVC018 09/07 A2966 RMK PRESFR SLP048<br><br>
CYOO 051500Z AUTO 20016G22KT 9SM OVC016 08/07 A2970 RMK SLP061<br><br>
CYOO has no TAF <br><br>
<br><br>
CYTR 051600Z 19015G26KT 8SM FEW010 OVC024 09/07 A2974 RMK SF1SC7 SLP074<br><br>
CYTR 051537Z 19015KT 8SM -DZ FEW010 OVC024 09/07 A2975 RMK SF2SC6 SLP077<br><br>
CYTR 051519Z 19015G21KT 8SM -RA FEW010 OVC020 09/07 A2976 RMK SF2SC6 PCPN VRY LGT SLP081<br><br>
CYTR 051500Z 18011G18KT 3SM -RA BR FEW010 OVC020 08/08 A2976 RMK SF2SC6 SLP080<br><br>
TAF AMD CYTR 051239Z 0512/0612 17012G22KT P6SM -RA SCT006 OVC025 TEMPO 0512/0518 11/2SM -RA BR BKN006 OVC015 FM051800 20012G22KT P6SM SCT015 OVC025 TEMPO 0518/0523 P6SM -SHRA BKN015 OVC025 BECMG 0518/0520 24015G25KT FM052300 24018G28KT P6SM SCT015 BKN030 BKN180 FM060400 24018G28KT P6SM SCT030 RMK NXT FCST BY 051800Z<br><br>
<br><br>
