RETRIEVED AT : May 25 2020 07:05 Local <br>
  RETRIEVED AT: May 25 2020 11:05 UTC<br><br>
CYSN has no TAF <br><br>
<br><br>
CYHM 251000Z 21006KT 15SM FEW062 SCT110 BKN250 18/17 A3002 RMK SC2AC1CI3 SLP165 DENSITY ALT 1200FT<br><br>
TAF AMD CYHM 250641Z 2506/2606 20008KT P6SM FEW040 SCT080 TEMPO 2506/2508 P6SM -SHRA VCTS SCT040CB BKN080 FM251600 21012KT P6SM SCT040 FM251900 22012KT P6SM SCT060 TEMPO 2520/2601 P6SM VCTS FEW040CB BKN060 RMK NXT FCST BY 251200Z<br><br>
<br><br>
KIAG 251102Z 21008KT 10SM CLR 18/16 A3003 RMK AO2 T01830156 $<br><br>
KIAG 251053Z 22007KT 10SM VCTS BKN075 18/16 A3003 RMK AO2 RAB05E14 SLP166 LTG DSNT SW MVG SE P0000 T01830156 $<br><br>
KIAG 250953Z AUTO 22007KT 10SM SCT065 BKN080 18/15 A3001 RMK AO2 LTG DSNT SW SLP158 T01830150 $<br><br>
KIAG 250955Z 2510/2606 20012KT P6SM VCTS SCT050CB BKN150 FM251100 21012G18KT P6SM SCT150 FM251800 22010KT P6SM SCT250 FM260000 20005KT P6SM SKC<br><br>
<br><br>
KBUF 251054Z 21006KT 3SM -TSRA BKN050CB BKN070 BKN090 20/16 A3005 RMK AO2 RAB49 TSB45 SLP172 OCNL LTGIC W-OHD TS W-OHD MOV SE P0000 T02000156<br><br>
KBUF 251045Z 21010KT 10SM TS SCT050CB BKN070 BKN090 21/16 A3005 RMK AO2 TSB45 OCNL LTGIC VC W-N TS VC W-N MOV SE T02060156<br><br>
KBUF 250954Z 20008KT 10SM FEW050 BKN095 BKN250 20/15 A3002 RMK AO2 LTG DSNT SW SLP161 T02000150<br><br>
KBUF 251023Z 2510/2606 18012KT P6SM VCTS SCT040CB BKN150 TEMPO 2510/2512 5SM -TSRA OVC040CB FM251200 20010G16KT P6SM SCT150 FM251800 23012KT P6SM SCT250 FM260000 20005KT P6SM SKC<br><br>
<br><br>
CYYZ 251000Z 22011KT 15SM FEW060 FEW100 SCT250 20/18 A2999 RMK SC1AC1CI2 SLP155 DENSITY ALT 1300FT<br><br>
TAF CYYZ 250838Z 2509/2612 18005KT P6SM FEW060 BECMG 2510/2512 24012KT FM252000 20012KT P6SM SCT060 TEMPO 2520/2602 P6SM VCTS FEW040CB BKN060 FM260200 22008KT P6SM FEW060 BECMG 2604/2606 13007KT FM260900 09006KT P6SM FEW080 PROB30 2609/2612 3/4SM BR RMK NXT FCST BY 251200Z<br><br>
<br><br>
CYOO 251000Z AUTO 14003KT 120V180 9SM FEW060 16/15 A2999 RMK SLP158 DENSITY ALT 500FT<br><br>
TAF CYOO 250738Z 2508/2520 VRB03KT P6SM FEW020 SCT080 FM251800 21010KT P6SM SCT060 TEMPO 2518/2520 P6SM VCTS FEW040CB BKN060 RMK FCST BASED ON AUTO OBS. NXT FCST BY 251400Z<br><br>
<br><br>
CYTR 251000Z CCA 12005KT 15SM FEW016 FEW065 BKN250 16/13 A3002 RMK CU1SC2CI5 CVCTV CLD TOPS DIST W SLP165<br><br>
CYTR 250926Z 13005KT 7SM FEW016 BKN046 BKN075 16/13 A3001 RMK CU1SC6AC2 CVCTV CLD TOPS DIST W SLP162<br><br>
TAF AMD CYTR 251020Z 2510/2606 12005KT P6SM FEW012 BKN250 TEMPO 2510/2515 5SM BR BKN012 OVC250 FM251500 20005KT P6SM FEW015 BECMG 2515/2517 22010KT FEW015 FM251900 22010KT P6SM FEW040 BECMG 2600/2602 VRB03KT RMK NXT FCST BY 251200Z<br><br>
<br><br>
