RETRIEVED AT : Jun 05 2019 14:05 Local <br>
  RETRIEVED AT: Jun 05 2019 18:05 UTC<br><br>
CYSN 051742Z 21007KT 10SM SCT070 OVC100 20/18 A2968 RMK AC3AC5 SLP051 DENSITY ALT 1300FT<br><br>
CYSN 051700Z 19010KT 10SM -SHRA SCT045 BKN060 OVC100 21/17 A2969 RMK SC3SC3AC2 CVCTV CLD EMBD SLP056 DENSITY ALT 1400FT<br><br>
CYSN 051619Z 21009KT 10SM -SHRA SCT045 BKN065 OVC100 21/17 A2972 RMK SC3SC3AC2 CVCTV CLD EMBD SLP065 DENSITY ALT 1400FT<br><br>
TAF CYSN 051238Z 0513/0601 22012KT P6SM OVC070 FM051700 22010G20KT P6SM -SHRA OVC060 TEMPO 0517/0520 5SM -SHRA BR FM052200 22010G20KT P6SM -SHRA OVC030 TEMPO 0522/0601 4SM SHRA BR OVC020 PROB30 0522/0601 VRB20G35KT 1SM +TSRA BR BKN008 OVC020CB RMK NXT FCST BY 052000Z<br><br>
<br><br>
CYHM 051747Z 22009KT 1SM R12/3000VP6000FT/U RA BR FEW003 VV006 17/17 A2971 RMK SF2FG6 SLP061 DENSITY ALT 1500FT<br><br>
CYHM 051733Z 23008KT 1/2SM R12/4000VP6000FT/D +RA BR VV006 17/17 A2971 RMK FG8 PRESRR SLP062 DENSITY ALT 1500FT<br><br>
CYHM 051731Z 24011KT 180V250 1 1/2SM R12/5500VP6000FT/D +RA BR VV006 17/17 A2972 RMK FG8 PRESRR SLP064 DENSITY ALT 1500FT<br><br>
CYHM 051724Z 21005KT 160V220 6SM -RA SCT006 OVC027 18/17 A2970 RMK SC3SC5 SLP058 DENSITY ALT 1600FT<br><br>
CYHM 051700Z 16007KT 7SM FEW008 OVC022 18/18 A2969 RMK SF2SC6 SLP054 DENSITY ALT 1700FT<br><br>
CYHM 051634Z 18007KT 6SM -SHRA BR FEW006 OVC022 18/18 A2971 RMK SF2SC6 CVCTV CLD EMBD SLP060 DENSITY ALT 1600FT<br><br>
TAF CYHM 051738Z 0518/0618 17010KT 6SM -SHRA BR FEW008 OVC025 TEMPO 0518/0519 11/2SM SHRA BR OVC008 FM051900 20010KT P6SM SCT008 OVC030 TEMPO 0519/0520 P6SM -SHRA OVC008 FM052000 21012G22KT P6SM -SHRA SCT020 BKN040 TEMPO 0520/0524 3SM SHRA BR SCT020 OVC040 PROB30 0520/0524 VRB20G35KT 1SM +TSRA BR OVC008CB FM060000 28012G22KT P6SM BKN015 TEMPO 0600/0601 P6SM -SHRA BECMG 0601/0603 33012KT FM060600 02008KT 6SM BR SCT006 OVC012 FM061500 04008KT P6SM BKN020 FM061700 05010KT P6SM SCT030 RMK NXT FCST BY 060000Z<br><br>
<br><br>
KIAG 051753Z 20007KT 10SM -RA FEW039 OVC110 20/16 A2969 RMK AO2 RAB00 SLP053 P0001 60001 T02000161 10233 20172 58015<br><br>
KIAG 051653Z 19008KT 10SM SCT065 BKN090 21/15 A2972 RMK AO2 RAB17E38 SLP061 P0000 T02110150<br><br>
KIAG 051740Z 0518/0618 20008KT P6SM OVC120 TEMPO 0518/0519 4SM -SHRA OVC035 FM052200 22006KT 4SM -SHRA OVC025 FM060100 27004KT P6SM OVC007 FM061300 01005KT P6SM BKN015 FM061700 01006KT P6SM SCT025<br><br>
<br><br>
KBUF 051754Z 17013KT 10SM -RA FEW045 FEW060 FEW085 OVC130 21/15 A2969 RMK AO2 SLP053 PCPN VRY LGT P0000 60000 T02110150 10244 20167 58019<br><br>
KBUF 051654Z 22009KT 10SM -RA FEW045 BKN060 BKN085 OVC130 22/15 A2974 RMK AO2 RAB47 SLP067 P0000 T02170150<br><br>
KBUF 051740Z 0518/0618 23007KT P6SM SCT070 OVC090 TEMPO 0518/0519 4SM -SHRA OVC035 FM052200 23006KT 6SM -SHRA OVC020 FM060100 26006KT P6SM OVC007 FM061300 01004KT P6SM BKN012<br><br>
<br><br>
CYYZ 051700Z 14006KT 10SM -SHRA BKN038 OVC060 16/14 A2970 RMK SC7SC1 CVCTV CLD EMBD SLP060 DENSITY ALT 1100FT<br><br>
CYYZ 051639Z 15012G18KT 10SM -SHRA BKN050 OVC110 17/14 A2971 RMK SC7AC1 CVCTV CLD EMBD SLP061 DENSITY ALT 1200FT<br><br>
TAF CYYZ 051738Z 0518/0624 15010KT P6SM -SHRA BKN030 OVC060 TEMPO 0518/0519 21/2SM SHRA BR OVC030 FM051900 17012KT P6SM SCT020 OVC040 TEMPO 0519/0521 6SM -SHRA BR OVC020 FM052100 21012KT P6SM -SHRA SCT012 OVC040 TEMPO 0521/0524 4SM SHRA BR PROB30 0521/0524 VRB20G35KT 1SM +TSRA BR OVC008CB FM060000 VRB03KT 6SM -RA BR OVC012 PROB30 0601/0605 2SM -RA BR OVC006 FM060500 34010G20KT P6SM OVC012 FM061200 35010KT P6SM FEW012 FM061600 15008KT P6SM FEW040 BECMG 0622/0624 VRB03KT RMK NXT FCST BY 052100Z<br><br>
<br><br>
CYOO 051700Z AUTO 11007KT 9SM OVC055 15/13 A2973 RMK SLP070 DENSITY ALT 700FT<br><br>
CYOO 051625Z AUTO 12005KT 9SM BKN055 BKN070 15/13 A2974 RMK SLP074 DENSITY ALT 800FT<br><br>
CYOO 051611Z AUTO 13006KT 9SM -RA FEW034 BKN055 BKN071 OVC110 16/13 A2974 RMK SLP074 DENSITY ALT 800FT<br><br>
TAF CYOO 051342Z 0514/0602 VRB03KT P6SM BKN040 BKN080 TEMPO 0514/0516 P6SM -SHRA BKN020 OVC040 FM051600 17008KT P6SM BKN030 FM051800 13012KT P6SM -SHRA BKN040 TEMPO 0518/0522 4SM -SHRA BR FM052200 10010KT 6SM -RA BR SCT006 OVC012 TEMPO 0522/0602 2SM SHRA BR OVC006 BECMG 0601/0602 36008KT RMK FCST BASED ON AUTO OBS. NXT FCST BY 052000Z<br><br>
<br><br>
CYTR 051737Z 11005KT 5SM -SHRA BR SCT020 OVC090 17/13 A2975 RMK SC3AC5 SLP078<br><br>
CYTR 051700Z 07005KT 15SM FEW020 OVC090 18/14 A2975 RMK SC2AC6 SLP077<br><br>
TAF CYTR 051730Z 0518/0618 08005KT P6SM SCT020 OVC090 TEMPO 0518/0523 4SM -SHRA BR OVC020 PROB30 0521/0523 VRB15G25KT 1SM TSRA BR BKN008 OVC025CB FM052300 VRB03KT P6SM -SHRA SCT012 OVC030 TEMPO 0523/0603 3SM SHRA BR OVC012 PROB40 0523/0603 VRB15G25KT 1SM TSRA BR BKN008 OVC025CB FM060300 03010KT P6SM SCT020 BKN030 TEMPO 0603/0609 BKN020 OVC030 FM061200 36008KT P6SM SCT030 RMK NXT FCST BY 060000Z<br><br>
<br><br>
