RETRIEVED AT : Jul 05 2020 20:05 Local <br>
  RETRIEVED AT: Jul 06 2020 00:05 UTC<br><br>
CYSN 052300Z 02003KT 15SM SCT160 BKN260 31/14 A2993 RMK AC3CI3 SLP135 DENSITY ALT 2300FT<br><br>
TAF CYSN 051938Z 0520/0601 32008KT P6SM SCT250 BECMG 0523/0601 07006KT RMK NXT FCST WILL BE ISSUED AT 061245Z<br><br>
<br><br>
CYHM 052300Z 34004KT 15SM BKN300 30/16 A2996 RMK CI5 CC ASOCTD SLP143 DENSITY ALT 2700FT<br><br>
TAF CYHM 052341Z 0600/0624 VRB03KT P6SM BKN250 FM061400 04012KT P6SM SCT100 BKN250 RMK NXT FCST BY 060600Z<br><br>
<br><br>
KIAG 052353Z 04005KT 10SM CLR 29/13 A2996 RMK AO2 SLP137 60000 T02890128 10322 20289 53002<br><br>
KIAG 052253Z 02007KT 10SM CLR 31/13 A2995 RMK AO2 RAB09E18 SLP136 P0000 T03060128<br><br>
KIAG 052338Z 0600/0624 34007KT P6SM SCT250 FM060100 18003KT P6SM SCT200 FM061500 05006KT P6SM SCT200 FM061700 06005KT P6SM FEW050<br><br>
<br><br>
KBUF 052354Z 27003KT 10SM SCT230 BKN270 31/14 A2997 RMK AO2 SLP143 T03060139 10328 20306 53001<br><br>
KBUF 052254Z 25006KT 10SM BKN230 BKN270 31/13 A2996 RMK AO2 SLP141 T03110128<br><br>
KBUF 052338Z 0600/0624 23007KT P6SM SCT250 FM061500 06004KT P6SM SCT120 FM061900 03006KT P6SM SCT050<br><br>
<br><br>
CYYZ 052300Z 01012KT 15SM FEW180 BKN260 31/13 A2995 RMK AC2CI4 SLP142 DENSITY ALT 2500FT<br><br>
TAF CYYZ 052341Z 0600/0706 VRB03KT P6SM BKN250 FM061300 10010KT P6SM SCT090 FM070000 10008KT P6SM SKC RMK NXT FCST BY 060300Z<br><br>
<br><br>
CYOO 052300Z AUTO 34010G15KT 300V360 9SM CLR 30/15 A2995 RMK SLP141 DENSITY ALT 2100FT<br><br>
TAF CYOO 051938Z 0520/0608 30007KT P6SM BKN250 BECMG 0523/0601 01005KT RMK FCST BASED ON AUTO OBS. NXT FCST BY 060200Z<br><br>
<br><br>
CYTR 052300Z 29006KT 15SM FEW070 BKN250 30/16 A2992 RMK AC1CI6 SLP133<br><br>
TAF CYTR 052330Z 0600/0624 30008KT P6SM FEW060 BKN250 TEMPO 0600/0605 6SM -SHRA BR BKN030 OVC120 FM060500 VRB03KT P6SM SCT100 FM061600 21008KT P6SM SCT040 RMK FCST BASED ON AUTO OBS 060200-061000Z. NXT FCST BY 060600Z<br><br>
<br><br>
