RETRIEVED AT : Nov 12 2017 00:10 Local <br>
  RETRIEVED AT: Nov 12 2017 05:10 UTC<br><br>
CYSN has no TAF <br><br>
<br><br>
CYHM 120500Z 07003KT 15SM BKN084 OVC120 M01/M07 A3031 RMK AC7AC1 SLP277<br><br>
CYHM 120400Z 05005KT 15SM OVC110 M02/M07 A3032 RMK AC8 SLP279<br><br>
TAF CYHM 112338Z 1200/1224 11012KT P6SM FEW030 BKN240 FM120200 VRB03KT P6SM BKN060 OVC240 FM121700 08005KT P6SM -SHRASN OVC030 FM121900 05005KT P6SM -SHRA BKN015 OVC030 FM122300 05005KT 6SM -SHRA BR OVC010 PROB30 1223/1224 OVC008 RMK NXT FCST BY 120600Z<br><br>
<br><br>
KIAG 120453Z AUTO 13006KT 10SM BKN110 M01/M09 A3034 RMK AO2 SLP288 T10061089 400281072 $<br><br>
KIAG 120353Z 00000KT 10SM CLR M01/M09 A3034 RMK AO2 SLP289 T10111094 $<br><br>
KIAG 120243Z 1203/1224 15005KT P6SM BKN120 FM120800 18005KT P6SM OVC070 FM121600 18005KT P6SM BKN045 FM122000 VRB03KT P6SM OVC040<br><br>
<br><br>
KBUF 120454Z 16005KT 10SM CLR M02/M09 A3034 RMK AO2 SLP285 T10171089 400171072<br><br>
KBUF 120354Z 14005KT 10SM BKN140 M01/M09 A3034 RMK AO2 SLP283 T10111089<br><br>
KBUF 120243Z 1203/1224 17004KT P6SM BKN140 FM120500 18004KT P6SM BKN110 FM120900 18004KT P6SM OVC070 FM121600 18004KT P6SM BKN045 FM121900 VRB03KT P6SM OVC040<br><br>
<br><br>
CYYZ 120500Z 13003KT 15SM SCT087 OVC120 01/M07 A3032 RMK AC4AC4 SLP277<br><br>
CYYZ 120400Z 13003KT 15SM SCT081 BKN120 01/M08 A3033 RMK AC3AC4 SLP282<br><br>
TAF CYYZ 120238Z 1203/1306 12007KT P6SM SCT110 BKN160 FM120500 VRB03KT P6SM BKN060 TEMPO 1210/1216 P6SM -SN OVC050 FM121600 15005KT P6SM OVC030 TEMPO 1216/1222 P6SM -RASN FM122200 VRB03KT 6SM -RASN BR OVC025 FM130200 VRB03KT 4SM -RASN BR OVC010 PROB30 1304/1306 OVC008 RMK NXT FCST BY 120600Z<br><br>
<br><br>
CYOO 120500Z AUTO 07004KT 9SM OVC085 M01/M06 A3034 RMK SLP284<br><br>
CYOO 120400Z AUTO 06004KT 9SM OVC120 M01/M06 A3035 RMK SLP287<br><br>
CYOO has no TAF <br><br>
<br><br>
CYTR 120500Z 04006KT 15SM OVC120 M02/M07 A3038 RMK AC8 SLP294<br><br>
CYTR 120400Z 05006KT 15SM OVC120 M02/M07 A3039 RMK AC8 SLP297<br><br>
TAF CYTR 112330Z 1200/1224 10005KT P6SM FEW030 BKN120 OVC220 FM121200 VRB03KT P6SM SCT030 BKN060 OVC100 BECMG 1213/1215 11008KT RMK NXT FCST BY 120600Z<br><br>
<br><br>
