RETRIEVED AT : Mar 08 2020 13:05 Local <br>
  RETRIEVED AT: Mar 08 2020 17:05 UTC<br><br>
CYSN 081600Z 23019G26KT 15SM FEW100 SCT200 08/M01 A3035 RMK AC2CI2 SLP281<br><br>
TAF CYSN 081238Z 0813/0901 22015G25KT P6SM FEW120 SCT250 FM081900 22018G30KT P6SM SCT230 BECMG 0822/0824 22012G22KT RMK NXT FCST BY 082000Z<br><br>
<br><br>
CYHM 081600Z 22012G20KT 15SM FEW150 FEW250 07/M02 A3033 RMK AC1CI1 AC TR SLP282<br><br>
TAF CYHM 081138Z 0812/0912 21010KT P6SM SCT080 BECMG 0814/0816 22015G25KT FM081800 22018G30KT P6SM BKN260 FM090000 22012G22KT P6SM BKN150 FM090600 22012G22KT P6SM BKN100 BECMG 0909/0911 22012KT RMK NXT FCST BY 081800Z<br><br>
<br><br>
KIAG 081653Z 24020G27KT 10SM CLR 08/M02 A3034 RMK AO2 PK WND 24029/1619 SLP285 T00831022<br><br>
KIAG 081553Z 23017G23KT 10SM CLR 08/M02 A3036 RMK AO2 PK WND 23026/1507 SLP293 T00781022<br><br>
KIAG 081439Z 0815/0912 23018G28KT P6SM FEW200 FM090000 22010G19KT P6SM FEW250 FM090100 22010G19KT P6SM SCT200 WS020/23040KT<br><br>
<br><br>
KBUF 081654Z 23020G29KT 10SM FEW200 FEW250 FEW290 08/M04 A3035 RMK AO2 PK WND 25033/1628 SLP285 T00831044<br><br>
KBUF 081554Z 22022G32KT 10SM FEW210 FEW270 08/M04 A3037 RMK AO2 PK WND 23032/1547 SLP290 T00781044<br><br>
KBUF 081439Z 0815/0912 24019G31KT P6SM FEW200 FM090100 21010G17KT P6SM SCT250 FM090200 21010G18KT P6SM SCT200 WS020/23040KT<br><br>
<br><br>
CYYZ 081600Z 21011G17KT 15SM SCT250 08/M03 A3031 RMK CI3 SLP273<br><br>
TAF CYYZ 081438Z 0815/0918 21010G20KT P6SM SCT250 FM081700 22015G28KT P6SM FEW250 FM090000 24012G22KT P6SM BKN150 BECMG 0906/0908 23010G20KT FM090900 23012KT P6SM BKN100 FM091500 24012G22KT P6SM FEW100 RMK NXT FCST BY 081800Z<br><br>
<br><br>
CYOO 081600Z AUTO 20008KT 9SM CLR 06/M00 A3031 RMK SLP272<br><br>
TAF CYOO 081338Z 0814/0902 22006KT P6SM FEW100 BKN240 BECMG 0815/0817 22010G20KT FM081900 22012G22KT P6SM SCT230 FM090100 23010G20KT P6SM BKN150 BKN230 RMK FCST BASED ON AUTO OBS. NXT FCST BY 082000Z<br><br>
<br><br>
CYTR 081600Z 23011KT 15SM SCT200 06/00 A3033 RMK CI4 SLP275<br><br>
TAF CYTR 081130Z 0812/0912 23008KT P6SM FEW080 BKN120 FM081500 24012KT P6SM SCT200 BECMG 0817/0819 23012G22KT FM090000 24012KT P6SM BKN120 FM091000 24015KT P6SM BKN080 RMK NXT FCST BY 081800Z<br><br>
<br><br>
