RETRIEVED AT : Mar 29 2020 22:05 Local <br>
  RETRIEVED AT: Mar 30 2020 02:05 UTC<br><br>
CYSN 300100Z 23019G30KT 15SM SCT080 10/05 A2977 RMK AC3 LAST STFD OBS/NEXT 301100 UTC SLP085<br><br>
CYSN has no TAF <br><br>
<br><br>
CYHM 300100Z 23021G29KT 15SM FEW023 BKN036 BKN075 09/05 A2975 RMK CF2SC4AC1 SLP080<br><br>
TAF AMD CYHM 292342Z 3000/3024 24022G35KT P6SM FEW030 BKN050 FM300200 23018G28KT P6SM FEW020 BKN040 TEMPO 3002/3006 P6SM -SHRA BKN020 OVC030 FM300600 23015G25KT P6SM -SHRA OVC015 TEMPO 3006/3012 P6SM NSW SCT020 OVC040 BECMG 3014/3016 26015G25KT FM302200 27010G20KT P6SM -SHRA BKN015 OVC030 RMK NXT FCST BY 300600Z<br><br>
<br><br>
KIAG 300153Z 24020G26KT 10SM FEW044 OVC070 08/04 A2980 RMK AO2 PK WND 25034/0113 SLP097 T00830039<br><br>
KIAG 300053Z 24021G35KT 10SM OVC055 09/04 A2978 RMK AO2 PK WND 24040/0016 SLP091 T00940039<br><br>
KIAG 292340Z 3000/3024 25019G32KT P6SM BKN050 FM300300 23018G25KT P6SM BKN035 WS020/22045KT FM301000 23019G30KT P6SM OVC025 FM301300 23018G31KT P6SM VCSH OVC015 FM302200 25015KT P6SM VCSH OVC012<br><br>
<br><br>
KBUF 300154Z 23016G27KT 10SM BKN041 BKN049 OVC065 09/04 A2983 RMK AO2 PK WND 22029/0107 SLP104 T00890044<br><br>
KBUF 300054Z 22017G25KT 10SM OVC050 08/03 A2983 RMK AO2 PK WND 23028/0004 SLP102 T00780033<br><br>
KBUF 300035Z 3001/3024 22023G34KT P6SM BKN050 FM300300 24019G29KT P6SM OVC040 FM301200 24019G31KT P6SM VCSH OVC020 FM302100 24018G24KT 4SM -SHRA OVC007<br><br>
<br><br>
CYYZ 300100Z 20010KT 180V240 15SM SCT040 BKN060 BKN080 10/04 A2972 RMK CU3SC2AC2 SLP068<br><br>
TAF CYYZ 292338Z 3000/3106 24020G30KT P6SM BKN050 BECMG 3001/3003 23015G25KT FM300400 23015G25KT P6SM FEW020 BKN040 TEMPO 3004/3008 P6SM -SHRA BKN015 OVC030 FM300800 24012G22KT P6SM -SHRA OVC015 TEMPO 3008/3017 P6SM NSW SCT020 OVC030 FM301700 26015G25KT P6SM -SHRA OVC015 BECMG 3020/3022 29010G20KT FM310300 35008KT P6SM -SHRA OVC012 RMK NXT FCST BY 300300Z<br><br>
<br><br>
CYOO 300100Z AUTO 24009G16KT 9SM FEW044 11/05 A2970 RMK SLP061<br><br>
TAF CYOO 300138Z 3002/3014 24012G22KT P6SM SCT040 FM300500 23012G22KT P6SM FEW020 BKN030 TEMPO 3005/3008 P6SM -SHRA BKN015 OVC030 FM300800 23010G20KT P6SM -SHRA OVC015 TEMPO 3008/3010 P6SM NSW SCT015 OVC025 RMK FCST BASED ON AUTO OBS. NXT FCST BY 300800Z<br><br>
<br><br>
CYTR 300100Z 23012KT 15SM BKN060 09/05 A2971 RMK SC7 SLP063<br><br>
TAF CYTR 292330Z 3000/3024 21008KT P6SM FEW015 OVC060 TEMPO 3000/3002 5SM -SHRA BR BECMG 3000/3002 23015G25KT FM300300 24015KT P6SM SCT020 BKN050 TEMPO 3003/3006 BKN020 OVC050 FM300600 23012KT P6SM SCT012 OVC025 TEMPO 3006/3012 5SM -RA -DZ BR BKN012 OVC025 FM301200 23012KT 3SM -SHRA BR OVC008 BECMG 3014/3016 24012G22KT FM301800 24012G22KT P6SM -SHRA OVC012 RMK NXT FCST BY 300600Z<br><br>
<br><br>
