RETRIEVED AT : Mar 29 2020 00:05 Local <br>
  RETRIEVED AT: Mar 29 2020 04:05 UTC<br><br>
CYSN has no TAF <br><br>
<br><br>
CYHM 290300Z 05018G23KT 1/8SM R12/1600FT/N -DZ FG VV001 04/04 A2986 RMK FG8 SLP119<br><br>
TAF AMD CYHM 290109Z 2901/2924 04015G25KT 1/8SM -DZ FG VV001 TEMPO 2901/2906 1/2SM FG VV002 FM290600 04015G25KT 1/2SM -RA FG VV002 TEMPO 2906/2912 2SM SHRA BR SCT002 OVC006 BECMG 2909/2911 04012KT FM291200 03008KT 1/4SM -RA FG VV001 PROB30 2913/2916 1SM +TSRA BR OVC002CB FM291600 22012KT 5SM -SHRA BR OVC008 BECMG 2916/2918 23018G28KT FM291800 23018G28KT P6SM BKN015 BKN040 BECMG 2918/2920 24020G38KT FM292200 23020G38KT P6SM -SHRA BKN015 BKN040 RMK NXT FCST BY 290600Z<br><br>
<br><br>
KIAG 290353Z AUTO 08010KT 10SM OVC016 07/06 A2985 RMK AO2 SLP117 T00720056<br><br>
KIAG 290306Z AUTO 07009KT 10SM SCT008 OVC016 07/06 A2986 RMK AO2 T00720061<br><br>
KIAG 290253Z 08011KT 10SM BKN008 OVC016 07/06 A2986 RMK AO2 SLP118 T00720061 56007<br><br>
KIAG 290230Z 07010KT 10SM OVC007 08/06 A2987 RMK AO2 T00780061<br><br>
KIAG 290220Z 07010KT 10SM OVC006 08/06 A2987 RMK AO2 T00780061<br><br>
KIAG 290256Z 2903/2924 07009KT P6SM VCSH OVC007 FM290900 11006KT 4SM SHRA VCTS OVC003CB FM291200 14009KT 4SM RA OVC015 WS020/23045KT FM291400 17012G21KT P6SM -SHRA OVC020 WS020/23045KT FM291700 22015G24KT P6SM BKN035 WS020/23045KT<br><br>
<br><br>
KBUF 290354Z 05008KT 10SM OVC012 08/07 A2985 RMK AO2 SLP112 T00830067<br><br>
KBUF 290321Z 04009KT 10SM OVC014 09/07 A2984 RMK AO2 T00890072<br><br>
KBUF 290254Z 05008KT 10SM OVC016 09/07 A2986 RMK AO2 SLP115 60001 T00890072 58005<br><br>
KBUF 290256Z 2903/2924 06007KT P6SM VCSH OVC015 FM290900 15007KT 4SM SHRA VCTS OVC007CB FM291200 15009KT 4SM RA OVC015 WS020/23045KT FM291500 19014G25KT P6SM VCSH OVC025 WS020/23045KT FM292000 24019G32KT P6SM BKN040<br><br>
<br><br>
CYYZ 290324Z 08018G26KT 5SM BR OVC005 06/05 A2991 RMK ST8 SLP134<br><br>
CYYZ 290300Z 08018G27KT 4SM -DZ BR OVC005 06/05 A2990 RMK ST8 SLP132<br><br>
TAF CYYZ 290246Z 2903/3006 08018G28KT 6SM BR OVC005 TEMPO 2903/2907 2SM -DZ BR OVC003 FM290700 08015G25KT 11/2SM -RA BR OVC003 TEMPO 2907/2914 5SM SHRA BR OVC006 FM291400 09012KT 1SM -RA BR OVC002 PROB30 2914/2916 1SM +TSRA BR OVC002CB FM291700 23015KT 5SM -SHRA BR BKN008 OVC015 BECMG 2917/2919 24020G35KT FM291900 23020G35KT P6SM -SHRA BKN020 BKN040 FM300200 23015G25KT P6SM -SHRA OVC015 RMK NXT FCST BY 290600Z<br><br>
<br><br>
CYOO 290336Z AUTO 07011G17KT 6SM BR OVC004 06/06 A2992 RMK SLP138<br><br>
CYOO 290329Z AUTO 07012G19KT 3SM BR OVC004 06/06 A2992 RMK SLP138<br><br>
CYOO 290300Z AUTO 07010G16KT 2 1/2SM BR OVC006 06/06 A2991 RMK SLP135<br><br>
CYOO 290246Z AUTO 07010G18KT 2 1/2SM BR OVC006 06/06 A2993 RMK PRESFR SLP140<br><br>
CYOO 290230Z AUTO 07011G16KT 5SM BR OVC006 06/06 A2995 RMK SLP147<br><br>
TAF CYOO 290138Z 2902/2914 07012G22KT 4SM -DZ BR OVC007 TEMPO 2902/2905 P6SM NSW OVC010 FM290500 08015G25KT 3SM -RA -DZ BR OVC005 TEMPO 2905/2907 6SM BR OVC008 FM290700 08015G25KT 11/2SM -RA BR OVC003 TEMPO 2907/2914 4SM SHRA BR SCT004 OVC008 RMK FCST BASED ON AUTO OBS. NXT FCST BY 290800Z<br><br>
<br><br>
CYTR 290300Z 08007KT 2SM -DZ BR OVC006 06/05 A2999 RMK ST8 SLP159<br><br>
TAF AMD CYTR 290209Z 2902/2924 09010KT 4SM -DZ BR OVC010 TEMPO 2902/2909 11/2SM -RA -DZ BR OVC003 FM290900 10012G22KT 3SM -RA BR OVC008 TEMPO 2909/2917 1SM -SHRA BR OVC003 PROB30 2912/2917 1SM TSRA BR OVC003CB FM291700 13012G22KT 3SM -SHRA BR BKN010 OVC015 PROB30 2917/2921 VRB15G25KT 1SM +TSRA BKN010 OVC015CB FM292100 24012G22KT 6SM -SHRA BR BKN012 OVC025 RMK NXT FCST BY 290600Z<br><br>
<br><br>
