RETRIEVED AT : Nov 03 2018 23:05 Local <br>
  RETRIEVED AT: Nov 04 2018 03:05 UTC<br><br>
CYSN has no TAF <br><br>
<br><br>
CYHM 040200Z 29005KT 15SM FEW040 02/00 A3027 RMK SC1 SC TR SLP261<br><br>
TAF CYHM 032338Z 0400/0424 27007KT P6SM SCT040 TEMPO 0400/0403 BKN050 FM040500 VRB03KT P6SM SCT030 FM041600 07010KT P6SM FEW030 BKN140 RMK NXT FCST BY 040600Z<br><br>
<br><br>
KIAG 040253Z 27007KT 10SM OVC046 03/00 A3030 RMK AO2 SLP270 T00330000 51026<br><br>
KIAG 040153Z 27009KT 10SM SCT032 OVC043 04/01 A3027 RMK AO2 SLP263 T00440006<br><br>
KIAG 040245Z 0403/0424 28012KT P6SM BKN045 FM040500 25006KT P6SM SCT045 FM041400 10004KT P6SM SCT250 FM042300 10010G16KT P6SM SCT200<br><br>
<br><br>
KBUF 040254Z 27008KT 10SM OVC043 05/M01 A3030 RMK AO2 SLP267 T00501006 51027 $<br><br>
KBUF 040154Z 26009KT 10SM OVC044 05/M01 A3028 RMK AO2 SLP259 T00501006 $<br><br>
KBUF 040245Z 0403/0424 27011KT P6SM BKN045 FM040500 26006KT P6SM SCT045 FM040800 00000KT P6SM FEW250 FM041700 10008KT P6SM SCT250<br><br>
<br><br>
CYYZ 040200Z 30010KT 15SM FEW020 BKN040 05/M00 A3027 RMK CF2SC5 SLP257<br><br>
TAF CYYZ 040238Z 0403/0506 30010KT P6SM BKN040 TEMPO 0403/0406 SCT040 FM040600 28007KT P6SM SCT040 FM041200 VRB03KT P6SM FEW030 BKN240 FM041700 11008KT P6SM SCT020 BKN140 FM042100 09010KT P6SM FEW025 BKN100 RMK NXT FCST BY 040600Z<br><br>
<br><br>
CYOO 040200Z AUTO 29011KT 9SM OVC045 04/M01 A3025 RMK SLP250<br><br>
CYOO has no TAF <br><br>
<br><br>
CYTR 040200Z 25005KT 15SM BKN043 03/M00 A3023 RMK SC6 SLP241<br><br>
TAF CYTR 032330Z 0400/0424 28012KT P6SM SCT030 TEMPO 0400/0406 BKN030 BECMG 0404/0406 27005KT FM041000 VRB03KT P6SM SCT020 FM041700 10008KT P6SM FEW020 SCT100 SCT250 RMK NXT FCST BY 040600Z<br><br>
<br><br>
