RETRIEVED AT : Jun 22 2019 07:05 Local <br>
  RETRIEVED AT: Jun 22 2019 11:05 UTC<br><br>
CYSN has no TAF <br><br>
<br><br>
CYHM 221000Z 26003KT 240V310 15SM SCT240 11/09 A3006 RMK CI3 SLP180<br><br>
TAF CYHM 220538Z 2206/2306 33008KT P6SM FEW250 BECMG 2213/2215 36010KT BECMG 2223/2301 VRB03KT RMK NXT FCST BY 221200Z<br><br>
<br><br>
KIAG 221053Z 33007KT 10SM CLR 14/10 A3005 RMK AO2 SLP176 T01390100<br><br>
KIAG 220953Z AUTO 32007KT 10SM CLR 13/09 A3003 RMK AO2 SLP170 T01330094<br><br>
KIAG 220909Z 2209/2306 32006KT P6SM SCT250 FM221600 33010KT P6SM SCT250 FM222300 29006KT P6SM SKC FM230400 25004KT P6SM SKC<br><br>
<br><br>
KBUF 221054Z 00000KT 10SM FEW170 SCT270 14/09 A3005 RMK AO2 SLP175 T01440094<br><br>
KBUF 220954Z 00000KT 10SM FEW170 SCT250 12/09 A3004 RMK AO2 SLP171 T01220089<br><br>
KBUF 220908Z 2209/2306 30006KT P6SM FEW130 SCT250 FM221500 31010KT P6SM SCT250 FM222300 28004KT P6SM SKC FM230300 22004KT P6SM SKC<br><br>
<br><br>
CYYZ 221000Z 36005KT 15SM FEW180 BKN250 14/09 A3005 RMK AC1CC4 SLP176<br><br>
TAF CYYZ 220838Z 2209/2312 35012KT P6SM SKC FM230300 32006KT P6SM SCT250 RMK NXT FCST BY 221200Z<br><br>
<br><br>
CYOO 221000Z AUTO 34009KT 9SM CLR 13/10 A3003 RMK SLP170<br><br>
TAF CYOO 220738Z 2208/2220 34010KT P6SM SKC RMK FCST BASED ON AUTO OBS. NXT FCST BY 221400Z<br><br>
<br><br>
CYTR 221000Z 32008KT 15SM BKN250 14/09 A2999 RMK CI6 SLP155<br><br>
TAF CYTR 220530Z 2206/2306 32006KT P6SM FEW050 BECMG 2216/2218 21012KT BECMG 2223/2301 VRB03KT RMK NXT FCST BY 221200Z<br><br>
<br><br>
