RETRIEVED AT : Apr 04 2020 20:05 Local <br>
  RETRIEVED AT: Apr 05 2020 00:05 UTC<br><br>
CYSN 042300Z 25004KT 15SM FEW033 SCT250 11/05 A3000 RMK SC2CI1 SLP161<br><br>
TAF CYSN 041938Z 0420/0501 VRB03KT P6SM BKN025 TEMPO 0420/0501 BKN020 RMK NXT FCST WILL BE ISSUED AT 051245Z<br><br>
<br><br>
CYHM 042300Z 20007KT 15SM SCT036 SCT120 BKN220 12/06 A2999 RMK SC3AC1CI1 SLP160<br><br>
TAF CYHM 042338Z 0500/0524 21007KT P6SM SCT030 BKN120 FM050300 23007KT P6SM -SHRA BKN030 OVC050 FM050700 29007KT P6SM SCT008 OVC020 FM051000 29008KT P6SM BKN010 OVC030 FM051400 33010KT P6SM SCT015 FM051800 36005KT P6SM BKN120 FM052100 06006KT P6SM SCT050 RMK NXT FCST BY 050600Z<br><br>
<br><br>
KIAG 042353Z 33005KT 10SM CLR 10/05 A3000 RMK AO2 SLP167 T01000050 10117 20094 53002<br><br>
KIAG 042253Z 00000KT 10SM CLR 11/05 A3000 RMK AO2 SLP167 T01110050<br><br>
KIAG 042321Z 0500/0524 VRB04KT P6SM SCT060 FM050400 20004KT P6SM BKN070 FM050900 VRB04KT P6SM OVC035 FM051300 28004KT P6SM OVC025 FM051900 32008KT P6SM BKN060 FM052200 30008KT P6SM SCT150<br><br>
<br><br>
KBUF 042354Z 22003KT 10SM FEW030 FEW060 SCT250 10/04 A3000 RMK AO2 SLP164 T01000039 10139 20100 53001<br><br>
KBUF 042254Z 00000KT 10SM FEW035 FEW060 FEW250 13/06 A3000 RMK AO2 SLP162 T01280056<br><br>
KBUF 042321Z 0500/0524 VRB04KT P6SM SCT060 FM050400 VRB03KT P6SM BKN070 FM051000 26006KT P6SM OVC035 FM051500 33008KT P6SM OVC025 FM052000 30008KT P6SM BKN035 FM052300 26006KT P6SM SCT120<br><br>
<br><br>
CYYZ 042300Z 13006KT 15SM OVC036 09/04 A3000 RMK SC8 SLP164<br><br>
TAF CYYZ 042338Z 0500/0606 13008KT P6SM BKN030 TEMPO 0500/0503 SCT030 BKN100 FM050300 13006KT P6SM -SHRA BKN030 OVC080 FM050700 VRB03KT 4SM BR BKN006 OVC025 TEMPO 0507/0509 6SM BR SCT006 OVC025 FM050900 35008KT P6SM SCT008 BKN012 OVC040 PROB30 0509/0513 OVC008 FM051500 34015KT P6SM SCT015 FM052100 36012KT P6SM SKC RMK NXT FCST BY 050300Z<br><br>
<br><br>
CYOO 042300Z AUTO 23004KT 9SM OVC034 09/06 A3001 RMK SLP166<br><br>
TAF CYOO 041939Z 0420/0508 15007KT P6SM OVC020 TEMPO 0420/0504 OVC030 FM050400 VRB03KT 4SM -RA BR BKN008 OVC030 PROB30 0504/0508 3SM -RA BR OVC006 RMK FCST BASED ON AUTO OBS. NXT FCST BY 050200Z<br><br>
<br><br>
CYTR 042300Z 21006KT 15SM BKN045 BKN130 09/05 A3001 RMK SC5AC2 SLP167<br><br>
TAF CYTR 042330Z 0500/0524 21010KT P6SM BKN040 BKN120 BECMG 0500/0502 VRB03KT FM050900 VRB03KT 5SM -SHRA BR BKN020 OVC060 FM051100 VRB03KT 2SM -DZ BR OVC008 FM051400 31005KT P6SM OVC015 FM051700 32010KT P6SM SCT025 RMK NXT FCST BY 050600Z<br><br>
<br><br>
