RETRIEVED AT : Mar 13 2020 18:05 Local <br>
  RETRIEVED AT: Mar 13 2020 22:05 UTC<br><br>
CYSN 132202Z 27015G22KT 15SM BKN060 06/M03 A3004 RMK SC5 SLP175<br><br>
CYSN 132100Z 28017G23KT 15SM BKN055 06/M03 A3001 RMK SC5 SLP165<br><br>
TAF CYSN 131940Z 1320/1401 27015G25KT P6SM BKN050 RMK NXT FCST WILL BE ISSUED AT 141245Z<br><br>
<br><br>
CYHM 132100Z 27022G31KT 15SM BKN044 06/M04 A3000 RMK CU5 SLP166<br><br>
TAF CYHM 131740Z 1318/1418 26018G32KT P6SM BKN040 BECMG 1322/1324 27015G25KT FM140900 29010KT P6SM BKN025 RMK NXT FCST BY 140000Z<br><br>
<br><br>
KIAG 132153Z 23015KT 10SM BKN050 OVC055 05/M01 A3002 RMK AO2 SLP174 T00501011<br><br>
KIAG 132053Z 24016G23KT 10SM BKN038 OVC046 04/M01 A3001 RMK AO2 SLP170 T00441011 51037<br><br>
KIAG 132115Z 1321/1418 24018G30KT P6SM BKN040 FM140100 26016G30KT P6SM FEW250 FM141100 28009KT P6SM SCT080 FM141300 28010G18KT P6SM SCT060 FM141500 28012KT P6SM SCT035<br><br>
<br><br>
KBUF 132154Z 24019G33KT 10SM BKN045 BKN060 04/M02 A3003 RMK AO2 PK WND 24034/2135 SLP174 T00391017<br><br>
KBUF 132054Z 24023G31KT 10SM FEW022 BKN043 BKN060 04/M02 A3001 RMK AO2 PK WND 25034/2023 SLP168 T00441022 51037<br><br>
KBUF 132115Z 1321/1418 24023G33KT P6SM BKN040 FM140000 25018G30KT P6SM FEW250 FM140700 27010G23KT P6SM SCT060 FM141400 27010G16KT P6SM BKN035<br><br>
<br><br>
CYYZ 132100Z 27015G28KT 15SM BKN052 06/M05 A3000 RMK SC7 SLP164<br><br>
TAF CYYZ 132038Z 1321/1424 27027G38KT P6SM BKN050 BECMG 1323/1401 28020G30KT FM140600 29018G28KT P6SM BKN030 FM141500 32012KT P6SM BKN025 BKN200 BECMG 1420/1422 35009KT BECMG 1422/1424 01015KT RMK NXT FCST BY 140000Z<br><br>
<br><br>
CYOO 132100Z AUTO 26019G29KT 9SM OVC060 05/M05 A2995 RMK SLP147<br><br>
TAF CYOO 131939Z 1320/1408 26020G30KT P6SM SCT020 BKN030 TEMPO 1320/1408 BKN020 OVC030 BECMG 1401/1403 27015G25KT RMK FCST BASED ON AUTO OBS. NXT FCST BY 140200Z<br><br>
<br><br>
CYTR 132100Z 26020G37KT 15SM SCT060 06/M04 A2989 RMK SC3 SLP124<br><br>
TAF CYTR 131730Z 1318/1418 27020G35KT P6SM BKN025 TEMPO 1318/1322 P6SM -SHRA BKN020 FM132200 27020G35KT P6SM BKN040 FM141000 29015G25KT P6SM SCT040 BECMG 1411/1413 29010KT RMK NXT FCST BY 140000Z<br><br>
<br><br>
