RETRIEVED AT : Sep 02 2018 08:05 Local <br>
  RETRIEVED AT: Sep 02 2018 12:05 UTC<br><br>
CYSN 021100Z 21008KT 15SM SCT120 BKN190 24/21 A3010 RMK AC3CI3 SLP192 DENSITY ALT 1200FT<br><br>
CYSN has no TAF <br><br>
<br><br>
CYHM 021114Z 23007KT 15SM BKN012 BKN030TCU BKN140 22/21 A3012 RMK SC5TCU1AC2 TCU TR SLP198 DENSITY ALT 1600FT<br><br>
CYHM 021100Z 22005KT 15SM FEW030TCU FEW049 BKN140 BKN190 22/21 A3012 RMK TCU1SC2AC4AC1 TCU TR SLP198 DENSITY ALT 1600FT<br><br>
TAF CYHM 021138Z 0212/0312 23007KT P6SM FEW030 BKN130 TEMPO 0212/0215 P6SM -SHRA BKN020 BKN130 PROB30 0212/0213 2SM +TSRA BR BKN020CB FM021500 22010G20KT P6SM SCT030 SCT140 PROB30 0217/0221 VRB15G25KT 1SM +TSRA BR BKN015 OVC030CB FM030000 22008KT P6SM FEW040 RMK NXT FCST BY 021800Z<br><br>
<br><br>
KIAG 021153Z 22009KT 10SM FEW065 23/21 A3013 RMK AO2 SLP198 T02330211 10233 20222 53015<br><br>
KIAG 021053Z 21012KT 10SM CLR 23/21 A3011 RMK AO2 SLP191 T02280206<br><br>
KIAG 021120Z 0212/0312 20010KT P6SM BKN150 FM021300 23014G22KT P6SM VCSH BKN040 FM021700 23016G24KT P6SM SCT200 FM030000 22010KT P6SM SCT200 FM030600 21008KT P6SM SCT050<br><br>
<br><br>
KBUF 021154Z 20011KT 10SM FEW080 FEW150 FEW290 23/21 A3015 RMK AO2 SLP204 70006 T02330206 10233 20222 53015<br><br>
KBUF 021054Z 21009KT 10SM FEW065 FEW150 FEW290 23/21 A3014 RMK AO2 SLP199 T02280206<br><br>
KBUF 021120Z 0212/0312 19010KT P6SM BKN150 FM021300 22012G20KT P6SM VCSH BKN040 FM021700 24016G24KT P6SM SCT200 FM030000 23010KT P6SM SCT200 FM030600 20006KT P6SM SCT050<br><br>
<br><br>
CYYZ 021100Z 24009KT 15SM FEW013 SCT082 BKN160 BKN240 23/21 A3009 RMK SF1AC4AC2CI1 SF TR TCU TOPS DIST SW SLP189 DENSITY ALT 1500FT<br><br>
CYYZ 021048Z 24008KT 15SM FEW013 SCT085 BKN190 OVC240 23/21 A3009 RMK SC2AC2AC2CI2 SLP188 DENSITY ALT 1500FT<br><br>
CYYZ 021034Z 24007KT 15SM BKN013 OVC085 23/21 A3008 RMK SC6AC2 SLP187 DENSITY ALT 1400FT<br><br>
TAF CYYZ 021138Z 0212/0318 21008KT P6SM SCT030 BKN130 TEMPO 0212/0215 BKN020 BKN130 FM021500 23010G20KT P6SM SCT030 SCT140 PROB30 0217/0221 VRB15G25KT 1SM +TSRA BR BKN015 OVC030CB FM030000 23010KT P6SM SCT040 FM030600 24008KT P6SM FEW050 FM031600 24012G22KT P6SM -SHRA BKN040 RMK NXT FCST BY 021500Z<br><br>
<br><br>
CYOO 021151Z AUTO 20006KT 9SM BKN018 BKN080 BKN150 23/22 A3010 RMK SLP193 DENSITY ALT 1200FT<br><br>
CYOO 021100Z AUTO 19004KT 9SM FEW021 SCT150 OVC210 23/22 A3009 RMK SLP188 DENSITY ALT 1200FT<br><br>
CYOO has no TAF <br><br>
<br><br>
CYTR 021100Z 19005KT 15SM FEW030 BKN090 BKN120 23/21 A3009 RMK SC1AC5AC2 SLP189<br><br>
TAF CYTR 021130Z 0212/0312 19005KT P6SM FEW030 BKN090 OVC120 BECMG 0212/0213 23010KT FM021300 23010KT P6SM SCT020 BKN030 OVC090 TEMPO 0213/0219 P6SM -SHRA BKN020 OVC030 BECMG 0214/0216 22010G20KT FM030000 24006KT P6SM SCT030 BKN060 RMK NXT FCST BY 021800Z<br><br>
<br><br>
