RETRIEVED AT : Mar 15 2020 09:05 Local <br>
  RETRIEVED AT: Mar 15 2020 13:05 UTC<br><br>
CYSN 151200Z 05010KT 15SM FEW140 M00/M08 A3058 RMK AC1 SLP361<br><br>
TAF CYSN 151238Z 1513/1601 04012KT P6SM FEW030 FM151800 06015KT P6SM SKC BECMG 1523/1601 08010KT RMK NXT FCST BY 152000Z<br><br>
<br><br>
CYHM 151200Z 02012KT 15SM FEW130 M03/M09 A3057 RMK AC1 AC TR SLP366<br><br>
TAF CYHM 151138Z 1512/1612 03012KT P6SM FEW030 FM151800 06015KT P6SM SKC BECMG 1523/1601 05010KT RMK NXT FCST BY 151800Z<br><br>
<br><br>
KIAG 151253Z 05008KT 10SM CLR M01/M08 A3059 RMK AO2 SLP373 T10061078<br><br>
KIAG 151153Z 04009KT 10SM CLR M02/M08 A3057 RMK AO2 SLP368 T10171083 11006 21022 51027<br><br>
KIAG 151120Z 1512/1612 04008KT P6SM FEW250 FM160100 VRB03KT P6SM FEW250 FM160600 10005KT P6SM FEW250<br><br>
<br><br>
KBUF 151254Z 04010KT 10SM FEW180 00/M08 A3057 RMK AO2 SLP362 T00001078<br><br>
KBUF 151154Z 03009KT 10SM FEW140 M01/M07 A3055 RMK AO2 SLP356 T10111072 10000 21011 52023<br><br>
KBUF 151120Z 1512/1612 03008KT P6SM FEW250 FM160100 08005KT P6SM FEW250<br><br>
<br><br>
CYYZ 151200Z 05010G15KT 15SM SKC M03/M12 A3060 RMK SLP374<br><br>
TAF CYYZ 151138Z 1512/1618 05012KT P6SM FEW140 FM152100 08011KT P6SM SKC BECMG 1523/1601 11008KT BECMG 1602/1604 06008KT FM160600 05009KT P6SM FEW030 BECMG 1610/1612 11009KT RMK NXT FCST BY 151500Z<br><br>
<br><br>
CYOO 151200Z AUTO 36005KT 9SM CLR M05/M10 A3062 RMK SLP377<br><br>
TAF CYOO 150740Z 1508/1520 01010KT P6SM OVC150 FM151200 05005KT P6SM SKC BECMG 1513/1515 04008KT BECMG 1518/1520 09005KT RMK FCST BASED ON AUTO OBS. NXT FCST BY 151400Z<br><br>
<br><br>
CYTR 151200Z 02007KT 15SM FEW160 M04/M14 A3062 RMK AC1 SLP376<br><br>
TAF CYTR 151130Z 1512/1612 02008KT P6SM FEW160 RMK NXT FCST BY 151800Z<br><br>
<br><br>
