RETRIEVED AT : Jun 09 2018 06:23 Local <br>
  RETRIEVED AT: Jun 09 2018 10:23 UTC<br><br>
CYSN has no TAF <br><br>
<br><br>
CYHM 091000Z 03007KT 15SM FEW170 BKN200 14/09 A3018 RMK AC2CI4 SLP222<br><br>
CYHM 090900Z 03003KT 320V060 15SM SCT170 BKN210 14/08 A3018 RMK AC4CI1 SLP221<br><br>
TAF CYHM 090538Z 0906/1006 03006KT P6SM SCT250 FM091200 04005KT P6SM BKN140 FM091800 05010KT P6SM OVC100 FM100400 04008KT P6SM SCT150 RMK NXT FCST BY 091200Z<br><br>
<br><br>
KIAG 090953Z AUTO 08003KT 10SM CLR 13/09 A3018 RMK AO2 SLP217 T01330094<br><br>
KIAG 090853Z AUTO 00000KT 10SM CLR 14/09 A3017 RMK AO2 SLP214 T01390094 56002<br><br>
KIAG 090859Z 0909/1006 VRB03KT P6SM BKN200 FM091400 VRB04KT P6SM BKN150 FM091700 02007KT P6SM BKN130 FM092100 03006KT P6SM SCT110 FM100100 06004KT P6SM SCT200<br><br>
<br><br>
KBUF 090954Z 07004KT 10SM SCT150 BKN200 BKN250 13/11 A3019 RMK AO2 SLP220 T01330106<br><br>
KBUF 090854Z 04003KT 10SM BKN190 BKN250 14/11 A3018 RMK AO2 SLP217 T01390106 56000<br><br>
KBUF 090859Z 0909/1006 VRB03KT P6SM BKN200 FM091400 VRB04KT P6SM BKN150 FM091800 01006KT P6SM BKN130 FM092200 01005KT P6SM SCT110 FM100100 08005KT P6SM SCT200<br><br>
<br><br>
CYYZ 091000Z 33006KT 15SM BKN150 BKN210 14/07 A3018 RMK AC5CS2 SLP222<br><br>
CYYZ 090900Z 32007KT 15SM BKN210 13/07 A3018 RMK CS6 SLP221<br><br>
TAF CYYZ 090838Z 0909/1012 36008KT P6SM FEW200 FM091600 34007KT P6SM BKN150 BECMG 0916/0918 10007KT FM100200 03008KT P6SM FEW150 RMK NXT FCST BY 091200Z<br><br>
<br><br>
CYOO 091000Z AUTO 36006KT 9SM CLR 13/09 A3017 RMK SLP218<br><br>
CYOO 090900Z AUTO 35006KT 9SM CLR 13/09 A3017 RMK SLP218<br><br>
CYOO has no TAF <br><br>
<br><br>
TAF CYTR 090535Z 0906/1006 VRB03KT P6SM SCT250 FM091200 VRB03KT P6SM SCT060 BKN250 BECMG 0916/0918 22010KT BECMG 1000/1002 VRB03KT RMK NXT FCST BY 091200Z<br><br>
<br><br>
