RETRIEVED AT : Apr 24 2020 07:05 Local <br>
  RETRIEVED AT: Apr 24 2020 11:05 UTC<br><br>
CYSN has no TAF <br><br>
<br><br>
CYHM 241000Z 04020KT 15SM BKN087 OVC110 03/M02 A2974 RMK AC7AC1 SLP080<br><br>
TAF CYHM 240538Z 2406/2506 05012G22KT P6SM SCT020 BKN050 TEMPO 2406/2416 BKN020 OVC050 FM241600 05012G22KT P6SM OVC030 FM242300 04006KT P6SM BKN050 FM250300 36005KT P6SM SCT050 RMK NXT FCST BY 241200Z<br><br>
<br><br>
KIAG 241053Z 06008KT 10SM SCT055 BKN070 OVC095 04/01 A2974 RMK AO2 SLP082 T00390006<br><br>
KIAG 240953Z AUTO 07008KT 10SM FEW065 OVC090 03/01 A2974 RMK AO2 SLP082 T00330006<br><br>
KIAG 240843Z 2409/2506 07009KT P6SM OVC040 FM242100 04009KT P6SM OVC035 FM250000 VRB03KT P6SM BKN035 FM250400 00000KT P6SM BKN060<br><br>
<br><br>
KBUF 241054Z 05008KT 10SM FEW060 BKN075 OVC090 04/02 A2973 RMK AO2 SLP074 T00390017<br><br>
KBUF 240954Z 05008KT 10SM OVC070 03/02 A2973 RMK AO2 SLP074 T00330017<br><br>
KBUF 240843Z 2409/2506 06008KT P6SM VCSH OVC070 FM241200 06008KT P6SM OVC045 FM242000 04009KT P6SM BKN035 FM250100 VRB03KT P6SM BKN035<br><br>
<br><br>
CYYZ 241000Z 07010KT 15SM BKN053 05/M09 A2979 RMK SC7 SLP095<br><br>
TAF CYYZ 240839Z 2409/2512 06012KT P6SM BKN050 OVC080 FM241900 06012KT P6SM OVC050 BECMG 2422/2424 14008KT FM250300 23008KT P6SM SCT050 FM250600 36008KT P6SM SKC RMK NXT FCST BY 241200Z<br><br>
<br><br>
CYOO 241000Z AUTO 06009KT 9SM BKN055 OVC068 06/M10 A2978 RMK SLP090<br><br>
TAF CYOO 240738Z 2408/2420 05008KT P6SM OVC050 RMK FCST BASED ON AUTO OBS. NXT FCST BY 241400Z<br><br>
<br><br>
CYTR 241000Z 06010KT 15SM OVC054 05/M10 A2982 RMK SC8 SLP102<br><br>
TAF CYTR 240530Z 2406/2506 08005KT P6SM OVC040 BECMG 2410/2412 05010G20KT FM250000 VRB03KT P6SM BKN040 BECMG 2501/2503 SCT040 RMK NXT FCST BY 241200Z<br><br>
<br><br>
