RETRIEVED AT : Jun 30 2018 23:42 Local <br>
  RETRIEVED AT: Jul 01 2018 03:42 UTC<br><br>
CYSN has no TAF <br><br>
<br><br>
CYHM 010300Z 22008KT 15SM FEW250 24/22 A2997 RMK CI1 SLP147 DENSITY ALT 2000FT<br><br>
CYHM 010200Z 22008KT 15SM BKN250 25/22 A2997 RMK CI6 SLP145 DENSITY ALT 2100FT<br><br>
TAF CYHM 302338Z 0100/0124 22015KT P6SM SCT030 FM010200 22008KT P6SM SKC BECMG 0115/0117 22012G22KT RMK NXT FCST BY 010600Z<br><br>
<br><br>
KIAG 010253Z 22011KT 9SM CLR 26/21 A2996 RMK AO2 SLP137 T02610206 55002<br><br>
KIAG 010153Z 20010KT 9SM CLR 26/21 A2995 RMK AO2 SLP135 T02610206<br><br>
KIAG 010254Z 0103/0124 20010KT P6SM FEW250 FM011800 22013G19KT P6SM FEW250 FM012100 22013KT P6SM SKC<br><br>
<br><br>
KBUF 010254Z 22010KT 10SM CLR 26/22 A2998 RMK AO2 SLP147 T02610217 56005<br><br>
KBUF 010154Z 22010KT 10SM FEW250 26/22 A2998 RMK AO2 SLP146 T02560217<br><br>
KBUF 010254Z 0103/0124 22010KT P6SM FEW250 FM011700 23011KT P6SM FEW250<br><br>
<br><br>
CYYZ 010300Z 25004KT 15SM FEW260 27/21 A2995 RMK CI2 SLP140 DENSITY ALT 2100FT<br><br>
CYYZ 010200Z 22009G15KT 15SM FEW210 SCT260 28/22 A2993 RMK CI1CI3 CI TR SLP132 DENSITY ALT 2300FT<br><br>
TAF CYYZ 010238Z 0103/0206 22010KT P6SM FEW240 BECMG 0106/0108 26008KT BECMG 0116/0118 22015KT FM020300 21008KT P6SM FEW060 RMK NXT FCST BY 010600Z<br><br>
<br><br>
CYOO 010300Z AUTO 21005KT 9SM CLR 27/21 A2993 RMK SLP134 DENSITY ALT 1900FT<br><br>
CYOO 010200Z AUTO 21010KT 9SM CLR 28/21 A2992 RMK SLP130 DENSITY ALT 2000FT<br><br>
CYOO has no TAF <br><br>
<br><br>
CYTR 010300Z 21005KT 15SM FEW250 26/21 A2993 RMK CI1 SLP135<br><br>
CYTR 010200Z 23009KT 15SM FEW250 27/21 A2991 RMK CI2 SLP128<br><br>
TAF CYTR 302330Z 0100/0124 21008KT P6SM FEW030 SCT250 TEMPO 0100/0104 P6SM -SHRA BKN030 FM010800 24006KT P6SM SKC BECMG 0116/0118 24012KT RMK NXT FCST BY 010600Z<br><br>
<br><br>
