RETRIEVED AT : Oct 20 2018 06:05 Local <br>
  RETRIEVED AT: Oct 20 2018 10:05 UTC<br><br>
CYSN has no TAF <br><br>
<br><br>
CYHM 200932Z 26011KT 15SM FEW015 FEW030 FEW085 08/06 A2963 RMK CF1SC1AC1 AC TR SLP038<br><br>
CYHM 200900Z 26013G21KT 9SM -SHRA FEW009 BKN026 BKN062 09/08 A2963 RMK CF2SC3SC1 CVCTV CLD EMBD SLP038<br><br>
CYHM 200832Z 25016G24KT 15SM SCT010 BKN018 09/08 A2961 RMK CF4SC2 SLP032<br><br>
TAF AMD CYHM 200617Z 2006/2106 23015G25KT 5SM -RA BR OVC009 TEMPO 2006/2009 P6SM NSW OVC025 FM200900 26012G22KT P6SM BKN020 TEMPO 2009/2011 SCT020 FM201100 26012G22KT P6SM SCT020 TEMPO 2011/2017 BKN020 FM201700 27015G25KT P6SM -SHRA BKN030 BKN050 BECMG 2020/2022 30010G20KT FM202300 34012G22KT P6SM SCT030 BKN050 BECMG 2102/2104 35012KT RMK NXT FCST BY 201200Z<br><br>
<br><br>
KIAG 200953Z AUTO 27014G23KT 10SM BKN018 BKN024 09/07 A2962 RMK AO2 PK WND 24027/0857 SLP035 T00940072<br><br>
KIAG 200853Z AUTO 25016G27KT 10SM SCT017 BKN022 OVC090 11/08 A2960 RMK AO2 PK WND 24028/0810 RAE0754 SLP028 P0000 60007 T01060083 55012<br><br>
KIAG 200908Z 2009/2106 25016G27KT P6SM SCT017 BKN022 OVC090 FM201200 26018G28KT P6SM VCSH BKN025 FM201700 28015G21KT P6SM VCSH BKN040 FM210000 34015G24KT P6SM BKN045<br><br>
<br><br>
KBUF 200954Z 26013KT 10SM BKN016 BKN024 OVC060 10/08 A2963 RMK AO2 RAE48 SLP034 P0000 T01000083 $<br><br>
KBUF 200913Z 25013G22KT 10SM -RA SCT010 BKN018 OVC025 11/09 A2961 RMK AO2 P0000 T01060094 $<br><br>
KBUF 200854Z 24018G25KT 10SM -RA OVC008 10/09 A2962 RMK AO2 PK WND 22026/0757 CIG 005V012 SLP030 P0005 60016 T01000089 $<br><br>
KBUF 200908Z 2009/2106 24018G25KT P6SM -RA OVC008 FM201200 25015G26KT P6SM BKN020 FM201400 26014G23KT P6SM VCSH BKN035 FM202300 31012G19KT P6SM BKN040<br><br>
<br><br>
CYYZ 200900Z 27016G23KT 15SM FEW025 FEW080 09/05 A2957 RMK CF1AC1 SLP016<br><br>
CYYZ 200833Z 27017KT 15SM SCT049 BKN095 09/06 A2957 RMK SC3AC2 SLP016<br><br>
TAF CYYZ 200839Z 2009/2112 27015G25KT P6SM SCT050 BKN100 TEMPO 2009/2010 BKN020 BKN050 FM201100 28015G28KT P6SM BKN020 TEMPO 2011/2013 SCT020 FM201300 28015G28KT P6SM BKN030 TEMPO 2013/2017 SCT030 FM201700 28015G28KT P6SM -SHRA BKN030 BKN050 BECMG 2018/2020 32015KT FM202300 34018G28KT P6SM SCT030 BKN050 FM210600 34015G25KT P6SM BKN040 BECMG 2108/2110 34015KT RMK NXT FCST BY 201200Z<br><br>
<br><br>
CYOO 200900Z AUTO 26012G18KT 9SM FEW032 BKN080 OVC110 10/06 A2955 RMK SLP011<br><br>
CYOO 200819Z AUTO 25010KT 9SM SCT023 BKN032 OVC070 10/07 A2954 RMK SLP008<br><br>
CYOO has no TAF <br><br>
<br><br>
CYTR 200900Z CCA 24020G29KT 12SM -SHRA SCT011 OVC029 10/08 A2951 RMK SF3SC5 PCPN VRY LGT SLP994<br><br>
CYTR 200816Z 23017G27KT 7SM -SHRA BKN008 OVC020 09/09 A2950 RMK SF6SC2 SLP992<br><br>
TAF AMD CYTR 200736Z 2007/2106 24015G25KT P6SM SCT008 OVC025 TEMPO 2007/2010 5SM -SHRA BR BKN008 OVC025 FM201000 27015G25KT P6SM BKN030 TEMPO 2010/2012 P6SM -SHRA FM201800 28020G30KT P6SM FEW030 SCT200 BECMG 2021/2023 31008KT FM210200 34008KT P6SM BKN040 BKN200 RMK NXT FCST BY 201200Z<br><br>
<br><br>
