RETRIEVED AT : Sep 08 2018 09:11 Local <br>
  RETRIEVED AT: Sep 08 2018 13:11 UTC<br><br>
CYSN 081300Z 06013G21KT 15SM FEW030 SCT150 OVC250 16/11 A3024 RMK SC2AC2CI4 SLP243<br><br>
CYSN 081200Z 07015KT 15SM FEW025 BKN250 16/11 A3024 RMK SC1CI6 SLP241<br><br>
TAF CYSN 081238Z 0813/0901 07015G25KT P6SM FEW025 BKN250 FM082000 07012G22KT P6SM OVC220 RMK NXT FCST BY 082000Z<br><br>
<br><br>
CYHM 081300Z 02012KT 15SM FEW020 OVC025 14/09 A3026 RMK CU1SC7 SLP250<br><br>
CYHM 081200Z 02009KT 15SM FEW025 BKN029 OVC240 14/10 A3026 RMK CU2SC5CI1 SLP248<br><br>
TAF CYHM 081138Z 0812/0912 03012KT P6SM FEW020 BKN200 TEMPO 0812/0813 BKN020 OVC200 BECMG 0814/0816 05015G25KT FM090000 06012G22KT P6SM BKN200 RMK NXT FCST BY 081800Z<br><br>
<br><br>
KIAG 081253Z 05013KT 10SM CLR 16/09 A3024 RMK AO2 SLP242 T01560094<br><br>
KIAG 081153Z 06012KT 10SM CLR 16/10 A3024 RMK AO2 SLP242 T01560100 10172 20150 53013<br><br>
KIAG 081120Z 0812/0912 05013G21KT P6SM OVC200 FM081900 06013KT P6SM OVC250 FM090000 06008KT P6SM BKN250<br><br>
<br><br>
KBUF 081254Z 04011KT 10SM FEW020 SCT180 BKN220 16/11 A3023 RMK AO2 SLP237 T01560106<br><br>
KBUF 081154Z 04014KT 10SM FEW140 SCT180 OVC220 16/11 A3023 RMK AO2 SLP237 T01560111 10178 20156 53011<br><br>
KBUF 081120Z 0812/0912 04013G20KT P6SM OVC200 FM081900 06012KT P6SM OVC250 FM090000 06008KT P6SM BKN250<br><br>
<br><br>
CYYZ 081300Z 04011KT 15SM BKN200 14/07 A3030 RMK CS7 SLP263<br><br>
CYYZ 081200Z 03010KT 15SM BKN260 13/07 A3029 RMK CS7 SLP260<br><br>
TAF CYYZ 081138Z 0812/0918 04010KT P6SM BKN250 BECMG 0812/0814 04010G20KT BECMG 0901/0903 04010KT FM091000 04013KT P6SM BKN030 BECMG 0913/0915 08012G22KT FM091600 09015G25KT P6SM SCT030 RMK NXT FCST BY 081500Z<br><br>
<br><br>
CYOO 081300Z AUTO 06010KT 9SM CLR 12/03 A3030 RMK SLP263<br><br>
CYOO 081200Z AUTO 05011KT 9SM CLR 12/04 A3029 RMK SLP261<br><br>
CYOO has no TAF <br><br>
<br><br>
CYTR 081300Z 05011KT 15SM SCT180 BKN250 12/05 A3030 RMK AC3CS3 SLP264<br><br>
CYTR 081200Z 03009KT 15SM BKN250 12/05 A3030 RMK CI7 SLP262<br><br>
TAF CYTR 081130Z 0812/0912 03010G20KT P6SM FEW030 BKN250 BECMG 0818/0820 04010KT BECMG 0823/0901 03005KT RMK NXT FCST BY 081800Z<br><br>
<br><br>
