RETRIEVED AT : Oct 30 2017 02:10 Local <br>
  RETRIEVED AT: Oct 30 2017 06:10 UTC<br><br>
CYSN has no TAF <br><br>
<br><br>
CYHM 300600Z 29013KT 15SM OVC040 06/03 A2946 RMK SC8 SLP982<br><br>
CYHM 300500Z 30011G17KT 15SM OVC032 06/03 A2948 RMK SC8 SLP991<br><br>
TAF CYHM 300538Z 3006/3106 31012G22KT P6SM SCT030 OVC060 FM301300 28020G30KT P6SM BKN060 BECMG 3015/3017 25020G35KT FM301900 24020G35KT 6SM -SHRA BR OVC025 TEMPO 3019/3022 OVC020 BECMG 3022/3024 25018G28KT FM310300 25020G30KT P6SM BKN040 RMK NXT FCST BY 301200Z<br><br>
<br><br>
KIAG 300553Z AUTO 31017KT 10SM CLR 08/03 A2939 RMK AO2 PK WND 32026/0528 SLP958 T00780033 10083 20078 58037<br><br>
KIAG 300453Z AUTO 31014KT 10SM SCT023 08/03 A2943 RMK AO2 SLP973 T00780033 400830056<br><br>
KIAG 300439Z AUTO 32015KT 10SM SCT025 08/03 A2943 RMK AO2 T00780033<br><br>
KIAG 300421Z AUTO 32015G20KT 10SM BKN023 BKN029 08/03 A2944 RMK AO2 PRESFR T00830033<br><br>
KIAG 300523Z 3006/3106 33016G23KT P6SM OVC045 FM301000 30019G34KT P6SM BKN045 FM301600 26022G41KT P6SM BKN250 FM301800 26023G41KT P6SM BKN040 FM302300 26021G30KT P6SM BKN200<br><br>
<br><br>
KBUF 300554Z 30012G21KT 10SM BKN021 BKN042 OVC120 07/03 A2938 RMK AO2 SLP952 60000 T00670033 10067 20056 58034<br><br>
KBUF 300540Z 30008G17KT 10SM BKN021 BKN042 OVC120 07/04 A2938 RMK AO2 T00670039<br><br>
KBUF 300454Z 31012G21KT 10SM FEW021 SCT042 OVC120 07/04 A2941 RMK AO2 SLP962 T00670039 400670050<br><br>
KBUF 300523Z 3006/3106 32013G20KT P6SM OVC045 FM301000 29016G30KT P6SM BKN045 FM302000 25025G44KT 4SM RA OVC007 FM310200 25020G28KT P6SM BKN040 FM310400 25019G28KT P6SM SCT120<br><br>
<br><br>
CYYZ 300600Z CCA 32018G24KT 15SM FEW020 FEW033 OVC180 07/03 A2941 RMK CF1SC2AS6 CF TR SLP963<br><br>
CYYZ 300500Z 32020G25KT 15SM FEW020 FEW033 OVC180 06/03 A2944 RMK CF1SC1AS7 CF TR PRESFR SLP975<br><br>
TAF CYYZ 300538Z 3006/3112 33015G25KT P6SM SCT030 OVC060 BECMG 3012/3014 27020G35KT FM302000 26020G30KT P6SM OVC030 TEMPO 3020/3024 P6SM -SHRA FM310100 24015G25KT P6SM BKN040 RMK NXT FCST BY 300900Z<br><br>
<br><br>
CYOO 300600Z AUTO 32019G29KT 9SM SCT075 OVC170 07/02 A2933 RMK PRESFR SLP936<br><br>
CYOO 300500Z AUTO 33014G21KT 9SM SCT065 BKN150 OVC170 07/01 A2938 RMK PRESFR SLP952<br><br>
CYOO has no TAF <br><br>
<br><br>
CYTR 300600Z 32015G22KT 6SM -SHRA BR BKN007 OVC022 06/05 A2920 RMK SF6SC2 PRESFR SLP892<br><br>
CYTR 300525Z 32013G19KT 6SM -SHRA BR BKN006 OVC022 06/05 A2925 RMK SF6SC2 PRESFR SLP908<br><br>
CYTR 300500Z 33013G20KT 4SM SHRA BR BKN006 OVC022 06/05 A2928 RMK SF6SC2 PRESFR SLP918<br><br>
TAF CYTR 300530Z 3006/3106 33015G25KT 4SM -RA BR BKN005 OVC012 TEMPO 3006/3009 6SM -RA BR SCT005 BKN012 OVC020 PROB30 3006/3008 2SM RA BR BKN002 OVC005 FM300900 30018G28KT 6SM -RA BR SCT008 BKN012 OVC020 TEMPO 3009/3012 P6SM NSW SCT012 BKN020 BECMG 3010/3012 28020G35KT FM301200 28020G35KT P6SM SCT020 BKN040 TEMPO 3012/3014 BKN020 OVC040 BECMG 3019/3021 24015G25KT FM302100 24015G25KT P6SM SCT040 BECMG 3021/3023 24012KT FM310200 24010KT P6SM FEW040 RMK NXT FCST BY 301200Z<br><br>
<br><br>
