RETRIEVED AT : Oct 15 2018 03:07 Local <br>
  RETRIEVED AT: Oct 15 2018 07:07 UTC<br><br>
CYSN has no TAF <br><br>
<br><br>
CYHM 150600Z 06002KT 15SM BKN120 08/06 A3000 RMK AC6 SLP163<br><br>
TAF CYHM 150538Z 1506/1606 VRB03KT P6SM FEW110 BKN240 FM150700 VRB03KT P6SM SCT020 OVC110 TEMPO 1507/1511 P6SM -SHRA BKN020 FM151100 VRB03KT P6SM SCT006 OVC015 TEMPO 1511/1513 5SM -SHRA BR BKN006 OVC012 FM151500 25015KT 5SM -SHRA BR OVC015 FM151800 27020G30KT P6SM OVC020 FM152100 27020G30KT P6SM BKN030 FM160000 27015G25KT P6SM SCT030 BECMG 1603/1605 25012KT RMK NXT FCST BY 151200Z<br><br>
<br><br>
KIAG 150653Z AUTO 11003KT 10SM -RA FEW075 OVC100 08/05 A3000 RMK AO2 RAB40 SLP162 P0000 T00780050<br><br>
KIAG 150553Z AUTO 16003KT 10SM FEW120 07/04 A3001 RMK AO2 SLP169 T00720044 10083 20039 58016<br><br>
KIAG 150541Z 1506/1606 12005KT P6SM BKN110 FM151000 17006KT P6SM VCSH OVC020 FM151500 23012G18KT 6SM -SHRA OVC012 FM151700 25014G26KT P6SM OVC012 FM152300 27019G33KT P6SM BKN035 FM160400 28017G32KT P6SM FEW250<br><br>
<br><br>
KBUF 150654Z 00000KT 10SM BKN110 OVC230 08/06 A3000 RMK AO2 SLP161 T00830056<br><br>
KBUF 150554Z 14004KT 10SM FEW110 BKN240 08/04 A3002 RMK AO2 SLP166 T00780044 10111 20072 58020<br><br>
KBUF 150541Z 1506/1606 14006KT P6SM BKN110 FM150900 16007KT P6SM VCSH OVC020 FM151500 23012G19KT 6SM -SHRA OVC012 FM151800 25013G27KT P6SM OVC012 FM160000 27018G35KT P6SM BKN035 FM160200 28019G36KT P6SM BKN130<br><br>
<br><br>
CYYZ 150600Z 00000KT 15SM SCT120 OVC220 08/04 A2999 RMK AC3CS5 SLP161<br><br>
TAF CYYZ 150538Z 1506/1612 VRB03KT P6SM BKN240 FM150800 VRB03KT P6SM OVC110 FM151100 VRB03KT P6SM SCT012 OVC040 TEMPO 1511/1514 5SM -SHRA BR OVC012 FM151400 24008KT 5SM -SHRA BR OVC012 FM151800 28018G28KT P6SM OVC020 FM152100 28018G28KT P6SM BKN030 FM160000 28018G28KT P6SM SCT030 BECMG 1600/1602 28015G25KT BECMG 1603/1605 26015KT RMK NXT FCST BY 150900Z<br><br>
<br><br>
CYOO 150600Z AUTO 09005KT 9SM FEW160 SCT240 09/08 A3000 RMK SLP164<br><br>
CYOO has no TAF <br><br>
<br><br>
CYTR 150600Z 11002KT 7SM FEW150 FEW220 05/05 A3003 RMK AC1CI2 SLP173<br><br>
CYTR 150539Z 00000KT 7SM FEW150 FEW220 05/05 A3004 RMK AC1CI1 SLP175<br><br>
TAF CYTR 150530Z 1506/1606 VRB03KT 3SM BR BKN220 TEMPO 1506/1509 P6SM NSW FM150900 18008KT P6SM FEW015 OVC100 TEMPO 1509/1511 3SM -SHRA BR BKN015 FM151100 18008KT 6SM -RA BR SCT006 OVC015 TEMPO 1511/1519 2SM -RA BR OVC006 BECMG 1516/1518 24012KT FM151900 24012G22KT 4SM -RA BR OVC020 FM152200 24012G22KT P6SM BKN030 BECMG 1601/1603 27012KT RMK NXT FCST BY 151200Z<br><br>
<br><br>
