RETRIEVED AT : Jun 05 2020 07:05 Local <br>
  RETRIEVED AT: Jun 05 2020 11:05 UTC<br><br>
CYSN has no TAF <br><br>
<br><br>
TAF AMD CYHM 050941Z 0509/0606 22005KT 1/8SM FG VV002 TEMPO 0509/0512 2SM BR SCT004 FM051200 22007KT P6SM FEW030 TEMPO 0512/0513 3SM BR FM051400 23010KT P6SM FEW040 FM051700 20012KT P6SM -SHRA BKN060 PROB30 0518/0523 VRB15G25KT 2SM TSRA BR BKN020 OVC050CB FM060000 24010G20KT P6SM BKN070 FM060500 30010G20KT P6SM FEW050 RMK NXT FCST BY 051200Z<br><br>
<br><br>
KIAG 050900Z 0509/0606 22006KT 5SM BR SKC TEMPO 0509/0511 3SM BR FM051500 21008KT P6SM FEW250 FM052100 22012G19KT P6SM SCT200 FM060300 26008KT P6SM BKN060<br><br>
<br><br>
KBUF 050900Z 0509/0606 22004KT P6SM BKN250 TEMPO 0509/0511 5SM BR FM052000 22012G19KT P6SM SCT200 FM060200 22010G18KT P6SM SCT100 FM060500 25010G18KT P6SM BKN035<br><br>
<br><br>
TAF CYYZ 050838Z 0509/0612 VRB03KT P6SM FEW200 FM051500 24007KT P6SM SCT070 FM051700 22010KT P6SM -SHRA BKN070 PROB30 0518/0523 VRB15G25KT 2SM TSRA BR BKN020 OVC050CB FM052300 24010G20KT P6SM BKN070 FM060500 31010G20KT P6SM SCT070 FM060800 33010KT P6SM SKC BECMG 0610/0612 32012G22KT RMK NXT FCST BY 051200Z<br><br>
<br><br>
TAF CYOO 050738Z 0508/0520 VRB03KT 6SM BR SKC TEMPO 0508/0512 3SM BR PROB30 0508/0512 1/2SM FG BKN003 FM051200 21007KT P6SM FEW060 FM051700 21010KT P6SM -SHRA BKN070 PROB30 0518/0520 VRB15G25KT 2SM TSRA BR BKN020 OVC050CB RMK FCST BASED ON AUTO OBS. NXT FCST BY 051400Z<br><br>
<br><br>
TAF CYTR 050530Z 0506/0606 VRB03KT P6SM OVC300 FM050800 22005KT P6SM FEW060 SCT250 PROB30 0508/0511 3SM BR FM051500 20010KT P6SM SCT060 FM051900 21012G22KT P6SM BKN080 TEMPO 0519/0602 5SM SHRA BR SCT020 BKN050 PROB30 0519/0602 VRB15G25KT 2SM TSRA BR BKN020 OVC030CB FM060200 VRB03KT P6SM FEW010 SCT080 RMK NXT FCST BY 051200Z<br><br>
<br><br>
