RETRIEVED AT : Mar 14 2020 14:05 Local <br>
  RETRIEVED AT: Mar 14 2020 18:05 UTC<br><br>
CYSN 141700Z 29008KT 240V310 15SM OVC026 03/M03 A3046 RMK SC8 SLP320<br><br>
TAF CYSN 141238Z 1413/1501 30010KT P6SM BKN025 TEMPO 1413/1418 BKN020 FM141800 28008KT P6SM SCT025 BKN240 BECMG 1419/1421 FEW030 OVC140 FM150000 02008KT P6SM FEW040 OVC120 RMK NXT FCST BY 142000Z<br><br>
<br><br>
CYHM 141700Z 28008KT 15SM OVC024 02/M04 A3043 RMK SC8 SLP317<br><br>
TAF CYHM 141738Z 1418/1518 28010KT P6SM OVC020 TEMPO 1418/1503 BKN025 OVC200 FM150300 03010KT P6SM BKN040 OVC120 FM150600 03010KT P6SM SCT040 BKN120 FM151200 03015KT P6SM FEW030 SCT120 FM151500 04015KT P6SM FEW030 RMK NXT FCST BY 150000Z<br><br>
<br><br>
KIAG 141753Z 28007KT 10SM OVC025 02/M03 A3044 RMK AO2 SLP323 T00171033 10022 20000 50011<br><br>
KIAG 141653Z 27005KT 10SM OVC024 01/M04 A3044 RMK AO2 SLP323 T00111039<br><br>
KIAG 141720Z 1418/1518 28008KT P6SM BKN025 FM142100 27007KT P6SM OVC150 FM150100 34006KT P6SM OVC100 FM150500 01006KT P6SM SCT060 BKN100 FM151000 04006KT P6SM SCT050<br><br>
<br><br>
KBUF 141754Z 29009KT 10SM OVC025 02/M03 A3044 RMK AO2 SLP315 T00221033 10022 20000 50008<br><br>
KBUF 141654Z 25008KT 10SM OVC024 02/M04 A3044 RMK AO2 SLP315 T00221039<br><br>
KBUF 141720Z 1418/1518 25008KT P6SM BKN025 FM142100 25010KT P6SM OVC150 FM150100 30004KT P6SM OVC100 FM150500 35005KT P6SM SCT050 BKN100 FM151000 02005KT P6SM SCT050<br><br>
<br><br>
CYYZ 141801Z 31008KT 300V040 15SM OVC027 02/M04 A3043 RMK SC8 SLP314<br><br>
CYYZ 141700Z 31011KT 290V010 15SM OVC026 03/M04 A3044 RMK SC8 SLP315<br><br>
TAF CYYZ 141738Z 1418/1524 31010KT P6SM OVC025 FM142300 01010KT P6SM SCT030 BKN140 FM151200 02012KT P6SM FEW040 BECMG 1518/1520 08010KT SCT180 RMK NXT FCST BY 142100Z<br><br>
<br><br>
CYOO 141700Z AUTO 31012G18KT 9SM CLR 03/M03 A3041 RMK SLP306<br><br>
TAF CYOO 141338Z 1414/1502 31015G25KT P6SM BKN025 TEMPO 1414/1416 OVC020 FM141600 30012KT P6SM SCT020 TEMPO 1416/1418 BKN020 FM141800 30012KT P6SM FEW030 BKN160 RMK FCST BASED ON AUTO OBS. NXT FCST BY 142000Z<br><br>
<br><br>
CYTR 141700Z 30008G18KT 15SM FEW030 BKN250 05/M03 A3036 RMK SC1CI6 SLP286<br><br>
TAF CYTR 141730Z 1418/1518 30010G20KT P6SM FEW030 BKN250 FM150000 31010KT P6SM FEW040 BKN160 BECMG 1502/1504 02008KT BECMG 1510/1512 SKC RMK NXT FCST BY 150000Z<br><br>
<br><br>
