RETRIEVED AT : May 15 2020 07:06 Local <br>
  RETRIEVED AT: May 15 2020 11:06 UTC<br><br>
CYSN has no TAF <br><br>
<br><br>
CYHM 151048Z 20007KT 7SM -RA BKN007 BKN012 OVC028 14/14 A2987 RMK SF5SC2SC1 SLP121 DENSITY ALT 1000FT<br><br>
CYHM 151000Z 22007KT 7SM -RA SCT008 OVC016 14/14 A2988 RMK SF3SC5 SLP122 DENSITY ALT 900FT<br><br>
CYHM 150930Z 22007KT 6SM BR BKN008 OVC029 14/14 A2987 RMK SF5SC3 SLP120 DENSITY ALT 900FT<br><br>
TAF AMD CYHM 150857Z 1508/1606 22006KT P6SM SCT005 OVC025 TEMPO 1509/1515 3SM SHRA BR BKN005 OVC025 BECMG 1512/1514 21010G20KT FM151500 22018G28KT P6SM BKN020 OVC030 FM151800 22018G28KT P6SM -SHRA BKN020 OVC030 PROB30 1518/1521 VRB20G30KT 2SM TSRA BR BKN008 OVC020CB FM152100 30010KT P6SM SCT020 BKN030 FM160000 35008KT P6SM SKC BECMG 1601/1603 VRB03KT RMK NXT FCST BY 151200Z<br><br>
<br><br>
KIAG 151053Z 21005KT 6SM -RA BR FEW022 OVC032 14/13 A2989 RMK AO2 RAB0958 SLP126 P0010 T01390133<br><br>
KIAG 151047Z 21006KT 3SM -RA BR SCT022 BKN030 OVC035 14/13 A2989 RMK AO2 RAB0958 P0010<br><br>
KIAG 151043Z AUTO 22005KT 2 1/2SM R28R/5000VP6000FT +RA BR BKN022 OVC032 14/13 A2989 RMK AO2 RAB0958 P0009 T01390133<br><br>
KIAG 151003Z AUTO 23008KT 5SM -RA BR SCT019 BKN029 OVC034 14/13 A2989 RMK AO2 RAB0958 P0001 T01390133<br><br>
KIAG 150953Z AUTO 22008KT 10SM FEW024 BKN032 OVC050 14/13 A2988 RMK AO2 SLP122 T01440133<br><br>
KIAG 150950Z AUTO 22009KT 10SM SCT024 BKN034 OVC050 14/13 A2988 RMK AO2<br><br>
KIAG 150930Z AUTO 22008KT 10SM BKN022 BKN032 OVC055 14/13 A2988 RMK AO2 T01440133<br><br>
KIAG 150913Z AUTO 23009KT 10SM FEW020 BKN032 OVC044 14/13 A2988 RMK AO2 T01440133<br><br>
KIAG 150904Z 1509/1606 23010KT P6SM VCSH BKN025 FM151500 22015G25KT 6SM -SHRA OVC025 FM151700 23020G26KT 4SM SHRA SCT015 BKN025 FM152000 26012G20KT 6SM -SHRA OVC025 FM152300 VRB03KT P6SM SCT007 BKN015<br><br>
<br><br>
KBUF 151054Z 19004KT 5SM BR SCT035 OVC044 13/12 A2990 RMK AO2 RAB0956E17B38E47 SLP127 P0001 T01330122<br><br>
KBUF 150954Z 21005KT 7SM BKN036 OVC045 13/12 A2990 RMK AO2 SLP125 T01280117<br><br>
KBUF 150940Z 21007KT 8SM SCT019 OVC040 13/12 A2990 RMK AO2 T01280117<br><br>
KBUF 151015Z 1510/1606 23010KT 5SM -SHRA BR BKN035 FM151500 23014G24KT P6SM VCSH BKN025 FM151800 24017G27KT 3SM SHRA SCT015 BKN025 FM152100 24012G22KT 6SM -SHRA BKN025 FM160000 VRB03KT P6SM SCT007 BKN015<br><br>
<br><br>
CYYZ 151000Z 00000KT 5/8SM R15L/P6000FT/D R06L/P6000FT/U R05/P6000FT/D BR BKN002 OVC030 10/10 A2986 RMK FG6ST1SC1 SLP118<br><br>
TAF CYYZ 150838Z 1509/1612 VRB03KT 1/2SM FG VV002 FM151200 14006KT 1SM -SHRA BR OVC002 TEMPO 1512/1514 3SM BR SCT002 OVC004 FM151400 20012G22KT P6SM SCT008 BKN025 TEMPO 1514/1521 5SM -SHRA BR BKN008 OVC025 BECMG 1519/1521 30012G22KT FM152100 35012KT P6SM BKN015 OVC025 FM160000 02012KT P6SM FEW030 FM160800 36006KT P6SM SKC PROB30 1608/1612 2SM BR RMK NXT FCST BY 151200Z<br><br>
<br><br>
CYOO 151000Z AUTO 18003KT 1 1/2SM BR OVC004 09/09 A2988 RMK SLP124<br><br>
TAF CYOO 150738Z 1508/1520 VRB03KT 1SM -RA BR OVC004 TEMPO 1508/1513 6SM BR SCT004 OVC008 PROB30 1508/1513 1/2SM -DZ FG VV002 FM151300 20006KT 2SM -SHRA BR BKN004 OVC010 TEMPO 1513/1516 6SM BR SCT004 OVC010 FM151600 23010G20KT P6SM -SHRA BKN015 OVC025 RMK FCST BASED ON AUTO OBS. NXT FCST BY 151400Z<br><br>
<br><br>
CYTR 151000Z 21004KT 6SM BR FEW006 OVC022 10/09 A2988 RMK SF2SC6 SLP119<br><br>
CYTR 150927Z 18002KT 6SM BR SCT006 OVC022 10/08 A2987 RMK SF3SC5 SLP116<br><br>
TAF AMD CYTR 150938Z 1509/1606 VRB03KT 6SM BR SCT005 OVC020 TEMPO 1509/1513 1SM -DZ BR OVC005 PROB40 1509/1513 1/2SM -DZ FG VV002 FM151300 20005KT 11/2SM -SHRA BR OVC005 BECMG 1515/1517 24015KT FM151700 24015KT 1SM SHRA BR SCT006 OVC010 PROB30 1517/1521 VRB25G35KT 3/4SM TSRA BR SCT006 BKN010 OVC030CB FM152100 32012KT P6SM -SHRA FEW006 BKN012 OVC040 FM160000 31008KT P6SM BKN025 FM160400 30008KT P6SM SCT025 RMK NXT FCST BY 151200Z<br><br>
<br><br>
