RETRIEVED AT : Apr 04 2020 12:05 Local <br>
  RETRIEVED AT: Apr 04 2020 16:05 UTC<br><br>
CYSN 041500Z 35003KT 270V040 5SM BR OVC003 08/08 A3007 RMK SF8 SLP187<br><br>
TAF AMD CYSN 041507Z 0415/0501 VRB03KT 5SM -DZ BR OVC003 TEMPO 0415/0417 P6SM NSW SCT003 OVC010 FM041700 30008KT P6SM BKN020 TEMPO 0417/0418 BKN025 FM041800 33008KT P6SM BKN025 TEMPO 0418/0501 BKN020 RMK NXT FCST BY 042000Z<br><br>
<br><br>
CYHM 041500Z 33004KT 230V040 15SM OVC015 08/04 A3006 RMK SC8 SLP188<br><br>
TAF CYHM 041139Z 0412/0512 VRB03KT P6SM FEW006 BKN010 OVC050 TEMPO 0412/0414 4SM -DZ BR OVC006 FM041400 VRB03KT P6SM BKN015 BKN050 TEMPO 0414/0417 SCT015 BKN050 FM041700 07006KT P6SM BKN025 FM042200 VRB03KT P6SM BKN030 BKN080 FM050300 22007KT P6SM -SHRA BKN030 OVC050 FM050700 25007KT P6SM BKN025 OVC050 FM051000 29008KT P6SM BKN010 OVC030 RMK NXT FCST BY 041800Z<br><br>
<br><br>
KIAG 041553Z 33003KT 10SM OVC010 08/06 A3006 RMK AO2 CIG 007V012 SLP188 T00780061<br><br>
KIAG 041524Z 36004KT 10SM BKN007 OVC013 07/06 A3006 RMK AO2 T00720061<br><br>
KIAG 041516Z 00000KT 10SM BKN006 OVC011 07/06 A3007 RMK AO2 CIG 005V010 T00720061<br><br>
KIAG 041506Z 29005KT 10SM OVC008 07/06 A3007 RMK AO2 CIG 005V010 T00720061<br><br>
KIAG 041453Z 29003KT 10SM BKN006 OVC011 07/06 A3007 RMK AO2 SLP192 T00720061 51006<br><br>
KIAG 041450Z 30005KT 10SM BKN006 OVC011 07/06 A3007 RMK AO2<br><br>
KIAG 041509Z 0415/0512 29003KT P6SM BKN006 OVC011 FM041800 24005KT P6SM OVC012 FM042100 VRB03KT P6SM BKN035 FM050900 28005KT P6SM VCSH OVC030<br><br>
<br><br>
KBUF 041554Z 00000KT 10SM FEW006 BKN012 BKN025 09/06 A3006 RMK AO2 SLP186 T00890056<br><br>
KBUF 041536Z 24004KT 10SM SCT006 OVC011 08/06 A3007 RMK AO2 T00830056<br><br>
KBUF 041513Z 24004KT 9SM BKN005 OVC010 07/06 A3007 RMK AO2 T00720056<br><br>
KBUF 041504Z 25004KT 3SM BR OVC004 07/06 A3007 RMK AO2 T00720056<br><br>
KBUF 041454Z 22004KT 2SM R23/5000VP6000FT BR OVC004 07/06 A3007 RMK AO2 DZE46 SLP188 P0000 60000 T00720056 51012<br><br>
KBUF 041509Z 0415/0512 22004KT 5SM BR OVC004 TEMPO 0415/0416 3SM BR FM041800 24007KT P6SM BKN012 FM042300 VRB03KT P6SM SCT030 FM050200 VRB03KT P6SM BKN060<br><br>
<br><br>
CYYZ 041500Z VRB09KT 15SM SCT016 BKN031 09/06 A3006 RMK CU3SC4 SLP187<br><br>
TAF CYYZ 041442Z 0415/0518 VRB03KT P6SM FEW009 BKN015 TEMPO 0415/0420 SCT015 BKN040 FM042000 14008KT P6SM BKN025 FM050000 13008KT P6SM BKN030 BKN100 FM050300 15008KT P6SM -SHRA BKN030 OVC080 FM050700 VRB03KT 4SM BR SCT006 OVC015 PROB40 0507/0509 2SM BR OVC006 FM050900 35008KT P6SM SCT008 BKN012 OVC040 PROB30 0509/0513 OVC008 FM051500 34015KT P6SM SCT015 RMK NXT FCST BY 041800Z<br><br>
<br><br>
CYOO 041500Z AUTO 14003KT 080V180 9SM SCT012 OVC018 08/07 A3007 RMK SLP188<br><br>
TAF CYOO 041338Z 0414/0502 VRB03KT P6SM BKN015 OVC030 TEMPO 0414/0416 SCT015 OVC030 FM041600 18007KT P6SM BKN030 RMK FCST BASED ON AUTO OBS. NXT FCST BY 042000Z<br><br>
<br><br>
CYTR 041500Z 16002KT 15SM SCT030 BKN095 09/04 A3007 RMK SC4AC2 SLP187<br><br>
TAF CYTR 041130Z 0412/0512 VRB03KT P6SM FEW015 BKN030 OVC100 TEMPO 0412/0419 BKN015 OVC030 BECMG 0417/0419 20008KT FM041900 20008KT P6SM SCT040 BECMG 0500/0502 VRB03KT FM050700 VRB03KT P6SM SCT040 OVC070 TEMPO 0507/0512 P6SM -SHRA OVC040 RMK NXT FCST BY 041800Z<br><br>
<br><br>
