RETRIEVED AT : Sep 30 2017 17:10 Local <br>
  RETRIEVED AT: Sep 30 2017 21:10 UTC<br><br>
CYSN 302100Z VRB02KT 15SM FEW044 14/03 A3038 RMK CU1 SLP290<br><br>
CYSN 302000Z 35007KT 310V020 15SM FEW040 FEW250 15/03 A3039 RMK SC1CI1 SC TR CI TR SLP294<br><br>
TAF CYSN 301938Z 3020/0101 36010KT P6SM FEW040 FM302300 VRB03KT P6SM SKC RMK NXT FCST WILL BE ISSUED AT 011245Z<br><br>
<br><br>
CYHM 302100Z 03004KT 340V070 15SM FEW050 FEW250 14/01 A3037 RMK SC1CI1 SC TR CI TR SLP289<br><br>
CYHM 302000Z 06005KT 010V100 15SM FEW050 FEW250 14/01 A3038 RMK SC1CI1 SC TR CI TR SLP292<br><br>
TAF CYHM 301738Z 3018/0118 01012KT P6SM FEW030 BECMG 3020/3022 04007KT BECMG 0102/0104 VRB03KT RMK NXT FCST BY 010000Z<br><br>
<br><br>
KIAG 302053Z 01009KT 10SM SCT040 14/03 A3038 RMK AO2 SLP290 T01390028 56007<br><br>
KIAG 301953Z 36003KT 10SM BKN039 14/03 A3038 RMK AO2 SLP293 T01390028<br><br>
KIAG 301721Z 3018/0118 02009KT P6SM BKN045 FM302000 01009KT P6SM SCT050 FM010000 00000KT P6SM SKC FM011500 21004KT P6SM SKC<br><br>
<br><br>
KBUF 302054Z VRB03KT 10SM FEW043 14/03 A3037 RMK AO2 SLP286 T01390033 58005<br><br>
KBUF 301954Z VRB03KT 10SM SCT041 14/04 A3038 RMK AO2 SLP288 T01440039<br><br>
KBUF 301721Z 3018/0118 34009KT P6SM BKN040 FM302100 36008KT P6SM SCT050 FM010000 VRB03KT P6SM SKC FM011500 24004KT P6SM SKC<br><br>
<br><br>
CYYZ 302100Z VRB06KT 15SM FEW250 15/01 A3037 RMK CI1 CI TR SLP288<br><br>
CYYZ 302000Z VRB02KT 15SM FEW045 FEW250 14/00 A3038 RMK CF1CI1 CF TR CI TR SLP291<br><br>
TAF CYYZ 302038Z 3021/0124 34007KT P6SM FEW040 FM011200 31005KT P6SM FEW040 BECMG 0115/0117 20008KT BECMG 0123/0124 VRB03KT RMK NXT FCST BY 010000Z<br><br>
<br><br>
CYOO 302100Z AUTO 36004KT 320V040 9SM CLR 14/02 A3036 RMK SLP286<br><br>
CYOO 302001Z AUTO VRB02KT 6SM HZ CLR 14/02 A3037 RMK SLP289<br><br>
CYOO 302000Z AUTO 05003KT 320V120 5SM HZ CLR 14/02 A3037 RMK SLP289<br><br>
CYOO 301948Z AUTO 35006KT 4SM HZ CLR 13/03 A3038 RMK SLP290<br><br>
CYOO 301942Z AUTO VRB07KT 6SM HZ CLR 14/02 A3038 RMK SLP291<br><br>
CYOO 301939Z AUTO VRB07KT 5SM HZ CLR 14/03 A3038 RMK SLP291<br><br>
CYOO 301929Z AUTO 33006KT 1 3/4SM HZ FEW002 14/03 A3038 RMK SLP291<br><br>
CYOO 301928Z AUTO 34005KT 5SM HZ FEW002 14/03 A3038 RMK SLP291<br><br>
CYOO 301918Z AUTO 34004KT 300V010 2 1/4SM HZ FEW002 14/02 A3038 RMK SLP291<br><br>
CYOO 301917Z AUTO 33005KT 300V010 5SM HZ FEW002 14/02 A3038 RMK SLP291<br><br>
CYOO 301916Z AUTO 33005KT 300V010 6SM HZ CLR 14/01 A3038 RMK SLP291<br><br>
CYOO has no TAF <br><br>
<br><br>
CYTR 302100Z CCA 35002KT 15SM FEW050 14/03 A3035 RMK SC1 SLP280<br><br>
CYTR 302000Z 36007KT 15SM FEW050 14/03 A3036 RMK SC2 SLP282<br><br>
TAF CYTR 301730Z 3018/0118 02008KT P6SM BKN030 FM302300 34005KT P6SM SKC BECMG 0102/0104 VRB03KT BECMG 0116/0118 25008KT RMK NXT FCST BY 010000Z<br><br>
<br><br>
