RETRIEVED AT : Jun 30 2018 03:15 Local <br>
  RETRIEVED AT: Jun 30 2018 07:15 UTC<br><br>
CYSN has no TAF <br><br>
<br><br>
CYHM 300700Z 21004KT 15SM SKC 20/18 A3000 RMK SLP155 DENSITY ALT 1500FT<br><br>
CYHM 300600Z 20006KT 15SM SKC 21/18 A3000 RMK SLP158 DENSITY ALT 1600FT<br><br>
TAF CYHM 300538Z 3006/0106 21008KT P6SM FEW240 BECMG 3013/3015 23012G22KT FM301700 23015KT P6SM FEW040 BECMG 0100/0102 28008KT RMK NXT FCST BY 301200Z<br><br>
<br><br>
KIAG 300530Z 3006/0106 20006KT P6SM SKC FM301000 22011KT P6SM SKC FM301400 23018G24KT P6SM SCT250 FM010000 22009KT P6SM SKC<br><br>
<br><br>
KBUF 300654Z 17004KT 10SM FEW300 21/16 A3002 RMK AO2 SLP161 T02060161<br><br>
KBUF 300554Z 17005KT 10SM FEW300 20/16 A3002 RMK AO2 SLP162 T02000161 10267 20200 53000<br><br>
KBUF 300530Z 3006/0106 18006KT P6SM SKC FM301000 22011KT P6SM SKC FM301400 24018G24KT P6SM SCT250 FM010000 22009KT P6SM SKC<br><br>
<br><br>
CYYZ 300700Z 20008KT 15SM SKC 24/18 A2996 RMK SLP145 DENSITY ALT 1700FT<br><br>
CYYZ 300600Z 22009KT 15SM SKC 24/18 A2997 RMK SLP148 DENSITY ALT 1700FT<br><br>
TAF CYYZ 300538Z 3006/0112 21008KT P6SM FEW240 BECMG 3012/3014 26015KT FEW030 FEW240 FM010000 25010KT P6SM FEW240 RMK NXT FCST BY 300900Z<br><br>
<br><br>
CYOO 300700Z AUTO 20006KT 9SM CLR 22/17 A2995 RMK SLP143 DENSITY ALT 1200FT<br><br>
CYOO 300600Z AUTO 19004KT 9SM CLR 22/16 A2997 RMK SLP149 DENSITY ALT 1300FT<br><br>
CYOO has no TAF <br><br>
<br><br>
CYTR 300700Z 20005KT 15SM FEW250 21/16 A2995 RMK CI2 SLP140<br><br>
CYTR 300600Z 19002KT 15SM SKC 20/16 A2998 RMK SLP150<br><br>
TAF CYTR 300530Z 3006/0106 VRB03KT P6SM FEW120 FM300800 23008KT P6SM SCT250 FM301700 23012G22KT P6SM SCT040 BECMG 3023/0101 24010KT RMK NXT FCST BY 301200Z<br><br>
<br><br>
