RETRIEVED AT : May 13 2018 17:05 Local <br>
  RETRIEVED AT: May 13 2018 21:05 UTC<br><br>
CYSN 132000Z 02009KT 15SM FEW039 FEW230 17/09 A2997 RMK SC1CI1 SLP152 DENSITY ALT 600FT<br><br>
TAF CYSN 131938Z 1320/1401 03010KT P6SM FEW040 FM140000 VRB03KT P6SM FEW020 RMK NXT FCST WILL BE ISSUED AT 141245Z<br><br>
<br><br>
CYHM 132000Z 05007KT 360V080 15SM FEW035 FEW150 FEW250 15/09 A2999 RMK CU1AC1CI2 CU TR AC TR SLP159 DENSITY ALT 900FT<br><br>
TAF CYHM 131738Z 1318/1418 06010KT P6SM FEW030 FEW120 FM140300 VRB03KT P6SM FEW060 BECMG 1407/1408 21006KT FM141500 22010KT P6SM BKN020 BECMG 1416/1418 22010G20KT RMK NXT FCST BY 140000Z<br><br>
<br><br>
