RETRIEVED AT : Sep 08 2018 07:05 Local <br>
  RETRIEVED AT: Sep 08 2018 11:05 UTC<br><br>
CYSN has no TAF <br><br>
<br><br>
CYHM 081000Z 02012KT 15SM BKN024 OVC250 15/10 A3023 RMK SC6CI2 SLP238<br><br>
TAF AMD CYHM 081006Z 0810/0906 03012KT P6SM FEW020 BKN200 TEMPO 0810/0813 BKN020 BECMG 0814/0816 05015G25KT FM090000 06012G22KT P6SM BKN200 RMK NXT FCST BY 081200Z<br><br>
<br><br>
KIAG 081053Z 05013KT 10SM CLR 16/11 A3023 RMK AO2 SLP235 T01560106<br><br>
KIAG 080953Z AUTO 05012KT 10SM CLR 16/11 A3022 RMK AO2 SLP231 T01610111<br><br>
KIAG 080900Z 0809/0906 04013KT P6SM OVC200 FM081200 05014G21KT P6SM OVC250 FM081900 05012KT P6SM BKN250 FM090100 06008KT P6SM BKN250<br><br>
<br><br>
KBUF 081054Z 04013KT 10SM FEW130 OVC230 16/12 A3022 RMK AO2 SLP232 T01560117<br><br>
KBUF 080954Z 04012G18KT 10SM FEW150 OVC230 16/12 A3021 RMK AO2 SLP228 T01610117<br><br>
KBUF 080900Z 0809/0906 04012KT P6SM OVC200 FM081300 05013G20KT P6SM OVC250 FM081900 05011KT P6SM BKN250 FM090100 06008KT P6SM BKN250<br><br>
<br><br>
CYYZ 081000Z 03010KT 15SM BKN260 14/08 A3025 RMK CI6 SLP247<br><br>
TAF CYYZ 080838Z 0809/0912 04010KT P6SM BKN250 FM081600 07012KT P6SM BKN250 BECMG 0901/0903 04010KT FM091000 04013KT P6SM BKN030 RMK NXT FCST BY 081200Z<br><br>
<br><br>
CYOO 081000Z AUTO 02007KT 9SM CLR 13/06 A3026 RMK SLP248<br><br>
CYOO has no TAF <br><br>
<br><br>
CYTR 081000Z 03006KT 15SM BKN250 11/07 A3027 RMK CI6 SLP253<br><br>
TAF CYTR 080530Z 0806/0906 VRB03KT P6SM SCT060 OVC250 BECMG 0806/0808 01010KT FM081200 04012G22KT P6SM FEW030 BKN250 BECMG 0817/0819 04010KT RMK NXT FCST BY 081200Z<br><br>
<br><br>
