RETRIEVED AT : Jun 07 2019 22:05 Local <br>
  RETRIEVED AT: Jun 08 2019 02:05 UTC<br><br>
CYSN 080100Z 00000KT 15SM FEW250 20/13 A3000 RMK CI2 LAST STFD OBS/NEXT 08 1100UTC SLP160 DENSITY ALT 900FT<br><br>
CYSN has no TAF <br><br>
<br><br>
CYHM 080100Z 01005KT 15SM FEW230 20/09 A3003 RMK CI2 SLP168 DENSITY ALT 1400FT<br><br>
TAF CYHM 072338Z 0800/0824 04005KT P6SM FEW240 FM080300 03005KT P6SM SKC BECMG 0812/0814 05015KT RMK NXT FCST BY 080600Z<br><br>
<br><br>
KIAG 080153Z 00000KT 10SM CLR 18/10 A3003 RMK AO2 SLP169 T01780100<br><br>
KIAG 080053Z 06003KT 10SM CLR 21/09 A3001 RMK AO2 SLP162 T02110094<br><br>
KIAG 072320Z 0800/0824 05005KT P6SM SKC FM080200 VRB03KT P6SM FEW250 FM080900 08005KT P6SM FEW250 FM081500 07010KT P6SM FEW250<br><br>
<br><br>
KBUF 080154Z 04003KT 10SM FEW270 21/07 A3004 RMK AO2 SLP170 T02060072<br><br>
KBUF 080054Z 04003KT 10SM FEW260 FEW300 22/07 A3001 RMK AO2 SLP162 T02220067<br><br>
KBUF 072320Z 0800/0824 05005KT P6SM SKC FM080400 VRB03KT P6SM FEW250 FM080900 10005KT P6SM FEW250 FM081500 07009KT P6SM FEW250<br><br>
<br><br>
CYYZ 080100Z 01006KT 15SM FEW250 21/08 A3003 RMK CI1 CI TR SLP169 DENSITY ALT 1300FT<br><br>
TAF CYYZ 072338Z 0800/0906 04007KT P6SM FEW250 FM081200 08012KT P6SM SKC BECMG 0814/0816 13010G20KT BECMG 0900/0902 09010KT RMK NXT FCST BY 080300Z<br><br>
<br><br>
CYOO 080100Z AUTO 33006KT 9SM CLR 21/10 A3002 RMK SLP165 DENSITY ALT 1100FT<br><br>
TAF CYOO 080138Z 0802/0814 33007KT P6SM SKC BECMG 0804/0806 04008KT BECMG 0811/0813 11012KT RMK FCST BASED ON AUTO OBS. NXT FCST BY 080800Z<br><br>
<br><br>
CYTR 080100Z 20002KT 15SM FEW250 20/11 A3000 RMK CI1 SLP159<br><br>
TAF CYTR 072330Z 0800/0824 23010KT P6SM FEW050 FEW250 BECMG 0800/0802 VRB03KT BECMG 0804/0806 04007KT FM081400 09007KT P6SM SKC BECMG 0816/0818 21010KT RMK NXT FCST BY 080600Z<br><br>
<br><br>
