RETRIEVED AT : Sep 03 2018 11:05 Local <br>
  RETRIEVED AT: Sep 03 2018 15:05 UTC<br><br>
CYSN 031400Z 23010KT 15SM FEW050 SCT110 BKN230 30/23 A3017 RMK SC1AC3CI1 SLP217 DENSITY ALT 1900FT<br><br>
TAF CYSN 031238Z 0313/0401 22010KT P6SM FEW050 FEW100 SCT240 BECMG 0313/0315 24010G20KT FM031900 26012G22KT P6SM BKN050 TEMPO 0319/0323 P6SM -SHRA PROB30 0319/0323 2SM +TSRA BR BKN030CB FM032300 28008KT P6SM SCT050 RMK NXT FCST BY 032000Z<br><br>
<br><br>
CYHM 031400Z 22011KT 15SM FEW030 FEW110 27/23 A3020 RMK CU1AC1 CU TR SLP226 DENSITY ALT 2100FT<br><br>
TAF CYHM 031139Z 0312/0412 21007KT P6SM FEW004 FEW025 SCT120 FM031400 24010KT P6SM SCT050 BKN250 BECMG 0315/0317 24010G20KT FM031700 24010G20KT P6SM SCT040 BKN120 BKN250 PROB30 0317/0321 2SM +TSRA BR BKN015 OVC030CB FM032300 28008KT P6SM SCT040 FM040200 VRB03KT P6SM FEW040 PROB30 0408/0412 1/2SM FG BKN002 RMK NXT FCST BY 031800Z<br><br>
<br><br>
KIAG 031453Z 22012KT 10SM SCT100 28/23 A3021 RMK AO2 SLP222 T02780228 53003<br><br>
KIAG 031353Z 21011KT 10SM CLR 28/23 A3020 RMK AO2 SLP221 T02780228<br><br>
KIAG 031120Z 0312/0412 22010KT P6SM SCT150 FM031500 24014G22KT P6SM SCT050 FM031800 24016G24KT P6SM VCTS BKN035CB FM032200 24010KT P6SM BKN040 FM040200 VRB05KT P6SM BKN040<br><br>
<br><br>
KBUF 031454Z COR 23016G21KT 10SM FEW046 SCT055 BKN085 BKN250 28/22 A3023 RMK AO2 SLP230 T02780217 51005<br><br>
KBUF 031354Z 24016G23KT 10SM FEW050 FEW200 SCT250 27/22 A3022 RMK AO2 SLP230 T02720217<br><br>
KBUF 031120Z 0312/0412 22010KT P6SM SCT150 FM031500 24016G24KT P6SM SCT150 FM032000 24014G22KT P6SM BKN050 FM040000 24008KT P6SM SCT150 FM040300 VRB05KT P6SM BKN040<br><br>
<br><br>
CYYZ 031400Z 25009KT 15SM FEW050 FEW110 SCT260 28/22 A3017 RMK CU1AC2CI2 CU TR SLP215 DENSITY ALT 1900FT<br><br>
TAF CYYZ 031438Z 0315/0418 25010G20KT P6SM FEW050 FEW120 FM031700 27012G22KT P6SM SCT050 BKN120 PROB30 0317/0322 2SM +TSRA BR BKN015 OVC040CB FM040000 34008KT P6SM FEW050 FM040300 34005KT P6SM FEW030 RMK NXT FCST BY 031800Z<br><br>
<br><br>
CYOO 031458Z AUTO 20005KT 170V300 5SM HZ CLR 29/23 A3016 RMK SLP213 DENSITY ALT 1800FT<br><br>
CYOO 031400Z AUTO 25006KT 210V270 9SM CLR 27/23 A3016 RMK SLP214 DENSITY ALT 1600FT<br><br>
CYOO has no TAF <br><br>
<br><br>
CYTR 031400Z 22009G15KT 15SM FEW050 FEW070 FEW240 27/23 A3015 RMK SC1AC1CI1 CVCTV CLD DVLPG OVR LKS SLP209<br><br>
TAF CYTR 031130Z 0312/0412 21008KT P6SM FEW050 FEW080 SCT250 BECMG 0312/0314 25012G22KT FM031400 25012G22KT P6SM SCT030 BKN080 FM031800 25010G20KT 6SM -SHRA BR OVC030 PROB40 0318/0324 VRB15G25KT 3SM TSRA BR OVC015CB FM040300 VRB03KT P6SM BKN030 OVC080 BECMG 0403/0405 SCT030 RMK NXT FCST BY 031800Z<br><br>
<br><br>
