RETRIEVED AT : Sep 18 2017 22:10 Local <br>
  RETRIEVED AT: Sep 19 2017 02:10 UTC<br><br>
CYSN 190100Z 17006KT 15SM SCT200 21/19 A3003 RMK CI4 LAST STFD OBS / NEXT 191100UTC SLP168 DENSITY ALT 1000FT<br><br>
CYSN has no TAF <br><br>
<br><br>
CYHM 190200Z 27002KT 15SM FEW100 BKN180 19/18 A3005 RMK AC2AC4 SLP176 DENSITY ALT 1300FT<br><br>
CYHM 190100Z 15003KT 140V210 15SM FEW100 SCT180 SCT240 21/18 A3005 RMK AC1AC2CI1 SLP177 DENSITY ALT 1500FT<br><br>
TAF CYHM 182338Z 1900/1924 VRB03KT P6SM SCT040 BKN100 FM190200 VRB03KT 6SM BR SCT002 TEMPO 1902/1906 2SM BR PROB30 1902/1906 1/2SM FG BKN002 FM190600 VRB03KT 1/2SM FG BKN002 FM191100 01005KT 3SM -RA BR BKN005 OVC030 FM191400 05007KT 5SM -RA BR SCT005 BKN015 OVC030 FM191700 04007KT P6SM BKN050 PROB30 1918/1924 VRB15G25KT 2SM TSRA BR BKN020 OVC030CB RMK NXT FCST BY 190600Z<br><br>
<br><br>
KIAG 190153Z 00000KT 9SM CLR 22/18 A3004 RMK AO2 SLP169 T02220183<br><br>
KIAG 190053Z 19003KT 10SM CLR 23/18 A3004 RMK AO2 SLP170 T02330183<br><br>
KIAG 182320Z 1900/1924 VRB03KT P6SM BKN150 FM190400 00000KT P6SM BKN080 FM191400 19004KT P6SM BKN070 FM191900 03006KT P6SM BKN050<br><br>
<br><br>
KBUF 190154Z 25003KT 10SM BKN220 22/18 A3005 RMK AO2 SLP172 T02170183<br><br>
KBUF 190054Z 22005KT 10SM SCT110 SCT230 22/18 A3005 RMK AO2 SLP175 T02170183<br><br>
KBUF 182320Z 1900/1924 VRB03KT P6SM BKN150 FM190400 16004KT P6SM BKN070 FM191400 21004KT P6SM SCT070 FM192000 03005KT P6SM BKN050<br><br>
<br><br>
CYYZ 190200Z 01007KT 15SM SCT095 BKN190 21/18 A3004 RMK AC3AC4 SLP173 DENSITY ALT 1300FT<br><br>
CYYZ 190100Z 36010KT 15SM FEW050 BKN095 BKN190 21/18 A3004 RMK SC1AC4AC1 SLP174 DENSITY ALT 1400FT<br><br>
TAF CYYZ 182338Z 1900/2006 VRB02KT P6SM BKN100 FM190800 02005KT 6SM BR FEW002 BKN050 PROB30 1908/1913 1/2SM FG BKN002 FM191400 02005KT P6SM BKN010 OVC070 FM191700 14007KT P6SM -SHRA BKN030 PROB30 1918/1923 VRB15G25KT 2SM TSRA BR BKN015 OVC030CB FM200000 10005KT P6SM BKN100 FM200400 04005KT 6SM BR FEW002 SCT100 PROB30 2004/2006 2SM BR RMK NXT FCST BY 190300Z<br><br>
<br><br>
CYOO 190200Z AUTO 00000KT 9SM CLR 19/17 A3005 RMK SLP175 DENSITY ALT 800FT<br><br>
CYOO 190100Z AUTO 36003KT 9SM SCT150 20/17 A3005 RMK SLP177 DENSITY ALT 900FT<br><br>
CYOO has no TAF <br><br>
<br><br>
CYTR 190200Z 02002KT 7SM FEW150 18/18 A3004 RMK AC1 SLP174<br><br>
CYTR 190100Z 35002KT 8SM FEW240 20/19 A3004 RMK CI2 SLP172<br><br>
TAF CYTR 182333Z 1900/1924 VRB03KT P6SM FEW180 OVC240 TEMPO 1900/1916 SCT040 BKN180 PROB30 1904/1913 2SM BR FM191600 VRB03KT P6SM SCT030 TEMPO 1916/1924 P6SM -SHRA BKN030 PROB30 1918/1922 2SM TSRA BR BKN020CB RMK NXT FCST BY 190600Z<br><br>
<br><br>
