RETRIEVED AT : Sep 08 2018 08:05 Local <br>
  RETRIEVED AT: Sep 08 2018 12:05 UTC<br><br>
CYSN 081100Z 06012G17KT 15SM FEW025 OVC250 17/12 A3022 RMK SC1CI7 SLP236<br><br>
CYSN has no TAF <br><br>
<br><br>
CYHM 081100Z 02010KT 15SM FEW023 BKN030 BKN250 14/10 A3024 RMK CU2SC5CI1 CI TR SLP242<br><br>
TAF CYHM 081138Z 0812/0912 03012KT P6SM FEW020 BKN200 TEMPO 0812/0813 BKN020 OVC200 BECMG 0814/0816 05015G25KT FM090000 06012G22KT P6SM BKN200 RMK NXT FCST BY 081800Z<br><br>
<br><br>
KIAG 081153Z 06012KT 10SM CLR 16/10 A3024 RMK AO2 SLP242 T01560100 10172 20150 53013<br><br>
KIAG 081053Z 05013KT 10SM CLR 16/11 A3023 RMK AO2 SLP235 T01560106<br><br>
KIAG 081120Z 0812/0912 05013G21KT P6SM OVC200 FM081900 06013KT P6SM OVC250 FM090000 06008KT P6SM BKN250<br><br>
<br><br>
KBUF 081154Z 04014KT 10SM FEW140 SCT180 OVC220 16/11 A3023 RMK AO2 SLP237 T01560111 10178 20156 53011<br><br>
KBUF 081054Z 04013KT 10SM FEW130 OVC230 16/12 A3022 RMK AO2 SLP232 T01560117<br><br>
KBUF 081120Z 0812/0912 04013G20KT P6SM OVC200 FM081900 06012KT P6SM OVC250 FM090000 06008KT P6SM BKN250<br><br>
<br><br>
CYYZ 081100Z 03011G16KT 15SM BKN260 13/07 A3027 RMK CI7 SLP252<br><br>
TAF CYYZ 081138Z 0812/0918 04010KT P6SM BKN250 BECMG 0812/0814 04010G20KT BECMG 0901/0903 04010KT FM091000 04013KT P6SM BKN030 BECMG 0913/0915 08012G22KT FM091600 09015G25KT P6SM SCT030 RMK NXT FCST BY 081500Z<br><br>
<br><br>
CYOO 081100Z AUTO 03009KT 9SM CLR 12/05 A3027 RMK SLP253<br><br>
CYOO has no TAF <br><br>
<br><br>
CYTR 081100Z 03011KT 15SM BKN250 11/05 A3028 RMK CI6 SLP257<br><br>
TAF CYTR 081130Z 0812/0912 03010G20KT P6SM FEW030 BKN250 BECMG 0818/0820 04010KT BECMG 0823/0901 03005KT RMK NXT FCST BY 081800Z<br><br>
<br><br>
