RETRIEVED AT : May 19 2018 07:05 Local <br>
  RETRIEVED AT: May 19 2018 11:05 UTC<br><br>
CYSN has no TAF <br><br>
<br><br>
CYHM 191048Z 04010KT 1 3/4SM -RA BR BKN004 OVC016 07/07 A3005 RMK FG3ST4SC1 SLP182<br><br>
CYHM 191012Z 03009KT 2 1/2SM -RA BR BKN005 OVC016 07/06 A3006 RMK FG2ST4SC2 SLP185<br><br>
CYHM 191000Z 04011KT 6SM RA BR BKN006 OVC020 07/06 A3006 RMK SF5SC3 SLP186<br><br>
CYHM 190945Z 04011KT 7SM -RA SCT005 OVC024 07/06 A3007 RMK SF3SC5 SLP188<br><br>
TAF CYHM 190538Z 1906/2006 04015KT P6SM BKN180 FM190700 06012KT P6SM OVC025 TEMPO 1907/1909 P6SM -SHRA OVC012 FM190900 10010KT 11/2SM -RA BR OVC004 TEMPO 1909/1912 6SM -RA BR OVC010 BECMG 1913/1915 15010KT FM191500 15010KT 6SM -RA BR SCT006 OVC015 FM192000 12010KT P6SM BKN025 FM192200 19012KT 6SM -SHRA BR OVC012 FM200200 20012KT 4SM -SHRA BR SCT005 OVC010 RMK NXT FCST BY 191200Z<br><br>
<br><br>
KIAG 191053Z 12006KT 2SM -RA BR FEW023 BKN046 OVC085 15/13 A3006 RMK AO2 SLP181 P0011 T01500128<br><br>
KIAG 190953Z AUTO 10008KT 8SM -RA FEW041 OVC050 14/12 A3007 RMK AO2 SLP185 P0021 T01440122<br><br>
KIAG 190915Z AUTO 10006KT 3SM RA BKN041 OVC055 14/11 A3008 RMK AO2 P0018 T01390111<br><br>
KIAG 190838Z 1909/2006 11008KT 5SM RA OVC040 FM191000 13006KT 5SM RA OVC020 FM191400 14006KT P6SM VCSH OVC035 FM200200 21012G20KT 5SM -SHRA VCTS OVC025CB FM200500 23014G22KT 3SM -SHRA BR OVC008<br><br>
<br><br>
KBUF 191054Z 15008G17KT 3SM +RA FEW015 BKN044 OVC055 17/14 A3007 RMK AO2 SLP180 P0005 T01720139<br><br>
KBUF 190954Z 09005KT 7SM -RA FEW042 BKN049 OVC065 17/13 A3008 RMK AO2 SLP184 P0008 T01670133<br><br>
KBUF 190838Z 1909/2006 10008KT 5SM RA OVC040 FM191000 14010KT 5SM RA OVC025 FM191400 19010KT P6SM VCSH OVC035 FM200100 21012G20KT 5SM -SHRA VCTS OVC025CB FM200500 23016G24KT 3SM -SHRA BR OVC008<br><br>
<br><br>
CYYZ 191052Z 09006KT 9SM -RA OVC004 10/08 A3007 RMK NS8 SLP187<br><br>
CYYZ 191007Z 09005KT 7SM -RA OVC008 10/06 A3009 RMK SC8 SLP192<br><br>
CYYZ 191000Z 08005KT 12SM -RA SCT009 OVC022 11/05 A3009 RMK SF3SC5 SLP193<br><br>
CYYZ 190913Z 09006KT 15SM -RA BKN038 OVC120 12/03 A3010 RMK SC6AC2 SLP195<br><br>
TAF CYYZ 190838Z 1909/2012 09012KT P6SM OVC030 TEMPO 1909/1910 P6SM -SHRA SCT008 OVC020 FM191000 11012KT 6SM -RA BR OVC012 TEMPO 1910/1912 2SM -SHRA BR OVC008 FM191200 10012KT 2SM -RA BR OVC003 FM192000 11010KT 3SM -DZ BR OVC004 BECMG 2000/2002 18005KT FM200500 24010KT 5SM -SHRA BR OVC006 FM200800 32012KT P6SM BKN015 BECMG 2010/2012 34012G22KT RMK NXT FCST BY 191200Z<br><br>
<br><br>
CYOO 191044Z AUTO 10011G16KT 5SM -RA OVC021 13/08 A3011 RMK SLP199<br><br>
CYOO 191043Z AUTO 10011G16KT 6SM -RA OVC021 13/08 A3011 RMK SLP198<br><br>
CYOO 191021Z AUTO 10012KT 9SM BKN023 OVC031 14/06 A3011 RMK SLP200<br><br>
CYOO 191000Z AUTO 09010KT 9SM BKN034 BKN150 BKN170 14/05 A3011 RMK SLP200<br><br>
CYOO has no TAF <br><br>
<br><br>
CYTR 191000Z 05006KT 15SM BKN160 OVC250 10/04 A3018 RMK AC6CI2 SLP221<br><br>
TAF CYTR 190530Z 1906/2006 06008KT P6SM OVC250 FM191000 12008KT P6SM BKN030 OVC140 FM191300 12010KT 3SM -RA BR BKN012 OVC020 FM191900 14008KT 6SM -DZ BR OVC012 FM192200 16005KT P6SM SCT012 OVC025 FM200300 20005KT P6SM -SHRA SCT010 OVC025 PROB30 2004/2006 VRB15G25KT 1SM TSRA BR OVC012CB RMK NXT FCST BY 191200Z<br><br>
<br><br>
