RETRIEVED AT : Jul 04 2020 00:05 Local <br>
  RETRIEVED AT: Jul 04 2020 04:05 UTC<br><br>
CYSN has no TAF <br><br>
<br><br>
CYHM 040300Z 01007KT 15SM SKC 25/18 A2997 RMK SLP147 DENSITY ALT 2100FT<br><br>
TAF CYHM 032338Z 0400/0424 32010KT P6SM FEW050 BECMG 0414/0416 04005KT BECMG 0420/0422 VRB03KT RMK NXT FCST BY 040600Z<br><br>
<br><br>
KIAG 040353Z AUTO 00000KT 10SM CLR 23/19 A2993 RMK AO2 SLP130 T02280189<br><br>
KIAG 040253Z 00000KT 10SM FEW050 26/19 A2994 RMK AO2 SLP133 T02560194 53015<br><br>
KIAG 040255Z 0403/0424 36004KT P6SM SCT050 SCT250 FM041400 02006KT P6SM SCT250<br><br>
<br><br>
KBUF 040354Z 23006KT 9SM FEW050 SCT090 SCT290 24/21 A2994 RMK AO2 SLP132 T02440206<br><br>
KBUF 040254Z 21005KT 10SM BKN048 BKN060 BKN090 26/20 A2995 RMK AO2 TSE33 SLP137 TS DSIPTD T02560200 53012<br><br>
KBUF 040233Z 19006KT 10SM FEW023 BKN042 BKN100 26/20 A2995 RMK AO2 TSE33 TS DSIPTD T02560200<br><br>
KBUF 040254Z 0403/0424 VRB04KT P6SM SCT040 SCT250 FM041400 36006KT P6SM FEW050 SCT250<br><br>
<br><br>
CYYZ 040300Z 34012KT 15SM SKC 25/16 A2995 RMK SLP139 DENSITY ALT 1900FT<br><br>
TAF CYYZ 040240Z 0403/0506 35012KT P6SM FEW260 FM041600 36007KT P6SM SKC BECMG 0416/0418 15008KT BECMG 0421/0423 36010KT RMK NXT FCST BY 040600Z<br><br>
<br><br>
CYOO 040300Z AUTO 34007KT 9SM CLR 25/18 A2993 RMK SLP133 DENSITY ALT 1600FT<br><br>
TAF CYOO 040139Z 0402/0414 34008KT P6SM FEW080 RMK FCST BASED ON AUTO OBS. NXT FCST BY 040800Z<br><br>
<br><br>
CYTR 040300Z AUTO 10003KT 9SM BKN055 24/20 A2992 RMK SLP130<br><br>
TAF CYTR 032330Z 0400/0424 VRB03KT P6SM FEW030 SCT100 TEMPO 0400/0402 P6SM -SHRA BKN030 OVC100 FM040200 VRB03KT P6SM BKN060 FM040700 01005KT P6SM FEW060 BECMG 0417/0419 20008KT RMK FCST BASED ON AUTO OBS 040200-041000Z. NXT FCST BY 040600Z<br><br>
<br><br>
