RETRIEVED AT : Jun 08 2019 16:05 Local <br>
  RETRIEVED AT: Jun 08 2019 20:05 UTC<br><br>
CYSN 081900Z 05014KT 15SM SCT250 24/08 A3015 RMK CI3 SLP211 DENSITY ALT 1200FT<br><br>
TAF CYSN 081938Z 0820/0901 05015KT P6SM FEW250 BECMG 0823/0901 09008KT RMK NXT FCST WILL BE ISSUED AT 091245Z<br><br>
<br><br>
CYHM 081900Z 03014KT 15SM BKN250 19/09 A3019 RMK CI6 SLP223 DENSITY ALT 1200FT<br><br>
TAF CYHM 081738Z 0818/0918 03010G20KT P6SM SCT250 BECMG 0819/0821 05012G22KT FM090300 04010KT P6SM BKN250 FM091500 09010G20KT P6SM SCT180 BKN250 RMK NXT FCST BY 090000Z<br><br>
<br><br>
KIAG 081953Z 06013KT 10SM CLR 26/09 A3016 RMK AO2 SLP211 T02560089<br><br>
KIAG 081853Z 10011KT 10SM CLR 26/10 A3016 RMK AO2 SLP211 T02560100<br><br>
KIAG 081847Z 0819/0918 07012KT P6SM SKC FM090400 10006KT P6SM FEW250 FM091000 13006KT P6SM SCT250<br><br>
<br><br>
KBUF 081954Z 09013KT 10SM FEW200 SCT280 27/07 A3016 RMK AO2 SLP210 T02670067<br><br>
KBUF 081854Z 07015KT 10SM SCT280 27/08 A3016 RMK AO2 SLP210 T02670083<br><br>
KBUF 081724Z 0818/0918 07012G18KT P6SM SCT250 FM082100 07012KT P6SM SKC FM090400 10006KT P6SM FEW250 FM091000 13006KT P6SM SCT250 FM091500 13010G16KT P6SM SCT250<br><br>
<br><br>
CYYZ 081900Z 09015G25KT 15SM FEW220 23/03 A3020 RMK CI2 SLP227 DENSITY ALT 1400FT<br><br>
TAF CYYZ 081738Z 0818/0924 09012G22KT P6SM FEW250 BECMG 0900/0902 08008KT FM090900 06005KT P6SM BKN250 BECMG 0914/0916 11010G20KT BECMG 0920/0922 09010KT RMK NXT FCST BY 082100Z<br><br>
<br><br>
CYOO 081900Z AUTO 11010G16KT 090V150 9SM CLR 23/03 A3020 RMK SLP229 DENSITY ALT 1100FT<br><br>
TAF CYOO 081938Z 0820/0908 11010G20KT P6SM SKC BECMG 0822/0824 07008KT RMK FCST BASED ON AUTO OBS. NXT FCST BY 090200Z<br><br>
<br><br>
CYTR 081900Z 11005KT 15SM FEW220 25/06 A3020 RMK CI1 SLP228<br><br>
TAF CYTR 081730Z 0818/0918 11008KT P6SM FEW220 BECMG 0818/0819 21010KT BECMG 0900/0901 08005KT FM091400 16005KT P6SM FEW280 RMK NXT FCST BY 090000Z<br><br>
<br><br>
