RETRIEVED AT : Dec 05 2017 00:10 Local <br>
  RETRIEVED AT: Dec 05 2017 05:10 UTC<br><br>
CYSN has no TAF <br><br>
<br><br>
TAF CYHM 042338Z 0500/0524 14010KT P6SM BKN080 OVC120 BECMG 0501/0503 16012KT FM050700 17015G25KT P6SM -SHRA BKN030 OVC080 FM050900 19018G28KT P6SM -RA OVC020 TEMPO 0509/0512 4SM SHRA BR OVC007 FM051200 19020G30KT 4SM -RA BR OVC007 FM051600 23022G40KT P6SM OVC012 BECMG 0516/0518 BKN020 FM052300 24020G30KT P6SM BKN030 RMK NXT FCST BY 050600Z<br><br>
<br><br>
KIAG 050453Z AUTO 18011G19KT 10SM CLR 12/00 A2988 RMK AO2 SLP124 T01170000 401221022<br><br>
KIAG 050353Z 18011KT 10SM CLR 12/00 A2990 RMK AO2 SLP133 T01170000<br><br>
KIAG 050307Z 0503/0524 18015G22KT P6SM OVC150 WS020/19040KT FM050900 18019G27KT 5SM -RA OVC035 WS020/20045KT FM051800 20019G27KT P6SM OVC030 FM052300 24019G29KT P6SM OVC035<br><br>
<br><br>
KBUF 050454Z 17013KT 10SM FEW075 BKN130 OVC170 11/00 A2990 RMK AO2 SLP127 T01110000 401110000<br><br>
KBUF 050354Z 17014G21KT 10SM BKN130 OVC180 11/00 A2992 RMK AO2 SLP134 T01060000<br><br>
KBUF 050307Z 0503/0524 17014G22KT P6SM OVC200 WS020/19045KT FM050900 18018G27KT 6SM -RA OVC045 WS020/20045KT FM051400 19019G27KT 5SM -RA OVC035 WS020/21045KT FM051700 20018G27KT 6SM -RA OVC030 FM051900 21018G29KT P6SM OVC025<br><br>
<br><br>
CYYZ 050500Z 19008KT 12SM -RA FEW060 OVC086 08/05 A2986 RMK SC2AS6 PRESRR SLP117<br><br>
CYYZ 050400Z 16010KT 12SM -RA SCT061 OVC074 08/03 A2985 RMK SC3AS5 SLP115<br><br>
CYYZ 050334Z 15009KT 12SM -SHRA BKN083 OVC100 09/02 A2988 RMK AC5AC3 CVCTV CLD EMBD SLP123<br><br>
TAF CYYZ 050238Z 0503/0606 14010KT P6SM SCT080 OVC140 FM050500 16012KT P6SM -SHRA OVC040 TEMPO 0507/0509 OVC020 FM050900 18012G22KT P6SM -RA OVC020 TEMPO 0509/0512 5SM -SHRA BR BKN007 OVC015 FM051200 19015G25KT 5SM -RA BR BKN006 OVC012 FM051600 21020G30KT P6SM BKN015 FM051800 23022G35KT P6SM SCT020 BKN220 BECMG 0520/0522 23020G30KT FM060000 24020G30KT P6SM BKN030 FM060300 25015G25KT P6SM BKN040 RMK NXT FCST BY 050600Z<br><br>
<br><br>
CYOO 050500Z AUTO 11010KT 8SM -RA BKN080 OVC100 08/03 A2986 RMK PRESFR SLP118<br><br>
CYOO 050445Z AUTO 14008KT 100V170 9SM -RA FEW075 BKN095 BKN120 OVC140 09/01 A2988 RMK SLP124<br><br>
CYOO 050400Z AUTO 12008KT 9SM BKN130 BKN200 08/01 A2989 RMK SLP128<br><br>
CYOO has no TAF <br><br>
<br><br>
CYTR 050500Z 17010G17KT 12SM OVC100 09/03 A2994 RMK AC8 SLP142<br><br>
CYTR 050400Z 17009KT 12SM OVC100 09/03 A2998 RMK AC8 SLP154<br><br>
TAF CYTR 042330Z 0500/0524 14008KT P6SM OVC120 TEMPO 0508/0510 P6SM -SHRA BKN030 OVC100 FM051000 16015KT P6SM -RA SCT015 OVC025 TEMPO 0510/0521 3SM -RA BR SCT008 OVC015 FM052100 24015G25KT P6SM SCT015 BKN025 TEMPO 0521/0524 P6SM -SHRA BKN015 OVC025 RMK NXT FCST BY 050600Z<br><br>
<br><br>
