RETRIEVED AT : Mar 23 2019 21:05 Local <br>
  RETRIEVED AT: Mar 24 2019 01:05 UTC<br><br>
CYSN 240000Z 22008KT 15SM SKC 01/M03 A3019 RMK SLP230<br><br>
TAF CYSN 231938Z 2320/2401 28015KT P6SM SKC BECMG 2400/2401 26012KT RMK NXT FCST WILL BE ISSUED AT 241245Z<br><br>
<br><br>
TAF CYHM 232338Z 2400/2424 26010G20KT P6SM SKC BECMG 2403/2405 24012KT FM241500 24010G20KT P6SM BKN120 OVC150 FM242100 24012G22KT P6SM BKN050 OVC180 BECMG 2423/2424 25010KT RMK NXT FCST BY 240600Z<br><br>
<br><br>
KIAG 232330Z 2400/2424 22015KT P6SM SKC FM241800 23014G25KT P6SM BKN130 FM242300 25010KT P6SM BKN130<br><br>
<br><br>
KBUF 240054Z 24016KT 10SM FEW011 FEW250 M02/M04 A3021 RMK AO2 SLP240 T10171039<br><br>
KBUF 232354Z 23018G22KT 10SM FEW013 FEW250 M01/M04 A3021 RMK AO2 PK WND 24027/2302 SLP240 T10111039 10006 21011 53005<br><br>
KBUF 232330Z 2400/2424 24016G26KT P6SM SKC FM240200 24012G21KT P6SM SKC FM241800 24015G27KT P6SM BKN120<br><br>
<br><br>
CYYZ 240000Z 27011KT 15SM SKC 01/M09 A3017 RMK SLP228<br><br>
CYYZ 232313Z 27013G19KT 15SM FEW250 02/M09 A3016 RMK CI1 CI TR SLP224<br><br>
TAF CYYZ 232338Z 2400/2506 28010G20KT P6SM SKC BECMG 2404/2406 23012KT FM241500 26010G20KT P6SM FEW030 OVC170 FM241900 27012G22KT P6SM BKN050 OVC170 FM242300 31012G22KT P6SM OVC030 FM250200 34020G30KT P6SM -SHSNRA BKN040 FM250400 35015G25KT P6SM SKC RMK NXT FCST BY 240300Z<br><br>
<br><br>
CYOO 240000Z AUTO 28008KT 9SM CLR 02/M11 A3014 RMK SLP216<br><br>
TAF CYOO 231938Z 2320/2408 29010G20KT P6SM SKC BECMG 2323/2401 27010KT BECMG 2406/2408 25006KT RMK FCST BASED ON AUTO OBS. NXT FCST BY 240200Z<br><br>
<br><br>
CYTR 240000Z 27010KT 15SM FEW220 00/M13 A3012 RMK CI2 SLP207<br><br>
TAF CYTR 232330Z 2400/2424 28012G22KT P6SM FEW220 BECMG 2400/2402 27010KT FM241500 25012G22KT P6SM BKN030 OVC200 FM242200 30010G20KT P6SM -SHRA OVC030 RMK NXT FCST BY 240600Z<br><br>
<br><br>
