RETRIEVED AT : Jul 01 2018 04:29 Local <br>
  RETRIEVED AT: Jul 01 2018 08:29 UTC<br><br>
CYSN has no TAF <br><br>
<br><br>
CYHM 010800Z 23005KT 15SM FEW250 22/21 A3002 RMK CI2 SLP161 DENSITY ALT 1700FT<br><br>
CYHM 010700Z 24007KT 15SM SCT250 23/21 A3002 RMK CI4 SLP163 DENSITY ALT 1800FT<br><br>
TAF CYHM 010538Z 0106/0206 22008KT P6SM FEW240 BECMG 0114/0116 22015KT BECMG 0200/0202 19008KT RMK NXT FCST BY 011200Z<br><br>
<br><br>
KIAG 010753Z AUTO 12003KT 6SM HZ CLR 24/20 A3003 RMK AO2 SLP160 T02390200<br><br>
KIAG 010653Z AUTO 25004KT 6SM HZ CLR 24/20 A3003 RMK AO2 SLP162 T02390200<br><br>
KIAG 010529Z 0106/0206 22006KT P6SM SKC FM011400 22010KT P6SM SCT250 FM020100 20005KT P6SM SCT250<br><br>
<br><br>
KBUF 010754Z 00000KT 10SM CLR 24/21 A3004 RMK AO2 SLP168 T02390206<br><br>
KBUF 010654Z 27004KT 10SM CLR 25/21 A3004 RMK AO2 SLP167 T02500206<br><br>
KBUF 010529Z 0106/0206 21006KT P6SM SKC FM011400 23010KT P6SM SCT250 FM020100 20006KT P6SM SCT250<br><br>
<br><br>
CYYZ 010800Z 19004KT 15SM SKC 26/21 A3000 RMK SLP155 DENSITY ALT 1900FT<br><br>
CYYZ 010700Z 34004KT 15SM SKC 26/21 A3001 RMK SLP158 DENSITY ALT 1900FT<br><br>
TAF CYYZ 010538Z 0106/0212 24008KT P6SM FEW240 BECMG 0114/0116 21015KT BECMG 0200/0202 22008KT RMK NXT FCST BY 010900Z<br><br>
<br><br>
CYOO has no TAF <br><br>
<br><br>
CYTR 010800Z 21006KT 15SM SKC 24/20 A2996 RMK SLP146<br><br>
CYTR 010700Z 20006KT 15SM SKC 25/21 A2998 RMK SLP151<br><br>
TAF CYTR 010530Z 0106/0206 22008KT P6SM FEW020 FM011600 24012KT P6SM FEW040 BECMG 0200/0202 VRB03KT RMK NXT FCST BY 011200Z<br><br>
<br><br>
