RETRIEVED AT : Feb 23 2020 08:05 Local <br>
  RETRIEVED AT: Feb 23 2020 13:05 UTC<br><br>
CYSN 231200Z 21010KT 15SM BKN210 02/M04 A3007 RMK CI7 SLP189<br><br>
CYSN has no TAF <br><br>
<br><br>
CYHM 231200Z 20008KT 15SM BKN160 M00/M04 A3005 RMK AC7 SLP187<br><br>
TAF CYHM 231138Z 2312/2412 22010KT P6SM BKN210 FM231500 23010G20KT P6SM SCT030 BKN180 BECMG 2317/2319 22012G22KT FM232100 22012G22KT P6SM SCT030 BECMG 2402/2404 23012KT FM241100 23012KT P6SM SCT015 RMK NXT FCST BY 231800Z<br><br>
<br><br>
KIAG 231253Z 21013KT 10SM CLR 02/M05 A3008 RMK AO2 SLP199 T00171050<br><br>
KIAG 231153Z 22009KT 10SM CLR 01/M04 A3008 RMK AO2 SLP201 T00061044 10017 20000 58004<br><br>
KIAG 231127Z 2312/2412 21012KT P6SM BKN250 FM231300 21012G19KT P6SM BKN250 FM232300 20011G22KT P6SM FEW250 FM240300 21016G29KT P6SM FEW250 FM241000 23014G25KT P6SM SCT070<br><br>
<br><br>
KBUF 231254Z 21007KT 10SM BKN220 BKN280 02/M08 A3009 RMK AO2 SLP197 T00171078<br><br>
KBUF 231154Z 20007KT 10SM BKN230 BKN280 00/M08 A3010 RMK AO2 SLP200 T00001083 10039 21011 58004<br><br>
KBUF 231127Z 2312/2412 21009KT P6SM BKN250 FM231300 21010G16KT P6SM BKN250 FM231500 22011G22KT P6SM SCT250 FM240300 21014G25KT P6SM FEW250 FM241100 24013G23KT P6SM BKN060<br><br>
<br><br>
CYYZ 231200Z 16012KT 15SM BKN180 M00/M06 A3004 RMK AC7 SLP182<br><br>
TAF CYYZ 231138Z 2312/2418 17010KT P6SM SCT210 FM231500 22010G20KT P6SM SCT030 BKN180 FM232100 22012G22KT P6SM SCT030 FM240300 23012KT P6SM FEW020 FM241200 24008KT P6SM BKN020 RMK NXT FCST BY 231500Z<br><br>
<br><br>
CYOO 231200Z AUTO 00000KT 7SM SCT210 BKN240 M06/M07 A3005 RMK SLP184<br><br>
TAF CYOO 230738Z 2308/2320 VRB03KT P6SM SKC FM230900 VRB03KT P6SM FEW020 SCT270 BECMG 2311/2313 26007KT FM231500 22008G18KT P6SM SCT030 BKN180 RMK FCST BASED ON AUTO OBS. NXT FCST BY 231400Z<br><br>
<br><br>
CYTR 231200Z 23007KT 15SM BKN220 01/M01 A3006 RMK CI6 SLP182<br><br>
TAF CYTR 231130Z 2312/2412 23008KT P6SM FEW220 BECMG 2315/2317 24010G20KT BKN220 FM240000 22006KT P6SM FEW040 BECMG 2405/2407 23010KT FEW020 RMK NXT FCST BY 231800Z<br><br>
<br><br>
