RETRIEVED AT : Jun 26 2020 10:05 Local <br>
  RETRIEVED AT: Jun 26 2020 14:05 UTC<br><br>
CYSN 261300Z 23007KT 15SM FEW100 24/14 A2994 RMK AC1 AC TR SLP141 DENSITY ALT 1400FT<br><br>
TAF CYSN 261238Z 2613/2701 24008KT P6SM FEW100 FM261800 29010KT P6SM SCT070 BECMG 2620/2622 23010G20KT RMK NXT FCST BY 262000Z<br><br>
<br><br>
CYHM 261300Z 28008KT 15SM FEW040 FEW110 21/15 A2998 RMK CU1AC2 CU TR SLP151 DENSITY ALT 1600FT<br><br>
TAF CYHM 261139Z 2612/2712 25006KT P6SM FEW070 FM261700 22012KT P6SM SCT070 FM270800 24010G20KT 6SM BR OVC007 FM270900 24010G20KT 6SM -SHRA BR OVC007 FM271000 24010G20KT 4SM -SHRA BR OVC007 PROB30 2710/2712 VRB15G30KT 1SM +TSRA BR BKN005 OVC015CB RMK NXT FCST BY 261800Z<br><br>
<br><br>
KIAG 261353Z 23008KT 10SM CLR 22/15 A2996 RMK AO2 SLP142 T02220150<br><br>
KIAG 261253Z 23010KT 10SM BKN095 22/14 A2996 RMK AO2 SLP143 T02220144<br><br>
KIAG 261120Z 2612/2712 22010KT P6SM SCT050 FM261500 23014G22KT P6SM FEW050 FM270000 20008KT P6SM BKN150 FM270800 21008KT 4SM SHRA VCTS OVC015CB<br><br>
<br><br>
KBUF 261354Z 23014KT 10SM FEW050 FEW085 FEW110 FEW250 21/16 A2997 RMK AO2 SLP148 T02060156 $<br><br>
KBUF 261254Z 23008KT 10SM FEW050 FEW085 FEW110 20/15 A2998 RMK AO2 SLP151 T02000150 $<br><br>
KBUF 261120Z 2612/2712 22010KT P6SM VCSH SCT050 FM261400 23014G22KT P6SM FEW050 FM270000 20008KT P6SM BKN150 FM270800 21008KT 4SM SHRA VCTS OVC015CB<br><br>
<br><br>
CYYZ 261300Z 27008KT 15SM FEW060 FEW120 SCT160 25/10 A2995 RMK CU1AC1AC2 CU TR SLP140 DENSITY ALT 1800FT<br><br>
TAF CYYZ 261139Z 2612/2718 28005KT P6SM FEW060 SCT100 FM261700 25010KT P6SM SCT070 FM270900 22010G20KT P6SM -RA SCT015 BKN070 OVC120 FM271100 22010G20KT P6SM -SHRA SCT015 BKN030 OVC060 FM271400 25010G20KT 5SM -SHRA BR OVC015 PROB30 2716/2718 VRB15G25KT 1SM +TSRA BR BKN007 OVC020CB RMK NXT FCST BY 261500Z<br><br>
<br><br>
CYOO 261300Z AUTO 27005KT 9SM CLR 22/11 A2993 RMK SLP136 DENSITY ALT 1300FT<br><br>
TAF CYOO 261338Z 2614/2702 27005KT P6SM SCT090 FM261800 22010KT P6SM BKN070 BECMG 2620/2622 22010G20KT FM270000 23010G20KT P6SM SCT070 RMK FCST BASED ON AUTO OBS. NXT FCST BY 262000Z<br><br>
<br><br>
CYTR 261300Z 23005KT 15SM FEW080 SCT220 22/16 A2992 RMK AC1CI3 SLP133<br><br>
TAF CYTR 261130Z 2612/2712 22005KT P6SM FEW080 SCT220 FM261500 24010KT P6SM SCT060 FM270200 23005KT P6SM FEW080 SCT120 FM271000 23012KT P6SM BKN012 OVC080 RMK NXT FCST BY 261800Z<br><br>
<br><br>
