RETRIEVED AT : Apr 21 2018 07:01 Local <br>
  RETRIEVED AT: Apr 21 2018 11:01 UTC<br><br>
CYSN has no TAF <br><br>
<br><br>
CYHM 211000Z 27002KT 15SM BKN240 M02/M04 A3043 RMK CI6 SLP314<br><br>
TAF CYHM 210538Z 2106/2206 31005KT P6SM FEW250 BECMG 2107/2109 27005KT BKN200 FM211700 29010KT P6SM BKN200 BECMG 2200/2202 33005KT FEW200 RMK NXT FCST BY 211200Z<br><br>
<br><br>
KIAG 211053Z 00000KT 8SM CLR M02/M05 A3044 RMK AO2 SLP322 T10171050<br><br>
KIAG 210953Z AUTO 00000KT 9SM CLR M02/M04 A3044 RMK AO2 SLP321 I1000 T10221044<br><br>
KIAG 210909Z 2109/2206 VRB03KT P6SM SKC FM211300 27007KT P6SM FEW200 FM220200 VRB03KT P6SM SKC<br><br>
<br><br>
KBUF 211054Z 19004KT 8SM SCT200 BKN250 M02/M03 A3045 RMK AO2 SLP319 T10171028<br><br>
KBUF 210954Z 19003KT 8SM SCT220 M02/M03 A3044 RMK AO2 SLP318 T10221033<br><br>
KBUF 210909Z 2109/2206 22003KT P6SM SKC FM211300 25008KT P6SM FEW200 FM220200 22004KT P6SM SKC<br><br>
<br><br>
CYYZ 211000Z 30003KT 15SM FEW250 M01/M07 A3042 RMK CI2 SLP310<br><br>
TAF CYYZ 210838Z 2109/2212 32005KT P6SM FEW250 BECMG 2115/2117 33015KT BECMG 2123/2201 32005KT RMK NXT FCST BY 211200Z<br><br>
<br><br>
CYOO 211000Z AUTO 35005KT 9SM CLR M00/M06 A3041 RMK SLP306<br><br>
CYOO has no TAF <br><br>
<br><br>
CYTR 211000Z 33008KT 15SM FEW250 M00/M06 A3041 RMK CI1 SLP303<br><br>
TAF CYTR 210530Z 2106/2206 32008KT P6SM SKC RMK NXT FCST BY 211200Z<br><br>
<br><br>
