RETRIEVED AT : Feb 22 2020 03:05 Local <br>
  RETRIEVED AT: Feb 22 2020 08:05 UTC<br><br>
CYSN has no TAF <br><br>
<br><br>
CYHM 220700Z 24017KT 15SM SKC M03/M09 A3019 RMK SLP236<br><br>
TAF CYHM 220539Z 2206/2306 23017G27KT P6SM SKC FM221000 24015KT P6SM SCT020 TEMPO 2212/2215 BKN020 FM221700 24012G22KT P6SM SCT025 RMK NXT FCST BY 221200Z<br><br>
<br><br>
KIAG 220753Z AUTO 24022G27KT 10SM CLR M01/M07 A3020 RMK AO2 PK WND 25031/0716 SLP243 T10111072<br><br>
KIAG 220653Z AUTO 24017G27KT 10SM CLR M01/M07 A3022 RMK AO2 PK WND 24034/0617 SLP249 T10111067<br><br>
KIAG 220535Z 2206/2306 24020G29KT P6SM SKC FM221200 23015G27KT P6SM FEW250 FM230000 23014G25KT P6SM FEW200 FM230300 23013G23KT P6SM FEW200<br><br>
<br><br>
KBUF 220754Z 25020G31KT 10SM SCT031 00/M07 A3021 RMK AO2 PK WND 24033/0700 SLP240 T00001067<br><br>
KBUF 220654Z 24020G29KT 10SM CLR 00/M08 A3022 RMK AO2 PK WND 24038/0605 SLP243 T00001078<br><br>
KBUF 220535Z 2206/2306 23022G30KT P6SM SKC FM221000 24018G24KT P6SM SKC FM230100 24015G22KT P6SM FEW120 FM230400 24015KT P6SM FEW200<br><br>
<br><br>
CYYZ 220700Z 24008G15KT 190V270 15SM SKC M03/M10 A3016 RMK SLP224<br><br>
TAF CYYZ 220539Z 2206/2312 24013G23KT P6SM SKC FM221000 24010G20KT P6SM BKN020 TEMPO 2210/2216 SCT020 FM221600 24012G22KT P6SM BKN025 FM222100 24010G20KT P6SM SCT030 FM230200 23010KT P6SM FEW015 FM230900 23008KT P6SM FEW015 BKN270 RMK NXT FCST BY 220900Z<br><br>
<br><br>
CYOO 220700Z AUTO 24010KT 9SM CLR M03/M10 A3015 RMK SLP218<br><br>
TAF CYOO 220741Z 2208/2220 24010KT P6SM SKC FM221200 25010G20KT P6SM SCT025 TEMPO 2212/2215 BKN025 FM221500 25012G22KT P6SM BKN025 RMK FCST BASED ON AUTO OBS. NXT FCST BY 221400Z<br><br>
<br><br>
CYTR 220700Z 25016G22KT 15SM SKC M01/M09 A3014 RMK SLP212<br><br>
TAF AMD CYTR 220736Z 2207/2306 25015G25KT P6SM FEW230 FM221400 26010G20KT P6SM SCT020 BECMG 2221/2223 25008KT RMK NXT FCST BY 221200Z<br><br>
<br><br>
