RETRIEVED AT : Jul 03 2020 11:05 Local <br>
  RETRIEVED AT: Jul 03 2020 15:05 UTC<br><br>
CYSN 031400Z 31008KT 15SM BKN250 26/17 A2992 RMK CI6 SLP133 DENSITY ALT 1700FT<br><br>
TAF CYSN 031238Z 0313/0401 22005KT P6SM BKN250 FM031600 32010KT P6SM SCT050 BECMG 0320/0322 36012KT RMK NXT FCST BY 032000Z<br><br>
<br><br>
CYHM 031400Z 35004KT 320V050 15SM SCT250 27/20 A2996 RMK CI4 SLP142 DENSITY ALT 2300FT<br><br>
TAF CYHM 031138Z 0312/0412 VRB03KT P6SM SCT250 BECMG 0313/0315 03007KT FM031700 35012KT P6SM SCT060 TEMPO 0317/0324 BKN060 BECMG 0321/0323 36010KT FM040200 01006KT P6SM SKC RMK NXT FCST BY 031800Z<br><br>
<br><br>
KIAG 031453Z 31008KT 10SM CLR 27/18 A2994 RMK AO2 SLP132 T02670178 51005<br><br>
KIAG 031353Z 31004KT 10SM CLR 26/17 A2993 RMK AO2 SLP130 T02560167<br><br>
KIAG 031120Z 0312/0412 22005KT P6SM SKC FM031400 29006KT P6SM FEW250 FM031700 32007KT P6SM SCT200 FM032000 35007KT P6SM SCT100 FM032300 02005KT P6SM SCT100<br><br>
<br><br>
KBUF 031454Z 23009KT 10SM BKN250 27/19 A2994 RMK AO2 SLP134 T02720189 50001<br><br>
KBUF 031354Z VRB04KT 10SM SCT250 27/18 A2994 RMK AO2 SLP134 T02720183<br><br>
KBUF 031120Z 0312/0412 24007KT P6SM FEW120 SCT260 FM031500 28007KT P6SM SCT250 FM031700 31008KT P6SM SCT200 FM032000 34008KT P6SM SCT090 FM032300 01006KT P6SM SCT090<br><br>
<br><br>
CYYZ 031400Z 01011KT 15SM FEW140 FEW260 28/19 A2994 RMK AC1CI1 AC TR SLP136 DENSITY ALT 2200FT<br><br>
TAF CYYZ 031439Z 0315/0418 01010G20KT P6SM FEW150 FM031700 35012G22KT P6SM SCT050 TEMPO 0317/0323 BKN050 FM040000 35010KT P6SM SKC RMK NXT FCST BY 031800Z<br><br>
<br><br>
CYOO 031400Z AUTO 33007KT 320V030 9SM CLR 27/20 A2993 RMK SLP133 DENSITY ALT 1900FT<br><br>
TAF CYOO 031352Z 0314/0402 35012KT P6SM FEW060 SCT120 FM031700 35012KT P6SM SCT050 TEMPO 0317/0402 BKN050 RMK FCST BASED ON AUTO OBS. NXT FCST BY 032000Z<br><br>
<br><br>
CYTR 031400Z 35006KT 15SM FEW040 FEW140 OVC250 27/21 A2990 RMK CU1AC2CI6 SLP124<br><br>
TAF CYTR 031130Z 0312/0412 VRB03KT P6SM FEW040 BKN080 OVC250 BECMG 0315/0317 20010KT FM031700 20010KT P6SM BKN040 TEMPO 0317/0324 5SM -SHRA BR BKN030 PROB40 0317/0324 VRB15G30KT 2SM TSRA BR SCT015 OVC030CB FM040200 30005KT P6SM BKN060 BECMG 0405/0407 01008KT RMK FCST BASED ON AUTO OBS 040200-041000Z. NXT FCST BY 031800Z<br><br>
<br><br>
