RETRIEVED AT : Sep 03 2017 09:10 Local <br>
  RETRIEVED AT: Sep 03 2017 13:10 UTC<br><br>
CYSN 031300Z 25009KT 15SM BKN010 OVC030 15/15 A2983 RMK SC5SC3 SLP103 DENSITY ALT 600FT<br><br>
CYSN 031240Z 24010KT 15SM BKN011 OVC030 15/15 A2983 RMK SC6SC2 SLP103 DENSITY ALT 600FT<br><br>
CYSN 031200Z 22004KT 150V230 8SM -RA FEW010 OVC038 15/15 A2982 RMK SC2SC6 SLP098 DENSITY ALT 600FT<br><br>
TAF CYSN 031238Z 0313/0401 24008KT P6SM SCT010 OVC040 TEMPO 0313/0314 P6SM -SHRA BKN010 OVC030 FM031400 26010KT P6SM SCT020 BKN040 TEMPO 0314/0315 OVC020 FM031700 26012G22KT P6SM BKN040 PROB30 0317/0321 3SM TSRA BR BKN030CB BECMG 0322/0324 26010KT RMK NXT FCST BY 032000Z<br><br>
<br><br>
CYHM 031300Z 26007KT 240V310 15SM FEW005 FEW015 BKN093 15/14 A2986 RMK SF1SC1AC6 SF TR PRESRR SLP113 DENSITY ALT 1000FT<br><br>
CYHM 031200Z 29009KT 15SM FEW005 FEW017 BKN110 BKN210 14/14 A2986 RMK SF1SC2AC4CI1 SF TR CB TOP DSNT S SLP113 DENSITY ALT 1000FT<br><br>
CYHM 031120Z 26008KT 15SM BKN005 BKN015 OVC110 14/14 A2985 RMK SF6SC1AC1 SLP111 DENSITY ALT 1000FT<br><br>
TAF CYHM 031139Z 0312/0412 27008KT P6SM FEW006 SCT015 BKN080 TEMPO 0312/0313 BKN005 OVC015 FM031300 27012KT P6SM SCT020 BKN040 TEMPO 0313/0315 OVC020 FM031700 26012G22KT P6SM BKN040 PROB30 0317/0320 3SM TSRA BR BKN030CB FM032300 28010KT P6SM SCT050 FM040300 22005KT P6SM SKC BECMG 0411/0412 22010KT RMK NXT FCST BY 031800Z<br><br>
<br><br>
KIAG 031253Z 26013KT 10SM BKN015 BKN110 16/14 A2984 RMK AO2 RAE39 SLP104 P0006 T01610139<br><br>
KIAG 031220Z 13003KT 4SM RA BR SCT008 BKN060 OVC080 16/14 A2982 RMK AO2 P0005 T01610144<br><br>
KIAG 031153Z 23007KT 5SM RA BR BKN008 OVC013 16/14 A2984 RMK AO2 SLP103 P0022 60036 70038 T01610144 10161 20150 55003<br><br>
KIAG 031120Z 0312/0412 21008KT 2SM RA BR OVC005 TEMPO 0312/0313 2SM RA OVC007 FM031300 26009G18KT P6SM VCSH BKN020 FM032000 27011G18KT P6SM BKN070 FM040800 22007KT P6SM FEW140<br><br>
<br><br>
KBUF 031254Z 22007KT 10SM FEW008 BKN100 BKN170 BKN250 14/14 A2984 RMK AO2 RAE47 SLP105 P0007 T01440139 $<br><br>
KBUF 031154Z 21010KT 3SM -RA BR BKN008 OVC022 14/13 A2985 RMK AO2 SLP108 P0012 60018 70021 T01390133 10139 20133 55003<br><br>
KBUF 031143Z 21009KT 2 1/2SM -RA BR BKN008 OVC022 14/13 A2985 RMK AO2 P0008 T01390133<br><br>
KBUF 031128Z 20009KT 3SM -RA BR OVC008 14/13 A2985 RMK AO2 CIG 006V011 P0004 T01390133<br><br>
KBUF 031120Z 0312/0412 21009KT 6SM -RA BR OVC012 TEMPO 0312/0313 2SM RA OVC007 FM031600 25011G20KT P6SM VCSH OVC035 FM032200 26011G17KT P6SM BKN035 FM032300 26010KT P6SM BKN035 FM040800 22008KT P6SM FEW250<br><br>
<br><br>
