RETRIEVED AT : Mar 22 2020 15:05 Local <br>
  RETRIEVED AT: Mar 22 2020 19:05 UTC<br><br>
CYSN 221800Z 10011G20KT 15SM FEW020 SCT250 02/M09 A3061 RMK SC1CI3 PRESFR SLP372<br><br>
TAF CYSN 221238Z 2213/2301 11005KT P6SM FEW020 FM221600 07012KT P6SM FEW030 FM230000 06010KT P6SM BKN180 RMK NXT FCST BY 222000Z<br><br>
<br><br>
CYHM 221800Z 05015G22KT 15SM FEW038 BKN210 01/M07 A3058 RMK SC1CC6 SC TR SLP368<br><br>
TAF CYHM 221738Z 2218/2318 06012G22KT P6SM FEW030 SCT250 FM222300 05012G22KT P6SM BKN120 OVC200 FM230400 05012KT P6SM OVC070 TEMPO 2305/2307 11/2SM -SN OVC020 PROB30 2305/2307 P6SM -FZRA FM230700 05010KT 3/4SM -SN VV005 TEMPO 2307/2309 2SM -SN OVC008 FM231200 05010KT 3/4SM -SNRA BR OVC003 PROB30 2312/2315 1/8SM -SNRA FG VV001 FM231500 04007KT 3/4SM -RA BR OVC002 RMK NXT FCST BY 230000Z<br><br>
<br><br>
KIAG 221853Z 08012KT 10SM CLR 02/M10 A3057 RMK AO2 SLP367 T00221100<br><br>
KIAG 221753Z 07014G19KT 10SM CLR 02/M10 A3060 RMK AO2 SLP382 T00171100 10017 21061 58025<br><br>
KIAG 221741Z 2218/2318 08014G20KT P6SM SCT200 FM230000 08012KT P6SM BKN150 FM230600 15008KT 2SM -SN OVC025 FM231000 15008KT 3SM -RASN OVC015 FM231200 16010KT 6SM -RA OVC015<br><br>
<br><br>
KBUF 221854Z 06015KT 10SM FEW160 BKN200 BKN250 03/M11 A3055 RMK AO2 SLP357 T00331106<br><br>
KBUF 221754Z 09012G19KT 10SM FEW040 FEW170 SCT220 BKN260 03/M11 A3060 RMK AO2 SLP371 T00281106 10033 21044 58027<br><br>
KBUF 221733Z 2218/2318 09012KT P6SM SCT200 FM230000 08010KT P6SM BKN150 FM230600 15006KT 2SM -SN OVC025 FM230900 16010KT 2SM -RASN OVC015 FM231100 17010KT 6SM -RA OVC015<br><br>
<br><br>
CYYZ 221800Z 11013G23KT 15SM BKN030 M00/M09 A3063 RMK SC7 SLP384<br><br>
TAF CYYZ 221738Z 2218/2324 11015G25KT P6SM BKN030 FM222100 09012G22KT P6SM FEW030 BKN220 FM230000 09012KT P6SM BKN120 OVC200 FM230500 09012KT P6SM OVC070 FM230700 09012KT P6SM -SN BKN040 OVC070 TEMPO 2308/2309 2SM -SN OVC040 FM230900 09012KT 1SM -SN VV009 FM231300 09010KT 3/4SM -SNRA BR OVC004 FM231500 09010KT 1SM -RA BR OVC003 FM232100 07008KT 2SM -DZ BR OVC003 RMK NXT FCST BY 222100Z<br><br>
<br><br>
CYOO 221800Z AUTO 09013G19KT 060V130 9SM CLR M00/M10 A3065 RMK PRESFR SLP390<br><br>
TAF CYOO 221338Z 2214/2302 08012KT P6SM SKC BECMG 2215/2217 09012G22KT BECMG 2223/2301 07012KT RMK FCST BASED ON AUTO OBS. NXT FCST BY 222000Z<br><br>
<br><br>
CYTR 221800Z 11005KT 15SM FEW030 00/M12 A3071 RMK SC1 SLP404<br><br>
TAF CYTR 221730Z 2218/2318 08008KT P6SM FEW030 FM222300 08005KT P6SM FEW120 SCT250 FM230500 06008KT P6SM FEW050 OVC120 BECMG 2307/2309 14012G22KT FM230900 14012G22KT 5SM -RA BR SCT012 OVC020 FM231100 14012G22KT 2SM -RASN BR SCT008 OVC012 FM231400 14012G22KT 1SM -RASN BR OVC008 RMK NXT FCST BY 230000Z<br><br>
<br><br>
