RETRIEVED AT : Jul 03 2020 16:05 Local <br>
  RETRIEVED AT: Jul 03 2020 20:05 UTC<br><br>
CYSN 031900Z 34008KT 310V020 15SM FEW050 SCT140 BKN240 31/20 A2991 RMK CU2AC1CI2 SLP129 DENSITY ALT 2300FT<br><br>
TAF CYSN 031938Z 0320/0401 34010KT P6SM SCT050 RMK NXT FCST WILL BE ISSUED AT 041245Z<br><br>
<br><br>
CYHM 031900Z 02010G15KT 15SM SCT050TCU SCT240 31/20 A2994 RMK TCU3CI1 SLP135 DENSITY ALT 2800FT<br><br>
TAF CYHM 031738Z 0318/0418 32007KT P6SM BKN050 FM032000 34010KT P6SM BKN060 PROB30 0320/0323 VRB15G25KT 2SM TSRA BR BKN020 OVC050CB FM040000 36010KT P6SM FEW060 BECMG 0414/0416 04005KT RMK NXT FCST BY 040000Z<br><br>
<br><br>
KIAG 031953Z 30009KT 10SM FEW050 30/18 A2992 RMK AO2 SLP126 T03000183<br><br>
KIAG 031853Z 35008KT 10SM BKN045 30/19 A2993 RMK AO2 SLP130 T03000189<br><br>
KIAG 031735Z 0318/0418 35007KT P6SM FEW080 FEW120 FM032100 02007KT P6SM FEW050 SCT120 FM040000 VRB04KT P6SM FEW050 SCT120 FM040500 VRB04KT P6SM FEW060 FEW200 FM041600 05005KT P6SM FEW250<br><br>
<br><br>
KBUF 031954Z 34009KT 10SM SCT050 BKN070 BKN250 31/18 A2993 RMK AO2 SLP130 T03060183<br><br>
KBUF 031854Z 33011G18KT 10SM SCT045 BKN055 BKN250 32/19 A2994 RMK AO2 SLP133 T03170189<br><br>
KBUF 031857Z 0319/0418 01008KT P6SM SCT050 FM032300 VRB04KT P6SM FEW050 SCT100 FM040600 VRB04KT P6SM FEW050 FEW250 FM041700 02005KT P6SM FEW250<br><br>
<br><br>
CYYZ 031900Z 35012G19KT 15SM FEW045 SCT260 31/19 A2992 RMK CU1CI3 SLP131 DENSITY ALT 2600FT<br><br>
TAF CYYZ 031738Z 0318/0424 01012G22KT P6SM SCT040 FM040000 35012KT P6SM FEW050 FM041600 36007KT P6SM SKC RMK NXT FCST BY 032100Z<br><br>
<br><br>
CYOO 031900Z AUTO 34007G15KT 280V010 9SM CLR 31/19 A2989 RMK SLP122 DENSITY ALT 2400FT<br><br>
TAF CYOO 031938Z 0320/0408 34012KT P6SM SCT050 RMK FCST BASED ON AUTO OBS. NXT FCST BY 040200Z<br><br>
<br><br>
CYTR 031900Z 17010KT 15SM SCT035 BKN100 28/22 A2989 RMK CU3AC2 SLP121<br><br>
TAF CYTR 031730Z 0318/0418 24008KT P6SM SCT030 BKN080 TEMPO 0318/0402 5SM -SHRA BR BKN030 BKN080 PROB40 0318/0401 VRB15G30KT 2SM TSRA BR SCT015 OVC030CB FM040200 VRB03KT P6SM BKN060 BECMG 0406/0408 01005KT FM041300 02008KT P6SM FEW070 RMK FCST BASED ON AUTO OBS 040200-041000Z. NXT FCST BY 040000Z<br><br>
<br><br>
