RETRIEVED AT : Feb 29 2020 19:05 Local <br>
  RETRIEVED AT: Mar 01 2020 00:05 UTC<br><br>
CYSN 292300Z 29014G20KT 15SM SCT043 BKN088 M03/M11 A3002 RMK SC4AC2 SLP174<br><br>
TAF CYSN 291952Z 2920/0102 29012G22KT P6SM -SHSN OVC030 TEMPO 2920/0102 11/2SM -SN BKN010 OVC030 RMK NXT FCST WILL BE ISSUED AT 011345Z<br><br>
<br><br>
CYHM 292300Z 27014G24KT 15SM FEW031 SCT075 SCT250 M05/M11 A3002 RMK CU2AC1CI1 CI TR SLP183<br><br>
TAF CYHM 292339Z 0100/0124 27012G22KT P6SM FEW030 TEMPO 0100/0101 P6SM -SHSN BKN030 FM010100 27010KT P6SM SCT040 FM011500 23008KT P6SM FEW090 FM011800 20012KT P6SM SCT090 SCT170 FM012100 17012G22KT P6SM BKN050 BKN150 RMK NXT FCST BY 010600Z<br><br>
<br><br>
KIAG 292353Z 27013KT 10SM BKN038 BKN045 M06/M10 A3004 RMK AO2 SLP193 60001 T10561100 11050 21078 53014<br><br>
KIAG 292253Z 26007KT 10SM BKN044 OVC085 M06/M09 A3001 RMK AO2 SNE21 SLP185 P0000 T10611089<br><br>
KIAG 292220Z 24005KT 5SM -SN BR FEW027 OVC035 M06/M08 A3000 RMK AO2 P0000 T10611078<br><br>
KIAG 292208Z 25006KT 2SM R28R/5000VP6000FT -SN BR SCT027 OVC034 M06/M08 A3000 RMK AO2 P0000 T10611083<br><br>
KIAG 292339Z 0100/0124 26008KT P6SM BKN050 FM011000 24006KT P6SM SCT250 FM011800 21010KT P6SM SCT120 FM012300 17008KT P6SM BKN090<br><br>
<br><br>
KBUF 292354Z 26015G22KT 9SM -SN SCT038 BKN046 M04/M11 A3003 RMK AO2 SNE12B32 SLP183 4/004 P0000 60000 T10441106 11044 21067 53014 $<br><br>
KBUF 292305Z 24006KT 5SM -SN BR SCT032 OVC047 M06/M08 A3002 RMK AO2 P0000 T10561078 $<br><br>
KBUF 292254Z 25007KT 2 1/2SM -SN BR BKN030 BKN045 M06/M08 A3002 RMK AO2 SLP177 P0000 T10561078 $<br><br>
KBUF 292252Z 25006KT 2 1/2SM -SN BR BKN030 OVC045 M06/M08 A3001 RMK AO2 P0000 $<br><br>
KBUF 292239Z 26005KT 3SM -SN BKN026 BKN037 OVC045 M06/M08 A3001 RMK AO2 P0000 T10561083 $<br><br>
KBUF 292339Z 0100/0124 25008KT P6SM VCSH SCT035 BKN050 FM011000 25006KT P6SM SCT120 FM011800 21008KT P6SM SCT100 FM012300 17007KT P6SM BKN090<br><br>
<br><br>
CYYZ 292300Z 29013KT 15SM FEW030 FEW240 M04/M12 A3000 RMK CF1CI1 CF TR SLP172<br><br>
TAF CYYZ 292339Z 0100/0206 29012KT P6SM FEW030 TEMPO 0100/0103 BKN030 FM010300 31012KT P6SM FEW030 BECMG 0103/0105 32006KT FM010800 31006KT P6SM SCT040 FM011500 24010KT P6SM BKN050 FM011800 20010KT P6SM SCT090 FM012100 17010KT P6SM BKN090 FM020300 16008KT P6SM BKN040 RMK NXT FCST BY 010300Z<br><br>
<br><br>
CYOO 292300Z AUTO 29006KT 9SM FEW180 M08/M13 A3001 RMK SLP174<br><br>
TAF CYOO 291952Z 2920/0108 29012G22KT P6SM BKN030 BKN080 TEMPO 2920/2924 5SM -SHSN BKN020 OVC030 FM010000 31010KT P6SM BKN030 BKN070 FM010300 32005KT P6SM SCT030 BECMG 0104/0106 VRB03KT RMK FCST BASED ON AUTO OBS. NXT FCST BY 010200Z<br><br>
<br><br>
CYTR 292300Z 27010KT 15SM SCT080 BKN250 M08/M14 A3001 RMK AC3CI2 SLP168<br><br>
TAF CYTR 292330Z 0100/0124 28010KT P6SM SCT080 BKN250 BECMG 0101/0103 FEW080 SCT250 BECMG 0103/0105 VRB03KT FM011800 25008KT P6SM FEW250 BECMG 0122/0124 VRB03KT BKN080 RMK NXT FCST BY 010600Z<br><br>
<br><br>
