RETRIEVED AT : Dec 09 2017 22:10 Local <br>
  RETRIEVED AT: Dec 10 2017 03:10 UTC<br><br>
CYSN 100200Z 25006KT 15SM OVC056 M02/M05 A2977 RMK SC8 LAST STFD OBS/NEXT 10 1200UTC SLP088<br><br>
CYSN has no TAF <br><br>
<br><br>
TAF CYHM 092338Z 1000/1024 26005KT P6SM -SN OVC030 TEMPO 1000/1009 3SM -SN BKN015 OVC030 FM100900 26012KT P6SM BKN030 FM101500 26015G25KT 6SM -SN BKN030 RMK NXT FCST BY 100600Z<br><br>
<br><br>
KIAG 100253Z 27006KT 10SM BKN060 M02/M07 A2976 RMK AO2 SLP091 T10171067 58002<br><br>
KIAG 100153Z 27007KT 10SM OVC060 00/M07 A2976 RMK AO2 SLP094 T00001072<br><br>
KIAG 092320Z 1000/1024 VRB03KT P6SM OVC090 FM100200 26004KT P6SM VCSH BKN080 FM100600 26007KT P6SM VCSH OVC045 FM101200 28011G19KT P6SM BKN040 FM101500 26015G26KT P6SM OVC050<br><br>
<br><br>
KBUF 092320Z 1000/1024 21009KT P6SM BKN120 FM100200 VRB03KT P6SM VCSH OVC050 FM100500 26006KT 1SM -SN OVC015 FM100800 26008KT P6SM VCSH OVC040 FM101200 28011G19KT P6SM BKN025 FM101500 26015G27KT P6SM OVC035<br><br>
<br><br>
CYYZ 100300Z 25007KT 15SM SCT082 M04/M06 A2975 RMK AC4 SLP084<br><br>
CYYZ 100200Z 25005KT 15SM SCT045 M04/M06 A2975 RMK SC4 SLP085<br><br>
CYYZ 100128Z 24005KT 15SM BKN048 M03/M05 A2976 RMK SC7 SLP086<br><br>
TAF CYYZ 100239Z 1003/1106 25005KT P6SM SCT025 BKN040 FM100900 30012KT P6SM BKN040 FM101800 25015G25KT P6SM -SN BKN030 PROB30 1100/1103 2SM -SN OVC015 FM110400 30010KT P6SM BKN040 RMK NXT FCST BY 100600Z<br><br>
<br><br>
CYOO 100300Z AUTO 29004KT 9SM CLR M04/M05 A2975 RMK SLP082<br><br>
CYOO 100200Z AUTO 26003KT 9SM OVC160 M02/M04 A2975 RMK SLP083<br><br>
CYOO has no TAF <br><br>
<br><br>
CYTR 100300Z 23002KT 6SM -SHSN BKN016 OVC030 M01/M03 A2974 RMK SC5SC3 SLP078<br><br>
CYTR 100236Z 29003KT 3SM -SHSN BKN016 OVC030 M01/M04 A2975 RMK SC5SC3 SLP079<br><br>
CYTR 100200Z 27006KT 15SM BKN030 OVC078 M01/M06 A2975 RMK SC5AC3 SLP080<br><br>
TAF AMD CYTR 100253Z 1002/1024 VRB03KT P6SM SCT030 BKN070 TEMPO 1002/1005 3SM -SHSN BKN015 OVC030 FM100500 30005KT P6SM SCT070 BKN140 BECMG 1009/1011 30010KT FM101800 25015G25KT P6SM SCT020 BKN070 TEMPO 1018/1022 5SM -SHSN BKN020 FM102200 26015G25KT 6SM -SHSN FEW012 BKN030 PROB40 1022/1024 2SM -SHSN BKN012 OVC030 BECMG 1023/1024 30012G22KT RMK NXT FCST BY 100600Z<br><br>
<br><br>
