RETRIEVED AT : Sep 19 2017 07:10 Local <br>
  RETRIEVED AT: Sep 19 2017 11:10 UTC<br><br>
CYSN 191100Z 20004KT 3SM BR FEW060 SCT170 BKN200 18/18 A3001 RMK SC2ACC2CC2 SLP163 DENSITY ALT 700FT<br><br>
CYSN has no TAF <br><br>
<br><br>
CYHM 191100Z 04005KT 8SM BKN140 BKN180 17/17 A3003 RMK AC5AC1 SLP167 DENSITY ALT 1200FT<br><br>
CYHM 191000Z 05004KT 7SM FEW002 BKN190 18/17 A3002 RMK SF2AC3 SLP166 DENSITY ALT 1200FT<br><br>
CYHM 190954Z 05005KT 6SM BR SCT002 BKN190 18/18 A3002 RMK SF3AC3 SLP164 DENSITY ALT 1200FT<br><br>
CYHM 190928Z 04005KT 3SM BR BKN002 BKN190 18/18 A3003 RMK SF6AC1 VIS VRB 2 - 4 SLP166 DENSITY ALT 1200FT<br><br>
TAF AMD CYHM 191007Z 1910/2006 VRB03KT P6SM FEW002 BKN160 TEMPO 1910/1913 2SM BR BKN004 PROB30 1910/1913 3/4SM BR FM191300 08010KT P6SM BKN040 TEMPO 1913/1915 BKN012 FM191800 04007KT P6SM BKN050 PROB30 1918/1923 VRB15G25KT 2SM TSRA BR BKN020 OVC030CB FM200000 05012KT P6SM BKN140 RMK NXT FCST BY 191200Z<br><br>
<br><br>
KIAG 191053Z 00000KT 3SM HZ FEW060 19/17 A3002 RMK AO2 SLP163 T01940167<br><br>
KIAG 190953Z AUTO 13004KT 3SM BR CLR 19/17 A3001 RMK AO2 SLP158 T01940172<br><br>
KIAG 190906Z 1909/2006 00000KT 3SM BR BKN100 FM191100 00000KT 3SM BR SCT007 BKN080 FM191300 00000KT P6SM BKN080 FM191900 02004KT P6SM BKN080 FM200200 VRB03KT P6SM SCT200<br><br>
<br><br>
KBUF 191054Z 14004KT 10SM FEW100 BKN140 BKN250 19/18 A3003 RMK AO2 SLP166 T01890178<br><br>
KBUF 190954Z 14005KT 10SM FEW100 BKN250 19/18 A3003 RMK AO2 SLP164 T01890178<br><br>
KBUF 190906Z 1909/2006 00000KT P6SM BKN130 FM191500 VRB03KT P6SM SCT090 FM191600 VRB03KT P6SM BKN100 FM192000 02004KT P6SM BKN100 FM192200 03005KT P6SM SCT200 FM200200 VRB03KT P6SM SCT200<br><br>
<br><br>
CYYZ 191100Z CCA 36008KT 6SM BR FEW005 SCT014 BKN150 BKN210 19/18 A3002 RMK SC1SC2AC3CI1 SLP166 DENSITY ALT 1100FT<br><br>
CYYZ 191000Z 36006KT 15SM SCT004 BKN012 BKN130 19/18 A3002 RMK SC4SC2AC1 SLP165 DENSITY ALT 1100FT<br><br>
CYYZ 190938Z 34007KT 12SM SCT004 BKN130 BKN200 19/18 A3002 RMK SC4AC2CI1 SLP166 DENSITY ALT 1100FT<br><br>
CYYZ 190928Z 35008KT 15SM FEW006 SCT130 BKN200 19/18 A3002 RMK SC1AC3CI3 SLP166 DENSITY ALT 1100FT<br><br>
TAF AMD CYYZ 191009Z 1910/2012 02007KT P6SM SCT012 BKN140 TEMPO 1910/1913 BKN012 PROB30 1910/1913 2SM BR BKN007 FM191800 14007KT P6SM BKN050 PROB30 1918/1923 VRB15G25KT 2SM TSRA BR BKN015 OVC030CB FM200000 02005KT P6SM BKN100 FM200600 07008KT 6SM BR FEW002 SCT100 PROB30 2006/2012 2SM BR RMK NXT FCST BY 191200Z<br><br>
<br><br>
CYOO 191108Z AUTO 36003KT 5SM BR OVC150 19/17 A3003 RMK SLP168 DENSITY ALT 800FT<br><br>
CYOO 191100Z AUTO 34003KT 9SM FEW050 OVC150 19/17 A3002 RMK SLP167 DENSITY ALT 800FT<br><br>
CYOO 191000Z AUTO 00000KT 9SM FEW050 BKN150 19/17 A3001 RMK SLP164 DENSITY ALT 800FT<br><br>
CYOO has no TAF <br><br>
<br><br>
CYTR 191100Z 07002KT 4SM BR SCT140 BKN220 16/16 A3004 RMK AC4CI2 VIS VRB 3-5 SLP173<br><br>
CYTR 191000Z 04004KT 3SM BR FEW140 16/16 A3002 RMK AC1 SLP167<br><br>
TAF CYTR 190530Z 1906/2006 VRB03KT 6SM BR FEW040 TEMPO 1906/1911 2SM BR PROB40 1907/1911 1/4SM FG VV001 FM191100 VRB03KT 1SM BR SCT050 BECMG 1911/1913 P6SM NSW FM191600 07008KT P6SM SCT030 TEMPO 1916/1924 P6SM -SHRA BKN030 PROB30 1918/1922 2SM TSRA BR BKN020CB FM200000 02008KT P6SM SCT020 BKN050 RMK NXT FCST BY 191200Z<br><br>
<br><br>
