RETRIEVED AT : Oct 13 2018 21:05 Local <br>
  RETRIEVED AT: Oct 14 2018 01:05 UTC<br><br>
CYSN 140000Z 24007KT 15SM FEW045 07/01 A3001 RMK SC2 SLP167<br><br>
TAF CYSN 131938Z 1320/1401 28012KT P6SM FEW030 BKN050 FM132200 25008KT P6SM SCT050 RMK NXT FCST WILL BE ISSUED AT 141245Z<br><br>
<br><br>
CYHM 140000Z 28004KT 15SM SKC 06/M00 A3002 RMK SLP173<br><br>
TAF CYHM 132338Z 1400/1424 26007KT P6SM FEW050 BECMG 1400/1402 VRB03KT FM140800 VRB03KT P6SM SCT020 BKN030 BECMG 1414/1416 21008KT FM142200 19010KT P6SM SCT040 RMK NXT FCST BY 140600Z<br><br>
<br><br>
KIAG 140053Z 26006KT 10SM CLR 04/M01 A3003 RMK AO2 SLP179 T00441006<br><br>
KIAG 132353Z 26006KT 10SM CLR 05/00 A3001 RMK AO2 SLP172 T00500000 10111 20050 53018<br><br>
KIAG 132336Z 1400/1424 26007KT P6SM BKN050 FM140300 26005KT P6SM FEW250 FM140700 20004KT P6SM SCT200 FM141200 18005KT P6SM BKN025 FM141600 21009KT P6SM FEW250<br><br>
<br><br>
KBUF 140054Z 27005KT 10SM FEW250 07/01 A3003 RMK AO2 SLP172 T00720011<br><br>
KBUF 132354Z 28006KT 10SM FEW070 08/02 A3001 RMK AO2 SLP167 T00780017 10106 20072 53015<br><br>
KBUF 132336Z 1400/1424 26009KT P6SM SCT045 SCT070 FM140400 25004KT P6SM FEW250 FM140900 18004KT P6SM SCT035 FM141100 20007KT P6SM BKN030 FM141600 21009KT P6SM FEW250<br><br>
<br><br>
CYYZ 140000Z 28010KT 15SM FEW050 07/M01 A3001 RMK SC1 SLP169<br><br>
TAF CYYZ 132338Z 1400/1506 27010KT P6SM FEW030 BECMG 1400/1402 26005KT FM141600 20012KT P6SM BKN030 FM150100 VRB03KT P6SM FEW040 BKN260 RMK NXT FCST BY 140300Z<br><br>
<br><br>
CYOO 140000Z AUTO 29005KT 9SM OVC055 08/00 A3000 RMK SLP165<br><br>
CYOO has no TAF <br><br>
<br><br>
TAF CYTR 132330Z 1400/1424 VRB03KT P6SM SCT040 TEMPO 1402/1410 5SM BR FM141000 VRB03KT P6SM FEW030 BKN180 FM141400 22008KT P6SM BKN025 BKN150 RMK NXT FCST BY 140600Z<br><br>
<br><br>
