RETRIEVED AT : Mar 22 2020 13:05 Local <br>
  RETRIEVED AT: Mar 22 2020 17:05 UTC<br><br>
CYSN 221600Z 09013KT 15SM FEW025 00/M09 A3067 RMK SC1 SLP394<br><br>
TAF CYSN 221238Z 2213/2301 11005KT P6SM FEW020 FM221600 07012KT P6SM FEW030 FM230000 06010KT P6SM BKN180 RMK NXT FCST BY 222000Z<br><br>
<br><br>
CYHM 221600Z 09014KT 15SM FEW034 FEW250 M00/M09 A3063 RMK SC1CI1 SC TR SLP385<br><br>
TAF CYHM 221138Z 2212/2312 03008KT P6SM FEW030 TEMPO 2212/2217 BKN020 BECMG 2214/2216 06012G22KT FM222300 05012G22KT P6SM BKN120 BKN200 FM230300 05012KT P6SM OVC070 FM230600 05010KT 11/2SM -SN OVC010 FM230800 05010KT 3/4SM -SN BR VV004 RMK NXT FCST BY 221800Z<br><br>
<br><br>
KIAG 221653Z 08014G18KT 10SM CLR 01/M10 A3064 RMK AO2 SLP394 T00111100<br><br>
KIAG 221553Z 08012G17KT 10SM CLR 00/M11 A3066 RMK AO2 SLP401 T00001106<br><br>
KIAG 221417Z 2214/2312 10012KT P6SM SKC FM222000 08012KT P6SM SCT250 FM230300 11010KT P6SM BKN090 FM230500 15009KT 2SM -SN OVC035 FM230900 15012KT 2SM -SN OVC015<br><br>
<br><br>
KBUF 221654Z 09012G20KT 10SM FEW040 FEW190 SCT250 02/M11 A3063 RMK AO2 SLP382 T00171111<br><br>
KBUF 221554Z 09011KT 10SM FEW040 FEW190 00/M13 A3065 RMK AO2 SLP391 T00001128<br><br>
KBUF 221417Z 2214/2312 10012KT P6SM SKC FM222000 08012KT P6SM SCT250 FM230300 11010KT P6SM BKN090 FM230500 15009KT 2SM -SN OVC035 FM230900 15012KT 2SM -SN OVC015<br><br>
<br><br>
CYYZ 221649Z 13010G19KT 090V150 15SM BKN030 M01/M08 A3067 RMK SC7 SLP398<br><br>
CYYZ 221600Z 11011G18KT 15SM -SN BKN030 M01/M08 A3068 RMK SC7 SLP400<br><br>
TAF CYYZ 221438Z 2215/2318 09015G25KT P6SM BKN025 TEMPO 2215/2218 P6SM -SHSN OVC020 FM221900 09012G22KT P6SM FEW030 BKN220 FM230000 09012KT P6SM BKN120 BKN200 FM230400 09012KT P6SM OVC070 FM230600 09012KT P6SM -SN BKN040 OVC070 TEMPO 2307/2308 2SM -SN OVC040 FM230800 09012KT 1SM -SN VV009 FM231200 09010KT 3/4SM -SNRA BR OVC004 FM231500 10010KT 1SM -RA BR OVC003 RMK NXT FCST BY 221800Z<br><br>
<br><br>
CYOO 221600Z AUTO 10013G18KT 080V150 9SM CLR M01/M10 A3070 RMK SLP406<br><br>
TAF CYOO 221338Z 2214/2302 08012KT P6SM SKC BECMG 2215/2217 09012G22KT BECMG 2223/2301 07012KT RMK FCST BASED ON AUTO OBS. NXT FCST BY 222000Z<br><br>
<br><br>
CYTR 221600Z 10007KT 15SM SKC M02/M14 A3076 RMK SLP422<br><br>
TAF CYTR 221130Z 2212/2312 05005KT P6SM SKC BECMG 2213/2215 08010KT FM222300 08005KT P6SM FEW120 SCT250 FM230500 06008KT P6SM FEW050 OVC100 BECMG 2306/2308 14012G22KT FM230800 14012G22KT 5SM -RASN BR SCT012 OVC020 RMK NXT FCST BY 221800Z<br><br>
<br><br>
