RETRIEVED AT : Mar 07 2020 12:05 Local <br>
  RETRIEVED AT: Mar 07 2020 17:05 UTC<br><br>
CYSN 071600Z 31006KT 280V360 15SM FEW030 M01/M07 A3051 RMK SC1 SC TR SLP339<br><br>
TAF CYSN 071338Z 0714/0802 36007KT P6SM FEW020 FM071800 29008KT P6SM SKC FM072100 24007KT P6SM FEW120 BECMG 0723/0801 20010KT RMK NXT FCST BY 072000Z<br><br>
<br><br>
CYHM 071600Z 27006KT 15SM SKC M02/M11 A3049 RMK SLP338<br><br>
TAF CYHM 071138Z 0712/0812 34008KT P6SM SKC FM071800 25009KT P6SM FEW120 BECMG 0722/0724 23012KT RMK NXT FCST BY 071800Z<br><br>
<br><br>
KIAG 071653Z 31006KT 10SM CLR M01/M07 A3049 RMK AO2 SLP339 T10111072<br><br>
KIAG 071553Z 31006KT 10SM CLR M02/M08 A3049 RMK AO2 SLP343 T10171083<br><br>
KIAG 071443Z 0715/0812 35006KT P6SM SKC FM071600 30006KT P6SM FEW250 FM071800 26007KT P6SM FEW250 FM072300 22010G17KT P6SM SCT250 FM080800 22014G25KT P6SM SCT200<br><br>
<br><br>
KBUF 071654Z 00000KT 10SM FEW030 00/M08 A3048 RMK AO2 SLP330 T00001078<br><br>
KBUF 071554Z 34004KT 10SM FEW030 M01/M08 A3049 RMK AO2 SLP334 T10061083<br><br>
KBUF 071443Z 0715/0812 33006KT P6SM FEW025 FM071600 30007KT P6SM SKC FM071800 26008KT P6SM FEW250 FM072300 23010G18KT P6SM FEW250 FM080800 23014G25KT P6SM SCT250<br><br>
<br><br>
CYYZ 071600Z 32003KT 15SM FEW250 M02/M12 A3050 RMK CI1 CI TR SLP337<br><br>
TAF CYYZ 071438Z 0715/0818 29005KT P6SM SKC FM071700 24009KT P6SM FEW120 BECMG 0723/0801 24012KT FM081500 25010G20KT P6SM SKC RMK NXT FCST BY 071800Z<br><br>
<br><br>
CYOO 071600Z AUTO 31005KT 280V360 9SM CLR M02/M11 A3049 RMK SLP332<br><br>
TAF CYOO 071338Z 0714/0802 36010KT P6SM SKC BECMG 0716/0718 23009KT FM072100 23010KT P6SM FEW120 FM080000 20010KT P6SM BKN110 RMK FCST BASED ON AUTO OBS. NXT FCST BY 072000Z<br><br>
<br><br>
CYTR 071600Z 23004KT 15SM SKC M02/M12 A3048 RMK SLP326<br><br>
TAF CYTR 071130Z 0712/0812 35008KT P6SM SKC BECMG 0716/0718 26008KT FM072100 25008KT P6SM FEW110 BKN210 FM080100 24008KT P6SM SCT080 BKN100 FM080800 24008KT P6SM SCT170 BKN240 RMK NXT FCST BY 071800Z<br><br>
<br><br>
