RETRIEVED AT : Jun 16 2019 23:05 Local <br>
  RETRIEVED AT: Jun 17 2019 03:05 UTC<br><br>
CYSN has no TAF <br><br>
<br><br>
CYHM 170200Z 33003KT 15SM FEW120 FEW200 12/10 A2992 RMK AC1CI1 AC TR CI TR SLP136<br><br>
TAF CYHM 162338Z 1700/1724 VRB03KT P6SM SCT120 BECMG 1712/1714 04012KT FM172300 04007KT P6SM FEW040 RMK NXT FCST BY 170600Z<br><br>
<br><br>
KIAG 170253Z 00000KT 10SM CLR 12/11 A2994 RMK AO2 SLP142 T01220111 53014<br><br>
KIAG 170153Z 00000KT 10SM CLR 13/11 A2992 RMK AO2 SLP134 T01330111<br><br>
KIAG 170252Z 1703/1724 VRB03KT P6SM SCT100 TEMPO 1708/1712 4SM BR FM171300 09005KT P6SM SCT080 FM171500 07008KT P6SM BKN080<br><br>
<br><br>
KBUF 170254Z 00000KT 10SM FEW200 14/12 A2994 RMK AO2 SLP140 T01390117 53013<br><br>
KBUF 170154Z 00000KT 10SM FEW130 FEW200 14/11 A2992 RMK AO2 SLP132 T01390111<br><br>
KBUF 170252Z 1703/1724 05005KT P6SM OVC080 FM170500 VRB03KT P6SM SCT090 TEMPO 1708/1712 4SM BR FM171300 09005KT P6SM SCT080 FM171400 09006KT P6SM BKN080<br><br>
<br><br>
CYYZ 170200Z 17008KT 15SM FEW180 FEW240 16/09 A2993 RMK AC1CI1 SLP137 DENSITY ALT 800FT<br><br>
TAF CYYZ 170238Z 1703/1806 17007KT P6SM SCT240 BECMG 1705/1707 34005KT FM170800 34005KT P6SM BKN100 BECMG 1712/1714 08005KT FM171700 14007KT P6SM SCT070 FM180200 VRB03KT P6SM FEW070 RMK NXT FCST BY 170600Z<br><br>
<br><br>
CYOO 170200Z AUTO 00000KT 9SM CLR 13/09 A2992 RMK SLP134<br><br>
TAF CYOO 170138Z 1702/1714 VRB03KT P6SM FEW150 FM171000 VRB03KT P6SM BKN100 RMK FCST BASED ON AUTO OBS. NXT FCST BY 170800Z<br><br>
<br><br>
CYTR 170200Z 19002KT 15SM FEW040 FEW100 14/11 A2990 RMK SC1AC1 SLP128<br><br>
TAF CYTR 162330Z 1700/1724 20008KT P6SM FEW040 FEW100 SCT200 BECMG 1701/1703 VRB03KT FM170300 VRB03KT P6SM SCT040 SCT100 PROB30 1705/1711 1SM BR FM171400 17005KT P6SM FEW050 SCT100 BECMG 1716/1718 20010KT FM171800 20010KT P6SM BKN100 RMK NXT FCST BY 170600Z<br><br>
<br><br>
