RETRIEVED AT : Sep 08 2017 15:10 Local <br>
  RETRIEVED AT: Sep 08 2017 19:10 UTC<br><br>
CYSN 081900Z 29006KT 15SM FEW030TCU SCT120 18/11 A3016 RMK TCU2AC2 TCU SW QUAD SLP214 DENSITY ALT 500FT<br><br>
CYSN 081800Z 32004KT 280V350 15SM FEW025 SCT069 SCT250 18/12 A3015 RMK CU2AC2CI1 CI TR SLP211 DENSITY ALT 500FT<br><br>
TAF CYSN 081238Z 0813/0901 24005KT P6SM BKN050 BECMG 0813/0815 31008KT RMK NXT FCST BY 082000Z<br><br>
<br><br>
CYHM 081900Z 36004KT 280V020 15SM -SHRA SCT035TCU BKN078 16/09 A3018 RMK TCU4AC2 SLP222 DENSITY ALT 800FT<br><br>
CYHM 081849Z 28003KT 250V340 15SM -SHRA SCT037TCU BKN065 16/10 A3018 RMK TCU3SC4 SLP222 DENSITY ALT 800FT<br><br>
CYHM 081800Z 26005KT 250V320 15SM VCSH SCT030 BKN055 BKN072 15/10 A3017 RMK CU3SC2AC2 SLP219<br><br>
TAF CYHM 081738Z 0818/0918 33008KT P6SM FEW020 BKN040 TEMPO 0818/0824 P6SM -SHRA PROB30 0818/0823 2SM TSRA BR SCT008 BKN020 BKN040CB FM090200 01008KT P6SM SCT040 FM091500 02012KT P6SM SCT040 RMK NXT FCST BY 090000Z<br><br>
<br><br>
KIAG 081853Z 31008KT 10SM BKN032 19/08 A3016 RMK AO2 SLP213 T01890083<br><br>
KIAG 081753Z 32008KT 10SM BKN027 18/09 A3015 RMK AO2 SLP211 60000 T01830094 10183 20133 52012<br><br>
KIAG 081733Z 0818/0918 34008KT P6SM VCSH SCT040 BKN060 FM082200 32004KT P6SM BKN045 FM090800 36004KT P6SM BKN025 FM091200 36004KT P6SM BKN035 FM091400 01006KT P6SM SCT130<br><br>
<br><br>
KBUF 081854Z COR 15009KT 10SM FEW017 BKN041 BKN070 14/11 A3017 RMK AO2 RAB11E41 SLP217 MDT CU DSNT ALQDS SHRA DSNT SE P0000 T01390111 $<br><br>
KBUF 081754Z COR VRB03KT 10SM FEW017 FEW050 BKN070 16/12 A3016 RMK AO2 RAB18E52 SLP213 MDT CU VC S-SW AND DSNT ALQDS SHRA VC S-SW AND DSNT E-S-W P0000 60001 T01560117 10167 20111 53013<br><br>
KBUF 081733Z 0818/0918 VRB04KT P6SM VCSH SCT040 BKN060 FM082300 32004KT P6SM BKN045 FM091000 VRB03KT P6SM BKN025 FM091300 36004KT P6SM BKN025 FM091500 36006KT P6SM SCT030<br><br>
<br><br>
CYYZ 081900Z 33012KT 15SM BKN045 BKN055 BKN080 18/08 A3016 RMK CU5SC1AC1 SLP215 DENSITY ALT 800FT<br><br>
CYYZ 081800Z 33011G19KT 15SM SCT035 BKN050 BKN075 18/08 A3015 RMK CU3SC2AC2 SLP213 DENSITY ALT 800FT<br><br>
CYYZ 081714Z 34010G15KT 15SM SCT035 BKN060 BKN075 16/09 A3014 RMK CU3SC2AC2 SLP210 DENSITY ALT 600FT<br><br>
TAF CYYZ 081738Z 0818/0924 34015KT P6SM BKN040 FM090000 34012KT P6SM FEW040 FM090600 35010KT P6SM SKC FM091500 01015KT P6SM FEW040 FM092300 35010KT P6SM SKC RMK NXT FCST BY 082100Z<br><br>
<br><br>
CYOO 081900Z AUTO 36011G19KT 9SM FEW036 17/07 A3015 RMK SLP214 DENSITY ALT 500FT<br><br>
CYOO 081800Z AUTO 34012KT 310V010 9SM SCT032 BKN060 17/09 A3014 RMK SLP211 DENSITY ALT 500FT<br><br>
CYOO has no TAF <br><br>
<br><br>
CYTR 081900Z 01006KT 15SM SCT036 SCT081 SCT200 18/10 A3012 RMK SC4AC1CI1 MDT CU TOPS NE SLP202<br><br>
CYTR 081800Z 33007KT 15SM BKN029 17/10 A3011 RMK SC6 SLP200<br><br>
TAF CYTR 081730Z 0818/0918 34010KT P6SM BKN025 TEMPO 0818/0820 BKN020 FM082300 35005KT P6SM BKN040 FM091500 36010KT P6SM FEW040 RMK NXT FCST BY 090000Z<br><br>
<br><br>
