RETRIEVED AT : Nov 05 2017 12:10 Local <br>
  RETRIEVED AT: Nov 05 2017 17:10 UTC<br><br>
CYSN 051700Z 18018G24KT 5SM -RA BR OVC024 14/13 A2980 RMK SC8 SLP095 DENSITY ALT 500FT<br><br>
CYSN 051614Z 18023G32KT 5SM -RA BR SCT023 BKN030 14/13 A2980 RMK SC3SC4 PRESFR SLP095 DENSITY ALT 400FT<br><br>
CYSN 051600Z 18021G30KT 5SM BR OVC039 14/13 A2981 RMK SC8 SLP099 DENSITY ALT 400FT<br><br>
CYSN 051525Z 19024G30KT 4SM -RA BR OVC026 14/12 A2983 RMK SC8 SLP104 DENSITY ALT 400FT<br><br>
TAF CYSN 051343Z 0514/0602 18015G25KT P6SM OVC025 TEMPO 0514/0518 21/2SM -SHRA BR OVC012 PROB40 0514/0518 VRB20G30KT 11/4SM +TSRA BR BKN008CB FM051800 19017G30KT 5SM -SHRA BR BKN020 BKN160 FM052100 19013G27KT 5SM SHRA BR BKN020 OVC150 PROB30 0521/0524 VRB20G35KT 21/2SM +TSRA BR BKN010CB FM060000 21012G25KT 3SM SHRA BR BKN010 OVC070 PROB30 0600/0602 VRB20G35KT 11/2SM +TSRA BR BKN005CB RMK NXT FCST BY 052000Z<br><br>
<br><br>
CYHM 051700Z 20012G21KT 15SM -RA OVC005 14/13 A2980 RMK SC8 PCPN VRY LGT SLP096 DENSITY ALT 1000FT<br><br>
CYHM 051628Z 19015G24KT 3SM -RA BR OVC005 13/13 A2980 RMK SC8 SLP098 DENSITY ALT 900FT<br><br>
CYHM 051621Z 20019G26KT 2SM -RA BR OVC005 13/13 A2981 RMK FG1SC7 SLP101 DENSITY ALT 900FT<br><br>
CYHM 051600Z 19018G25KT 4SM -RA BR OVC005 13/13 A2982 RMK SC8 SLP102 DENSITY ALT 900FT<br><br>
CYHM 051532Z 19014G23KT 4SM -RA BR OVC005 13/12 A2982 RMK SC8 SLP102 DENSITY ALT 900FT<br><br>
CYHM 051522Z 19016G21KT 2SM -RA BR OVC005 13/12 A2983 RMK FG1SC7 SLP105 DENSITY ALT 800FT<br><br>
TAF AMD CYHM 051518Z 0515/0612 18015G25KT 3SM -RA -DZ BR OVC005 TEMPO 0515/0518 P6SM NSW OVC025 FM051800 20015G25KT 6SM -SHRA BR OVC012 TEMPO 0518/0521 21/2SM -DZ BR OVC005 FM052100 21012G22KT 3SM -SHRA BR BKN006 OVC015 PROB40 0521/0524 VRB20G35KT 1SM +TSRA BR BKN004 OVC020CB FM060000 23010KT 4SM -DZ BR OVC006 FM060400 30010KT 6SM BR SCT006 OVC010 FM061000 31007KT P6SM FEW008 BKN015 RMK NXT FCST BY 051800Z<br><br>
<br><br>
KIAG 051653Z 18014G24KT 10SM OVC028 15/12 A2983 RMK AO2 PK WND 19026/1637 RAE42 SLP106 P0002 T01500117<br><br>
KIAG 051632Z 18014G25KT 3SM -RA BKN028 BKN036 OVC070 14/12 A2983 RMK AO2 PK WND 20026/1612 P0002 T01440117<br><br>
KIAG 051553Z 18016G28KT 7SM -RA SCT013 BKN032 OVC100 14/11 A2985 RMK AO2 PK WND 19028/1550 RAB33 SLP113 P0001 T01390106<br><br>
KIAG 051501Z 0515/0612 17013G23KT P6SM -SHRA OVC025 FM051700 19017G23KT P6SM VCSH OVC025 FM052200 18013G20KT 2SM +SHRA OVC020 FM060800 26009KT 2SM +SHRA OVC020 FM061000 28008KT 6SM -SHRA OVC020<br><br>
<br><br>
