RETRIEVED AT : Apr 03 2020 13:05 Local <br>
  RETRIEVED AT: Apr 03 2020 17:05 UTC<br><br>
CYSN 031600Z 36004KT 320V020 10SM OVC022 05/03 A3001 RMK SC8 SLP168<br><br>
TAF CYSN 031238Z 0313/0401 33010G20KT P6SM FEW250 FM031400 34010G20KT P6SM SCT020 BKN070 TEMPO 0314/0315 BKN020 BKN070 FM031500 34010G20KT P6SM BKN025 BKN070 TEMPO 0315/0318 BKN020 OVC070 FM031800 34008KT P6SM OVC025 TEMPO 0318/0401 P6SM -RA OVC020 RMK NXT FCST BY 032000Z<br><br>
<br><br>
CYHM 031600Z 35010G16KT 15SM BKN032 09/00 A3000 RMK SC7 SLP167<br><br>
TAF AMD CYHM 031609Z 0316/0412 34012KT P6SM BKN030 BECMG 0316/0318 04008KT FM040000 05005KT P6SM BKN030 BKN060 TEMPO 0400/0403 P6SM -SHRA FM040300 VRB03KT P6SM BKN030 FM040600 03005KT P6SM FEW008 BKN030 PROB30 0406/0412 BKN008 OVC030 RMK NXT FCST BY 031800Z<br><br>
<br><br>
KIAG 031653Z 32009KT 10SM OVC015 06/02 A3000 RMK AO2 SLP167 T00560017<br><br>
KIAG 031553Z 33008KT 10SM OVC018 05/01 A3000 RMK AO2 SLP168 T00500011<br><br>
KIAG 031447Z 0315/0412 33012KT P6SM OVC025 FM031700 34009KT P6SM VCSH OVC012 FM040000 32004KT 4SM BR OVC007<br><br>
<br><br>
KBUF 031654Z 33010KT 10SM FEW008 BKN014 OVC020 06/02 A2999 RMK AO2 DZE41 SLP161 P0000 T00610017<br><br>
KBUF 031609Z 33010KT 10SM -DZ FEW008 BKN014 OVC020 05/01 A2999 RMK AO2 PCPN VRY LGT P0000 T00500011<br><br>
KBUF 031554Z 32008KT 10SM -DZ FEW009 BKN016 OVC022 05/01 A2999 RMK AO2 DZB49 SLP161 PCPN VRY LGT P0000 T00500011<br><br>
KBUF 031447Z 0315/0412 31012KT P6SM OVC025 FM031600 32012KT P6SM VCSH OVC012 FM032300 VRB03KT 4SM BR OVC007 FM040300 VRB03KT 1SM BR OVC004<br><br>
<br><br>
CYYZ 031600Z 01009KT 15SM BKN034 BKN044 BKN250 07/01 A3001 RMK SC5SC2CI1 CI TR SLP168<br><br>
TAF CYYZ 031438Z 0315/0418 36012KT P6SM FEW020 SCT070 TEMPO 0315/0317 BKN020 BKN070 FM031700 36012KT P6SM BKN030 BKN070 TEMPO 0322/0403 P6SM -RA FM040300 36010KT P6SM SCT015 OVC040 TEMPO 0403/0408 BKN015 OVC040 PROB30 0406/0408 6SM -DZ BR BKN008 OVC020 FM040800 36008KT P6SM SCT006 BKN012 OVC030 PROB30 0408/0413 4SM -DZ BR OVC006 FM041500 08008KT P6SM BKN015 OVC030 BECMG 0417/0418 13008KT RMK NXT FCST BY 031800Z<br><br>
<br><br>
CYOO 031600Z AUTO 02011KT 330V060 9SM BKN046 OVC060 10/03 A2998 RMK SLP158<br><br>
TAF CYOO 031338Z 0314/0402 35012G22KT P6SM SCT030 BKN070 TEMPO 0314/0317 BKN020 BKN070 FM031700 35010KT P6SM BKN030 BKN070 TEMPO 0317/0401 P6SM -RA OVC020 FM040100 35005KT P6SM SCT012 BKN030 TEMPO 0401/0402 5SM -DZ BR BKN012 OVC030 RMK FCST BASED ON AUTO OBS. NXT FCST BY 032000Z<br><br>
<br><br>
CYTR 031600Z 36011G16KT 10SM -RA OVC022 08/05 A2996 RMK SC8 SLP147<br><br>
TAF CYTR 031130Z 0312/0412 35008KT P6SM SCT015 OVC030 TEMPO 0312/0314 BKN015 OVC030 FM031400 01010KT P6SM -RA SCT012 OVC025 TEMPO 0314/0322 OVC012 FM032200 02008KT P6SM -RA OVC012 FM040300 02005KT P6SM BKN008 OVC020 TEMPO 0403/0412 5SM -RA BR RMK NXT FCST BY 031800Z<br><br>
<br><br>
