RETRIEVED AT : Feb 24 2020 05:05 Local <br>
  RETRIEVED AT: Feb 24 2020 10:05 UTC<br><br>
CYSN has no TAF <br><br>
<br><br>
CYHM 240900Z 21006KT 15SM FEW250 01/M02 A2986 RMK CI2 SLP119<br><br>
TAF CYHM 240538Z 2406/2506 22010G20KT P6SM SKC BECMG 2406/2408 22010KT FM241100 23008KT P6SM SCT015 FM242300 VRB03KT P6SM SCT030 OVC130 RMK NXT FCST BY 241200Z<br><br>
<br><br>
KIAG 240953Z AUTO 22011KT 10SM CLR 03/M03 A2989 RMK AO2 SLP130 T00331028<br><br>
KIAG 240853Z AUTO 23015KT 10SM CLR 04/M03 A2988 RMK AO2 SLP127 T00391033 58007<br><br>
KIAG 240852Z 2409/2506 22015KT P6SM SKC FM241400 22011G18KT P6SM SCT250 FM242000 25006KT P6SM BKN090 FM250300 05005KT P6SM OVC040<br><br>
<br><br>
KBUF 240954Z 22014KT 10SM CLR 06/M03 A2990 RMK AO2 SLP131 T00611033<br><br>
KBUF 240854Z 23014G23KT 10SM CLR 06/M04 A2989 RMK AO2 SLP127 T00611044 58006<br><br>
KBUF 240852Z 2409/2506 21012G22KT P6SM SKC FM241100 22014KT P6SM FEW250 FM241400 22012G18KT P6SM FEW250 FM242000 25007KT P6SM BKN090 FM250200 05004KT P6SM OVC040<br><br>
<br><br>
CYYZ 240900Z 19009KT 15SM FEW250 02/M02 A2984 RMK CI1 SLP111<br><br>
TAF CYYZ 240838Z 2409/2512 21008KT P6SM FEW020 FM241800 27008KT P6SM FEW030 BECMG 2421/2423 VRB03KT FM250000 02007KT P6SM FEW030 BKN150 FM251000 03010KT P6SM BKN030 OVC090 RMK NXT FCST BY 241200Z<br><br>
<br><br>
CYOO 240900Z AUTO 00000KT 9SM CLR M04/M04 A2984 RMK SLP111<br><br>
TAF CYOO 240738Z 2408/2420 22005KT P6SM SKC BECMG 2414/2416 24008KT RMK FCST BASED ON AUTO OBS. NXT FCST BY 241400Z<br><br>
<br><br>
CYTR 240900Z 22007KT 15SM SKC 03/M01 A2985 RMK SLP113<br><br>
TAF CYTR 240530Z 2406/2506 VRB03KT P6SM SKC FM241200 25010KT P6SM SCT020 TEMPO 2412/2415 BKN020 BECMG 2415/2417 24010G20KT FM241800 24010KT P6SM FEW030 BKN210 BECMG 2500/2502 VRB03KT RMK NXT FCST BY 241200Z<br><br>
<br><br>
