RETRIEVED AT : Apr 21 2018 23:40 Local <br>
  RETRIEVED AT: Apr 22 2018 03:40 UTC<br><br>
CYSN has no TAF <br><br>
<br><br>
CYHM 220300Z 25003KT 15SM SKC 05/M04 A3040 RMK SLP304<br><br>
CYHM 220200Z 31005KT 15SM SKC 08/M05 A3040 RMK SLP303<br><br>
TAF CYHM 212340Z 2200/2224 31005KT P6SM SCT250 BECMG 2202/2204 34005KT FM221400 05008KT P6SM SKC RMK NXT FCST BY 220600Z<br><br>
<br><br>
KIAG 220253Z 20005KT 10SM CLR 04/M04 A3041 RMK AO2 SLP306 T00441044 50008 $<br><br>
KIAG 220153Z 22005KT 10SM CLR 05/M04 A3041 RMK AO2 SLP307 T00501044 $<br><br>
KIAG 220254Z 2203/2224 22004KT P6SM SKC FM220400 VRB03KT P6SM SKC FM221600 03004KT P6SM SKC FM221800 02008KT P6SM SKC<br><br>
<br><br>
KBUF 220254Z 20004KT 10SM BKN250 03/M03 A3041 RMK AO2 SLP306 T00281028 51007<br><br>
KBUF 220154Z 20004KT 10SM BKN250 03/M03 A3041 RMK AO2 SLP306 T00331033<br><br>
KBUF 220254Z 2203/2224 VRB03KT P6SM SKC FM221900 04004KT P6SM SKC<br><br>
<br><br>
CYYZ 220300Z 32006KT 15SM SKC 07/M05 A3040 RMK SLP301<br><br>
CYYZ 220200Z 35006KT 15SM FEW260 09/M06 A3040 RMK CI1 CI TR SLP300<br><br>
TAF CYYZ 220238Z 2203/2306 35005KT P6SM FEW250 BECMG 2216/2218 16008KT BECMG 2301/2303 36005KT RMK NXT FCST BY 220600Z<br><br>
<br><br>
CYOO 220300Z AUTO 34006KT 9SM CLR 05/M05 A3040 RMK SLP300<br><br>
CYOO 220200Z AUTO 34005KT 9SM CLR 06/M06 A3039 RMK SLP298<br><br>
CYOO has no TAF <br><br>
<br><br>
CYTR 220300Z 32005KT 15SM SKC 07/M05 A3037 RMK SLP289<br><br>
CYTR 220200Z 31003KT 15SM SKC 08/M05 A3037 RMK SLP286<br><br>
TAF CYTR 212330Z 2200/2224 27012KT P6SM FEW200 BECMG 2202/2204 VRB03KT FM221600 21008KT P6SM SKC BECMG 2222/2224 VRB03KT RMK NXT FCST BY 220600Z<br><br>
<br><br>
