RETRIEVED AT : Oct 09 2017 23:10 Local <br>
  RETRIEVED AT: Oct 10 2017 03:10 UTC<br><br>
CYSN has no TAF <br><br>
<br><br>
CYHM 100300Z 26005KT 3/8SM R12/2000FT/N FG BKN056 15/15 A3003 RMK FG4SC1 SLP171 DENSITY ALT 900FT<br><br>
CYHM 100250Z 25005KT 1/4SM R12/2000FT/N FG FEW056 15/15 A3002 RMK SC2 SLP169 DENSITY ALT 900FT<br><br>
CYHM 100200Z 22005KT 15SM FEW042 16/16 A3000 RMK SC2 SLP160 DENSITY ALT 1000FT<br><br>
TAF AMD CYHM 100304Z 1003/1024 25005KT 1/4SM FG VV002 TEMPO 1003/1013 2SM BR SCT002 PROB30 1008/1012 1/8SM FG FM101300 VRB03KT 3SM BR FEW004 FM101600 33007KT P6SM SCT040 SCT150 RMK NXT FCST BY 100600Z<br><br>
<br><br>
KIAG 100253Z 22010KT 6SM BR BKN006 19/17 A3001 RMK AO2 SLP161 T01890167 51021<br><br>
KIAG 100244Z 21008KT 6SM HZ BKN007 19/16 A3001 RMK AO2 T01890161<br><br>
KIAG 100224Z 22008KT 6SM HZ SCT006 19/16 A3000 RMK AO2 T01890161<br><br>
KIAG 100217Z 22006KT 6SM HZ BKN006 19/16 A3000 RMK AO2 T01890161<br><br>
KIAG 100153Z 21007KT 6SM HZ SCT007 19/16 A2999 RMK AO2 SLP155 T01890161<br><br>
KIAG 100136Z 22008KT 6SM HZ SCT007 19/16 A2998 RMK AO2 T01890161<br><br>
KIAG 100113Z 22008KT 7SM BKN007 BKN055 19/17 A2998 RMK AO2 T01890167<br><br>
KIAG 100245Z 1003/1024 22008KT P6SM SCT006 FM100400 23004KT P6SM SCT110 FM100700 VRB03KT P6SM FEW250 FM101500 30004KT P6SM FEW250 FM102300 35005KT P6SM SCT200<br><br>
<br><br>
KBUF 100254Z 23009KT 10SM OVC009 19/17 A3002 RMK AO2 CIG 007V012 SLP164 60000 T01890172 51018 $<br><br>
KBUF 100154Z 21008KT 8SM BKN006 OVC009 18/17 A3000 RMK AO2 DZE14 SLP159 P0000 T01830172 $<br><br>
KBUF 100245Z 1003/1024 21008KT P6SM OVC009 FM100400 23005KT P6SM SCT012 FM100800 VRB03KT P6SM FEW250 FM101500 28004KT P6SM FEW250 FM102300 36004KT P6SM SCT200<br><br>
<br><br>
CYYZ 100300Z 30006KT 15SM SKC 17/15 A3000 RMK SLP161 DENSITY ALT 900FT<br><br>
CYYZ 100200Z 32002KT 15SM FEW035 16/15 A2998 RMK SC1 SC TR SLP153 DENSITY ALT 900FT<br><br>
TAF CYYZ 100238Z 1003/1106 VRB03KT P6SM FEW040 BECMG 1003/1005 30005KT FM101600 35010KT P6SM FEW040 FM102300 36015KT P6SM SCT040 SCT150 RMK NXT FCST BY 100600Z<br><br>
<br><br>
CYOO 100300Z AUTO 36002KT 9SM BKN037 14/13 A2999 RMK SLP159<br><br>
CYOO 100200Z AUTO 00000KT 9SM CLR 14/13 A2997 RMK SLP153<br><br>
CYOO has no TAF <br><br>
<br><br>
CYTR 100300Z 22003KT 15SM FEW035 16/16 A2998 RMK SC1 SLP152<br><br>
CYTR 100200Z 22006KT 15SM FEW027 17/16 A2996 RMK SC1 SLP148<br><br>
TAF CYTR 092330Z 1000/1024 VRB03KT P6SM SCT030 PROB30 1006/1013 2SM BR BKN008 FM101500 VRB03KT P6SM SCT030 BKN250 BECMG 1016/1018 22010KT RMK NXT FCST BY 100600Z<br><br>
<br><br>
