RETRIEVED AT : Mar 15 2020 14:05 Local <br>
  RETRIEVED AT: Mar 15 2020 18:05 UTC<br><br>
CYSN 151700Z 03011G17KT 15SM SKC 01/M08 A3065 RMK SLP386<br><br>
TAF CYSN 151238Z 1513/1601 04012KT P6SM FEW030 FM151800 06015KT P6SM SKC BECMG 1523/1601 08010KT RMK NXT FCST BY 152000Z<br><br>
<br><br>
CYHM 151700Z 06011G19KT 15SM SKC 01/M08 A3064 RMK SLP387<br><br>
TAF CYHM 151739Z 1518/1618 05010G20KT P6SM SKC BECMG 1523/1601 05010KT RMK NXT FCST BY 160000Z<br><br>
<br><br>
KIAG 151753Z 03008KT 10SM CLR 02/M09 A3062 RMK AO2 SLP385 T00221094 10022 21017 52003<br><br>
KIAG 151653Z 04012KT 10SM CLR 02/M09 A3062 RMK AO2 SLP384 T00171089<br><br>
KIAG 151720Z 1518/1618 05012KT P6SM SKC FM160000 10004KT P6SM SKC FM161400 13005KT P6SM SCT250<br><br>
<br><br>
KBUF 151754Z 05006KT 10SM CLR 03/M08 A3061 RMK AO2 SLP373 T00331083 10033 21011 50003<br><br>
KBUF 151654Z 01008G14KT 10SM CLR 03/M09 A3061 RMK AO2 SLP373 T00281089<br><br>
KBUF 151720Z 1518/1618 01012KT P6SM SKC FM160000 08004KT P6SM SKC FM161400 14006KT P6SM SCT250<br><br>
<br><br>
CYYZ 151700Z 06008G16KT 290V080 15SM SKC 02/M15 A3065 RMK SLP387<br><br>
TAF CYYZ 151739Z 1518/1624 05010G20KT P6SM SKC BECMG 1523/1601 08008KT FM161100 10012KT P6SM SKC BECMG 1612/1614 11010G20KT BECMG 1623/1624 09008KT RMK NXT FCST BY 152100Z<br><br>
<br><br>
CYOO 151700Z AUTO 02007G15KT 350V070 9SM CLR 02/M14 A3065 RMK SLP388<br><br>
TAF CYOO 151338Z 1514/1602 36010KT P6SM SKC BECMG 1514/1515 04008KT BECMG 1518/1520 09005KT RMK FCST BASED ON AUTO OBS. NXT FCST BY 152000Z<br><br>
<br><br>
CYTR 151700Z 05009KT 15SM SKC 01/M14 A3066 RMK SLP387<br><br>
TAF CYTR 151730Z 1518/1618 05008KT P6SM SKC BECMG 1609/1611 SCT240 BECMG 1614/1616 10008KT RMK NXT FCST BY 160000Z<br><br>
<br><br>
