RETRIEVED AT : May 19 2018 20:06 Local <br>
  RETRIEVED AT: May 20 2018 00:06 UTC<br><br>
CYSN 192300Z 01003KT 320V040 15SM OVC040 13/11 A2984 RMK SC8 SLP105<br><br>
TAF CYSN 191938Z 1920/2001 VRB03KT P6SM OVC030 TEMPO 1920/2001 4SM -SHRA BR OVC020 RMK NXT FCST WILL BE ISSUED AT 201245Z<br><br>
<br><br>
TAF CYHM 192338Z 2000/2024 21012KT 6SM -SHRA BR BKN040 TEMPO 2000/2008 11/2SM SHRA BR OVC006 BECMG 2005/2007 30010KT FM200800 33010KT P6SM BKN010 OVC030 BECMG 2012/2014 02008KT FM201700 02008KT P6SM BKN030 BECMG 2020/2022 VRB03KT RMK NXT FCST BY 200600Z<br><br>
<br><br>
KIAG 192332Z 2000/2024 21010KT P6SM OVC035 TEMPO 2000/2002 4SM -SHRA OVC020 FM200500 24012G20KT 4SM BR OVC007 FM201000 30010KT P6SM BKN020 FM201800 30006KT P6SM SCT200 FM202200 26007KT P6SM SCT150<br><br>
<br><br>
KBUF 192354Z 23005KT 10SM SCT048 BKN110 25/17 A2984 RMK AO2 LTG DSNT SW AND W SLP101 OCNL LTGCG DSNT SW AND W MOV NE 60003 T02500167 10267 20211 56011<br><br>
KBUF 192254Z 22008KT 10SM SCT046 BKN110 26/17 A2985 RMK AO2 SLP105 T02610167<br><br>
KBUF 192332Z 2000/2024 22010KT P6SM BKN040 TEMPO 2000/2002 4SM -SHRA OVC020 FM200600 23012G20KT 4SM BR OVC007 FM201000 29009KT P6SM OVC020 FM201800 27006KT P6SM BKN200 FM202300 25008KT P6SM BKN150<br><br>
<br><br>
CYYZ 192339Z 15006KT 15SM FEW005 SCT041 BKN110 14/12 A2983 RMK SF2SC2AC3 SLP104 DENSITY ALT 700FT<br><br>
CYYZ 192300Z 13007KT 15SM BKN031 BKN110 BKN250 14/12 A2983 RMK SC5AC1CI1 SLP105 DENSITY ALT 800FT<br><br>
TAF CYYZ 192338Z 2000/2106 13006KT P6SM BKN030 TEMPO 2000/2003 5SM BR BKN006 PROB40 2000/2003 2SM BR OVC003 FM200300 VRB03KT 2SM -SHRA BR OVC006 TEMPO 2003/2006 6SM BR OVC010 PROB30 2003/2005 1SM SHRA BR BKN002 OVC005 FM200600 27006KT 6SM -SHRA BR OVC012 FM200800 33013KT P6SM BKN012 BECMG 2010/2012 35013G23KT BECMG 2013/2015 35010G20KT FM201600 35012KT P6SM SKC RMK NXT FCST BY 200300Z<br><br>
<br><br>
CYOO has no TAF <br><br>
<br><br>
CYTR 192300Z 13004KT 15SM OVC021 15/12 A2986 RMK SC8 SLP113<br><br>
TAF CYTR 192330Z 2000/2024 13005KT P6SM OVC020 TEMPO 2000/2002 OVC025 FM200200 20005KT P6SM -SHRA SCT010 OVC025 TEMPO 2002/2010 3SM -SHRA BR BKN010 OVC025 PROB30 2002/2006 VRB15G25KT 1SM TSRA BR SCT005 OVC012CB FM201000 31010KT P6SM SCT015 OVC025 BECMG 2010/2012 35010G20KT FM201600 35008KT P6SM SCT040 RMK NXT FCST BY 200600Z<br><br>
<br><br>
