RETRIEVED AT : Oct 29 2017 07:10 Local <br>
  RETRIEVED AT: Oct 29 2017 11:10 UTC<br><br>
CYSN 291100Z 13005KT 15SM -RA OVC041 06/04 A2983 RMK SC8 SLP106<br><br>
CYSN has no TAF <br><br>
<br><br>
CYHM 291100Z 31002KT 15SM OVC040 04/02 A2982 RMK SC8 SLP105<br><br>
CYHM 291000Z 32003KT 15SM OVC038 04/02 A2982 RMK SC8 SLP106<br><br>
TAF CYHM 290538Z 2906/3006 24005KT P6SM BKN040 BECMG 2906/2908 VRB03KT FM290900 VRB03KT P6SM BKN040 PROB30 2909/2913 1SM BR BKN004 FM291300 VRB03KT P6SM BKN030 TEMPO 2913/2918 BKN020 FM291800 35008KT P6SM BKN030 RMK NXT FCST BY 291200Z<br><br>
<br><br>
KIAG 291053Z 00000KT 5SM RA OVC050 06/03 A2983 RMK AO2 SLP110 P0007 T00610028<br><br>
KIAG 290953Z AUTO 00000KT 6SM -RA FEW039 SCT047 OVC060 06/03 A2984 RMK AO2 RAB02 SLP112 P0003 T00610028<br><br>
KIAG 291008Z 2910/3006 00000KT 6SM -RA OVC025 FM291300 00000KT P6SM OVC015 FM291900 36007KT P6SM OVC007 FM300100 34012G18KT P6SM OVC012<br><br>
<br><br>
KBUF 291054Z 01003KT 8SM -RA OVC050 06/04 A2982 RMK AO2 SLP104 P0004 T00560039<br><br>
KBUF 290954Z 00000KT 7SM -RA FEW037 OVC050 06/04 A2983 RMK AO2 RAB0858 SLP106 P0002 T00560039<br><br>
KBUF 291008Z 2910/3006 00000KT P6SM VCSH OVC025 FM291200 VRB03KT 5SM -RA OVC007 FM291700 35005KT P6SM OVC007 FM292200 35009KT P6SM OVC007 FM292300 34011KT 6SM -RA OVC007<br><br>
<br><br>
CYYZ 291100Z 03004KT 15SM OVC045 05/01 A2982 RMK SC8 SLP105<br><br>
CYYZ 291000Z 02004KT 15SM BKN045 OVC210 05/01 A2982 RMK SC7CI1 SLP106<br><br>
TAF CYYZ 290838Z 2909/3012 VRB03KT P6SM BKN040 FM291400 35008KT P6SM BKN030 BECMG 3003/3005 30015G25KT RMK NXT FCST BY 291200Z<br><br>
<br><br>
CYOO 291100Z AUTO 01004KT 9SM SCT047 OVC095 04/02 A2983 RMK SLP106<br><br>
CYOO 291000Z AUTO 01002KT 9SM BKN100 OVC170 03/02 A2983 RMK SLP108<br><br>
CYOO has no TAF <br><br>
<br><br>
CYTR 291100Z 01003KT 8SM -SHRA OVC023 05/05 A2985 RMK SC8 SLP111<br><br>
CYTR 291000Z 31002KT 8SM -SHRA OVC035 06/06 A2986 RMK SC8 SLP114<br><br>
TAF CYTR 290530Z 2906/3006 22005KT P6SM -SHRA BKN020 OVC060 TEMPO 2906/2915 P6SM NSW BKN030 OVC060 BECMG 2907/2909 02005KT FM291700 02010KT P6SM -SHRA SCT012 BKN020 OVC060 TEMPO 2917/2924 4SM -SHRA BR BKN012 OVC020 BECMG 2922/2924 34012G22KT FM300000 34012G22KT 4SM -SHRA BR SCT008 BKN012 RMK NXT FCST BY 291200Z<br><br>
<br><br>
