RETRIEVED AT : Jan 07 2019 00:06 Local <br>
  RETRIEVED AT: Jan 07 2019 05:06 UTC<br><br>
CYSN has no TAF <br><br>
<br><br>
CYHM 070400Z 03008KT 15SM SCT200 BKN240 M06/M11 A3042 RMK CS3CS4 SLP315<br><br>
TAF CYHM 062338Z 0700/0724 36009KT P6SM SCT040 FM070600 03009KT P6SM BKN015 BKN150 FM071200 09012G22KT P6SM SCT015 OVC080 FM071600 07012G22KT 21/2SM -SN BKN012 OVC040 PROB30 0716/0719 P6SM -PL FM071900 08012G22KT P6SM SCT040 OVC140 FM072300 15012G22KT P6SM OVC060 BECMG 0723/0724 P6SM -RA OVC030 RMK NXT FCST BY 070600Z<br><br>
<br><br>
KIAG 070453Z AUTO 06006KT 10SM CLR M06/M12 A3044 RMK AO2 SLP326 T10561117 400331056 $<br><br>
KIAG 070353Z 06007KT 10SM CLR M06/M11 A3045 RMK AO2 SLP326 T10561111<br><br>
KIAG 070303Z 0703/0724 03007KT P6SM BKN035 FM070400 04007KT P6SM FEW035 BKN250 FM071100 10007KT P6SM BKN120 FM071400 11011G17KT P6SM OVC100 FM071800 12013G19KT 5SM -FZRAPL OVC050 FM072000 13015G24KT P6SM OVC080 WS020/18040KT<br><br>
<br><br>
KBUF 070454Z 05006KT 10SM FEW032 SCT220 M06/M11 A3043 RMK AO2 SLP317 T10561111 400391056<br><br>
KBUF 070354Z 03007KT 10SM FEW034 SCT220 M05/M11 A3043 RMK AO2 SLP317 T10501111<br><br>
KBUF 070303Z 0703/0724 05008KT P6SM FEW035 BKN250 FM071100 09008KT P6SM BKN120 FM071500 10010G16KT P6SM OVC090 FM071800 12012G18KT 5SM -FZRAPL OVC060 FM072000 13015G25KT P6SM OVC080 WS020/18045KT<br><br>
<br><br>
CYYZ 070400Z 03009KT 15SM OVC220 M06/M14 A3046 RMK CI8 SLP326<br><br>
TAF CYYZ 070238Z 0703/0806 03012KT P6SM FEW230 FM070600 04010KT P6SM BKN230 FM071100 06010KT P6SM BKN009 OVC120 TEMPO 0711/0717 BKN012 OVC100 FM071700 11012G22KT 2SM -SN BKN015 OVC050 PROB30 0719/0720 5SM -PL -SN FM072000 11015G25KT P6SM BKN020 OVC120 FM080100 12012G22KT 21/2SM -RASN BR SCT012 OVC040 PROB30 0801/0803 5SM -FZRA BR FM080300 17015G25KT 4SM -RA BR OVC009 BECMG 0804/0806 22018G28KT RMK NXT FCST BY 070600Z<br><br>
<br><br>
CYOO 070400Z AUTO 04006KT 9SM CLR M08/M13 A3048 RMK SLP330<br><br>
TAF CYOO 070138Z 0702/0714 01008KT P6SM SKC FM071100 05012KT P6SM OVC150 TEMPO 0713/0714 BKN010 OVC120 RMK FCST BASED ON AUTO OBS. NXT FCST BY 070800Z<br><br>
<br><br>
CYTR 070400Z 01012KT 15SM FEW180 M09/M14 A3051 RMK AC1 SLP336<br><br>
TAF CYTR 062330Z 0700/0724 36008KT P6SM FEW040 FM070400 02008KT P6SM SCT200 FM071300 05010G20KT P6SM BKN160 FM071800 09010G20KT P6SM -SN BKN030 OVC080 FM072200 11012G22KT 3SM -SN BKN015 OVC030 RMK NXT FCST BY 070600Z<br><br>
<br><br>
