RETRIEVED AT : Jun 15 2020 01:05 Local <br>
  RETRIEVED AT: Jun 15 2020 05:05 UTC<br><br>
CYSN has no TAF <br><br>
<br><br>
TAF CYHM 142338Z 1500/1524 06012G22KT P6SM SCT250 BECMG 1500/1502 04010KT BECMG 1513/1515 05015KT RMK NXT FCST BY 150600Z<br><br>
<br><br>
KIAG 150245Z 1503/1524 08005KT P6SM SKC FM151500 07010KT P6SM FEW250<br><br>
<br><br>
KBUF 150245Z 1503/1524 06008KT P6SM SKC FM151500 08010KT P6SM FEW250<br><br>
<br><br>
TAF CYYZ 150238Z 1503/1606 06005KT P6SM FEW200 BECMG 1513/1515 13012KT FM160200 03006KT P6SM SKC RMK NXT FCST BY 150600Z<br><br>
<br><br>
TAF CYOO 150138Z 1502/1514 VRB03KT P6SM SKC BECMG 1512/1514 09007KT RMK FCST BASED ON AUTO OBS. NXT FCST BY 150800Z<br><br>
<br><br>
TAF CYTR 142330Z 1500/1524 22005KT P6SM FEW070 FEW220 BECMG 1500/1502 VRB03KT FM151300 07005KT P6SM FEW060 BECMG 1518/1520 22010KT BECMG 1522/1524 VRB03KT RMK NXT FCST BY 150600Z<br><br>
<br><br>
