RETRIEVED AT : Oct 28 2017 22:10 Local <br>
  RETRIEVED AT: Oct 29 2017 02:10 UTC<br><br>
CYSN 290100Z 24005KT 15SM BKN048 OVC120 05/03 A2987 RMK SC6AC2 LAST STFD OBS/NEXT 291100UTC SLP117<br><br>
CYSN has no TAF <br><br>
<br><br>
CYHM 290200Z 27007KT 15SM SCT035 BKN210 03/01 A2987 RMK SC3CI3 SLP121<br><br>
CYHM 290100Z 25005KT 15SM BKN035 OVC210 04/02 A2986 RMK SC6CI2 SLP118<br><br>
TAF CYHM 282338Z 2900/2924 26010KT P6SM BKN030 TEMPO 2900/2909 BKN020 BECMG 2901/2903 VRB03KT FM290900 04005KT 6SM BR SCT008 BKN200 PROB30 2909/2913 1SM BR BKN004 FM291600 35005KT P6SM SCT030 RMK NXT FCST BY 290600Z<br><br>
<br><br>
KIAG 290153Z 27006KT 10SM SCT043 OVC090 06/02 A2987 RMK AO2 SLP119 T00610022<br><br>
KIAG 290053Z 28005KT 10SM OVC035 07/03 A2987 RMK AO2 SLP119 T00670028<br><br>
KIAG 290037Z 28006KT 10SM OVC033 07/03 A2987 RMK AO2 T00670033<br><br>
KIAG 282337Z 2900/2924 26007KT P6SM OVC020 TEMPO 2901/2905 BKN009 FM290500 VRB03KT P6SM OVC025 FM291000 00000KT 6SM -RA OVC025 FM291400 00000KT P6SM OVC020 FM291600 36004KT P6SM OVC015 FM292100 35008KT P6SM OVC015<br><br>
<br><br>
KBUF 290154Z COR 28003KT 10SM -RA SCT012 BKN018 OVC025 06/04 A2987 RMK AO2 SLP118 P0003 T00560039<br><br>
KBUF 290109Z 30006KT 6SM -RA BR BKN010 OVC015 06/04 A2987 RMK AO2 P0002 T00560044<br><br>
KBUF 290054Z VRB04KT 7SM -RA BKN007 OVC012 06/05 A2987 RMK AO2 SLP119 P0003 T00560050<br><br>
KBUF 282337Z 2900/2924 26005KT 5SM RA OVC009 FM290300 29005KT P6SM OVC015 TEMPO 2903/2906 BKN007 FM290800 00000KT 5SM RA OVC025 FM291400 VRB03KT 5SM -RA OVC015 FM291700 35005KT P6SM OVC015 FM292300 34009KT 6SM -RA OVC007<br><br>
<br><br>
CYYZ 290200Z 26009KT 15SM FEW220 BKN250 04/00 A2985 RMK CC2CI5 SLP116<br><br>
CYYZ 290100Z 26007KT 15SM FEW040 FEW210 OVC250 05/01 A2985 RMK SC1CC2CI6 SC TR SLP115<br><br>
TAF CYYZ 282338Z 2900/3006 27009KT P6SM BKN040 BECMG 2901/2903 VRB03KT FM290300 VRB03KT P6SM FEW030 BKN140 PROB30 2909/2914 1SM BR FM291400 33008KT P6SM FEW030 SCT140 BKN200 BECMG 2921/2923 34012KT RMK NXT FCST BY 290300Z<br><br>
<br><br>
CYOO 290200Z AUTO 29006KT 9SM BKN046 OVC210 05/01 A2985 RMK SLP114<br><br>
CYOO 290100Z AUTO 26006KT 9SM BKN046 06/01 A2985 RMK SLP113<br><br>
CYOO has no TAF <br><br>
<br><br>
CYTR 290200Z 27007KT 10SM -SHRA OVC024 07/05 A2986 RMK SC8 SLP113<br><br>
CYTR 290100Z 26006KT 10SM -SHRA BKN026 OVC060 07/05 A2985 RMK SC6SC2 SLP110<br><br>
TAF CYTR 282330Z 2900/2924 28008KT P6SM -SHRA SCT008 OVC025 TEMPO 2900/2903 4SM -SHRA BR BKN008 OVC025 FM290300 28005KT P6SM -SHRA BKN020 OVC060 TEMPO 2903/2915 P6SM NSW SCT020 BKN060 BECMG 2906/2908 02005KT FM291500 02008KT 4SM -SHRA BR SCT008 OVC020 RMK NXT FCST BY 290600Z<br><br>
<br><br>
