RETRIEVED AT : Oct 21 2018 00:06 Local <br>
  RETRIEVED AT: Oct 21 2018 04:06 UTC<br><br>
CYSN has no TAF <br><br>
<br><br>
CYHM 210300Z 32009KT 15SM FEW035 BKN130 04/01 A2981 RMK CF1AC6 CF TR SLP102<br><br>
TAF CYHM 202341Z 2100/2124 30005KT P6SM BKN030 BKN050 TEMPO 2100/2102 P6SM -SHRA BKN020 BKN050 FM210200 32012G22KT P6SM BKN030 TEMPO 2102/2106 BKN020 FM211100 30010G20KT P6SM SCT030 FM211600 29010G20KT P6SM BKN040 BECMG 2122/2124 27010KT RMK NXT FCST BY 210600Z<br><br>
<br><br>
KIAG 210353Z AUTO 35012G18KT 10SM SCT031 BKN041 OVC060 06/00 A2981 RMK AO2 SLP103 T00560000<br><br>
KIAG 210253Z 35012KT 10SM OVC055 06/01 A2977 RMK AO2 RAE16 SLP091 P0000 60013 T00560006 51036<br><br>
KIAG 210250Z 2103/2124 34010G22KT P6SM VCSH OVC045 FM210900 33016G22KT P6SM -SHRASN OVC025 FM211600 31014KT P6SM -SHRASN OVC025 FM212200 28013KT P6SM BKN035 FM212300 28012KT P6SM BKN110<br><br>
<br><br>
KBUF 210354Z 34012KT 10SM FEW037 BKN048 OVC070 05/02 A2980 RMK AO2 SLP096 T00500017<br><br>
KBUF 210254Z 35008KT 10SM OVC037 05/03 A2977 RMK AO2 RAE51 SLP083 P0006 60012 T00500028 53031<br><br>
KBUF 210250Z 2103/2124 35015G22KT P6SM VCSH OVC025 FM210900 33015KT P6SM -SHRA OVC007 FM211100 32014G20KT P6SM -SHRASN OVC007 FM212000 29014G20KT P6SM BKN035 FM212300 28010G17KT P6SM BKN120<br><br>
<br><br>
CYYZ 210300Z 36019G26KT 15SM OVC050 06/M03 A2981 RMK SC8 SLP100<br><br>
TAF CYYZ 210240Z 2103/2206 35015G28KT P6SM BKN050 BKN120 TEMPO 2104/2105 P6SM -SHRA FM210500 35015G25KT P6SM BKN050 FM210800 34012KT P6SM BKN030 TEMPO 2109/2114 P6SM -SHSN FM211500 33010G20KT P6SM BKN030 FM211700 32012G22KT P6SM BKN040 BECMG 2119/2121 29010G20KT RMK NXT FCST BY 210600Z<br><br>
<br><br>
CYOO 210300Z AUTO 33011KT 9SM OVC060 05/M01 A2980 RMK SLP095<br><br>
CYOO has no TAF <br><br>
<br><br>
CYTR 210300Z 36005KT 15SM FEW120 04/M03 A2975 RMK AC1 SLP076<br><br>
TAF CYTR 202330Z 2100/2124 30006KT P6SM FEW040 BKN100 FM210400 34008KT P6SM BKN040 BKN100 FM211400 31010KT P6SM SCT040 SCT200 BECMG 2114/2116 31012G22KT BECMG 2121/2123 28005KT RMK NXT FCST BY 210600Z<br><br>
<br><br>
