RETRIEVED AT : Feb 23 2020 01:06 Local <br>
  RETRIEVED AT: Feb 23 2020 06:06 UTC<br><br>
CYSN has no TAF <br><br>
<br><br>
CYHM 230500Z 24014KT 15SM SKC 02/M04 A3009 RMK SLP198<br><br>
TAF CYHM 230538Z 2306/2406 24010G20KT P6SM SKC FM230900 24010KT P6SM BKN220 FM231500 23010G20KT P6SM SCT030 BKN180 BECMG 2317/2319 22015G25KT FM232100 22015G25KT P6SM SCT030 BECMG 2405/2406 23012KT RMK NXT FCST BY 231200Z<br><br>
<br><br>
KIAG 230553Z AUTO 23012KT 10SM CLR 01/M04 A3012 RMK AO2 SLP212 T00111039 10028 20006 58001<br><br>
KIAG 230453Z AUTO 22011KT 10SM CLR 01/M03 A3012 RMK AO2 SLP213 T00061033 400281022<br><br>
KIAG 230528Z 2306/2406 22011KT P6SM SKC WS020/26035KT FM230900 22011G18KT P6SM FEW250 FM231700 22014G25KT P6SM FEW250 FM240000 20011G22KT P6SM FEW200 FM240300 21016G29KT P6SM SCT120<br><br>
<br><br>
KBUF 230554Z 23012KT 10SM FEW250 03/M08 A3012 RMK AO2 SLP208 T00331078 10039 20017 55004<br><br>
KBUF 230454Z 22010KT 10SM CLR 03/M07 A3012 RMK AO2 SLP208 T00331067 400391006<br><br>
KBUF 230528Z 2306/2406 22010KT P6SM SKC WS020/26035KT FM230900 23012G22KT P6SM FEW250 FM232100 21010G18KT P6SM FEW250 FM240200 21013G23KT P6SM SCT250<br><br>
<br><br>
CYYZ 230500Z 20007KT 15SM SKC 01/M04 A3007 RMK SLP190<br><br>
TAF CYYZ 230538Z 2306/2412 20007KT P6SM SKC FM230900 23010KT P6SM BKN270 FM231500 22010G20KT P6SM SCT030 BKN180 FM232100 22012G22KT P6SM SCT030 FM240300 23010G20KT P6SM FEW020 FM240900 24012KT P6SM SCT020 RMK NXT FCST BY 230900Z<br><br>
<br><br>
CYOO 230500Z AUTO 01002KT 8SM CLR M04/M05 A3008 RMK SLP193<br><br>
TAF CYOO 230141Z 2302/2314 22006KT P6SM SKC BECMG 2305/2307 26007KT FM230900 26007KT P6SM FEW020 SCT270 RMK FCST BASED ON AUTO OBS. NXT FCST BY 230800Z<br><br>
<br><br>
CYTR 230500Z 20004KT 15SM SKC 01/M02 A3009 RMK SLP196<br><br>
TAF CYTR 230530Z 2306/2406 20005KT P6SM SKC FM231200 26008KT P6SM SCT020 BKN220 BECMG 2315/2317 24010G20KT FM240000 22006KT P6SM FEW020 RMK NXT FCST BY 231200Z<br><br>
<br><br>
