RETRIEVED AT : May 16 2020 04:05 Local <br>
  RETRIEVED AT: May 16 2020 08:05 UTC<br><br>
CYSN has no TAF <br><br>
<br><br>
CYHM 160700Z 28003KT 7SM R12/0800V1400FT/U SKC 07/07 A3003 RMK SLP173<br><br>
TAF AMD CYHM 160717Z 1607/1706 VRB03KT 6SM BR SCT004 TEMPO 1607/1614 1/2SM FG BKN004 FM161400 05006KT P6SM SCT008 FM161600 05010KT P6SM SCT030 FM170100 06005KT P6SM SKC RMK NXT FCST BY 161200Z<br><br>
<br><br>
KIAG 160753Z AUTO 34006KT 10SM CLR 09/08 A3004 RMK AO2 SLP174 T00940083<br><br>
KIAG 160653Z AUTO 33004KT 10SM CLR 09/08 A3002 RMK AO2 SLP168 T00940083<br><br>
KIAG 160759Z 1608/1706 34006KT P6SM SCT250 FM160930 34006KT 4SM BR SCT007 TEMPO 1610/1612 2SM BR BKN007 FM161300 VRB03KT P6SM BKN015 FM161600 02006KT P6SM SCT040 FM170200 06006KT P6SM SKC<br><br>
<br><br>
KBUF 160754Z 15003KT 1/4SM R23/2200VP6000FT FG VV002 08/07 A3005 RMK AO2 SLP176 T00780067<br><br>
KBUF 160747Z 00000KT 1/8SM R23/2000V6000FT FG VV002 08/07 A3004 RMK AO2 T00780067<br><br>
KBUF 160706Z 20003KT 1/8SM R23/1200V6000FT FG VV001 08/07 A3003 RMK AO2 T00780072<br><br>
KBUF 160654Z 00000KT 1/4SM R23/1000FT FG VV001 08/07 A3003 RMK AO2 SLP168 T00830072<br><br>
KBUF 160615Z 21004KT 1/4SM R23/1000V1800FT FG VV001 08/08 A3002 RMK AO2 T00830078<br><br>
KBUF 160540Z 1606/1706 VRB03KT 1/4SM FG VV002 FM161300 VRB03KT 3SM BR BKN007 FM161400 VRB03KT P6SM BKN015 FM161600 01006KT P6SM SCT040 FM162300 04006KT P6SM SKC<br><br>
<br><br>
CYYZ 160730Z CCA 35010G16KT 2 1/2SM BR BKN003 08/08 A3004 RMK SF5 SLP177<br><br>
CYYZ 160724Z 35010G16KT 4SM BR BKN004 08/07 A3004 RMK SF5 SLP176<br><br>
CYYZ 160715Z 35011KT 10SM FEW008 08/08 A3004 RMK SF2 SLP175<br><br>
CYYZ 160700Z 35010KT 15SM SKC 09/08 A3003 RMK SLP174<br><br>
TAF AMD CYYZ 160746Z 1607/1712 36010KT 3/4SM BR BKN003 TEMPO 1607/1611 6SM BR BKN005 FM161100 36010KT 2SM BR BKN005 TEMPO 1611/1613 6SM BR BKN010 FM161300 36008KT P6SM FEW005 SCT015 FM161900 13008KT P6SM FEW040 BECMG 1701/1703 07007KT RMK NXT FCST BY 160900Z<br><br>
<br><br>
CYOO 160700Z AUTO 34013KT 9SM OVC006 09/09 A3001 RMK SLP167<br><br>
CYOO 160609Z AUTO 34008KT 9SM BKN006 09/09 A3000 RMK SLP163<br><br>
TAF CYOO 160738Z 1608/1620 34006KT 2SM BR BKN005 TEMPO 1608/1614 P6SM NSW SCT005 FM161400 34006KT P6SM SCT030 BECMG 1618/1620 17005KT RMK FCST BASED ON AUTO OBS. NXT FCST BY 161400Z<br><br>
<br><br>
CYTR 160700Z 31004KT 15SM FEW039 09/08 A3000 RMK SC1 SLP160<br><br>
CYTR 160629Z 30005KT 15SM FEW039 10/08 A2999 RMK SC1 SLP157<br><br>
TAF CYTR 160530Z 1606/1706 VRB03KT 6SM BR SKC TEMPO 1606/1612 2SM BR PROB30 1606/1610 1/2SM FG VV003 FM161200 34005KT P6SM FEW030 FM161700 20008KT P6SM BKN030 FM170200 VRB03KT P6SM FEW030 RMK NXT FCST BY 161200Z<br><br>
<br><br>
