RETRIEVED AT : Oct 16 2017 16:10 Local <br>
  RETRIEVED AT: Oct 16 2017 20:10 UTC<br><br>
CYSN 162000Z 34008KT 300V010 15SM FEW035 10/01 A3023 RMK SC1 SLP240<br><br>
CYSN 161900Z 31006KT 290V360 15SM BKN046 09/02 A3022 RMK SC5 CU ASOCTD SLP237<br><br>
TAF CYSN 161939Z 1620/1701 31008G18KT P6SM BKN040 BECMG 1620/1622 SCT040 FM170000 31011KT P6SM SKC RMK NXT FCST WILL BE ISSUED AT 171245Z<br><br>
<br><br>
CYHM 162000Z 29013G20KT 15SM FEW048 10/M01 A3022 RMK CU2 SLP239<br><br>
CYHM 161900Z 32009G17KT 280V360 15SM FEW044 10/M01 A3021 RMK CU2 SLP238<br><br>
TAF CYHM 161738Z 1618/1718 32010KT P6SM BKN050 BKN240 TEMPO 1618/1624 SCT050 SCT240 FM170000 30008KT P6SM FEW030 FM170300 VRB03KT P6SM SKC BECMG 1708/1710 23008KT FM171200 22008G18KT P6SM SKC BECMG 1713/1715 23015G25KT RMK NXT FCST BY 170000Z<br><br>
<br><br>
KIAG 161953Z 29008G16KT 10SM BKN038 09/00 A3022 RMK AO2 SLP241 T00940000 $<br><br>
KIAG 161853Z 31011KT 10SM BKN038 09/00 A3021 RMK AO2 SLP238 T00890000 $<br><br>
KIAG 161727Z 1618/1718 32013KT P6SM BKN035 FM162200 31010KT P6SM SCT050 FM170000 VRB03KT P6SM FEW250 FM170500 18004KT P6SM FEW250 FM171400 22011G20KT P6SM SCT250<br><br>
<br><br>
KBUF 161954Z 31010KT 10SM FEW035 SCT047 10/00 A3022 RMK AO2 SLP237 T01000000<br><br>
KBUF 161854Z 29012KT 10SM FEW035 BKN047 08/00 A3021 RMK AO2 SLP233 T00830000<br><br>
