RETRIEVED AT : May 12 2018 01:05 Local <br>
  RETRIEVED AT: May 12 2018 05:05 UTC<br><br>
CYSN has no TAF <br><br>
<br><br>
CYHM 120400Z 04004KT 15SM -RA OVC095 08/01 A3013 RMK AC8 PCPN VRY LGT SLP210<br><br>
TAF CYHM 112341Z 1200/1224 06010KT P6SM -RA OVC100 FM120500 06008KT P6SM -RA FEW030 OVC050 TEMPO 1205/1211 5SM RA OVC030 FM121100 04012KT P6SM OVC025 FM121700 05015KT P6SM FEW030 BKN250 RMK NXT FCST BY 120600Z<br><br>
<br><br>
KIAG 120453Z AUTO 08004KT 10SM OVC085 10/M02 A3013 RMK AO2 SLP209 T01001017 401330039<br><br>
KIAG 120353Z AUTO 09004KT 10SM BKN090 10/M02 A3013 RMK AO2 SLP209 T01001017<br><br>
KIAG 120310Z 1203/1224 09004KT P6SM OVC100 FM120500 08005KT 6SM -SHRA OVC045 FM121000 08006KT 6SM -SHRA OVC030 FM121400 05007KT P6SM OVC020 FM121700 04008KT P6SM BKN040 FM122100 06006KT P6SM BKN250<br><br>
<br><br>
KBUF 120454Z 07007KT 10SM BKN090 OVC140 11/M02 A3013 RMK AO2 SLP204 T01111017 401500056<br><br>
KBUF 120354Z 05008KT 10SM BKN090 OVC140 11/M01 A3013 RMK AO2 RAE37 SLP204 P0000 T01111011<br><br>
KBUF 120310Z 1203/1224 05006KT P6SM -SHRA BKN090 FM120500 10004KT 6SM -SHRA OVC060 FM120900 10006KT 6SM -SHRA OVC025 FM121500 05008KT P6SM OVC012 FM122000 05005KT P6SM BKN050 FM122200 05005KT P6SM BKN250<br><br>
<br><br>
CYYZ 120400Z VRB02KT 15SM BKN089 09/M06 A3014 RMK AC7 SLP212<br><br>
TAF CYYZ 120239Z 1203/1306 VRB03KT P6SM OVC120 BECMG 1204/1206 02005KT OVC080 FM120700 02005KT P6SM OVC040 TEMPO 1207/1211 P6SM -SHRA FM121100 04007KT P6SM FEW015 OVC030 TEMPO 1211/1214 P6SM -SHRA BKN015 OVC030 FM121400 06010KT P6SM BKN030 FM121700 09008KT P6SM FEW040 BECMG 1218/1220 12008KT BECMG 1301/1303 35005KT RMK NXT FCST BY 120600Z<br><br>
<br><br>
CYOO 120400Z AUTO 04003KT 9SM BKN220 BKN250 05/02 A3014 RMK SLP212<br><br>
CYOO has no TAF <br><br>
<br><br>
CYTR 120400Z 30002KT 15SM OVC250 06/M01 A3017 RMK CI8 SLP218<br><br>
TAF CYTR 112330Z 1200/1224 22008KT P6SM FEW160 OVC220 BECMG 1200/1202 VRB03KT FM120900 VRB03KT P6SM BKN100 BECMG 1214/1216 09008KT SCT180 RMK NXT FCST BY 120600Z<br><br>
<br><br>
