RETRIEVED AT : May 06 2018 20:05 Local <br>
  RETRIEVED AT: May 07 2018 00:05 UTC<br><br>
CYSN 062340Z 32007KT 310V020 8SM -SHRA SCT038 OVC075 10/07 A2998 RMK SC4AC4 CVCTV CLD EMBD SLP155<br><br>
CYSN 062300Z 08003KT 020V090 15SM SCT059 OVC110 10/06 A2995 RMK SC3AC5 SLP145<br><br>
CYSN 062221Z 33010KT 15SM -SHRA BKN058 OVC070 09/05 A2995 RMK SC5AC3 CVCTV CLD EMBD SLP144<br><br>
TAF CYSN 061939Z 0620/0701 02010KT P6SM SCT140 OVC240 FM070000 32010KT P6SM BKN050 TEMPO 0700/0701 P6SM -SHRA RMK NXT FCST WILL BE ISSUED AT 071245Z<br><br>
<br><br>
CYHM 062352Z VRB02KT 15SM -SHRA BKN054 OVC074 10/09 A2999 RMK SC6AC2 SLP160<br><br>
CYHM 062339Z 18003KT 15SM BKN059 OVC073 10/09 A3000 RMK SC6AC2 SLP162<br><br>
CYHM 062300Z 11006KT 6SM -SHRA BR FEW042 FEW054 BKN073 OVC250 10/09 A2997 RMK CU1SC2AC5CI1 CU TR SLP154<br><br>
CYHM 062252Z 08008KT 5SM -SHRA BR FEW042CB SCT054 OVC074 10/08 A2997 RMK CB1SC2AC5 SLP154<br><br>
CYHM 062220Z 36005KT 12SM -TSRA FEW040CB OVC054 11/07 A2998 RMK CB2SC6 VIS S-SW 3 SLP158<br><br>
CYHM 062212Z 33010KT 15SM -SHRA FEW040 OVC054 12/06 A2998 RMK CU2SC6 PRESRR SLP158<br><br>
TAF CYHM 062338Z 0700/0724 03008KT P6SM -SHRA SCT040 OVC080 TEMPO 0700/0705 5SM -SHRA BR FM070500 04010KT P6SM SCT020 BKN040 TEMPO 0705/0710 BKN015 OVC030 FM071200 05010KT P6SM FEW050 BECMG 0714/0716 05010G20KT FM072000 05012KT P6SM SKC RMK NXT FCST BY 070600Z<br><br>
<br><br>
KIAG 062353Z 35008KT 10SM BKN060 OVC075 14/04 A2997 RMK AO2 SLP151 T01390044 10222 20133 53020<br><br>
KIAG 062253Z 03014G17KT 10SM BKN075 OVC110 19/03 A2993 RMK AO2 SLP136 T01890028<br><br>
KIAG 062332Z 0700/0724 01010KT P6SM -SHRA BKN060 FM070300 34004KT P6SM VCSH BKN070 FM070500 02008KT P6SM BKN060 FM070900 03011KT P6SM SCT045 FM071700 05011KT P6SM SKC FM072100 05008KT P6SM SKC<br><br>
<br><br>
KBUF 062354Z 36008KT 10SM SCT049 OVC080 17/05 A2995 RMK AO2 SLP142 T01670050 10222 20167 53018 $<br><br>
KBUF 062254Z 03010KT 10SM FEW050 SCT070 BKN110 18/05 A2993 RMK AO2 SLP133 T01780050 $<br><br>
KBUF 062332Z 0700/0724 03010KT P6SM -SHRA BKN070 FM070300 34004KT P6SM VCSH BKN070 FM070500 03007KT P6SM BKN060 FM070900 03010KT P6SM SCT040 FM071700 05010G16KT P6SM SKC FM072300 04008KT P6SM SKC<br><br>
<br><br>
CYYZ 062347Z 00000KT 15SM FEW070 BKN100 15/09 A2997 RMK AC2AC5 SLP151 DENSITY ALT 700FT<br><br>
CYYZ 062300Z 01004KT 15SM -RA SCT060 BKN080 15/09 A2996 RMK SC4AC3 SLP149 DENSITY ALT 700FT<br><br>
TAF CYYZ 062338Z 0700/0806 01010KT P6SM -SHRA OVC070 FM070600 03010KT P6SM BKN040 FM071000 03008KT P6SM FEW040 BECMG 0713/0715 08012KT FM071800 12010KT P6SM SKC BECMG 0800/0802 20005KT RMK NXT FCST BY 070300Z<br><br>
<br><br>
CYOO 062300Z AUTO 24005KT 9SM -RA OVC085 16/07 A2995 RMK SLP145 DENSITY ALT 600FT<br><br>
CYOO 062256Z AUTO 23004KT 9SM -RA OVC080 16/07 A2995 RMK SLP145 DENSITY ALT 600FT<br><br>
CYOO has no TAF <br><br>
<br><br>
CYTR 062300Z 00000KT 15SM -SHRA OVC078 16/08 A2993 RMK AC8 PCPN VRY LGT SLP137<br><br>
CYTR 062217Z 04002KT 15SM -SHRA OVC072 18/06 A2993 RMK AC8 SLP137<br><br>
TAF CYTR 062330Z 0700/0724 VRB03KT P6SM OVC070 TEMPO 0700/0704 P6SM -SHRA SCT040 OVC070 BECMG 0702/0704 03010KT FM070400 03010KT P6SM SCT060 FM070700 03008KT P6SM SKC BECMG 0717/0718 20008KT FM072000 25005KT P6SM SKC RMK NXT FCST BY 070600Z<br><br>
<br><br>
