RETRIEVED AT : Sep 08 2017 13:10 Local <br>
  RETRIEVED AT: Sep 08 2017 17:10 UTC<br><br>
CYSN 081700Z 30006KT 260V360 14SM SCT025 SCT080 17/11 A3014 RMK CU3AC1 SLP208 DENSITY ALT 500FT<br><br>
CYSN 081600Z 30007KT 280V010 15SM SCT020 BKN078 16/11 A3013 RMK CU4AC2 SLP206<br><br>
TAF CYSN 081238Z 0813/0901 24005KT P6SM BKN050 BECMG 0813/0815 31008KT RMK NXT FCST BY 082000Z<br><br>
<br><br>
CYHM 081700Z 33003KT 260V040 15SM VCSH SCT028 BKN042 BKN091 16/08 A3015 RMK CU4SC2AC1 SLP213 DENSITY ALT 900FT<br><br>
CYHM 081600Z 30006KT 240V310 15SM SCT024 BKN049 15/10 A3014 RMK CU4SC3 SLP211<br><br>
CYHM 081517Z 31005KT 15SM -SHRA FEW020 BKN059 BKN069 14/10 A3013 RMK CU1SC5AC1 SLP208<br><br>
TAF CYHM 081138Z 0812/0912 24006KT P6SM -RA BKN050 BKN100 TEMPO 0812/0814 P6SM -SHRA BKN020 OVC040 FM081400 29008KT P6SM FEW020 BKN040 TEMPO 0814/0822 P6SM -SHRA PROB30 0817/0821 2SM TSRA BR SCT008 BKN020 BKN040CB FM082300 35008KT P6SM BKN040 FM090500 01006KT P6SM FEW040 RMK NXT FCST BY 081800Z<br><br>
<br><br>
KIAG 081653Z 34008KT 10SM SCT049 BKN075 17/09 A3014 RMK AO2 SLP208 T01720094<br><br>
KIAG 081553Z 33008KT 10SM SCT018 BKN032 17/12 A3013 RMK AO2 RAB04E37 SLP204 P0000 T01720117<br><br>
KIAG 081506Z 0815/0912 31009KT P6SM -SHRA BKN020 TEMPO 0815/0817 5SM -SHRA FM081700 31009KT P6SM VCSH BKN035 FM082000 32008KT P6SM BKN045 FM090500 01005KT P6SM SCT025<br><br>
<br><br>
KBUF 081654Z VRB04KT 10SM FEW017 SCT055 BKN075 17/12 A3014 RMK AO2 RAE27 SLP208 MDT CU DSNT SE-S NW SHRA DSNT NE-SE-S P0001 T01670122<br><br>
KBUF 081554Z 30008KT 10SM -RA SCT019 BKN039 BKN060 15/11 A3013 RMK AO2 RAB48 SLP203 MDT CU DSNT E-S-SW PCPN VRY LGT P0000 T01500111<br><br>
KBUF 081506Z 0815/0912 33006KT P6SM VCSH BKN045 OVC060 FM081700 28008KT P6SM VCSH BKN035 FM082000 29008KT P6SM VCSH BKN045 FM090200 36005KT P6SM BKN045 FM090700 02004KT P6SM BKN025<br><br>
<br><br>
CYYZ 081700Z 32010G18KT 300V360 12SM -SHRA SCT030 BKN055 15/10 A3014 RMK CU3SC4 SLP209<br><br>
CYYZ 081600Z 01013G18KT 15SM SCT030 BKN040 BKN075 16/09 A3012 RMK CU3SC3AC1 SLP204 DENSITY ALT 600FT<br><br>
TAF CYYZ 081438Z 0815/0918 34012KT P6SM BKN025 BKN070 TEMPO 0815/0817 BKN020 BKN070 FM081800 34015KT P6SM BKN040 FM082300 34012KT P6SM FEW040 FM090600 35010KT P6SM SKC RMK NXT FCST BY 081800Z<br><br>
<br><br>
CYOO 081700Z AUTO 34006KT 290V020 9SM BKN029 16/09 A3013 RMK SLP206<br><br>
CYOO 081600Z AUTO 34012G17KT 9SM FEW027 16/09 A3011 RMK SLP200<br><br>
CYOO has no TAF <br><br>
<br><br>
CYTR 081700Z 34007KT 15SM BKN025 16/10 A3011 RMK SC7 SLP197<br><br>
CYTR 081600Z 29008KT 15SM OVC021 15/10 A3010 RMK SC8 SLP193<br><br>
TAF CYTR 081130Z 0812/0912 VRB03KT P6SM FEW020 SCT060 BKN250 TEMPO 0812/0813 5SM -SHRA BR BKN020 OVC060 FM081300 31010KT P6SM SCT020 BKN040 TEMPO 0813/0822 5SM -SHRA BR BKN020 OVC040 PROB30 0815/0822 VRB15G25KT 2SM TSRA BR BKN008 OVC040CB FM082200 35012KT P6SM BKN040 BECMG 0901/0903 34005KT RMK NXT FCST BY 081800Z<br><br>
<br><br>
