RETRIEVED AT : May 04 2018 23:41 Local <br>
  RETRIEVED AT: May 05 2018 03:41 UTC<br><br>
CYSN has no TAF <br><br>
<br><br>
CYHM 050300Z 20005KT 15SM FEW250 08/05 A2999 RMK CI1 CI TR SLP159<br><br>
CYHM 050200Z 27007KT 15SM FEW250 09/06 A2998 RMK CI1 SLP154<br><br>
TAF AMD CYHM 050318Z 0503/0524 22005KT P6SM FEW250 FM050600 22006KT P6SM SCT080 FM051000 22008KT P6SM SKC BECMG 0513/0515 23012G22KT FM051800 24010G20KT P6SM BKN070 RMK NXT FCST BY 050600Z<br><br>
<br><br>
KIAG 050253Z 29009KT 10SM CLR 11/04 A2999 RMK AO2 SLP154 T01110044 51051<br><br>
KIAG 050153Z 29015KT 10SM CLR 11/04 A2997 RMK AO2 PK WND 28026/0100 SLP149 T01110044<br><br>
KIAG 050238Z 0503/0524 27012KT P6SM SCT250 FM050500 25009KT P6SM FEW250 FM051300 23011G22KT P6SM FEW250 FM051500 23015G32KT P6SM FEW250 FM052300 21008KT P6SM SCT080<br><br>
<br><br>
KBUF 050254Z 25007KT 200V280 10SM FEW150 BKN280 11/06 A3000 RMK AO2 SLP160 T01110056 51049<br><br>
KBUF 050154Z 25008KT 10SM FEW040 FEW140 BKN280 11/06 A2998 RMK AO2 SLP152 T01060061<br><br>
KBUF 050238Z 0503/0524 27010KT P6SM SCT250 FM050500 25009KT P6SM FEW250 FM051300 23010G22KT P6SM FEW250 FM051500 23015G32KT P6SM FEW250 FM052300 22009KT P6SM SCT250<br><br>
<br><br>
CYYZ 050300Z 31013G18KT 15SM SKC 10/05 A2995 RMK SLP147<br><br>
CYYZ 050200Z 31015KT 15SM FEW240 10/05 A2994 RMK CI1 SLP144<br><br>
TAF CYYZ 050238Z 0503/0606 31010G20KT P6SM FEW240 BECMG 0503/0505 27012KT FM050600 27012KT P6SM SCT080 FM051000 27010KT P6SM SKC FM051900 27015KT P6SM SCT070 BECMG 0600/0602 35008KT SKC RMK NXT FCST BY 050600Z<br><br>
<br><br>
CYOO 050300Z AUTO 29010G15KT 9SM CLR 09/04 A2994 RMK SLP142<br><br>
CYOO 050200Z AUTO 30013G24KT 9SM CLR 09/04 A2991 RMK SLP131<br><br>
CYOO has no TAF <br><br>
<br><br>
CYTR 050300Z 30018G25KT 15SM SKC 09/04 A2986 RMK PRESRR SLP114<br><br>
CYTR 050200Z 30028G35KT 15SM FEW026 09/04 A2978 RMK SC2 PRESRR SLP088<br><br>
TAF AMD CYTR 050008Z 0500/0524 27025G40KT P6SM FEW020 SCT120 BKN250 TEMPO 0500/0503 27040G55KT BKN020 BKN120 FM050300 29020G30KT P6SM SCT120 BECMG 0503/0505 28015KT BECMG 0506/0508 26008KT FM051500 24012G22KT P6SM FEW060 FM051900 24012G22KT P6SM BKN060 RMK NXT FCST BY 050600Z<br><br>
<br><br>
