RETRIEVED AT : Feb 29 2020 11:05 Local <br>
  RETRIEVED AT: Feb 29 2020 16:05 UTC<br><br>
CYSN 291500Z 32010KT 15SM SCT029 SCT080 BKN220 M08/M14 A2996 RMK SC3AC1CI1 SLP154<br><br>
TAF CYSN 291340Z 2914/0102 30008KT P6SM BKN030 BKN180 TEMPO 2914/2918 4SM -SN BKN020 BKN180 BECMG 2916/2918 27012G22KT FM291800 27012G22KT P6SM BKN030 BKN070 TEMPO 2918/0102 4SM -SN BKN020 BKN070 RMK NXT FCST BY 292000Z<br><br>
<br><br>
CYHM 291500Z 28011KT 15SM FEW023 FEW078 BKN087 BKN250 M09/M15 A2994 RMK CU1AC2AC4CI1 CU TR SLP156<br><br>
TAF CYHM 291138Z 2912/0112 29008KT P6SM BKN030 BKN080 FM291700 28010G20KT P6SM -SHSN BKN030 TEMPO 2917/2924 5SM -SHSN OVC020 FM010000 27010KT P6SM SCT040 FM011000 25008KT P6SM BKN040 RMK NXT FCST BY 291800Z<br><br>
<br><br>
KIAG 291600Z 31010KT 9SM -SN BKN030 M09/M14 A2996 RMK AO2 P0000 T10891139<br><br>
KIAG 291553Z 30011KT 5SM -SN BLSN BKN014 M09/M13 A2996 RMK AO2 SLP167 P0000 T10891133<br><br>
KIAG 291453Z 32008KT 5SM -SN BKN014 M09/M13 A2995 RMK AO2 UPB38E40SNB1357E16B40 SLP162 P0000 60000 T10941133 51020<br><br>
KIAG 291504Z 2915/0112 32008KT 5SM -SN BKN014 FM291700 29013G19KT P6SM VCSH OVC030 FM292000 29014G20KT P6SM BKN030 FM010100 27013KT P6SM BKN035<br><br>
<br><br>
KBUF 291554Z 28010KT 10SM BKN025 BKN035 M08/M14 A2996 RMK AO2 SNE44 SLP156 P0000 T10781139 $<br><br>
KBUF 291510Z 27008KT 3SM R23/3500VP6000FT -SN BKN019 BKN027 OVC033 M08/M13 A2994 RMK AO2 TWR VIS 5 P0000 T10831128 $<br><br>
KBUF 291502Z 29010KT 1 3/4SM -SN BKN019 BKN024 OVC028 M09/M13 A2994 RMK AO2 TWR VIS 2 P0000 T10891133 $<br><br>
KBUF 291454Z 30010KT 5SM -SN FEW018 BKN024 BKN040 M08/M14 A2994 RMK AO2 SNE00B18 SLP151 P0000 60000 T10831139 51020 $<br><br>
KBUF 291423Z 28007KT 9SM -SN BKN018 BKN038 BKN200 M09/M13 A2994 RMK AO2 SNE00B18 P0000 T10891133 $<br><br>
KBUF 291504Z 2915/0112 30010KT 6SM -SN BKN024 BKN040 FM292000 27010KT P6SM VCSH SCT025 BKN035 FM010000 27014KT P6SM BKN035<br><br>
<br><br>
CYYZ 291500Z 31003KT 15SM FEW100 FEW260 M12/M17 A2995 RMK AC1CI1 SLP155<br><br>
TAF CYYZ 291439Z 2915/0118 VRB03KT P6SM FEW110 SCT260 BECMG 2915/2916 33008KT FM291700 29012G22KT P6SM BKN030 BKN080 TEMPO 2917/2924 5SM -SHSN BKN020 OVC030 BECMG 2922/2924 31012KT FM010000 31012KT P6SM BKN030 FM010800 31006KT P6SM SCT040 FM011500 21010KT P6SM BKN040 RMK NXT FCST BY 291800Z<br><br>
<br><br>
CYOO 291500Z AUTO 34009KT 9SM BKN120 BKN140 M13/M18 A2994 RMK SLP152<br><br>
TAF CYOO 291340Z 2914/0102 30006KT P6SM SCT060 BKN080 TEMPO 2914/2917 P6SM -SN BKN030 BKN080 BECMG 2914/2916 31010G20KT FM291700 30010G20KT P6SM -SHSN BKN030 BKN080 TEMPO 2917/2924 5SM -SHSN BKN020 OVC030 FM010000 31010KT P6SM BKN030 BKN070 RMK FCST BASED ON AUTO OBS. NXT FCST BY 292000Z<br><br>
<br><br>
CYTR 291500Z 28008KT 15SM FEW070 SCT250 M13/M17 A2993 RMK AC1CI4 SLP142<br><br>
TAF CYTR 291130Z 2912/0112 31005KT P6SM FEW070 FM291700 29010KT P6SM SCT030 BKN080 BECMG 0100/0102 30005KT FM010500 VRB03KT P6SM SKC RMK NXT FCST BY 291800Z<br><br>
<br><br>
