RETRIEVED AT : Sep 08 2017 16:10 Local <br>
  RETRIEVED AT: Sep 08 2017 20:10 UTC<br><br>
CYSN 082000Z 30005KT 15SM FEW024TCU SCT068 BKN120 17/11 A3016 RMK TCU2AC2AC2 SLP216 DENSITY ALT 400FT<br><br>
CYSN 081900Z 29006KT 15SM FEW030TCU SCT120 18/11 A3016 RMK TCU2AC2 TCU SW QUAD SLP214 DENSITY ALT 500FT<br><br>
TAF CYSN 081938Z 0820/0901 32007KT P6SM BKN050 TEMPO 0820/0821 P6SM -SHRA RMK NXT FCST WILL BE ISSUED AT 091245Z<br><br>
<br><br>
CYHM 082000Z 05005KT 340V070 15SM VCSH FEW030TCU SCT050 BKN067 16/11 A3018 RMK TCU2SC1AC3 SLP223 DENSITY ALT 800FT<br><br>
CYHM 081930Z 32006KT 15SM VCSH SCT028TCU BKN077 16/10 A3018 RMK TCU4AC2 SLP222 DENSITY ALT 800FT<br><br>
CYHM 081900Z 36004KT 280V020 15SM -SHRA SCT035TCU BKN078 16/09 A3018 RMK TCU4AC2 SLP222 DENSITY ALT 800FT<br><br>
CYHM 081849Z 28003KT 250V340 15SM -SHRA SCT037TCU BKN065 16/10 A3018 RMK TCU3SC4 SLP222 DENSITY ALT 800FT<br><br>
TAF CYHM 081738Z 0818/0918 33008KT P6SM FEW020 BKN040 TEMPO 0818/0824 P6SM -SHRA PROB30 0818/0823 2SM TSRA BR SCT008 BKN020 BKN040CB FM090200 01008KT P6SM SCT040 FM091500 02012KT P6SM SCT040 RMK NXT FCST BY 090000Z<br><br>
<br><br>
KIAG 081953Z 35009KT 10SM BKN039 18/08 A3017 RMK AO2 SLP217 T01780083<br><br>
KIAG 081853Z 31008KT 10SM BKN032 19/08 A3016 RMK AO2 SLP213 T01890083<br><br>
KIAG 081733Z 0818/0918 34008KT P6SM VCSH SCT040 BKN060 FM082200 32004KT P6SM BKN045 FM090800 36004KT P6SM BKN025 FM091200 36004KT P6SM BKN035 FM091400 01006KT P6SM SCT130<br><br>
<br><br>
KBUF 081954Z 17006KT 10SM BKN032 BKN050 BKN080 15/12 A3017 RMK AO2 SLP218 MDT CU OHD-ALQDS SHRA DSNT E-S AND SW-W T01500117 PNO<br><br>
KBUF 081854Z COR 15009KT 10SM FEW017 BKN041 BKN070 14/11 A3017 RMK AO2 RAB11E41 SLP217 MDT CU DSNT ALQDS SHRA DSNT SE P0000 T01390111 $<br><br>
KBUF 081733Z 0818/0918 VRB04KT P6SM VCSH SCT040 BKN060 FM082300 32004KT P6SM BKN045 FM091000 VRB03KT P6SM BKN025 FM091300 36004KT P6SM BKN025 FM091500 36006KT P6SM SCT030<br><br>
<br><br>
CYYZ 082000Z 01012G20KT 15SM BKN045 BKN050 18/08 A3017 RMK CU5SC2 SLP218 DENSITY ALT 900FT<br><br>
CYYZ 081900Z 33012KT 15SM BKN045 BKN055 BKN080 18/08 A3016 RMK CU5SC1AC1 SLP215 DENSITY ALT 800FT<br><br>
TAF CYYZ 081738Z 0818/0924 34015KT P6SM BKN040 FM090000 34012KT P6SM FEW040 FM090600 35010KT P6SM SKC FM091500 01015KT P6SM FEW040 FM092300 35010KT P6SM SKC RMK NXT FCST BY 082100Z<br><br>
<br><br>
CYOO 082000Z AUTO 34012G19KT 4SM HZ BKN060 17/08 A3016 RMK SLP216 DENSITY ALT 500FT<br><br>
CYOO 081959Z AUTO 33012G19KT 4SM HZ BKN060 17/08 A3016 RMK SLP216 DENSITY ALT 500FT<br><br>
CYOO 081955Z AUTO 31015KT 7SM SCT060 17/08 A3016 RMK SLP215 DENSITY ALT 500FT<br><br>
CYOO 081946Z AUTO 34014KT 5SM HZ CLR 17/07 A3016 RMK SLP215<br><br>
CYOO 081900Z AUTO 36011G19KT 9SM FEW036 17/07 A3015 RMK SLP214 DENSITY ALT 500FT<br><br>
CYOO has no TAF <br><br>
<br><br>
CYTR 082000Z 32008KT 15SM BKN043 BKN094 18/09 A3013 RMK SC6AC1 SLP203<br><br>
CYTR 081900Z 01006KT 15SM SCT036 SCT081 SCT200 18/10 A3012 RMK SC4AC1CI1 MDT CU TOPS NE SLP202<br><br>
TAF CYTR 081730Z 0818/0918 34010KT P6SM BKN025 TEMPO 0818/0820 BKN020 FM082300 35005KT P6SM BKN040 FM091500 36010KT P6SM FEW040 RMK NXT FCST BY 090000Z<br><br>
<br><br>
