RETRIEVED AT : Apr 03 2020 22:05 Local <br>
  RETRIEVED AT: Apr 04 2020 02:05 UTC<br><br>
CYSN 040100Z 02005KT 15SM OVC019 07/07 A3004 RMK SC8 LAST STFD OBS/NEXT 04 1115 UTC SLP176<br><br>
CYSN has no TAF <br><br>
<br><br>
CYHM 040100Z 04011KT 15SM OVC023 08/04 A3003 RMK SC8 SLP176<br><br>
TAF CYHM 032338Z 0400/0424 05006KT P6SM BKN030 TEMPO 0400/0404 6SM -SHRA BR BKN012 OVC030 PROB30 0402/0404 5SM -SHRA BR OVC008 FM040400 03005KT P6SM BKN012 OVC030 TEMPO 0404/0409 SCT012 BKN030 PROB30 0404/0409 5SM -DZ BR OVC008 FM040900 VRB03KT 6SM BR FEW002 BKN008 OVC030 PROB30 0409/0414 03005KT 1SM -DZ BR BKN002 OVC008 FM041400 VRB03KT P6SM BKN012 BKN030 FM041700 VRB03KT P6SM BKN025 FM042200 VRB03KT P6SM BKN030 BKN080 RMK NXT FCST BY 040600Z<br><br>
<br><br>
KIAG 040153Z AUTO 34003KT 10SM -RA BKN050 OVC075 06/04 A3003 RMK AO2 SLP181 P0002 T00560044<br><br>
KIAG 040053Z AUTO 01004KT 10SM -RA BKN031 BKN043 OVC055 06/04 A3003 RMK AO2 SLP180 P0000 T00610044<br><br>
KIAG 040201Z 0402/0424 VRB04KT 6SM -RA SCT015 BKN050 TEMPO 0402/0404 SCT007 BKN015 FM040400 VRB03KT 3SM BR OVC003 FM041300 VRB03KT 6SM BR OVC007 FM041600 VRB03KT P6SM BKN015 FM042000 VRB03KT P6SM BKN035<br><br>
<br><br>
KBUF 040201Z 23003KT 8SM -RA FEW006 SCT013 OVC047 06/04 A3004 RMK AO2 P0000 T00560044<br><br>
KBUF 040154Z 00000KT 9SM -RA FEW013 FEW025 OVC055 06/04 A3004 RMK AO2 SLP177 P0002 T00560044<br><br>
KBUF 040139Z 24003KT 7SM -RA FEW013 SCT027 OVC055 06/04 A3004 RMK AO2 P0001 T00560039<br><br>
KBUF 040120Z 24004KT 7SM -RA SCT014 BKN028 OVC070 06/04 A3004 RMK AO2 P0000 T00560039<br><br>
KBUF 040054Z 22004KT 8SM -RA SCT013 SCT027 OVC035 06/03 A3003 RMK AO2 SLP175 P0002 T00560033<br><br>
KBUF 040042Z 22003KT 8SM -RA SCT013 BKN024 OVC033 06/03 A3003 RMK AO2 P0001 T00560033<br><br>
KBUF 040200Z 0402/0424 VRB04KT 5SM -RA BR SCT015 BKN025 OVC050 TEMPO 0402/0404 BKN015 FM040400 VRB03KT 3SM BR OVC003 FM041400 VRB03KT 6SM BR BKN007 FM041700 25005KT P6SM BKN015 FM042000 25005KT P6SM BKN035<br><br>
<br><br>
CYYZ 040100Z 03007KT 10SM -RA SCT040 OVC062 06/04 A3005 RMK SC3SC5 SLP181<br><br>
TAF CYYZ 032338Z 0400/0506 02008KT P6SM -SHRA SCT025 OVC040 TEMPO 0400/0403 OVC020 FM040300 01008KT P6SM BKN030 TEMPO 0403/0415 FEW008 BKN020 PROB30 0404/0415 5SM -DZ BR BKN008 OVC020 FM041500 11008KT P6SM BKN010 OVC040 FM042000 14008KT P6SM BKN020 FM042200 13008KT P6SM BKN030 BKN080 FM050000 13008KT P6SM -SHRA BKN030 OVC080 FM050200 14006KT 4SM -RA -DZ BR SCT004 OVC015 FM050400 16005KT 11/2SM -DZ BR OVC004 BECMG 0504/0506 VRB03KT RMK NXT FCST BY 040300Z<br><br>
<br><br>
CYOO 040100Z AUTO 32005KT 9SM -RA SCT014 OVC075 07/06 A3003 RMK SLP176<br><br>
TAF CYOO 040138Z 0402/0414 35005KT P6SM SCT012 BKN070 TEMPO 0402/0406 5SM -DZ BR BKN012 OVC070 PROB30 0402/0406 3SM -DZ BR BKN007 OVC012 FM040600 01006KT P6SM BKN012 OVC060 TEMPO 0406/0410 5SM -DZ BR OVC007 FM041000 02005KT 3SM -DZ BR OVC006 TEMPO 0410/0414 P6SM NSW OVC010 RMK FCST BASED ON AUTO OBS. NXT FCST BY 040800Z<br><br>
<br><br>
CYTR 040100Z 02005KT 3SM -DZ BR SCT008 OVC023 07/07 A3002 RMK SF3SC5 VIS VRB 2 1/4-4 SLP170<br><br>
TAF CYTR 032330Z 0400/0424 36008KT 2SM -RA -DZ BR SCT008 OVC012 TEMPO 0400/0403 P6SM NSW OVC015 FM040300 02005KT P6SM SCT008 BKN012 OVC020 TEMPO 0403/0415 3SM -RA BR BKN008 OVC015 FM041500 VRB03KT P6SM BKN015 OVC025 BECMG 0417/0419 22008KT RMK NXT FCST BY 040600Z<br><br>
<br><br>
