RETRIEVED AT : Feb 22 2020 01:05 Local <br>
  RETRIEVED AT: Feb 22 2020 06:05 UTC<br><br>
CYSN has no TAF <br><br>
<br><br>
CYHM 220500Z 23019G25KT 15SM SKC M02/M08 A3018 RMK SLP233<br><br>
TAF CYHM 220539Z 2206/2306 23017G27KT P6SM SKC FM221000 24015KT P6SM SCT020 TEMPO 2212/2215 BKN020 FM221700 24012G22KT P6SM SCT025 RMK NXT FCST BY 221200Z<br><br>
<br><br>
KIAG 220553Z AUTO 24025G31KT 10SM CLR M01/M07 A3020 RMK AO2 PK WND 23034/0516 SLP243 T10061067 11006 21022 55002<br><br>
KIAG 220453Z AUTO 24020G29KT 10SM CLR M01/M07 A3020 RMK AO2 PK WND 23033/0355 SLP242 T10061072 410061100<br><br>
KIAG 220535Z 2206/2306 24020G29KT P6SM SKC FM221200 23015G27KT P6SM FEW250 FM230000 23014G25KT P6SM FEW200 FM230300 23013G23KT P6SM FEW200<br><br>
<br><br>
KBUF 220554Z 23025G32KT 10SM CLR 00/M09 A3020 RMK AO2 PK WND 24036/0533 SLP235 T00001089 10000 21017 56013<br><br>
KBUF 220454Z 23022G30KT 10SM CLR 00/M09 A3021 RMK AO2 PK WND 23036/0406 SLP238 T00001089 400001083<br><br>
KBUF 220535Z 2206/2306 23022G30KT P6SM SKC FM221000 24018G24KT P6SM SKC FM230100 24015G22KT P6SM FEW120 FM230400 24015KT P6SM FEW200<br><br>
<br><br>
CYYZ 220500Z 24013G25KT 15SM SKC M02/M11 A3014 RMK SLP217<br><br>
TAF CYYZ 220539Z 2206/2312 24013G23KT P6SM SKC FM221000 24010G20KT P6SM BKN020 TEMPO 2210/2216 SCT020 FM221600 24012G22KT P6SM BKN025 FM222100 24010G20KT P6SM SCT030 FM230200 23010KT P6SM FEW015 FM230900 23008KT P6SM FEW015 BKN270 RMK NXT FCST BY 220900Z<br><br>
<br><br>
CYOO 220500Z AUTO 25009KT 9SM CLR M02/M10 A3016 RMK SLP222<br><br>
TAF CYOO 220138Z 2202/2214 23012G22KT P6SM SKC FM220900 25010G20KT P6SM BKN025 RMK FCST BASED ON AUTO OBS. NXT FCST BY 220800Z<br><br>
<br><br>
CYTR 220500Z 25021G26KT 15SM SKC M00/M06 A3014 RMK SLP212<br><br>
TAF CYTR 220530Z 2206/2306 25015G25KT P6SM SKC FM220800 26010KT P6SM SCT030 TEMPO 2210/2214 BKN030 FM221400 26010G20KT P6SM BKN020 TEMPO 2214/2222 SCT020 FM222200 25008KT P6SM SCT020 RMK NXT FCST BY 221200Z<br><br>
<br><br>
