RETRIEVED AT : May 05 2018 18:05 Local <br>
  RETRIEVED AT: May 05 2018 22:05 UTC<br><br>
CYSN 052100Z 23015G24KT 15SM BKN100 23/07 A2995 RMK AC5 SLP145 DENSITY ALT 1400FT<br><br>
TAF CYSN 051938Z 0520/0601 23015G25KT P6SM FEW050 SCT240 FM052200 24012G22KT P6SM FEW040 BKN080 TEMPO 0522/0601 P6SM -SHRA BECMG 0522/0524 26012KT RMK NXT FCST WILL BE ISSUED AT 061245Z<br><br>
<br><br>
CYHM 052100Z 22015G22KT 15SM FEW060 FEW090 SCT110 BKN240 23/09 A2997 RMK CU1AC1AC2CI2 SLP151 DENSITY ALT 1900FT<br><br>
TAF CYHM 051738Z 0518/0618 24015G25KT P6SM FEW060 BKN220 TEMPO 0519/0524 P6SM -SHRA BKN060 PROB30 0520/0524 3SM TSRA BR BKN030 OVC060CB FM060000 23012KT P6SM SCT040 BKN080 BECMG 0606/0608 VRB03KT FM060900 22005KT P6SM FEW050 SCT100 FM061600 24008KT P6SM -SHRA SCT030 OVC100 RMK NXT FCST BY 060000Z<br><br>
<br><br>
