RETRIEVED AT : Mar 15 2020 02:05 Local <br>
  RETRIEVED AT: Mar 15 2020 06:05 UTC<br><br>
CYSN has no TAF <br><br>
<br><br>
CYHM 150500Z 01005KT 15SM FEW140 BKN210 M02/M04 A3047 RMK AC1CI4 SLP329<br><br>
TAF CYHM 150539Z 1506/1606 02007KT P6SM FEW140 BKN210 FM151200 03012KT P6SM FEW030 FM151800 06015KT P6SM SKC BECMG 1523/1601 05010KT RMK NXT FCST BY 151200Z<br><br>
<br><br>
KIAG 150553Z AUTO 34005KT 10SM CLR M01/M04 A3046 RMK AO2 SLP331 T10111044 10011 21011 58001<br><br>
KIAG 150453Z AUTO 34003KT 10SM CLR M01/M03 A3047 RMK AO2 SLP331 T10061033 400221006<br><br>
KIAG 150520Z 1506/1606 36005KT P6SM BKN110 FM150800 02006KT P6SM SCT120 FM151200 04008KT P6SM FEW250 FM160100 VRB03KT P6SM FEW250<br><br>
<br><br>
KBUF 150554Z 34004KT 10SM FEW025 BKN120 BKN170 00/M03 A3046 RMK AO2 SLP324 T00001033 10017 20000 55002<br><br>
KBUF 150539Z 34004KT 10SM SCT025 BKN110 BKN170 01/M03 A3046 RMK AO2 T00061028<br><br>
KBUF 150454Z 35003KT 10SM BKN025 OVC100 01/M03 A3046 RMK AO2 SLP323 T00111033 400281006<br><br>
KBUF 150520Z 1506/1606 01004KT P6SM SCT025 BKN110 FM150900 03006KT P6SM SCT120 FM151300 03008KT P6SM FEW250 FM160100 07005KT P6SM FEW250<br><br>
<br><br>
CYYZ 150500Z 04006KT 340V050 15SM FEW120 M01/M05 A3048 RMK AS1 SLP330<br><br>
TAF CYYZ 150539Z 1506/1612 02006KT P6SM FEW120 FM151200 02012KT P6SM SKC BECMG 1518/1520 05008KT FM152100 08011KT P6SM SKC BECMG 1523/1601 11008KT BECMG 1602/1604 06008KT FM160600 05009KT P6SM FEW030 BECMG 1610/1612 11009KT RMK NXT FCST BY 150900Z<br><br>
<br><br>
CYOO 150500Z AUTO 36010KT 9SM CLR M01/M04 A3046 RMK SLP324<br><br>
TAF CYOO 150139Z 1502/1514 33007KT P6SM OVC150 BECMG 1505/1507 02009KT FM151200 05006KT P6SM SKC RMK FCST BASED ON AUTO OBS. NXT FCST BY 150800Z<br><br>
<br><br>
CYTR 150500Z 02010KT 15SM FEW170 01/M12 A3047 RMK AC1 SLP321<br><br>
TAF CYTR 150530Z 1506/1606 02008KT P6SM SKC RMK NXT FCST BY 151200Z<br><br>
<br><br>
