RETRIEVED AT : Jul 02 2018 20:05 Local <br>
  RETRIEVED AT: Jul 03 2018 00:05 UTC<br><br>
CYSN 022340Z 21009KT 12SM SCT040TCU BKN073 OVC220 27/25 A2999 RMK TCU3AC3CI2 VIS LWR SE SLP155 DENSITY ALT 1700FT<br><br>
CYSN 022304Z 23013G18KT 12SM -SHRA BKN040TCU OVC220 28/23 A2998 RMK TCU6CI2 CB EMBD SW-W VIS 3 SW SLP153 DENSITY ALT 1900FT<br><br>
CYSN 022300Z 22013G18KT 15SM VCSH BKN038TCU BKN220 28/23 A2998 RMK TCU5CI2 CB SW-W MOVG E VIS 4 SHRA SW SLP152 DENSITY ALT 1900FT<br><br>
TAF AMD CYSN 022227Z 0222/0301 20010KT P6SM BKN050 BECMG 0223/0301 VRB03KT FEW050 RMK NXT FCST WILL BE ISSUED AT 031245Z<br><br>
<br><br>
TAF CYHM 022338Z 0300/0324 21005KT P6SM SCT060 FM030200 VRB03KT P6SM SKC BECMG 0313/0315 08006KT BECMG 0322/0324 VRB03KT RMK NXT FCST BY 030600Z<br><br>
<br><br>
KIAG 022353Z 22011KT 9SM -RA FEW028 SCT080 BKN110 28/22 A3002 RMK AO2 RAB49 SLP157 P0000 60000 T02780217 10333 20278 52015<br><br>
KIAG 022253Z 20013G18KT 10SM CLR 29/22 A3001 RMK AO2 LTG DSNT W SLP153 T02890217<br><br>
KIAG 022338Z 0300/0324 20013G18KT P6SM BKN250 FM030200 16009KT P6SM SCT045 FM030300 15006KT P6SM BKN040 FM030400 VRB03KT P6SM SCT250 FM031400 05008KT P6SM FEW250<br><br>
<br><br>
KBUF 022354Z 25009KT 10SM FEW040 FEW180 BKN280 27/22 A3004 RMK AO2 SLP167 T02720217 10300 20272 51015<br><br>
KBUF 022254Z 23010KT 10SM FEW045 SCT190 SCT260 BKN300 28/22 A3003 RMK AO2 LTG DSNT NW SLP163 CB DSNT NW AND DSNT N MOV NE T02780217<br><br>
KBUF 022338Z 0300/0324 23010KT P6SM FEW045 BKN250 FM030200 24006KT P6SM BKN045 FM030500 VRB03KT P6SM SCT035 FM030600 VRB03KT P6SM SCT250 FM031300 05008KT P6SM FEW250<br><br>
<br><br>
TAF CYYZ 022338Z 0300/0406 32010KT P6SM SCT050 FM030200 VRB03KT P6SM SKC BECMG 0313/0315 13006KT BECMG 0322/0324 VRB03KT RMK NXT FCST BY 030300Z<br><br>
<br><br>
CYOO 022300Z AUTO 34009KT 9SM BKN039 28/21 A2998 RMK SLP151 DENSITY ALT 2000FT<br><br>
CYOO has no TAF <br><br>
<br><br>
TAF CYTR 022330Z 0300/0324 29008KT P6SM FEW040 BKN080 FM030400 30005KT P6SM SKC BECMG 0316/0318 21008KT RMK NXT FCST BY 030600Z<br><br>
<br><br>
