RETRIEVED AT : Sep 24 2017 22:10 Local <br>
  RETRIEVED AT: Sep 25 2017 02:10 UTC<br><br>
CYSN 250100Z 18004KT 15SM SKC 24/20 A3007 RMK LAST STFD OBS/NEXT 251100 UTC SLP184 DENSITY ALT 1300FT<br><br>
CYSN has no TAF <br><br>
<br><br>
CYHM 250200Z 25003KT 15SM SKC 23/18 A3011 RMK SLP196 DENSITY ALT 1700FT<br><br>
CYHM 250100Z 20003KT 15SM SKC 25/18 A3011 RMK SLP195 DENSITY ALT 1900FT<br><br>
TAF CYHM 242340Z 2500/2524 VRB03KT P6SM SKC RMK NXT FCST BY 250600Z<br><br>
<br><br>
KIAG 250153Z 00000KT 8SM CLR 24/19 A3010 RMK AO2 SLP186 T02390189<br><br>
KIAG 250053Z 00000KT 9SM CLR 26/19 A3010 RMK AO2 SLP186 T02560189<br><br>
KIAG 242330Z 2500/2524 VRB03KT P6SM SKC FM250800 00000KT 4SM BR SKC FM251200 VRB03KT P6SM FEW250 FM251700 14004KT P6SM FEW250 FM252000 09007KT P6SM FEW250<br><br>
<br><br>
KBUF 250154Z 18003KT 10SM CLR 26/20 A3011 RMK AO2 SLP192 T02560200<br><br>
KBUF 250054Z 19003KT 10SM CLR 27/20 A3011 RMK AO2 SLP191 T02670200<br><br>
KBUF 242330Z 2500/2524 VRB04KT P6SM SKC FM250800 VRB03KT 4SM BR SKC FM251200 VRB03KT P6SM FEW250 FM252000 07006KT P6SM FEW250<br><br>
<br><br>
CYYZ 250200Z 15004KT 15SM SKC 27/19 A3009 RMK SLP189 DENSITY ALT 1900FT<br><br>
CYYZ 250100Z 17004KT 15SM SKC 28/19 A3009 RMK SLP187 DENSITY ALT 2000FT<br><br>
TAF CYYZ 242340Z 2500/2606 VRB03KT P6SM SKC FM251700 15008KT P6SM SCT240 RMK NXT FCST BY 250300Z<br><br>
<br><br>
CYOO 250200Z AUTO 36003KT 9SM CLR 21/18 A3009 RMK SLP190 DENSITY ALT 1100FT<br><br>
CYOO 250100Z AUTO 00000KT 9SM CLR 23/18 A3009 RMK SLP188 DENSITY ALT 1200FT<br><br>
