RETRIEVED AT : Sep 25 2017 16:10 Local <br>
  RETRIEVED AT: Sep 25 2017 20:10 UTC<br><br>
CYSN 252000Z 04009KT 12SM BKN250 29/20 A3002 RMK CI6 SLP165 DENSITY ALT 1900FT<br><br>
CYSN 251900Z 01009KT 12SM FEW036 BKN250 29/21 A3003 RMK CU1CI6 CU TR SLP170 DENSITY ALT 2000FT<br><br>
TAF CYSN 251938Z 2520/2601 36006KT P6SM BKN290 RMK NXT FCST WILL BE ISSUED AT 261245Z<br><br>
<br><br>
CYHM 252000Z 16008KT 15SM FEW042 BKN250 31/16 A3004 RMK SC1CI6 SLP170 DENSITY ALT 2700FT<br><br>
CYHM 251900Z 17008KT 15SM FEW042 BKN250 31/17 A3005 RMK SC2CI4 SLP174 DENSITY ALT 2700FT<br><br>
TAF CYHM 251738Z 2518/2618 VRB03KT P6SM SCT300 PROB30 2609/2613 3/4SM BR RMK NXT FCST BY 260000Z<br><br>
<br><br>
KIAG 251953Z 02008KT 9SM CLR 32/20 A3003 RMK AO2 SLP162 T03170200<br><br>
KIAG 251853Z 00000KT 10SM FEW060 33/17 A3005 RMK AO2 SLP168 T03280172<br><br>
KIAG 251727Z 2518/2618 VRB04KT P6SM FEW250 FM252000 05007KT P6SM FEW250 FM252300 08005KT P6SM FEW250 FM260200 VRB03KT P6SM FEW250 FM260700 VRB03KT 4SM BR SCT250 TEMPO 2610/2612 2SM BR FM261300 21005KT P6SM FEW250<br><br>
<br><br>
KBUF 251954Z VRB06KT 10SM FEW050 FEW180 BKN260 BKN330 32/18 A3004 RMK AO2 SLP166 T03220183<br><br>
KBUF 251854Z 13006KT 10SM FEW050 FEW180 SCT260 SCT330 32/19 A3005 RMK AO2 SLP172 T03170189<br><br>
KBUF 251727Z 2518/2618 12004KT P6SM FEW050 FM252000 05007KT P6SM FEW050 FM252300 08005KT P6SM FEW250 FM260300 13004KT P6SM FEW250 FM260700 16004KT 4SM BR SCT250 FM261300 22006KT P6SM SCT250<br><br>
<br><br>
CYYZ 252000Z 17006KT 120V180 15SM BKN250 31/18 A3003 RMK CI5 SLP168 DENSITY ALT 2400FT<br><br>
CYYZ 251900Z 16006KT 100V170 15SM FEW060 SCT250 31/19 A3005 RMK CU1CI3 CU TR SLP173 DENSITY ALT 2500FT<br><br>
TAF CYYZ 251738Z 2518/2624 15008KT P6SM SCT300 BECMG 2522/2524 VRB03KT BECMG 2614/2616 16008KT RMK NXT FCST BY 252100Z<br><br>
<br><br>
CYOO 252000Z AUTO 19006KT 120V240 9SM CLR 31/17 A3004 RMK SLP172 DENSITY ALT 2200FT<br><br>
CYOO 251902Z AUTO 17004KT 080V230 9SM CLR 31/17 A3005 RMK SLP176 DENSITY ALT 2100FT<br><br>
CYOO 251900Z AUTO VRB02KT 4SM HZ CLR 30/18 A3005 RMK SLP176 DENSITY ALT 2100FT<br><br>
CYOO 251846Z AUTO 18004KT 140V200 5SM HZ CLR 30/18 A3006 RMK SLP177 DENSITY ALT 2100FT<br><br>
CYOO 251829Z AUTO 20006KT 120V220 6SM HZ CLR 30/17 A3006 RMK SLP179 DENSITY ALT 2100FT<br><br>
CYOO 251819Z AUTO 15005KT 130V230 4SM HZ CLR 30/17 A3006 RMK SLP180 DENSITY ALT 2100FT<br><br>
CYOO has no TAF <br><br>
<br><br>
CYTR 252000Z 24005KT 6SM HZ FEW160 FEW250 30/19 A3003 RMK AC1CI2 SLP171<br><br>
CYTR 251900Z 23005KT 15SM FEW020 FEW250 30/20 A3005 RMK CF1CI2 SLP175<br><br>
TAF CYTR 251730Z 2518/2618 21009KT P6SM SCT250 BECMG 2522/2524 VRB03KT FM260300 VRB03KT P6SM BKN250 TEMPO 2603/2612 3SM BR BECMG 2616/2618 20009KT RMK NXT FCST BY 260000Z<br><br>
<br><br>
