RETRIEVED AT : Oct 16 2017 05:10 Local <br>
  RETRIEVED AT: Oct 16 2017 09:10 UTC<br><br>
CYSN has no TAF <br><br>
<br><br>
CYHM 160900Z 29004KT 15SM FEW025 04/03 A3012 RMK SC1 SLP204<br><br>
CYHM 160800Z 29004KT 15SM FEW024 05/03 A3009 RMK SC2 SLP196<br><br>
TAF CYHM 160538Z 1606/1706 31010G20KT P6SM SCT025 TEMPO 1606/1612 BKN020 BECMG 1606/1608 32010KT FM161600 31010G20KT P6SM FEW030 BECMG 1622/1624 30008KT BECMG 1701/1703 VRB03KT RMK NXT FCST BY 161200Z<br><br>
<br><br>
KIAG 160853Z AUTO 36006KT 10SM OVC032 09/03 A3010 RMK AO2 SLP194 T00890028 53017<br><br>
KIAG 160831Z AUTO 35007KT 10SM OVC030 09/03 A3009 RMK AO2 T00890028<br><br>
KIAG 160824Z AUTO 36007KT 10SM OVC028 09/03 A3009 RMK AO2 T00890028<br><br>
KIAG 160753Z AUTO 01011KT 10SM OVC031 09/03 A3008 RMK AO2 SLP185 T00890028<br><br>
KIAG 160738Z AUTO 01013KT 10SM OVC031 09/02 A3007 RMK AO2 T00940022<br><br>
KIAG 160901Z 1609/1706 36006KT P6SM OVC030 FM161400 31010KT P6SM BKN035 FM162000 30008KT P6SM SCT040 FM170200 VRB03KT P6SM SKC<br><br>
<br><br>
KBUF 160901Z 34006KT 10SM OVC029 08/03 A3010 RMK AO2 T00780028 $<br><br>
KBUF 160854Z 34008KT 10SM OVC031 08/03 A3010 RMK AO2 SLP193 T00780033 53017 $<br><br>
KBUF 160809Z 35008KT 10SM OVC031 08/03 A3008 RMK AO2 T00780028 $<br><br>
KBUF 160754Z 33010KT 10SM FEW023 OVC028 08/03 A3007 RMK AO2 SLP184 T00780028 $<br><br>
KBUF 160901Z 1609/1706 34008KT P6SM OVC030 FM161400 32010KT P6SM BKN035 FM162000 30008KT P6SM SCT040 FM170000 VRB03KT P6SM SKC<br><br>
<br><br>
CYYZ 160907Z 33007KT 15SM -SHRA FEW024 BKN034 06/03 A3012 RMK CU2SC5 SLP202<br><br>
CYYZ 160900Z 32008KT 15SM FEW028 BKN041 06/03 A3011 RMK CU1SC6 SLP201<br><br>
CYYZ 160800Z 34012KT 15SM BKN035 06/02 A3009 RMK SC7 SLP193<br><br>
TAF CYYZ 160838Z 1609/1712 34012KT P6SM BKN030 TEMPO 1609/1616 BKN020 FM161600 33012G22KT P6SM BKN030 FM162200 32010G20KT P6SM FEW040 BECMG 1623/1624 32010KT BECMG 1701/1703 VRB03KT FM170500 25008KT P6SM BKN030 RMK NXT FCST BY 161200Z<br><br>
<br><br>
CYOO 160900Z AUTO 34005KT 9SM FEW028 05/02 A3009 RMK SLP193<br><br>
CYOO 160805Z AUTO 33006KT 9SM OVC026 06/02 A3007 RMK SLP187<br><br>
CYOO 160801Z AUTO 34008KT 9SM BKN024 OVC029 06/02 A3007 RMK SLP186<br><br>
CYOO 160800Z AUTO 34007KT 9SM OVC026 06/02 A3007 RMK SLP186<br><br>
CYOO 160752Z AUTO 34009KT 9SM OVC026 06/02 A3007 RMK SLP185<br><br>
CYOO has no TAF <br><br>
<br><br>
CYTR 160900Z 35007KT 15SM FEW028 05/01 A3007 RMK SC2 SLP185<br><br>
CYTR 160800Z 35008KT 15SM SCT028 06/01 A3005 RMK SC4 SLP177<br><br>
TAF CYTR 160530Z 1606/1706 32010G20KT P6SM SCT020 BKN030 TEMPO 1606/1615 BKN020 OVC030 BECMG 1613/1615 32012KT FM162000 32012KT P6SM SCT050 FM170000 30005KT P6SM FEW080 RMK NXT FCST BY 161200Z<br><br>
<br><br>
