RETRIEVED AT : Jun 17 2019 04:07 Local <br>
  RETRIEVED AT: Jun 17 2019 08:07 UTC<br><br>
CYSN has no TAF <br><br>
<br><br>
CYHM 170800Z 04007KT 15SM FEW120 11/10 A2995 RMK AC2 SLP144<br><br>
CYHM 170700Z 02006KT 15SM FEW120 FEW250 11/10 A2995 RMK AC1CI1 CI TR SLP146<br><br>
TAF CYHM 170538Z 1706/1806 VRB03KT P6SM SCT120 FM171100 05005KT P6SM BKN080 BECMG 1713/1715 05012KT BECMG 1723/1801 08005KT FM180500 VRB03KT P6SM SCT030 RMK NXT FCST BY 171200Z<br><br>
<br><br>
KIAG 170753Z AUTO 00000KT 10SM SCT120 11/09 A2997 RMK AO2 SLP150 T01060094<br><br>
KIAG 170653Z AUTO 00000KT 10SM CLR 11/09 A2996 RMK AO2 SLP147 T01060094<br><br>
KIAG 170525Z 1706/1806 00000KT P6SM SKC TEMPO 1708/1711 4SM BR FM171200 12005KT P6SM BKN090 FM171600 07007KT P6SM BKN090<br><br>
<br><br>
KBUF 170754Z 07003KT 10SM SCT120 11/09 A2996 RMK AO2 SLP148 T01110094<br><br>
KBUF 170654Z 08003KT 10SM CLR 12/10 A2996 RMK AO2 SLP145 T01170100<br><br>
KBUF 170525Z 1706/1806 00000KT P6SM SKC TEMPO 1708/1711 4SM BR FM171200 12005KT P6SM BKN090 FM171600 07007KT P6SM BKN090<br><br>
<br><br>
CYYZ 170800Z 04007KT 15SM BKN120 13/09 A2996 RMK AC6 SLP148<br><br>
CYYZ 170700Z 04007KT 360V080 15SM BKN120 14/09 A2996 RMK AC6 SLP149 DENSITY ALT 600FT<br><br>
TAF CYYZ 170538Z 1706/1812 05007KT P6SM SCT120 FM170900 04005KT P6SM BKN100 BECMG 1712/1714 08005KT FM171700 14007KT P6SM SCT070 FM180200 VRB03KT P6SM FEW070 BECMG 1804/1806 04005KT RMK NXT FCST BY 170900Z<br><br>
<br><br>
CYOO 170800Z AUTO 02004KT 9SM OVC120 14/12 A2995 RMK SLP145<br><br>
CYOO 170700Z AUTO 35006KT 9SM OVC120 15/12 A2996 RMK SLP146<br><br>
TAF CYOO 170738Z 1708/1720 VRB03KT P6SM OVC120 FM171600 13007KT P6SM BKN100 RMK FCST BASED ON AUTO OBS. NXT FCST BY 171400Z<br><br>
<br><br>
CYTR 170800Z 00000KT 15SM BKN048 11/10 A2998 RMK SC7 SLP153<br><br>
CYTR 170700Z 05003KT 15SM BKN120 10/10 A2996 RMK AC5 SLP145<br><br>
TAF CYTR 170530Z 1706/1806 VRB03KT P6SM FEW050 FEW160 PROB30 1706/1711 1SM BR FM171400 17005KT P6SM FEW050 BKN100 BECMG 1716/1718 20010KT FM171800 20010KT P6SM SCT100 RMK NXT FCST BY 171200Z<br><br>
<br><br>
