RETRIEVED AT : Oct 01 2017 10:10 Local <br>
  RETRIEVED AT: Oct 01 2017 14:10 UTC<br><br>
CYSN 011400Z 18007KT 15SM FEW030 FEW250 14/06 A3043 RMK SC1CI1 SC TR CI TR SLP307<br><br>
CYSN 011300Z 18003KT 15SM FEW030 11/08 A3042 RMK SC1 SC TR SLP305<br><br>
TAF CYSN 011238Z 0113/0201 VRB03KT P6SM FEW030 BECMG 0115/0116 12005KT RMK NXT FCST BY 012000Z<br><br>
<br><br>
CYHM 011400Z 12003KT 090V160 15SM FEW030 SCT035 SCT090 SCT250 13/04 A3042 RMK CU1SC2AC1CI1 AC TR CI TR SLP306<br><br>
CYHM 011300Z 00000KT 15SM FEW025 SCT030 SCT240 10/06 A3042 RMK CU1SC2CI1 SLP307<br><br>
TAF CYHM 011138Z 0112/0212 VRB03KT P6SM SKC FM011700 09008KT P6SM FEW030 FM020200 06007KT P6SM SKC RMK NXT FCST BY 011800Z<br><br>
<br><br>
KIAG 011353Z 18004KT 10SM CLR 12/07 A3043 RMK AO2 SLP313 T01220072<br><br>
KIAG 011253Z 00000KT 9SM CLR 08/06 A3043 RMK AO2 SLP312 T00830056<br><br>
KIAG 011130Z 0112/0212 00000KT P6SM SKC FM011400 20004KT P6SM SKC FM012000 VRB03KT P6SM SKC<br><br>
<br><br>
KBUF 011354Z 19004KT 10SM FEW050 FEW150 10/05 A3044 RMK AO2 SLP311 T01000050 $<br><br>
KBUF 011254Z 19003KT 10SM FEW055 07/04 A3043 RMK AO2 SLP310 T00670039 $<br><br>
KBUF 011130Z 0112/0212 VRB03KT P6SM SKC FM011400 21004KT P6SM SKC FM020000 09004KT P6SM SKC FM020300 VRB03KT P6SM SKC<br><br>
<br><br>
CYYZ 011400Z VRB02KT 15SM FEW260 12/04 A3042 RMK CI1 CI TR SLP307<br><br>
CYYZ 011300Z VRB02KT 15SM FEW250 09/03 A3042 RMK CI1 CI TR SLP307<br><br>
TAF CYYZ 011138Z 0112/0218 VRB03KT P6SM SKC BECMG 0115/0117 20008KT FM020000 VRB03KT P6SM SKC FM021600 12010KT P6SM SCT180 RMK NXT FCST BY 011500Z<br><br>
<br><br>
CYOO 011400Z AUTO 24004KT 200V270 7SM CLR 13/04 A3042 RMK SLP306<br><br>
CYOO 011300Z AUTO 30002KT 9SM CLR 10/05 A3042 RMK SLP307<br><br>
CYOO has no TAF <br><br>
<br><br>
CYTR 011400Z 34005KT 15SM FEW050 11/08 A3043 RMK SC1 SLP309<br><br>
CYTR 011300Z 35003KT 15SM FEW050 08/07 A3043 RMK SC1 SLP306<br><br>
TAF CYTR 011130Z 0112/0212 VRB03KT P6SM SKC BECMG 0116/0118 22008KT BECMG 0123/0201 VRB03KT FM020800 VRB03KT P6SM SKC PROB30 0208/0212 1/2SM FG RMK NXT FCST BY 011800Z<br><br>
<br><br>
