RETRIEVED AT : May 24 2020 06:05 Local <br>
  RETRIEVED AT: May 24 2020 10:05 UTC<br><br>
CYSN has no TAF <br><br>
<br><br>
CYHM 240900Z 03004KT 12SM FEW018 SCT200 14/13 A3005 RMK SC1CI2 SLP176<br><br>
TAF CYHM 240538Z 2406/2506 12005KT P6SM BKN040 BECMG 2408/2410 08006KT FM241000 08006KT P6SM FEW040 PROB30 2410/2412 3/4SM BR FM241400 19008KT P6SM SCT060 TEMPO 2414/2418 P6SM -SHRA BKN060 BECMG 2416/2418 18012G22KT FM242200 21012KT P6SM -SHRA BKN050 PROB30 2500/2503 3SM TSRA BKN040CB FM250300 19008KT P6SM SCT040 RMK NXT FCST BY 241200Z<br><br>
<br><br>
KIAG 240953Z AUTO 13003KT 9SM SCT100 17/16 A3005 RMK AO2 SLP175 T01720161<br><br>
KIAG 240853Z AUTO 14003KT 7SM BKN080 BKN090 OVC110 17/16 A3004 RMK AO2 RAE18 SLP172 P0001 60002 T01670156 58004<br><br>
KIAG 240823Z 2408/2506 13005KT P6SM BKN090 FM241100 16007KT P6SM SCT120 FM250200 19010KT P6SM BKN080 FM250500 19011G17KT 6SM BR VCSH BKN045<br><br>
<br><br>
KBUF 240954Z 14007KT 10SM FEW090 BKN110 BKN270 18/16 A3006 RMK AO2 SLP178 T01830161<br><br>
KBUF 240854Z 12007KT 10SM BKN075 OVC090 18/16 A3006 RMK AO2 RAB0755E47 SLP177 P0000 60000 T01830161 58001<br><br>
KBUF 240823Z 2408/2506 13005KT P6SM SCT045 BKN090 FM241100 16008KT P6SM SCT120 FM241700 19009KT P6SM SCT120 FM250500 18010G16KT 6SM BR VCSH BKN070<br><br>
<br><br>
CYYZ 240900Z 15003KT 15SM SCT070 BKN085 16/12 A3004 RMK AC4AC3 SLP175 DENSITY ALT 700FT<br><br>
TAF CYYZ 240838Z 2409/2512 11006KT P6SM BKN070 FM241200 13006KT P6SM SKC FM241500 16008KT P6SM SCT050 FM241800 17012G22KT P6SM -SHRA BKN060 FM250000 23008KT P6SM SCT020 OVC040 TEMPO 2500/2505 5SM -SHRA BR OVC020 PROB30 2500/2505 11/2SM TSRA BR OVC015CB FM250500 19008KT P6SM SCT040 BECMG 2507/2509 22006KT RMK NXT FCST BY 241200Z<br><br>
<br><br>
CYOO 240900Z AUTO 10009KT 9SM FEW060 16/08 A3006 RMK SLP181 DENSITY ALT 500FT<br><br>
TAF CYOO 240738Z 2408/2420 09006KT P6SM OVC090 FM241200 11008KT P6SM SCT015 OVC040 TEMPO 2412/2415 5SM -SHRA BR BKN015 OVC030 FM241500 16008KT P6SM SCT025 FM241800 14012KT P6SM SCT050 BKN180 RMK FCST BASED ON AUTO OBS. NXT FCST BY 241400Z<br><br>
<br><br>
CYTR 240900Z 05005KT 15SM FEW100 BKN220 11/05 A3010 RMK AC1CI6 SLP194<br><br>
TAF CYTR 240530Z 2406/2506 VRB03KT P6SM FEW210 FM241000 VRB03KT P6SM FEW020 SCT150 BKN240 BECMG 2412/2414 15008KT FM241600 15008KT P6SM SCT030 BKN100 OVC220 BECMG 2419/2421 15008G18KT FM250100 15008KT P6SM -SHRA FEW020 BKN040 OVC060 PROB30 2501/2505 VRB15G25KT 2SM TSRA BR SCT020 OVC030CB FM250500 20008KT 3SM -SHRA BR SCT005 OVC010 RMK NXT FCST BY 241200Z<br><br>
<br><br>
