RETRIEVED AT : Oct 17 2017 07:10 Local <br>
  RETRIEVED AT: Oct 17 2017 11:10 UTC<br><br>
CYSN 171100Z 19008KT 15SM SKC 04/02 A3024 RMK SLP244<br><br>
CYSN has no TAF <br><br>
<br><br>
CYHM 171100Z 20008KT 15SM FEW032 SCT040 03/01 A3022 RMK SC1SC2 SLP240<br><br>
CYHM 171000Z 20006KT 15SM SKC 03/00 A3023 RMK SLP244<br><br>
TAF CYHM 170538Z 1706/1806 VRB03KT P6SM SKC BECMG 1710/1712 20008KT BECMG 1713/1715 23012G22KT FM171800 23018G28KT P6SM SKC BECMG 1722/1724 24012KT RMK NXT FCST BY 171200Z<br><br>
<br><br>
KIAG 171053Z 16006KT 10SM CLR 04/02 A3025 RMK AO2 SLP252 T00440017 $<br><br>
KIAG 170953Z AUTO 00000KT 10SM 03/M01 A3025 RMK AO2 SLP254 T00281006 $<br><br>
KIAG 170901Z 1709/1806 13003KT P6SM SKC FM171200 19008KT P6SM SCT035 FM171500 22017G26KT P6SM FEW250 FM180000 23015KT P6SM FEW250<br><br>
<br><br>
KBUF 171054Z 17006KT 10SM FEW030 03/00 A3026 RMK AO2 SLP254 T00280000 $<br><br>
KBUF 170954Z COR 16006KT CLR 10SM 02/00 A3026 RMK AO2 SLP254 T00220000 $<br><br>
KBUF 170901Z 1709/1806 16005KT P6SM SKC FM171200 19009KT P6SM BKN035 FM171400 21011G17KT P6SM SCT030 FM171700 23017G27KT P6SM FEW250 FM180000 23013KT P6SM FEW250<br><br>
<br><br>
CYYZ 171100Z 20003KT 15SM FEW090 FEW240 06/M01 A3021 RMK AC1CI1 CI TR SLP235<br><br>
CYYZ 171000Z 22004KT 15SM SKC 05/M01 A3022 RMK SLP240<br><br>
TAF CYYZ 170838Z 1709/1812 23005KT P6SM FEW120 BECMG 1713/1715 23012G22KT BECMG 1715/1717 24018G28KT FM180000 26012KT P6SM FEW040 FM180200 26008KT P6SM SKC RMK NXT FCST BY 171200Z<br><br>
<br><br>
CYOO 171100Z AUTO 01002KT 9SM CLR M00/M01 A3021 RMK SLP238<br><br>
CYOO 171000Z AUTO 36002KT 9SM CLR M00/M01 A3022 RMK SLP241<br><br>
CYOO has no TAF <br><br>
<br><br>
CYTR 171100Z 01002KT 15SM FEW120 M01/M03 A3023 RMK AC1 FROIN SLP243<br><br>
CYTR 171000Z 00000KT 15SM FEW100 M01/M02 A3024 RMK AC1 FROIN SLP246<br><br>
TAF CYTR 170530Z 1706/1806 VRB03KT P6SM SKC FM171200 23010KT P6SM SCT040 BECMG 1713/1715 23010G20KT BECMG 1716/1718 23015G25KT FM180100 26008KT P6SM SKC RMK NXT FCST BY 171200Z<br><br>
<br><br>
