RETRIEVED AT : Oct 16 2017 01:10 Local <br>
  RETRIEVED AT: Oct 16 2017 05:10 UTC<br><br>
CYSN has no TAF <br><br>
<br><br>
CYHM 160500Z 32010G17KT 15SM BKN025 08/04 A3004 RMK SC7 SLP175<br><br>
CYHM 160400Z 32012KT 15SM BKN024 08/04 A3002 RMK SC7 SLP168<br><br>
TAF CYHM 152338Z 1600/1624 29022G32KT P6SM BKN025 TEMPO 1600/1605 OVC020 BECMG 1601/1603 31015G25KT FM160500 31010KT P6SM SCT030 BECMG 1614/1616 31010G20KT BECMG 1622/1624 29008KT RMK NXT FCST BY 160600Z<br><br>
<br><br>
KIAG 160502Z AUTO 35015KT 10SM SCT026 OVC035 10/03 A3002 RMK AO2 T01000033<br><br>
KIAG 160453Z AUTO 34017G23KT 10SM BKN025 OVC035 10/03 A3002 RMK AO2 PK WND 33028/0404 SLP164 T01000033 402610100<br><br>
KIAG 160440Z AUTO 33018G25KT 10SM BKN025 OVC035 11/04 A3001 RMK AO2 PK WND 33028/0404 T01060039<br><br>
KIAG 160433Z AUTO 34018G25KT 10SM SCT027 OVC035 11/04 A3001 RMK AO2 PK WND 33028/0404 T01060039<br><br>
KIAG 160421Z AUTO 33017G25KT 10SM BKN025 OVC033 11/04 A3000 RMK AO2 PK WND 33028/0404 T01060039<br><br>
KIAG 160353Z AUTO 34016G24KT 10SM FEW024 OVC034 11/04 A2998 RMK AO2 PK WND 32026/0327 SLP153 T01110044<br><br>
KIAG 160301Z 1603/1624 33015G25KT P6SM BKN025 FM160800 32012G19KT P6SM BKN025 FM161400 30010G20KT P6SM SCT035 FM162300 29005KT P6SM FEW250<br><br>
<br><br>
KBUF 160454Z 31013G20KT 10SM OVC033 09/04 A3001 RMK AO2 SLP162 T00940044 402500094 $<br><br>
KBUF 160450Z 33014G20KT 10SM FEW026 OVC033 09/04 A3001 RMK AO2 $<br><br>
KBUF 160428Z 33018G23KT 10SM BKN028 OVC035 10/05 A3000 RMK AO2 T01000050 $<br><br>
KBUF 160401Z 31010G19KT 10SM SCT028 BKN035 OVC044 11/06 A2998 RMK AO2 T01060056 $<br><br>
KBUF 160354Z 32013G21KT 10SM BKN028 OVC035 11/06 A2997 RMK AO2 SLP148 T01060056 $<br><br>
KBUF 160328Z 31011KT 10SM BKN028 BKN035 11/06 A2996 RMK AO2 T01060056 $<br><br>
KBUF 160301Z 1603/1624 30018G24KT P6SM BKN035 FM160600 32010G16KT P6SM BKN025 FM161400 30010G18KT P6SM SCT035 FM162200 30008KT P6SM FEW250<br><br>
<br><br>
CYYZ 160500Z 36015KT 15SM BKN024 08/04 A3002 RMK SC7 SLP168<br><br>
CYYZ 160400Z 34021G26KT 15SM BKN026 09/04 A2999 RMK SC7 SLP158<br><br>
TAF AMD CYYZ 160506Z 1605/1706 34012G22KT P6SM BKN025 TEMPO 1605/1609 BKN020 FM160900 34012KT P6SM BKN025 TEMPO 1609/1616 P6SM -SHRA BKN020 FM161600 33012G22KT P6SM BKN030 FM162200 32010G20KT P6SM FEW040 BECMG 1623/1624 32010KT BECMG 1701/1703 VRB03KT RMK NXT FCST BY 160600Z<br><br>
<br><br>
CYOO 160500Z AUTO 33013G20KT 9SM OVC024 07/03 A3001 RMK SLP164<br><br>
CYOO 160400Z AUTO 33016G23KT 9SM OVC024 08/03 A2997 RMK PRESRR SLP153<br><br>
CYOO 160339Z AUTO 31019G26KT 9SM OVC024 08/03 A2995 RMK SLP146<br><br>
CYOO 160324Z AUTO 33019G30KT 9SM BKN026 OVC031 08/03 A2994 RMK SLP142<br><br>
CYOO 160319Z AUTO 32023G30KT 9SM BKN024 OVC031 08/03 A2994 RMK SLP140<br><br>
CYOO 160317Z AUTO 32024G30KT 300V360 9SM BKN026 OVC031 08/03 A2993 RMK SLP139<br><br>
CYOO has no TAF <br><br>
<br><br>
CYTR 160500Z 33011G17KT 15SM OVC026 08/03 A2996 RMK SC8 SLP146<br><br>
CYTR 160400Z 32009G15KT 15SM OVC026 09/04 A2991 RMK SC8 SLP129<br><br>
TAF AMD CYTR 160422Z 1604/1624 30012KT P6SM SCT020 BKN030 TEMPO 1604/1615 BKN020 OVC030 FM162200 32012KT P6SM SCT030 RMK NXT FCST BY 160600Z<br><br>
<br><br>
