RETRIEVED AT : Sep 24 2017 15:10 Local <br>
  RETRIEVED AT: Sep 24 2017 19:10 UTC<br><br>
CYSN 241900Z 36008KT 15SM FEW040 32/19 A3010 RMK CU1 SLP192 DENSITY ALT 2200FT<br><br>
CYSN 241800Z 34006KT 310V020 12SM FEW040 33/20 A3011 RMK CU1 SLP195 DENSITY ALT 2200FT<br><br>
TAF CYSN 241238Z 2413/2501 VRB03KT P6SM SKC RMK NXT FCST BY 242000Z<br><br>
<br><br>
CYHM 241900Z 31002KT 15SM FEW048 31/19 A3013 RMK CU1 SLP201 DENSITY ALT 2600FT<br><br>
CYHM 241800Z 04004KT 360V100 15SM FEW040 31/19 A3014 RMK CU1 SLP206 DENSITY ALT 2600FT<br><br>
TAF CYHM 241738Z 2418/2518 VRB03KT P6SM SKC RMK NXT FCST BY 250000Z<br><br>
<br><br>
KIAG 241853Z 30004KT 10SM CLR 33/19 A3011 RMK AO2 SLP189 T03280189<br><br>
KIAG 241753Z VRB03KT 10SM CLR 32/19 A3013 RMK AO2 SLP194 T03220189 10322 20200 58014<br><br>
KIAG 241729Z 2418/2518 VRB03KT P6SM SKC FM241900 01006KT P6SM SKC FM242300 VRB04KT P6SM SKC FM250800 VRB03KT 3SM BR FEW250 FM251200 VRB03KT P6SM FEW250<br><br>
<br><br>
KBUF 241854Z 30005KT 10SM FEW045 32/19 A3012 RMK AO2 SLP196 T03170189<br><br>
KBUF 241754Z 25004KT 10SM FEW045 31/19 A3014 RMK AO2 SLP202 T03060189 10306 20178 58013<br><br>
KBUF 241729Z 2418/2518 VRB03KT P6SM SKC FM242000 25005KT P6SM SKC FM250000 19004KT P6SM SKC FM250800 VRB03KT 4SM BR FEW250 FM251200 15004KT P6SM FEW250<br><br>
<br><br>
CYYZ 241900Z 25005KT 210V280 15SM FEW060 33/19 A3010 RMK CU1 SLP191 DENSITY ALT 2600FT<br><br>
CYYZ 241800Z 36004KT 310V020 15SM FEW055 32/18 A3012 RMK CU1 SLP197 DENSITY ALT 2500FT<br><br>
TAF CYYZ 241738Z 2418/2524 VRB03KT P6SM SKC FM251700 15008KT P6SM SCT240 RMK NXT FCST BY 242100Z<br><br>
<br><br>
CYOO 241900Z AUTO 20005KT 9SM CLR 31/18 A3010 RMK SLP193 DENSITY ALT 2100FT<br><br>
CYOO 241825Z AUTO 19007KT 6SM HZ CLR 30/19 A3011 RMK SLP195 DENSITY ALT 2100FT<br><br>
CYOO 241810Z AUTO 18007KT 5SM HZ CLR 30/19 A3011 RMK SLP196 DENSITY ALT 2000FT<br><br>
CYOO 241806Z AUTO 20006KT 6SM HZ CLR 30/19 A3011 RMK SLP196 DENSITY ALT 2000FT<br><br>
CYOO 241800Z AUTO 18007KT 160V220 5SM HZ CLR 30/19 A3011 RMK SLP196 DENSITY ALT 2000FT<br><br>
CYOO 241759Z AUTO 19007KT 5SM HZ CLR 30/19 A3011 RMK SLP196 DENSITY ALT 2000FT<br><br>
CYOO 241742Z AUTO 18007KT 9SM CLR 30/19 A3011 RMK SLP197 DENSITY ALT 2000FT<br><br>
CYOO 241732Z AUTO 18008KT 4SM HZ CLR 30/19 A3012 RMK SLP198 DENSITY ALT 2000FT<br><br>
CYOO 241727Z AUTO 17008KT 6SM HZ CLR 30/20 A3012 RMK SLP199 DENSITY ALT 2100FT<br><br>
CYOO 241726Z AUTO 17007KT 5SM HZ CLR 31/20 A3012 RMK SLP199 DENSITY ALT 2100FT<br><br>
CYOO has no TAF <br><br>
<br><br>
CYTR 241900Z 21008KT 15SM FEW025 29/22 A3008 RMK CF1 SLP186<br><br>
CYTR 241800Z 21009KT 15SM SKC 30/21 A3009 RMK SLP189<br><br>
TAF CYTR 241730Z 2418/2518 21009KT P6SM SKC BECMG 2423/2501 VRB03KT FM250400 VRB03KT P6SM SKC TEMPO 2504/2512 3SM BR BECMG 2515/2517 20008KT RMK NXT FCST BY 250000Z<br><br>
<br><br>
