RETRIEVED AT : Sep 14 2018 07:11 Local <br>
  RETRIEVED AT: Sep 14 2018 11:11 UTC<br><br>
CYSN 141100Z 00000KT 15SM BKN086 18/18 A3017 RMK AC6 SLP218 DENSITY ALT 500FT<br><br>
CYSN has no TAF <br><br>
<br><br>
CYHM 141100Z 04004KT 12SM FEW012 BKN100 17/17 A3019 RMK SC1AC5 SLP225 DENSITY ALT 1000FT<br><br>
CYHM 141000Z 03004KT 15SM FEW080 17/17 A3018 RMK AC2 SLP220 DENSITY ALT 900FT<br><br>
TAF AMD CYHM 140917Z 1409/1506 07006KT P6SM SCT040 TEMPO 1409/1413 2SM BR BKN006 PROB30 1409/1413 11/2SM BR BKN004 FM141300 13005KT P6SM BKN012 FM141800 16006KT P6SM BKN030 FM142300 06008KT P6SM SCT030 BECMG 1502/1504 VRB03KT 2SM BR RMK NXT FCST BY 141200Z<br><br>
<br><br>
KIAG 141053Z 00000KT 10SM OVC060 19/18 A3019 RMK AO2 SLP219 T01940183<br><br>
KIAG 140953Z AUTO 14003KT 10SM SCT055 SCT100 19/18 A3018 RMK AO2 SLP216 T01890178<br><br>
KIAG 140901Z 1409/1506 00000KT P6SM SCT100 FM141200 18005KT P6SM BKN060 FM141900 00000KT P6SM BKN045 FM142100 04004KT P6SM SCT040<br><br>
<br><br>
KBUF 141054Z 14005KT 10SM BKN065 BKN110 22/20 A3020 RMK AO2 SLP222 T02170200<br><br>
KBUF 140954Z 11003KT 10SM OVC065 22/20 A3019 RMK AO2 SLP218 T02170200<br><br>
KBUF 140901Z 1409/1506 10003KT P6SM BKN080 FM141600 00000KT P6SM BKN060 FM142000 00000KT P6SM BKN045 FM142300 VRB03KT P6SM SCT080<br><br>
<br><br>
CYYZ 141100Z 00000KT 15SM FEW045 SCT100 20/18 A3019 RMK SC1AC2 SLP223 DENSITY ALT 1000FT<br><br>
CYYZ 141000Z 12003KT 15SM FEW045 20/18 A3018 RMK SC2 SLP219 DENSITY ALT 1100FT<br><br>
TAF CYYZ 140839Z 1409/1512 10006KT P6SM BKN030 PROB30 1409/1413 1SM BR BKN004 FM141300 13005KT P6SM BKN012 TEMPO 1416/1418 BKN025 FM141800 13005KT P6SM BKN030 FM142000 VRB03KT P6SM SCT030 RMK NXT FCST BY 141200Z<br><br>
<br><br>
CYOO 141100Z AUTO 08007KT 9SM FEW120 20/18 A3019 RMK SLP225 DENSITY ALT 800FT<br><br>
CYOO 141000Z AUTO 10006KT 9SM FEW100 SCT120 20/17 A3019 RMK SLP223 DENSITY ALT 800FT<br><br>
CYOO has no TAF <br><br>
<br><br>
CYTR 141100Z 05005KT 15SM SCT054 SCT240 16/16 A3021 RMK SC3CI1 SLP231<br><br>
CYTR 141000Z 04005KT 15SM SCT038 SCT120 SCT240 17/16 A3020 RMK SC3AC1CI1 SLP228<br><br>
TAF CYTR 140530Z 1406/1506 VRB03KT 6SM BR SCT008 SCT040 TEMPO 1406/1412 2SM BR OVC008 FM141200 18005KT P6SM SCT015 BKN025 TEMPO 1414/1420 P6SM -SHRA OVC015 FM150200 VRB03KT 3SM BR BKN010 RMK NXT FCST BY 141200Z<br><br>
<br><br>
