RETRIEVED AT : Dec 11 2017 10:10 Local <br>
  RETRIEVED AT: Dec 11 2017 15:10 UTC<br><br>
CYSN 111500Z 34007KT 12SM -SN SCT019 OVC050 M03/M06 A3004 RMK SC4SC4 SLP178<br><br>
CYSN 111400Z VRB03KT 12SM -SN SCT020 OVC054 M03/M07 A3004 RMK SC3SC5 SLP178<br><br>
TAF CYSN 111338Z 1114/1202 VRB03KT P6SM SCT020 OVC050 TEMPO 1114/1118 P6SM -SHSN BKN020 OVC050 FM111800 04006KT P6SM SCT025 BKN120 TEMPO 1118/1122 BKN025 OVC120 FM112200 09010KT 4SM -SN OVC025 FM120000 10012KT 21/2SM -SN OVC020 RMK NXT FCST BY 112000Z<br><br>
<br><br>
TAF CYHM 111140Z 1112/1212 33008KT P6SM OVC030 TEMPO 1112/1114 5SM -SN OVC020 BECMG 1112/1114 06007KT FM112100 06008KT 6SM -SN OVC100 TEMPO 1121/1202 2SM -SHSN OVC015 FM120200 06008KT 1SM -SN BR OVC006 FM120800 05010KT 1/4SM -SN FG VV001 RMK NXT FCST BY 111800Z<br><br>
<br><br>
KIAG 111453Z 35006KT 9SM -SN OVC048 M02/M07 A3002 RMK AO2 SLP183 P0000 60000 T10221067 51010<br><br>
KIAG 111400Z 34003KT 9SM -SN OVC049 M03/M06 A3002 RMK AO2 P0000 T10281061<br><br>
KIAG 111353Z 00000KT 9SM -SN SCT015 BKN020 OVC049 M02/M06 A3002 RMK AO2 SLP182 P0000 T10221061<br><br>
KIAG 111425Z 1114/1212 VRB04KT P6SM SCT015 BKN050 FM112300 14006KT P6SM OVC025 FM120100 15008KT 2SM -SN OVC015 FM120900 13006KT 1SM -SN OVC012<br><br>
<br><br>
KBUF 111454Z 12004KT 10SM -SN FEW009 BKN015 BKN048 BKN260 M04/M07 A3002 RMK AO2 SLP177 CIG 013V018 PCPN VRY LGT P0000 60000 T10391067 53011 $<br><br>
KBUF 111434Z 00000KT 10SM -SN FEW009 BKN015 BKN048 BKN260 M04/M07 A3002 RMK AO2 PCPN VRY LGT P0000 T10391067 $<br><br>
KBUF 111415Z 06003KT 10SM -SN FEW009 SCT017 BKN048 BKN260 M04/M07 A3001 RMK AO2 PCPN VRY LGT P0000 T10391067 $<br><br>
KBUF 111354Z COR 02003KT 10SM -SN FEW009 SCT017 BKN050 BKN260 M04/M07 A3001 RMK AO2 SLP173 P0000 T10391067 $<br><br>
KBUF 111352Z 02003KT 10SM -SN FEW009 SCT017 BKN050 BKN260 M04/M07 A3001 RMK AO2 P0000 $<br><br>
KBUF 111351Z 01003KT 10SM -SN FEW009 SCT017 BKN050 M04/M07 A3001 RMK AO2 P0000 $<br><br>
KBUF 111336Z 34006KT 10SM -SN FEW009 BKN017 BKN050 M04/M07 A3002 RMK AO2 P0000 T10441067 $<br><br>
KBUF 111425Z 1114/1212 VRB04KT P6SM SCT015 BKN050 FM112300 15005KT P6SM OVC025 FM120200 17007KT 2SM -SN OVC015 FM120900 15006KT 1SM -SN OVC012<br><br>
<br><br>
TAF CYYZ 111438Z 1115/1218 VRB03KT P6SM SCT015 BKN040 TEMPO 1115/1116 P6SM -SHSN BKN015 OVC040 FM111600 VRB03KT P6SM BKN040 OVC180 FM111900 09008KT 6SM -SN BKN025 OVC080 TEMPO 1119/1202 2SM -SHSN BKN008 OVC020 FM120200 10010KT 1SM -SN BKN008 OVC012 FM120600 10008KT 3/4SM -SN OVC008 FM121100 04012KT 11/2SM -SN OVC012 FM121400 36008KT 21/2SM -SN OVC015 FM121600 33013G23KT 11/2SM -SHSN BKN030 OVC060 RMK NXT FCST BY 111800Z<br><br>
<br><br>
CYOO 111500Z AUTO 35011KT 9SM BKN150 M08/M16 A3004 RMK SLP182<br><br>
CYOO 111400Z AUTO 35012KT 9SM BKN040 M09/M14 A3004 RMK SLP183<br><br>
CYOO has no TAF <br><br>
<br><br>
CYTR 111500Z 01004KT 15SM FEW200 BKN250 M10/M14 A3008 RMK CS2CI3 SLP191<br><br>
CYTR 111400Z 36005KT 15SM FEW042 FEW250 M11/M14 A3007 RMK SC1CI1 SLP190<br><br>
TAF CYTR 111130Z 1112/1212 36005KT P6SM SKC FM111600 02005KT P6SM BKN200 FM112100 07005KT P6SM OVC100 BECMG 1201/1203 6SM -SN OVC020 FM120400 07010KT 11/2SM -SN OVC012 RMK NXT FCST BY 111800Z<br><br>
<br><br>
