RETRIEVED AT : Dec 09 2017 14:10 Local <br>
  RETRIEVED AT: Dec 09 2017 19:10 UTC<br><br>
CYSN 091900Z 21009KT 15SM OVC060 01/M08 A2976 RMK SC8 SLP082<br><br>
CYSN 091800Z 21009KT 15SM BKN100 01/M07 A2976 RMK AC7 SLP084<br><br>
TAF CYSN 091339Z 0914/1002 16010KT P6SM SCT015 BKN080 TEMPO 0914/0917 BKN015 BKN080 FM091700 21012KT P6SM FEW020 BKN080 BECMG 0920/0922 22007KT FM100000 22005KT P6SM -SN BKN020 OVC060 RMK NXT FCST BY 092000Z<br><br>
<br><br>
TAF CYHM 091742Z 0918/1018 21012KT P6SM FEW020 BKN080 BECMG 0920/0922 22007KT FM100000 22005KT P6SM -SN BKN030 OVC060 BECMG 1002/1004 28007KT FM101500 26015G25KT 6SM -SN BKN030 RMK NXT FCST BY 100000Z<br><br>
<br><br>
KIAG 091721Z 0918/1018 20010KT P6SM BKN120 FM092300 VRB03KT P6SM OVC090 FM100200 26004KT P6SM VCSH BKN080 FM100600 26007KT P6SM VCSH OVC045 FM101200 28011G19KT P6SM BKN040 FM101500 27015G26KT P6SM OVC050<br><br>
<br><br>
KBUF 091854Z 22007KT 10SM BKN100 BKN200 00/M11 A2974 RMK AO2 SLP080 T00001106<br><br>
KBUF 091754Z 23007KT 10SM SCT080 BKN120 BKN190 00/M11 A2977 RMK AO2 SLP089 4/001 T00001106 10000 21050 56028<br><br>
KBUF 091721Z 0918/1018 21009KT P6SM BKN120 FM100200 VRB03KT P6SM VCSH OVC050 FM100500 26006KT 1SM -SN OVC015 FM100800 26008KT P6SM VCSH OVC040 FM101200 27011G19KT P6SM BKN025 FM101500 27015G27KT P6SM OVC035<br><br>
<br><br>
CYYZ 091900Z 16005KT 150V230 15SM FEW035 OVC055 01/M10 A2973 RMK CF1NS8 CF TR SLP077<br><br>
CYYZ 091800Z 20007KT 15SM OVC040 01/M09 A2975 RMK NS8 SLP083<br><br>
TAF CYYZ 091742Z 0918/1024 20008KT P6SM SCT025 OVC040 TEMPO 0918/0923 P6SM -SN BECMG 1002/1004 26005KT FM100900 30012KT P6SM BKN040 FM101800 26015G25KT P6SM -SN BKN030 RMK NXT FCST BY 092100Z<br><br>
<br><br>
CYOO 091900Z AUTO 19006KT 170V250 9SM FEW070 SCT088 SCT120 01/M07 A2974 RMK SLP078<br><br>
CYOO 091800Z AUTO 18007KT 9SM FEW075 SCT130 01/M06 A2976 RMK SLP084<br><br>
CYOO has no TAF <br><br>
<br><br>
TAF CYTR 091730Z 0918/1018 21007KT P6SM SCT020 BKN030 OVC160 TEMPO 0918/0921 P6SM -SHSN BKN020 OVC030 FM092100 VRB03KT P6SM SCT020 BKN030 OVC070 TEMPO 0921/1006 5SM -SHSN BKN020 OVC030 FM100600 30005KT P6SM SCT070 BKN140 BECMG 1009/1011 30010KT BECMG 1017/1018 26012G22KT RMK NXT FCST BY 100000Z<br><br>
<br><br>
