RETRIEVED AT : Apr 04 2020 22:05 Local <br>
  RETRIEVED AT: Apr 05 2020 02:05 UTC<br><br>
CYSN 050100Z 12006KT 15SM FEW033 FEW095 08/05 A3000 RMK SC1AC1 LAST STFD OBS/NEXT 051100Z SLP163<br><br>
CYSN has no TAF <br><br>
<br><br>
CYHM 050100Z 19005KT 15SM BKN090 08/05 A3001 RMK AC7 SLP169<br><br>
TAF CYHM 042338Z 0500/0524 21007KT P6SM SCT030 BKN120 FM050300 23007KT P6SM -SHRA BKN030 OVC050 FM050700 29007KT P6SM SCT008 OVC020 FM051000 29008KT P6SM BKN010 OVC030 FM051400 33010KT P6SM SCT015 FM051800 36005KT P6SM BKN120 FM052100 06006KT P6SM SCT050 RMK NXT FCST BY 050600Z<br><br>
<br><br>
KIAG 050153Z 17006KT 10SM CLR 07/04 A3001 RMK AO2 SLP172 T00670039<br><br>
KIAG 050053Z 15003KT 10SM FEW031 08/05 A3001 RMK AO2 SLP171 T00830050<br><br>
KIAG 042321Z 0500/0524 VRB04KT P6SM SCT060 FM050400 20004KT P6SM BKN070 FM050900 VRB04KT P6SM OVC035 FM051300 28004KT P6SM OVC025 FM051900 32008KT P6SM BKN060 FM052200 30008KT P6SM SCT150<br><br>
<br><br>
KBUF 050154Z 19004KT 10SM FEW030 08/03 A3002 RMK AO2 SLP171 T00830033<br><br>
KBUF 050054Z 13003KT 10SM FEW020 FEW035 10/06 A3002 RMK AO2 SLP169 T01000056<br><br>
KBUF 042321Z 0500/0524 VRB04KT P6SM SCT060 FM050400 VRB03KT P6SM BKN070 FM051000 26006KT P6SM OVC035 FM051500 33008KT P6SM OVC025 FM052000 30008KT P6SM BKN035 FM052300 26006KT P6SM SCT120<br><br>
<br><br>
CYYZ 050100Z 14002KT 15SM FEW038 SCT160 SCT230 08/04 A3000 RMK SC1AC2CI1 SLP166<br><br>
CYYZ 050027Z 13002KT 15SM FEW038 SCT230 08/04 A3000 RMK SC2CI1 SLP166<br><br>
TAF CYYZ 042338Z 0500/0606 13008KT P6SM BKN030 TEMPO 0500/0503 SCT030 BKN100 FM050300 13006KT P6SM -SHRA BKN030 OVC080 FM050700 VRB03KT 4SM BR BKN006 OVC025 TEMPO 0507/0509 6SM BR SCT006 OVC025 FM050900 35008KT P6SM SCT008 BKN012 OVC040 PROB30 0509/0513 OVC008 FM051500 34015KT P6SM SCT015 FM052100 36012KT P6SM SKC RMK NXT FCST BY 050300Z<br><br>
<br><br>
CYOO 050100Z AUTO 00000KT 9SM OVC038 08/06 A3001 RMK SLP167<br><br>
TAF CYOO 050138Z 0502/0514 VRB03KT P6SM OVC040 TEMPO 0502/0505 OVC030 FM050500 VRB03KT P6SM SCT008 OVC025 TEMPO 0505/0511 4SM -SHRA BR BKN008 OVC025 PROB40 0506/0511 3SM -DZ BR OVC006 FM051100 32010KT P6SM OVC007 TEMPO 0511/0514 BKN012 OVC030 RMK FCST BASED ON AUTO OBS. NXT FCST BY 050800Z<br><br>
<br><br>
CYTR 050100Z 19003KT 15SM BKN050 07/05 A3002 RMK SC6 SLP170<br><br>
TAF CYTR 042330Z 0500/0524 21010KT P6SM BKN040 BKN120 BECMG 0500/0502 VRB03KT FM050900 VRB03KT 5SM -SHRA BR BKN020 OVC060 FM051100 VRB03KT 2SM -DZ BR OVC008 FM051400 31005KT P6SM OVC015 FM051700 32010KT P6SM SCT025 RMK NXT FCST BY 050600Z<br><br>
<br><br>
