RETRIEVED AT : May 15 2020 16:05 Local <br>
  RETRIEVED AT: May 15 2020 20:05 UTC<br><br>
CYSN 151918Z 33016G24KT 10SM -RA OVC029 17/13 A2977 RMK SC8 PRESRR SLP083 DENSITY ALT 800FT<br><br>
CYSN 151900Z 24024G34KT 15SM SCT040 OVC080 23/15 A2975 RMK SC4AC4 SLP075 DENSITY ALT 1600FT<br><br>
TAF CYSN 151939Z 1520/1601 28015G25KT P6SM -SHRA OVC025 TEMPO 1520/1523 4SM SHRA BR OVC015 PROB30 1520/1521 VRB25G35KT 2SM TSRA BR BKN008 OVC015CB FM152300 33008KT P6SM SCT015 BKN025 TEMPO 1523/1601 P6SM -SHRA BKN015 OVC025 RMK NXT FCST WILL BE ISSUED AT 161245Z<br><br>
<br><br>
CYHM 151900Z 28011G23KT 7SM -SHRA SCT020 BKN055 OVC084 18/16 A2980 RMK CU3SC3AC2 SLP092 DENSITY ALT 1500FT<br><br>
CYHM 151842Z 27015G22KT 15SM -SHRA BKN022 OVC051 20/16 A2978 RMK CU7SC1 VIS SW 3 SLP088 DENSITY ALT 1800FT<br><br>
TAF CYHM 151738Z 1518/1618 24015G30KT P6SM SCT015 BKN050 TEMPO 1518/1521 3SM -SHRA BR BKN015 OVC040 FM152100 30010G20KT P6SM BKN030 TEMPO 1521/1524 BKN020 FM160000 34008KT P6SM SKC BECMG 1601/1603 01005KT FM160600 04006KT P6SM SKC PROB40 1606/1611 1/2SM FG VV002 FM161100 05008KT 1SM BR OVC003 BECMG 1611/1613 P6SM NSW FEW006 FM161600 05010KT P6SM SKC RMK NXT FCST BY 160000Z<br><br>
<br><br>
KIAG 151959Z 31012KT 10SM -RA BKN028 BKN035 OVC060 17/14 A2981 RMK AO2 WSHFT 1940 P0000 T01720144<br><br>
KIAG 151953Z 30013G22KT 10SM -RA BKN047 OVC080 18/14 A2980 RMK AO2 PK WND 25029/1905 WSHFT 1931 RAB43 SLP092 P0000 T01780144<br><br>
KIAG 151951Z 30012G22KT 10SM -RA BKN047 OVC080 18/14 A2980 RMK AO2 PK WND 25029/1905 WSHFT 1931 RAB43 P0000<br><br>
KIAG 151853Z 25018G26KT 10SM OVC075 22/14 A2977 RMK AO2 PK WND 24038/1757 SLP079 T02170144<br><br>
KIAG 151724Z 1518/1618 24022G32KT P6SM BKN060 FM152000 32014G23KT 4SM SHRA OVC020 FM152200 32006KT P6SM VCSH OVC015 FM160000 26004KT P6SM OVC050 FM160300 VRB04KT P6SM BKN020 FM161700 02006KT P6SM SCT100<br><br>
<br><br>
KBUF 151954Z 23015G22KT 10SM FEW040 BKN065 OVC110 16/12 A2981 RMK AO2 PK WND 25037/1903 RAB36E44 SLP094 TCU DSNT SE MDT CU DSNT NE SHRA DSNT NE-E P0000 T01560117<br><br>
KBUF 151854Z 26019G38KT 10SM FEW040 BKN065 BKN110 BKN220 21/14 A2978 RMK AO2 PK WND 26039/1824 LTG DSNT SE AND S SLP084 SHRA DSNT E-S-SW T02110144<br><br>
KBUF 151724Z 1518/1618 24022G32KT P6SM VCSH BKN060 FM152000 33010G21KT 4SM SHRA OVC015 FM152200 31008KT P6SM VCSH OVC012 FM160000 26005KT P6SM OVC045 FM160300 VRB03KT P6SM BKN020<br><br>
<br><br>
CYYZ 151922Z 34016KT 12SM -RA FEW018 BKN030 OVC050 16/13 A2980 RMK SC1SC6SC1 PRESRR SLP094 DENSITY ALT 1000FT<br><br>
CYYZ 151900Z 34015KT 12SM SCT018 BKN030 OVC050 19/16 A2977 RMK SC3SC2SC3 SLP083 DENSITY ALT 1400FT<br><br>
CYYZ 151834Z 35006KT 290V360 15SM FEW020 FEW030 OVC050 18/16 A2976 RMK CF1SC2SC6 CF TR SLP081 DENSITY ALT 1300FT<br><br>
TAF AMD CYYZ 151830Z 1518/1624 VRB03KT P6SM SCT008 BKN025 TEMPO 1518/1521 3SM SHRA BR VCTS BKN008 OVC025CB BECMG 1519/1521 30012G22KT FM152100 35012KT P6SM BKN015 OVC025 TEMPO 1521/1524 SCT015 BKN025 FM160000 02012KT P6SM FEW030 FM160700 36006KT P6SM SKC PROB30 1607/1611 BKN005 BECMG 1613/1615 03008KT FM161900 15008KT P6SM SKC RMK NXT FCST BY 152100Z<br><br>
<br><br>
CYOO 151954Z AUTO 32009KT 9SM -RA SCT010 OVC100 15/14 A2979 RMK SLP091 DENSITY ALT 600FT<br><br>
CYOO 151946Z AUTO 33010G17KT 9SM SCT010 OVC095 15/14 A2979 RMK SLP090 DENSITY ALT 600FT<br><br>
CYOO 151914Z AUTO 32008KT 6SM BR FEW013 BKN020 BKN049 16/16 A2977 RMK SLP083 DENSITY ALT 800FT<br><br>
CYOO 151910Z AUTO 32006KT 270V330 6SM BR SCT017 BKN049 BKN065 16/16 A2976 RMK SLP081 DENSITY ALT 800FT<br><br>
CYOO 151900Z AUTO 28004KT 5SM HZ BKN047 BKN055 BKN076 16/ A2976 RMK TD MISG SLP082 DENSITY ALT 800FT<br><br>
CYOO 151841Z AUTO VRB02KT 3SM FEW004 SCT034 BKN055 OVC077 15/ A2976 RMK TD MISG SLP083 DENSITY ALT 700FT<br><br>
CYOO 151824Z AUTO 26004G17KT 230V310 3SM -RA SCT004 SCT024 BKN033 OVC055 14/ A2977 RMK TD MISG SLP085 DENSITY ALT 600FT<br><br>
CYOO 151818Z AUTO 30007G17KT 3SM -RA SCT004 BKN024 BKN034 OVC055 14/ A2978 RMK PRESRR TD MISG SLP087 DENSITY ALT 600FT<br><br>
CYOO 151817Z AUTO 30009G17KT 3SM SCT004 BKN024 BKN034 OVC055 14/ A2978 RMK PRESRR TD MISG SLP088 DENSITY ALT 600FT<br><br>
CYOO 151814Z AUTO 31008G16KT 3SM SCT004 SCT024 BKN034 OVC055 14/ A2978 RMK TD MISG SLP087 DENSITY ALT 600FT<br><br>
CYOO 151813Z AUTO 30005KT 240V330 2 1/2SM SCT004 SCT026 BKN034 OVC055 14/ A2976 RMK TD MISG SLP083 DENSITY ALT 600FT<br><br>
TAF CYOO 151938Z 1520/1608 32010G20KT P6SM -SHRA SCT012 OVC030 TEMPO 1520/1523 4SM -SHRA BR BKN008 OVC030 FM152300 33008KT P6SM SCT020 TEMPO 1523/1602 BKN020 FM160700 34006KT P6SM SCT005 PROB30 1607/1608 2SM BR BKN005 RMK FCST BASED ON AUTO OBS. NXT FCST BY 160200Z<br><br>
<br><br>
CYTR 151946Z 33004KT 3SM BR SCT008 OVC020 15/14 A2976 RMK SF4SC4 VIS VRB 2 1/4-4 SLP079<br><br>
CYTR 151923Z 31008KT 1 3/4SM -SHRA BR BKN008 OVC020 15/14 A2976 RMK SF6SC2 VIS VRB 1 1/4-2 1/4 SLP079<br><br>
CYTR 151900Z 23003KT 3SM BR BKN008 OVC040 15/13 A2974 RMK SF5SC3 VIS VRB 2 1/4-4 SLP074<br><br>
TAF AMD CYTR 151927Z 1519/1618 31008KT 11/2SM -SHRA BR OVC008 TEMPO 1519/1521 6SM BR SCT008 OVC020 FM152100 29010KT P6SM FEW006 SCT015 OVC025 TEMPO 1521/1523 P6SM -SHRA SCT006 OVC012 FM152300 32005KT P6SM SCT025 FM160600 33005KT P6SM SKC PROB30 1606/1610 1SM BR FM161700 20008KT P6SM BKN030 RMK NXT FCST BY 160000Z<br><br>
<br><br>
