RETRIEVED AT : Mar 29 2020 20:05 Local <br>
  RETRIEVED AT: Mar 30 2020 00:05 UTC<br><br>
CYSN 292300Z 26020G35KT 15SM FEW063 BKN094 14/05 A2966 RMK SC2AC5 SLP047 DENSITY ALT 600FT<br><br>
TAF CYSN 291938Z 2920/3001 21008KT P6SM SCT040 BECMG 2920/2921 23025G45KT FM300000 23018G30KT P6SM BKN030 RMK NXT FCST WILL BE ISSUED AT 301245Z<br><br>
<br><br>
CYHM 292300Z 25022G35KT 15SM FEW030 SCT075 11/04 A2967 RMK CF1AC3 CF TR SLP054 DENSITY ALT 800FT<br><br>
TAF AMD CYHM 292342Z 3000/3024 24022G35KT P6SM FEW030 BKN050 FM300200 23018G28KT P6SM FEW020 BKN040 TEMPO 3002/3006 P6SM -SHRA BKN020 OVC030 FM300600 23015G25KT P6SM -SHRA OVC015 TEMPO 3006/3012 P6SM NSW SCT020 OVC040 BECMG 3014/3016 26015G25KT FM302200 27010G20KT P6SM -SHRA BKN015 OVC030 RMK NXT FCST BY 300600Z<br><br>
<br><br>
KIAG 292353Z 25027G33KT 10SM OVC055 12/04 A2973 RMK AO2 PK WND 25033/2353 SLP074 60004 T01170039 10200 20117 51045<br><br>
KIAG 292253Z 25018G25KT 10SM BKN055 13/04 A2969 RMK AO2 PK WND 27042/2202 SLP059 T01280044<br><br>
KIAG 292340Z 3000/3024 25019G32KT P6SM BKN050 FM300300 23018G25KT P6SM BKN035 WS020/22045KT FM301000 23019G30KT P6SM OVC025 FM301300 23018G31KT P6SM VCSH OVC015 FM302200 25015KT P6SM VCSH OVC012<br><br>
<br><br>
KBUF 292354Z 22019G25KT 10SM BKN048 BKN100 08/04 A2978 RMK AO2 PK WND 21032/2319 SLP085 60020 T00830039 10222 20083 51048<br><br>
KBUF 292254Z 22020G25KT 10SM FEW070 BKN095 09/04 A2973 RMK AO2 PK WND 22027/2224 SLP070 T00940039<br><br>
KBUF 292340Z 3000/3024 25024G38KT P6SM BKN070 FM300300 24019G29KT P6SM OVC040 FM301200 24019G31KT P6SM VCSH OVC020 FM302100 24018G24KT 4SM -SHRA OVC007<br><br>
<br><br>
CYYZ 292300Z 24019G28KT 210V280 15SM SCT042 BKN060 BKN080 13/05 A2964 RMK CU3SC2AC2 PRESRR SLP043 DENSITY ALT 800FT<br><br>
TAF CYYZ 292338Z 3000/3106 24020G30KT P6SM BKN050 BECMG 3001/3003 23015G25KT FM300400 23015G25KT P6SM FEW020 BKN040 TEMPO 3004/3008 P6SM -SHRA BKN015 OVC030 FM300800 24012G22KT P6SM -SHRA OVC015 TEMPO 3008/3017 P6SM NSW SCT020 OVC030 FM301700 26015G25KT P6SM -SHRA OVC015 BECMG 3020/3022 29010G20KT FM310300 35008KT P6SM -SHRA OVC012 RMK NXT FCST BY 300300Z<br><br>
<br><br>
CYOO 292300Z AUTO 25021G32KT 200V270 9SM FEW075 BKN093 OVC110 15/05 A2961 RMK SLP030 DENSITY ALT 800FT<br><br>
CYOO 292242Z AUTO 21018G29KT 140V270 9SM FEW060 BKN078 OVC100 13/07 A2961 RMK SLP029 DENSITY ALT 600FT<br><br>
TAF AMD CYOO 292320Z 2923/3008 25018G35KT P6SM SCT040 BECMG 3001/3003 23015G25KT FM300500 23012G22KT P6SM FEW020 BKN040 TEMPO 3005/3008 P6SM -SHRA BKN015 OVC030 RMK FCST BASED ON AUTO OBS. NXT FCST BY 300200Z<br><br>
<br><br>
CYTR 292326Z 21008KT 10SM FEW015 OVC060 10/09 A2967 RMK SF1SC8 SLP048<br><br>
CYTR 292300Z 23006KT 6SM -SHRA BR FEW015 OVC065 10/09 A2966 RMK SF1SC8 PCPN VRY LGT SLP044<br><br>
CYTR 292249Z 24006KT 6SM -SHRA BR FEW015 OVC065 11/10 A2965 RMK SF1SC8 DA353FT SLP041<br><br>
TAF CYTR 292330Z 3000/3024 21008KT P6SM FEW015 OVC060 TEMPO 3000/3002 5SM -SHRA BR BECMG 3000/3002 23015G25KT FM300300 24015KT P6SM SCT020 BKN050 TEMPO 3003/3006 BKN020 OVC050 FM300600 23012KT P6SM SCT012 OVC025 TEMPO 3006/3012 5SM -RA -DZ BR BKN012 OVC025 FM301200 23012KT 3SM -SHRA BR OVC008 BECMG 3014/3016 24012G22KT FM301800 24012G22KT P6SM -SHRA OVC012 RMK NXT FCST BY 300600Z<br><br>
<br><br>
