RETRIEVED AT : Feb 23 2020 17:05 Local <br>
  RETRIEVED AT: Feb 23 2020 22:05 UTC<br><br>
CYSN 232100Z 21020G25KT 15SM SKC 09/M07 A2994 RMK SLP143<br><br>
TAF CYSN 231942Z 2320/2402 22015G25KT P6SM SCT240 RMK NXT FCST WILL BE ISSUED AT 241345Z<br><br>
<br><br>
CYHM 232100Z 20015G21KT 15SM FEW250 07/M05 A2992 RMK CI1 CI TR SLP139<br><br>
TAF CYHM 231742Z 2318/2418 22012G22KT P6SM FEW240 BECMG 2401/2403 23012KT FM241100 23008KT P6SM BKN015 RMK NXT FCST BY 240000Z<br><br>
<br><br>
KIAG 232153Z 21012KT 10SM CLR 08/M07 A2993 RMK AO2 SLP147 T00781072<br><br>
KIAG 232053Z 23015KT 10SM CLR 08/M08 A2995 RMK AO2 SLP152 T00781078 58022<br><br>
KIAG 232110Z 2321/2418 22014KT P6SM FEW250 FM240300 21016G24KT P6SM SCT200 FM241400 24012KT P6SM BKN025<br><br>
<br><br>
KBUF 232154Z 22007KT 10SM FEW250 07/M07 A2995 RMK AO2 SLP148 T00721072<br><br>
KBUF 232054Z 21010KT 10SM FEW065 FEW250 08/M08 A2997 RMK AO2 SLP153 T00781078 56019<br><br>
KBUF 232110Z 2321/2418 21012KT P6SM FEW250 FM240300 22014G22KT P6SM FEW250 FM241400 24012KT P6SM BKN025<br><br>
<br><br>
CYYZ 232100Z 20016G24KT 15SM FEW250 09/M05 A2990 RMK CI1 CI TR SLP132<br><br>
TAF CYYZ 232039Z 2321/2424 20012G25KT P6SM SCT240 BECMG 2401/2403 23012KT FM241000 22008KT P6SM BKN020 FM241800 27008KT P6SM SCT030 RMK NXT FCST BY 240000Z<br><br>
<br><br>
CYOO 232100Z AUTO 20013G19KT 9SM CLR 06/M03 A2993 RMK SLP142<br><br>
TAF CYOO 231942Z 2320/2408 20010G20KT P6SM FEW240 BECMG 2400/2402 22008KT RMK FCST BASED ON AUTO OBS. NXT FCST BY 240200Z<br><br>
<br><br>
CYTR 232100Z 21009KT 15SM SCT250 05/M03 A2997 RMK CI3 SLP152<br><br>
TAF CYTR 231735Z 2318/2418 23012G22KT P6SM OVC220 FM240000 22006KT P6SM FEW040 BECMG 2405/2407 23010KT FEW020 FM241100 25008KT P6SM BKN020 BECMG 2415/2417 26010G20KT RMK NXT FCST BY 240000Z<br><br>
<br><br>
