RETRIEVED AT : Oct 26 2018 08:05 Local <br>
  RETRIEVED AT: Oct 26 2018 12:05 UTC<br><br>
CYSN 261100Z 12004KT 15SM OVC140 03/03 A3004 RMK AC8 SLP178<br><br>
CYSN has no TAF <br><br>
<br><br>
CYHM 261100Z 04006KT 15SM FEW130 BKN230 00/M00 A3003 RMK AC1CI4 SLP179<br><br>
TAF CYHM 261138Z 2612/2712 04006KT P6SM SCT130 BKN230 FM261500 06007KT P6SM SCT025 OVC100 TEMPO 2615/2619 BKN025 OVC100 BECMG 2616/2617 08010G20KT FM270500 07012G22KT 6SM -SHRA BR BKN012 OVC025 FM270900 06015G25KT 11/2SM RA BR OVC004 RMK NXT FCST BY 261800Z<br><br>
<br><br>
KIAG 261153Z 12005KT 10SM OVC036 03/00 A3006 RMK AO2 SLP191 T00280000 10044 20017 53003<br><br>
KIAG 261053Z 11003KT 10SM SCT034 02/M01 A3005 RMK AO2 SLP188 T00221006<br><br>
KIAG 261130Z 2612/2712 14004KT P6SM BKN060 FM261600 10009KT P6SM BKN070 FM262300 08014KT P6SM OVC080 FM271100 08013KT 6SM -RA OVC070<br><br>
<br><br>
KBUF 261154Z 13006KT 10SM FEW150 BKN250 02/M01 A3007 RMK AO2 SLP188 T00221006 10039 20017 53003<br><br>
KBUF 261054Z 13006KT 10SM FEW100 OVC240 02/M01 A3006 RMK AO2 SLP184 T00221006<br><br>
KBUF 261130Z 2612/2712 13005KT P6SM BKN120 FM261600 11009KT P6SM BKN090 FM262000 09012KT P6SM OVC070 FM270800 08011KT P6SM -RA OVC070<br><br>
<br><br>
CYYZ 261100Z 11003KT 15SM BKN063 BKN100 05/01 A3004 RMK SC5AC2 SLP179<br><br>
TAF CYYZ 261138Z 2612/2718 09006KT P6SM BKN060 OVC100 TEMPO 2612/2617 P6SM -SHRA BKN020 OVC060 BECMG 2616/2617 12010KT FM261900 09012G22KT P6SM SCT025 OVC090 TEMPO 2623/2708 P6SM -SHRA BKN025 OVC090 FM270800 07010G20KT 6SM -RA BR BKN012 OVC025 FM271100 06012G22KT 3SM RA BR BKN006 OVC012 FM271700 06015G25KT 6SM -RA BR SCT006 OVC012 RMK NXT FCST BY 261500Z<br><br>
<br><br>
CYOO 261132Z AUTO 08007KT 9SM BKN025 OVC065 04/M00 A3007 RMK SLP188<br><br>
CYOO 261107Z AUTO 08007KT 9SM BKN023 OVC065 04/M00 A3006 RMK SLP186<br><br>
CYOO 261100Z AUTO 09007KT 9SM SCT023 OVC065 04/M00 A3006 RMK SLP186<br><br>
CYOO 261051Z AUTO 09007KT 9SM BKN023 OVC065 04/M00 A3006 RMK SLP186<br><br>
CYOO has no TAF <br><br>
<br><br>
CYTR 261100Z 06005KT 15SM OVC032 02/M01 A3010 RMK SC8 SLP198<br><br>
TAF CYTR 261130Z 2612/2712 06005KT P6SM OVC030 TEMPO 2614/2618 P6SM -SHRA BECMG 2614/2616 08010KT FM261800 12012KT P6SM BKN030 OVC080 TEMPO 2618/2702 P6SM -SHRA BECMG 2702/2704 07012KT RMK NXT FCST BY 261800Z<br><br>
<br><br>
