RETRIEVED AT : Apr 04 2020 00:05 Local <br>
  RETRIEVED AT: Apr 04 2020 04:05 UTC<br><br>
CYSN has no TAF <br><br>
<br><br>
CYHM 040300Z 03009KT 15SM FEW017 OVC026 06/03 A3003 RMK SC1SC8 SC TR SLP177<br><br>
TAF CYHM 032338Z 0400/0424 05006KT P6SM BKN030 TEMPO 0400/0404 6SM -SHRA BR BKN012 OVC030 PROB30 0402/0404 5SM -SHRA BR OVC008 FM040400 03005KT P6SM BKN012 OVC030 TEMPO 0404/0409 SCT012 BKN030 PROB30 0404/0409 5SM -DZ BR OVC008 FM040900 VRB03KT 6SM BR FEW002 BKN008 OVC030 PROB30 0409/0414 03005KT 1SM -DZ BR BKN002 OVC008 FM041400 VRB03KT P6SM BKN012 BKN030 FM041700 VRB03KT P6SM BKN025 FM042200 VRB03KT P6SM BKN030 BKN080 RMK NXT FCST BY 040600Z<br><br>
<br><br>
KIAG 040353Z AUTO 33004KT 8SM OVC003 06/04 A3002 RMK AO2 RAE14 SLP177 P0000 T00560044<br><br>
KIAG 040338Z AUTO 33005KT 9SM BKN003 OVC043 06/04 A3003 RMK AO2 RAE14 P0000 T00560044<br><br>
KIAG 040327Z AUTO 34006KT 10SM SCT003 BKN043 OVC070 06/04 A3003 RMK AO2 RAE14 P0000 T00560044<br><br>
KIAG 040254Z COR 000/00KT 10SM -RA OVC065 06/05 A3003<br><br>
KIAG 040253Z AUTO 00000KT 10SM -RA OVC065 06/04 A3003 RMK AO2 SLP179 P0001 60003 T00560044 50003<br><br>
KIAG 040201Z 0402/0424 VRB04KT 6SM -RA SCT015 BKN050 TEMPO 0402/0404 SCT007 BKN015 FM040400 VRB03KT 3SM BR OVC003 FM041300 VRB03KT 6SM BR OVC007 FM041600 VRB03KT P6SM BKN015 FM042000 VRB03KT P6SM BKN035<br><br>
<br><br>
KBUF 040354Z 23003KT 4SM -DZ BR BKN004 OVC017 05/04 A3002 RMK AO2 SLP173 RAEDZB20 P0000 T00500039<br><br>
KBUF 040308Z 21004KT 7SM -RA BKN004 OVC065 06/04 A3002 RMK AO2 P0000 T00560039<br><br>
KBUF 040254Z 21004KT 6SM -RA FEW004 FEW011 OVC060 06/04 A3003 RMK AO2 SLP173 P0002 60006 T00560039 50002<br><br>
KBUF 040228Z 21003KT 7SM -RA FEW005 SCT012 OVC046 06/04 A3003 RMK AO2 P0001 T00560044<br><br>
KBUF 040216Z 22003KT 7SM -RA SCT007 BKN012 OVC044 06/04 A3003 RMK AO2 P0001 T00560044<br><br>
KBUF 040200Z 0402/0424 VRB04KT 5SM -RA BR SCT015 BKN025 OVC050 TEMPO 0402/0404 BKN015 FM040400 VRB03KT 3SM BR OVC003 FM041400 VRB03KT 6SM BR BKN007 FM041700 25005KT P6SM BKN015 FM042000 25005KT P6SM BKN035<br><br>
<br><br>
CYYZ 040300Z 04006KT 330V070 15SM BKN074 OVC090 06/05 A3004 RMK AC7AC1 SLP179<br><br>
TAF CYYZ 040238Z 0403/0506 03008KT P6SM SCT025 OVC070 TEMPO 0403/0406 P6SM -DZ OVC020 FM040600 01008KT P6SM BKN030 TEMPO 0406/0415 FEW008 BKN020 PROB30 0406/0415 5SM -DZ BR BKN008 OVC020 FM041500 11008KT P6SM BKN015 OVC040 FM042000 14008KT P6SM BKN020 FM042200 13008KT P6SM BKN030 BKN080 FM050000 13008KT P6SM -SHRA BKN030 OVC080 FM050300 14006KT 4SM -RA -DZ BR SCT004 OVC015 FM050500 VRB03KT 11/2SM -DZ BR OVC004 RMK NXT FCST BY 040600Z<br><br>
<br><br>
CYOO 040312Z AUTO 33006KT 9SM SCT018 OVC036 06/06 A3003 RMK SLP173<br><br>
CYOO 040306Z AUTO 33006KT 9SM -RA SCT018 OVC036 06/06 A3003 RMK SLP173<br><br>
CYOO 040300Z AUTO 33006KT 9SM -RA BKN018 OVC036 06/06 A3003 RMK SLP173<br><br>
CYOO 040251Z AUTO 32006KT 9SM -RA BKN020 BKN031 OVC042 06/06 A3003 RMK SLP175<br><br>
TAF CYOO 040138Z 0402/0414 35005KT P6SM SCT012 BKN070 TEMPO 0402/0406 5SM -DZ BR BKN012 OVC070 PROB30 0402/0406 3SM -DZ BR BKN007 OVC012 FM040600 01006KT P6SM BKN012 OVC060 TEMPO 0406/0410 5SM -DZ BR OVC007 FM041000 02005KT 3SM -DZ BR OVC006 TEMPO 0410/0414 P6SM NSW OVC010 RMK FCST BASED ON AUTO OBS. NXT FCST BY 040800Z<br><br>
<br><br>
CYTR 040351Z 36004KT 12SM OVC026 07/06 A3002 RMK SC8 SLP168<br><br>
CYTR 040300Z 35005KT 12SM OVC022 07/06 A3002 RMK SC8 SLP169<br><br>
TAF AMD CYTR 040314Z 0403/0424 36005KT P6SM SCT012 OVC025 TEMPO 0403/0407 3SM -DZ BR SCT008 OVC012 FM040700 02005KT P6SM SCT008 OVC020 TEMPO 0407/0415 3SM BR BKN008 OVC015 FM041500 VRB03KT P6SM BKN015 OVC025 BECMG 0417/0419 22008KT RMK NXT FCST BY 040600Z<br><br>
<br><br>
