RETRIEVED AT : Oct 29 2018 01:05 Local <br>
  RETRIEVED AT: Oct 29 2018 05:05 UTC<br><br>
CYSN has no TAF <br><br>
<br><br>
CYHM 290400Z 30004KT 15SM R12/4000VP6000FT/U SCT030 BKN100 BKN240 04/04 A2964 RMK SC4AC1CC2 SLP045<br><br>
TAF CYHM 282338Z 2900/2924 VRB03KT P6SM OVC030 TEMPO 2900/2903 5SM -RA BR OVC020 FM290300 35008KT P6SM OVC025 FM290500 31008KT P6SM SCT010 BKN050 FM291100 27010KT P6SM -SHRA SCT020 BKN030 BECMG 2915/2917 27015G25KT FM291700 27015G25KT P6SM BKN025 FM292100 29015G25KT P6SM FEW030 SCT090 RMK NXT FCST BY 290600Z<br><br>
<br><br>
KIAG 290453Z AUTO 00000KT 5SM BR OVC027 06/04 A2963 RMK AO2 SLP045 T00560044 400560022<br><br>
KIAG 290437Z AUTO 00000KT 5SM BR FEW010 SCT013 OVC025 06/05 A2963 RMK AO2 T00560050<br><br>
KIAG 290417Z AUTO 00000KT 5SM BR OVC013 06/04 A2962 RMK AO2 T00560044<br><br>
KIAG 290353Z AUTO 00000KT 5SM BR BKN017 OVC028 06/05 A2963 RMK AO2 SLP043 T00560050<br><br>
KIAG 290255Z 2903/2924 VRB03KT 6SM -RA BR OVC015 FM290800 32005KT 5SM -RA BR OVC007 FM291100 27009KT P6SM OVC015 FM291500 27014G24KT P6SM VCSH OVC025 FM292000 28017G24KT P6SM BKN035<br><br>
<br><br>
KBUF 290454Z 00000KT 10SM -RA SCT038 OVC055 05/04 A2963 RMK AO2 SLP040 P0000 T00500044 400560022<br><br>
KBUF 290354Z 11003KT 10SM -RA BKN034 OVC080 05/04 A2963 RMK AO2 SLP037 P0000 T00500044<br><br>
KBUF 290255Z 2903/2924 18006KT 6SM -RA BR OVC025 FM290500 00000KT P6SM VCSH OVC015 FM290800 VRB03KT 5SM -RA BR OVC007 FM291100 27008KT P6SM VCSH OVC015 FM291600 27014G23KT P6SM VCSH OVC025 FM292200 28015G25KT P6SM OVC035<br><br>
<br><br>
CYYZ 290436Z 02006KT 15SM FEW010 OVC022 05/03 A2964 RMK ST1SC7 SLP044<br><br>
CYYZ 290413Z 35009KT 8SM -DZ FEW005 OVC010 05/03 A2964 RMK SF1ST7 SLP044<br><br>
CYYZ 290400Z 31007KT 6SM -RA SCT013 OVC022 06/04 A2964 RMK ST4SC4 SLP044<br><br>
TAF CYYZ 290238Z 2903/3006 VRB03KT P6SM FEW009 OVC025 TEMPO 2903/2906 5SM -SHRA BR OVC009 FM290600 32007KT P6SM OVC025 TEMPO 2906/2913 P6SM -RA -DZ OVC015 FM291300 25008KT P6SM SCT015 OVC050 TEMPO 2913/2915 P6SM -SHRASN BKN015 OVC050 FM291500 29010G20KT P6SM SCT015 OVC050 TEMPO 2915/2917 P6SM -SHRA BKN015 OVC030 FM291700 29015G25KT P6SM BKN030 FM291900 29015G25KT P6SM SCT030 BKN100 FM300000 29012G25KT P6SM FEW030 SCT100 BECMG 3003/3005 28012KT FEW030 RMK NXT FCST BY 290600Z<br><br>
<br><br>
CYOO 290409Z AUTO 35003KT 7SM BKN023 OVC029 04/04 A2964 RMK SLP042<br><br>
CYOO 290404Z AUTO 35003KT 6SM -RA BR BKN023 OVC029 04/04 A2964 RMK SLP042<br><br>
CYOO 290400Z AUTO 35003KT 6SM -RA BR BKN025 BKN029 OVC045 04/04 A2964 RMK SLP042<br><br>
CYOO 290339Z AUTO 01002KT 6SM -RA BR SCT013 BKN025 BKN046 OVC060 04/04 A2964 RMK SLP043<br><br>
CYOO 290335Z AUTO 02002KT 6SM BR SCT013 BKN025 OVC046 04/04 A2964 RMK SLP043<br><br>
CYOO has no TAF <br><br>
<br><br>
CYTR 290423Z 36002KT 4SM BR FEW018 OVC045 03/03 A2965 RMK SC2SC6 SLP046<br><br>
CYTR 290400Z 02002KT 4SM BR BKN018 OVC054 03/03 A2965 RMK SC6SC2 SLP046<br><br>
CYTR 290333Z 00000KT 4SM BR BKN018 OVC052 03/03 A2966 RMK SC5SC3 SLP048<br><br>
TAF CYTR 282330Z 2900/2924 VRB03KT P6SM SCT008 OVC025 TEMPO 2900/2903 2SM -RA BR OVC008 FM290300 VRB03KT P6SM SCT020 BKN050 TEMPO 2903/2914 5SM -RA BR OVC020 FM291400 27005KT 5SM -RASN BR BKN006 OVC020 TEMPO 2914/2917 P6SM NSW SCT006 OVC020 FM291700 29010KT P6SM SCT015 OVC030 TEMPO 2917/2924 P6SM -RASN RMK NXT FCST BY 290600Z<br><br>
<br><br>
