RETRIEVED AT : Nov 06 2017 07:10 Local <br>
  RETRIEVED AT: Nov 06 2017 12:10 UTC<br><br>
CYSN 061200Z 34010KT 15SM SCT017 OVC022 08/06 A2995 RMK SF3SC5 PRESRR SLP143<br><br>
CYSN has no TAF <br><br>
<br><br>
CYHM 061200Z 31014KT 15SM OVC020 07/03 A2995 RMK SC8 SLP148<br><br>
CYHM 061100Z 33009G15KT 15SM OVC018 07/04 A2992 RMK SC8 SLP137<br><br>
TAF CYHM 061138Z 0612/0712 31010G20KT P6SM BKN025 TEMPO 0612/0616 OVC020 FM062000 32010KT P6SM BKN030 FM070200 32005KT P6SM FEW030 SCT140 RMK NXT FCST BY 061800Z<br><br>
<br><br>
KIAG 061153Z 34011KT 4SM -RA BKN010 OVC014 08/06 A2994 RMK AO2 SLP142 P0000 60008 70080 T00830056 10161 20083 51027<br><br>
KIAG 061134Z AUTO 33011KT 4SM -RA BKN013 OVC020 09/06 A2992 RMK AO2 P0000 T00940061<br><br>
KIAG 061053Z AUTO 31011KT 8SM -RA OVC025 10/06 A2990 RMK AO2 SLP128 P0000 T01000056<br><br>
KIAG 061132Z 0612/0712 31011KT P6SM -RA OVC025 FM062000 32011KT P6SM BKN250 FM062300 32009KT P6SM BKN030 FM070100 33007KT P6SM SCT030 FM070600 VRB03KT P6SM BKN100 FM071000 36004KT P6SM BKN090<br><br>
<br><br>
KBUF 061154Z 31011KT 10SM -RA SCT012 OVC026 08/07 A2993 RMK AO2 SLP136 P0000 60016 70169 T00830067 10156 20083 53033<br><br>
KBUF 061122Z 31011KT 10SM -RA FEW006 BKN015 OVC024 08/07 A2991 RMK AO2 P0000 T00830072 $<br><br>
KBUF 061112Z 31011KT 7SM -RA BKN008 BKN013 OVC024 08/08 A2990 RMK AO2 P0000 T00830078 $<br><br>
KBUF 061054Z 32012KT 9SM -RA SCT008 BKN015 OVC023 09/08 A2989 RMK AO2 SLP125 P0001 T00940083 $<br><br>
KBUF 061042Z 31010KT 8SM -RA SCT008 BKN015 OVC021 10/09 A2989 RMK AO2 P0001 T01000089 $<br><br>
KBUF 061034Z 29008KT 6SM -RA BR BKN007 OVC017 10/09 A2988 RMK AO2 CIG 005V012 P0001 T01000094 $<br><br>
KBUF 061023Z 29008KT 5SM -RA BR FEW005 SCT009 OVC017 10/09 A2988 RMK AO2 P0001 T01000094 $<br><br>
KBUF 061018Z 29009KT 4SM -RA BR BKN007 OVC016 10/09 A2987 RMK AO2 CIG 005V012 P0000 T01000094 $<br><br>
KBUF 061132Z 0612/0712 31011KT P6SM -RA BKN015 OVC024 FM061400 31011G17KT P6SM OVC025 FM061800 31011KT P6SM BKN025 FM062000 32010KT P6SM SCT025 FM070000 33007KT P6SM SCT030 FM071100 05004KT P6SM BKN090<br><br>
<br><br>
CYYZ 061200Z 31015KT 15SM OVC025 07/02 A2995 RMK SC8 SLP146<br><br>
CYYZ 061100Z 33018KT 15SM OVC020 07/03 A2991 RMK SC8 SLP131<br><br>
TAF CYYZ 061138Z 0612/0718 33015G25KT P6SM BKN025 TEMPO 0612/0615 OVC020 BECMG 0622/0623 35010KT FM070400 31007KT P6SM FEW030 SCT130 FM071400 27008KT P6SM SCT200 RMK NXT FCST BY 061500Z<br><br>
<br><br>
CYOO 061200Z AUTO 30012G20KT 9SM OVC027 07/03 A2992 RMK PRESRR SLP136<br><br>
CYOO 061109Z AUTO 31018G24KT 9SM OVC025 08/03 A2988 RMK SLP123<br><br>
CYOO 061100Z AUTO 30019G26KT 9SM OVC021 08/04 A2988 RMK SLP123<br><br>
CYOO has no TAF <br><br>
<br><br>
CYTR 061100Z 28010KT 15SM BKN017 OVC038 10/07 A2982 RMK SC6SC2 SLP101<br><br>
TAF CYTR 061130Z 0612/0712 29008KT P6SM SCT012 BKN030 TEMPO 0612/0614 BKN012 OVC030 FM061500 30012G22KT P6SM SCT030 BECMG 0620/0622 32008KT SKC FM070600 VRB03KT P6SM SCT020 RMK NXT FCST BY 061800Z<br><br>
<br><br>
