RETRIEVED AT : Jun 15 2018 07:05 Local <br>
  RETRIEVED AT: Jun 15 2018 11:05 UTC<br><br>
CYSN has no TAF <br><br>
<br><br>
TAF CYHM 150538Z 1506/1606 33005KT P6SM FEW250 FM151500 05006KT P6SM FEW050 BECMG 1520/1522 21008KT RMK NXT FCST BY 151200Z<br><br>
<br><br>
KIAG 151053Z 00000KT 10SM CLR 14/09 A3007 RMK AO2 SLP180 T01390089<br><br>
KIAG 150953Z AUTO 00000KT 10SM CLR 13/08 A3006 RMK AO2 SLP179 T01280078<br><br>
KIAG 150902Z 1509/1606 VRB03KT P6SM SKC FM151500 31004KT P6SM SKC FM152300 VRB03KT P6SM SKC FM160200 21004KT P6SM SKC<br><br>
<br><br>
KBUF 151054Z 20004KT 10SM FEW150 13/09 A3007 RMK AO2 SLP182 T01280089<br><br>
KBUF 150954Z 19005KT 10SM CLR 11/08 A3006 RMK AO2 SLP180 T01060078<br><br>
KBUF 150902Z 1509/1606 35004KT P6SM SKC FM151500 32004KT P6SM SKC FM152300 VRB03KT P6SM SKC FM160200 21004KT P6SM SKC<br><br>
<br><br>
CYYZ 151000Z 28005KT 15SM BKN092 14/08 A3006 RMK AC5 SLP179<br><br>
TAF CYYZ 150838Z 1509/1612 34006KT P6SM SCT080 TEMPO 1509/1512 BKN080 FM151400 34008KT P6SM FEW050 BECMG 1517/1519 16008KT FM160300 VRB03KT P6SM SKC RMK NXT FCST BY 151200Z<br><br>
<br><br>
CYOO 151000Z AUTO 36004KT 9SM BKN090 11/08 A3005 RMK SLP177<br><br>
CYOO has no TAF <br><br>
<br><br>
CYTR 151000Z 27003KT 15SM FEW074 FEW200 11/09 A3002 RMK AC1CI1 SLP167<br><br>
TAF CYTR 150534Z 1506/1606 VRB03KT P6SM SKC FM151200 32005KT P6SM FEW070 BECMG 1513/1515 32010KT BECMG 1517/1519 20010KT FM160000 27005KT P6SM SKC RMK NXT FCST BY 151200Z<br><br>
<br><br>
