RETRIEVED AT : Mar 30 2020 04:05 Local <br>
  RETRIEVED AT: Mar 30 2020 08:05 UTC<br><br>
CYSN has no TAF <br><br>
<br><br>
CYHM 300700Z 22012KT 15SM -RA FEW035 OVC085 07/05 A2972 RMK SC2AC6 SLP067<br><br>
TAF CYHM 300542Z 3006/3106 23012G22KT P6SM FEW020 BKN040 TEMPO 3006/3009 P6SM -SHRA BKN020 OVC030 FM300900 23012G22KT P6SM -SHRA OVC015 TEMPO 3009/3012 P6SM NSW SCT015 OVC025 BECMG 3014/3016 26012G22KT FM302200 27010G20KT P6SM BKN015 OVC030 BECMG 3100/3102 27008KT FM310500 01008KT P6SM BKN007 OVC012 RMK NXT FCST BY 301200Z<br><br>
<br><br>
KIAG 300753Z AUTO 21011KT 10SM FEW065 OVC095 07/04 A2974 RMK AO2 RAE09 SLP075 P0000 T00670039<br><br>
KIAG 300653Z AUTO 23013KT 10SM -RA FEW028 BKN060 OVC080 08/04 A2974 RMK AO2 RAB21E36B52 SLP076 P0000 T00830044<br><br>
KIAG 300537Z 3006/3106 22017KT P6SM OVC100 FM300700 23015G25KT P6SM BKN080 FM301100 23013G23KT P6SM OVC030 TEMPO 3013/3015 4SM -SHRA OVC015 FM301500 23013G23KT 6SM -SHRA BR OVC015 FM302200 24010G18KT 6SM -SHRA OVC012 FM310100 26009KT P6SM OVC015 FM310300 25008KT P6SM OVC007<br><br>
<br><br>
KBUF 300754Z 23019G28KT 10SM -RA OVC049 08/04 A2976 RMK AO2 PK WND 22028/0752 RAB36 SLP078 P0000 T00830044<br><br>
KBUF 300654Z 23014G23KT 10SM SCT043 BKN050 OVC090 09/04 A2976 RMK AO2 SLP080 T00890044<br><br>
KBUF 300537Z 3006/3106 23014G22KT P6SM BKN080 OVC100 FM301200 24014G25KT P6SM OVC030 TEMPO 3013/3015 4SM -SHRA OVC015 FM301500 24015G27KT 6SM -SHRA BR OVC012 FM301800 24015G26KT 6SM -SHRA OVC007 FM302300 24011G17KT 6SM -SHRA OVC012 FM310200 25009KT P6SM OVC007<br><br>
<br><br>
CYYZ 300700Z 22006KT 180V260 15SM FEW025 FEW040 BKN070 08/03 A2971 RMK CF1SC2AC5 CF TR SLP065<br><br>
TAF CYYZ 300542Z 3006/3112 22010G20KT P6SM -RA SCT020 BKN030 OVC070 TEMPO 3006/3010 BKN015 OVC030 FM301000 24012G22KT P6SM -SHRA OVC015 TEMPO 3010/3021 P6SM NSW SCT015 OVC025 BECMG 3016/3018 26010G20KT FM302100 29010G20KT P6SM -SHRA OVC015 FM310300 36010KT P6SM BKN009 OVC012 RMK NXT FCST BY 300900Z<br><br>
<br><br>
CYOO 300700Z AUTO 18003KT 9SM -RA BKN038 OVC049 06/05 A2971 RMK SLP066<br><br>
CYOO 300617Z AUTO 19006KT 9SM -RA FEW030 SCT036 OVC055 07/05 A2973 RMK SLP071<br><br>
TAF CYOO 300738Z 3008/3020 21010KT P6SM FEW020 BKN030 TEMPO 3008/3012 P6SM -SHRA BKN015 OVC030 FM301200 24010G20KT P6SM -SHRA OVC015 TEMPO 3012/3020 P6SM NSW SCT015 OVC025 RMK FCST BASED ON AUTO OBS. NXT FCST BY 301400Z<br><br>
<br><br>
CYTR 300700Z 21004KT 15SM FEW035 OVC075 07/04 A2974 RMK SC2AC6 SLP078<br><br>
TAF CYTR 300530Z 3006/3106 22008G18KT P6SM FEW050 OVC080 TEMPO 3006/3013 5SM -SHRA BR BKN030 OVC050 FM301300 23010G20KT P6SM -SHRA BKN010 OVC025 TEMPO 3013/3018 P6SM NSW SCT010 OVC025 FM301800 24012G22KT 4SM -SHRA BR OVC010 BECMG 3021/3023 24008KT FM310100 VRB03KT P6SM -SHRA BKN006 OVC010 RMK NXT FCST BY 301200Z<br><br>
<br><br>
