RETRIEVED AT : May 11 2018 07:05 Local <br>
  RETRIEVED AT: May 11 2018 11:05 UTC<br><br>
CYSN has no TAF <br><br>
<br><br>
CYHM 111000Z 02008KT 15SM BKN031 BKN170 05/M01 A3011 RMK SC6AC1 PRESRR SLP200<br><br>
TAF CYHM 110538Z 1106/1206 35010G20KT P6SM SKC BECMG 1106/1108 03012KT FM112000 06010KT P6SM BKN180 FM120200 06008KT P6SM -SHRA OVC080 RMK NXT FCST BY 111200Z<br><br>
<br><br>
KIAG 111053Z 02007KT 10SM OVC028 07/M02 A3013 RMK AO2 SLP207 T00671017<br><br>
KIAG 111007Z AUTO 36005KT 10SM BKN026 05/00 A3009 RMK AO2 T00500000<br><br>
KIAG 110953Z AUTO 35005KT 10SM FEW027 05/00 A3009 RMK AO2 SLP194 T00500000<br><br>
KIAG 111041Z 1111/1206 35005KT P6SM BKN025 FM111400 03006KT P6SM SCT035 SCT250 FM111800 36006KT P6SM BKN200 FM112300 VRB03KT P6SM OVC100 FM120400 09004KT 6SM -RA OVC050<br><br>
<br><br>
KBUF 111054Z 34008KT 10SM BKN024 07/01 A3012 RMK AO2 SLP202 T00670011<br><br>
KBUF 111035Z 33005KT 10SM BKN024 07/01 A3011 RMK AO2 T00670006<br><br>
KBUF 110954Z 35004KT 10SM SCT035 06/M01 A3008 RMK AO2 SLP190 T00561006<br><br>
KBUF 111041Z 1111/1206 33005KT P6SM BKN025 FM111400 04006KT P6SM SCT035 SCT250 FM111800 36006KT P6SM BKN200 FM112300 VRB03KT P6SM OVC100 FM120400 11004KT 6SM -RA OVC050<br><br>
<br><br>
CYYZ 111000Z 36009KT 15SM BKN043 BKN190 06/M04 A3011 RMK SC5AC2 SLP201<br><br>
TAF AMD CYYZ 111026Z 1110/1212 01010KT P6SM BKN040 BKN200 FM111400 01010KT P6SM FEW050 SCT180 FM112000 15008KT P6SM BKN180 FM120400 06005KT P6SM OVC080 FM120800 09005KT P6SM -RA OVC050 FM121100 05010KT P6SM OVC030 RMK NXT FCST BY 111200Z<br><br>
<br><br>
CYOO 111000Z AUTO 01008KT 9SM OVC200 05/M04 A3010 RMK SLP198<br><br>
CYOO has no TAF <br><br>
<br><br>
CYTR 111000Z 36008KT 15SM FEW040 BKN250 05/M04 A3011 RMK SC2CI3 SLP198<br><br>
TAF AMD CYTR 110607Z 1106/1206 01010KT P6SM FEW030 TEMPO 1106/1109 BKN020 BECMG 1114/1116 22010KT FM120100 VRB03KT P6SM BKN180 RMK NXT FCST BY 111200Z<br><br>
<br><br>
