RETRIEVED AT : May 11 2018 08:05 Local <br>
  RETRIEVED AT: May 11 2018 12:05 UTC<br><br>
CYSN 111100Z 03009G16KT 15SM OVC033 06/M02 A3014 RMK SC8 SLP209<br><br>
CYSN has no TAF <br><br>
<br><br>
CYHM 111100Z 02009KT 15SM FEW032 BKN170 05/M02 A3014 RMK SC2AC3 PRESRR SLP211<br><br>
TAF CYHM 111138Z 1112/1212 03010KT P6SM BKN030 BKN180 FM111500 05010KT P6SM FEW030 SCT180 FM112000 06010KT P6SM BKN150 FM120500 06008KT P6SM -SHRA OVC050 FM120800 05010KT P6SM -RA OVC030 FM121100 04012KT 11/2SM -RA BR SCT004 OVC008 RMK NXT FCST BY 111800Z<br><br>
<br><br>
KIAG 111200Z 04011KT 10SM OVC031 07/M03 A3015 RMK AO2 T00721028<br><br>
KIAG 111153Z 05010KT 10SM OVC028 07/M03 A3015 RMK AO2 SLP214 70001 T00721028 10072 20039 53023<br><br>
KIAG 111053Z 02007KT 10SM OVC028 07/M02 A3013 RMK AO2 SLP207 T00671017<br><br>
KIAG 111007Z AUTO 36005KT 10SM BKN026 05/00 A3009 RMK AO2 T00500000<br><br>
KIAG 111120Z 1112/1212 03007KT P6SM BKN025 FM111400 04006KT P6SM SCT200 FM111800 36006KT P6SM BKN150 FM112300 VRB03KT P6SM OVC100 FM120200 VRB03KT P6SM VCSH OVC070 FM120400 09004KT 6SM -RA OVC050 FM121000 05007KT 6SM -RA OVC025<br><br>
<br><br>
KBUF 111154Z 03010G17KT 10SM BKN025 08/M02 A3014 RMK AO2 SLP208 T00781022 10094 20056 53020<br><br>
KBUF 111054Z 34008KT 10SM BKN024 07/01 A3012 RMK AO2 SLP202 T00670011<br><br>
KBUF 111035Z 33005KT 10SM BKN024 07/01 A3011 RMK AO2 T00670006<br><br>
KBUF 111120Z 1112/1212 02006KT P6SM BKN025 FM111400 04006KT P6SM SCT200 FM111800 36006KT P6SM BKN150 FM112300 VRB03KT P6SM OVC100 FM120200 VRB03KT P6SM VCSH OVC070 FM120400 09004KT 6SM -RA OVC050 FM121000 07008KT 6SM -RA OVC025<br><br>
<br><br>
CYYZ 111100Z 01011KT 15SM SCT045 BKN190 05/M04 A3015 RMK SC4AC1 SLP215<br><br>
TAF CYYZ 111138Z 1112/1218 01010KT P6SM BKN040 BKN200 FM111400 01010KT P6SM FEW040 SCT200 BECMG 1118/1120 15008KT OVC150 FM120400 06005KT P6SM OVC080 FM120800 09005KT P6SM -SHRA OVC050 FM121100 05010KT P6SM -RA OVC030 FM121400 05012KT P6SM -SHRA BKN015 OVC025 FM121700 06012KT P6SM FEW015 SCT050 RMK NXT FCST BY 111500Z<br><br>
<br><br>
CYOO 111100Z AUTO 02007KT 9SM SCT210 05/M04 A3014 RMK SLP210<br><br>
CYOO has no TAF <br><br>
<br><br>
CYTR 111100Z 01009KT 15SM FEW040 BKN250 05/M04 A3013 RMK SC2CI5 SLP205<br><br>
TAF CYTR 111130Z 1112/1212 01010KT P6SM FEW040 BKN250 BECMG 1115/1117 22010KT FM120100 VRB03KT P6SM BKN180 FM120900 VRB03KT P6SM BKN120 RMK NXT FCST BY 111800Z<br><br>
<br><br>
