RETRIEVED AT : May 24 2020 23:05 Local <br>
  RETRIEVED AT: May 25 2020 03:05 UTC<br><br>
CYSN has no TAF <br><br>
<br><br>
CYHM 250200Z 18006KT 15SM FEW100 20/16 A2996 RMK AC1 SLP144 DENSITY ALT 1600FT<br><br>
TAF CYHM 242338Z 2500/2524 20012G22KT P6SM SCT040 TEMPO 2500/2503 P6SM -SHRA VCTS SCT030CB BKN040 FM250300 22010KT P6SM BKN040 FM251600 22012KT P6SM SCT040 RMK NXT FCST BY 250600Z<br><br>
<br><br>
KIAG 250253Z 18014KT 10SM SCT060 24/16 A2996 RMK AO2 SLP140 T02390161 53004 $<br><br>
KIAG 250153Z 17005KT 10SM CLR 23/17 A2995 RMK AO2 SLP139 T02330167<br><br>
KIAG 250255Z 2503/2524 19010KT P6SM SCT120 FM250600 20012KT P6SM VCSH BKN080 FM250900 20012KT P6SM SCT100 FM251100 20011KT P6SM BKN120<br><br>
<br><br>
KBUF 250254Z 17012KT 10SM FEW080 FEW180 SCT250 23/16 A2999 RMK AO2 SLP151 T02280161 53008<br><br>
KBUF 250154Z 17011KT 10SM FEW060 SCT080 SCT180 SCT250 24/17 A2998 RMK AO2 SLP148 T02390167<br><br>
KBUF 250255Z 2503/2524 18007KT P6SM SCT150 FM250600 20011KT P6SM VCSH BKN080 FM251100 20011KT P6SM BKN080 FM251400 22010G16KT P6SM SCT250 FM251600 23011KT P6SM SCT250<br><br>
<br><br>
CYYZ 250200Z 14003KT 15SM SCT080 BKN100 19/14 A2994 RMK AC3AC4 SLP138 DENSITY ALT 1100FT<br><br>
TAF CYYZ 250247Z 2503/2606 14005KT P6SM FEW050 BKN100 TEMPO 2503/2505 P6SM -SHRA VCTS SCT030CB BKN050 FM250500 18010KT P6SM BKN030 FM250900 16010KT P6SM FEW030 BECMG 2510/2512 24012KT FM252000 17010KT P6SM VCTS SCT030CB BKN050 FM260200 22008KT P6SM FEW060 RMK NXT FCST BY 250600Z<br><br>
<br><br>
CYOO 250200Z AUTO 11006KT 9SM FEW100 BKN150 OVC250 20/14 A2993 RMK SLP137 DENSITY ALT 1100FT<br><br>
TAF CYOO 250138Z 2502/2514 VRB03KT P6SM SCT080 BKN120 TEMPO 2502/2507 P6SM -SHRA BKN040 OVC080 PROB30 2502/2507 VRB15G25KT 4SM TSRA BKN030 OVC060CB FM250700 VRB03KT P6SM FEW020 SCT080 RMK FCST BASED ON AUTO OBS. NXT FCST BY 250800Z<br><br>
<br><br>
CYTR 250243Z 17011G16KT 15SM -SHRA FEW059 BKN079 23/13 A2997 RMK SC1AC6 PCPN VRY LGT SLP151<br><br>
CYTR 250200Z 15010KT 15SM BKN062 BKN110 23/13 A2998 RMK SC5AC2 SLP151<br><br>
TAF CYTR 242330Z 2500/2524 14008KT P6SM FEW050 SCT100 BKN250 FM250200 19008KT P6SM -SHRA FEW020 BKN040 OVC060 PROB30 2502/2506 VRB15G25KT 2SM TSRA BR SCT020 OVC030CB FM250600 20005KT 3SM -SHRA BR SCT006 BKN012 OVC025 TEMPO 2506/2509 P6SM NSW FEW006 SCT012 OVC025 FM250900 20005KT 2SM -DZ BR BKN006 OVC010 TEMPO 2509/2515 6SM BR SCT006 BKN010 OVC020 PROB30 2509/2513 1SM -DZ BR OVC004 FM251500 20005KT 6SM BR SCT008 OVC012 FM251700 20005KT P6SM BKN015 BECMG 2517/2519 22010KT FEW015 FM252000 22010KT P6SM FEW040 RMK NXT FCST BY 250600Z<br><br>
<br><br>
