RETRIEVED AT : May 30 2020 10:05 Local <br>
  RETRIEVED AT: May 30 2020 14:05 UTC<br><br>
CYSN 301322Z 20007KT 10SM -SHRA BKN012 OVC023 15/15 A2995 RMK CU5SC3 CVCTV CLD EMBD SLP145 DENSITY ALT 400FT<br><br>
CYSN 301300Z 20010KT 15SM BKN023 OVC090 16/13 A2995 RMK SC6AC2 SLP143 DENSITY ALT 500FT<br><br>
TAF AMD CYSN 301335Z 3013/3101 20008KT P6SM SCT020 BKN090 TEMPO 3013/3017 P6SM -SHRA BKN020 FM301700 30015G25KT P6SM SCT040 TEMPO 3017/3101 BKN040 RMK NXT FCST BY 302000Z<br><br>
<br><br>
CYHM 301300Z 23011KT 7SM OVC004 14/13 A2996 RMK SC8 SLP150 DENSITY ALT 800FT<br><br>
CYHM 301224Z 21005KT 8SM OVC004 13/13 A2996 RMK SC8 SLP148 DENSITY ALT 800FT<br><br>
TAF AMD CYHM 301150Z 3012/3112 20005KT P6SM SCT004 BKN040 TEMPO 3012/3014 BKN005 BKN020 BECMG 3012/3014 28012KT FM301400 30012G22KT P6SM BKN030 TEMPO 3014/3017 BKN020 FM301700 30015G25KT P6SM BKN040 FM310100 32010KT P6SM FEW040 RMK NXT FCST BY 301800Z<br><br>
<br><br>
KIAG 301353Z 20008KT 10SM BKN011 BKN024 OVC031 15/13 A2995 RMK AO2 RAB32E41 SLP143 P0000 T01500128<br><br>
KIAG 301338Z 19011KT 10SM -RA FEW009 BKN026 OVC060 15/12 A2995 RMK AO2 RAB32 P0000 T01500122<br><br>
KIAG 301313Z 18011KT 10SM SCT009 BKN043 BKN085 15/12 A2996 RMK AO2 T01500122<br><br>
KIAG 301253Z 18009KT 10SM BKN047 16/12 A2996 RMK AO2 SLP146 T01610117<br><br>
KIAG 301333Z 3014/3112 21012KT P6SM OVC060 TEMPO 3014/3018 5SM -SHRA OVC025 FM301800 27016G24KT P6SM BKN050 FM310000 31012KT P6SM SCT060 FM310400 33005KT P6SM SCT060<br><br>
<br><br>
KBUF 301354Z 19011KT 10SM FEW017 SCT029 BKN036 16/13 A2995 RMK AO2 SLP143 T01560128 $<br><br>
KBUF 301256Z 21006KT 10SM FEW009 BKN070 BKN100 BKN200 14/12 A2998 RMK AO2 T01390122 $<br><br>
KBUF 301334Z 3014/3112 23012KT P6SM VCSH OVC040 TEMPO 3014/3018 5SM -SHRA OVC025 FM301900 25015G23KT P6SM BKN050 FM310000 30012KT P6SM SCT060 FM310400 32005KT P6SM SCT060<br><br>
<br><br>
CYYZ 301300Z VRB02KT 15SM FEW034 BKN043 BKN090 16/11 A2995 RMK CF1SC5AC1 SLP143 DENSITY ALT 800FT<br><br>
TAF CYYZ 301138Z 3012/3118 24008KT P6SM BKN050 TEMPO 3012/3015 BKN020 BECMG 3012/3014 27010G20KT FM301700 29015G25KT P6SM BKN050 FM310100 34012KT P6SM SCT040 BECMG 3101/3103 34006KT FM311100 35012KT P6SM SKC RMK NXT FCST BY 301500Z<br><br>
<br><br>
CYOO 301300Z AUTO VRB02KT 9SM SCT011 BKN060 BKN077 BKN095 15/12 A2995 RMK SLP144<br><br>
CYOO 301259Z AUTO VRB02KT 9SM SCT011 BKN060 BKN077 BKN095 15/12 A2995 RMK SLP145<br><br>
CYOO 301231Z AUTO 23003KT 190V260 9SM BKN011 BKN075 OVC094 14/12 A2996 RMK SLP148<br><br>
TAF CYOO 301338Z 3014/3102 25010KT P6SM SCT015 BKN060 TEMPO 3014/3017 BKN015 FM301700 28012G22KT P6SM BKN030 BECMG 3018/3020 31015G25KT RMK FCST BASED ON AUTO OBS. NXT FCST BY 302000Z<br><br>
<br><br>
CYTR 301300Z 26005KT 15SM FEW022 BKN110 16/09 A2995 RMK SC1AC7 SC TR SLP143<br><br>
TAF CYTR 301130Z 3012/3112 29005KT P6SM FEW012 SCT100 BECMG 3014/3016 22010KT FM301600 22010KT P6SM SCT020 BKN040 TEMPO 3016/3021 5SM -SHRA BR BKN020 OVC040 BECMG 3016/3018 26012G22KT FM302100 26012G22KT P6SM SCT025 BKN040 BECMG 3100/3102 34010KT FEW040 FM310700 34005KT P6SM FEW025 RMK NXT FCST BY 301800Z<br><br>
<br><br>
