RETRIEVED AT : Jul 12 2019 19:13 Local <br>
  RETRIEVED AT: Jul 12 2019 23:13 UTC<br><br>
CYSN 122300Z 28009KT 15SM BKN033 BKN160 21/16 A2988 RMK SC5AC2 SLP118 DENSITY ALT 1200FT<br><br>
CYSN 122200Z 29009KT 15SM OVC033 21/16 A2988 RMK SC8 SLP120 DENSITY ALT 1200FT<br><br>
TAF CYSN 121939Z 1220/1301 30008G18KT P6SM SCT040 TEMPO 1220/1224 BKN040 BECMG 1221/1223 36007KT RMK NXT FCST WILL BE ISSUED AT 131245Z<br><br>
<br><br>
CYHM 122300Z 26008KT 15SM BKN030 20/15 A2990 RMK SC7 SLP126 DENSITY ALT 1600FT<br><br>
CYHM 122200Z 30008KT 15SM BKN028 20/15 A2991 RMK SC7 SLP130 DENSITY ALT 1600FT<br><br>
TAF AMD CYHM 122004Z 1220/1318 27007KT P6SM BKN025 TEMPO 1220/1222 BKN020 FM122200 27007KT P6SM BKN030 TEMPO 1222/1224 SCT030 FM130000 27007KT P6SM FEW040 TEMPO 1300/1301 BKN040 FM130800 24006KT P6SM FEW006 FM131200 23008KT P6SM SKC FM131500 23012G22KT P6SM BKN030 BECMG 1315/1317 24015G25KT RMK NXT FCST BY 130000Z<br><br>
<br><br>
KIAG 122253Z 31010KT 10SM OVC038 21/15 A2989 RMK AO2 SLP121 T02110150<br><br>
KIAG 122153Z 31010KT 10SM BKN033 OVC041 22/14 A2988 RMK AO2 SLP118 T02170144<br><br>
KIAG 122106Z 1221/1318 30008KT P6SM BKN035 FM130000 25007KT P6SM SCT035 FM131500 22012G18KT P6SM SCT080 FM131700 23015G21KT P6SM SCT060<br><br>
<br><br>
KBUF 122254Z 23012KT 10SM SCT028 OVC040 22/15 A2989 RMK AO2 SLP120 T02170150<br><br>
KBUF 122221Z 25010KT 10SM SCT025 OVC035 22/15 A2989 RMK AO2 T02170150<br><br>
KBUF 122154Z 27010KT 10SM BKN028 OVC041 22/16 A2989 RMK AO2 SLP119 T02170156<br><br>
KBUF 122106Z 1221/1318 30005KT P6SM BKN025 FM122200 26010KT P6SM BKN035 FM130000 25011G17KT P6SM SCT035 FM131100 22006KT P6SM SCT250 FM131500 23011G17KT P6SM SCT080<br><br>
<br><br>
CYYZ 122300Z VRB04KT 15SM FEW030 BKN041 23/15 A2986 RMK CF1SC5 CF TR SLP112 DENSITY ALT 1700FT<br><br>
CYYZ 122200Z VRB07KT 15SM BKN040 24/15 A2986 RMK SC7 SLP113 DENSITY ALT 1900FT<br><br>
TAF CYYZ 122038Z 1221/1324 VRB03KT P6SM BKN030 FM122200 01006KT P6SM SCT040 TEMPO 1222/1224 BKN040 FM130300 VRB03KT P6SM FEW100 FM131400 26008KT P6SM BKN060 FM131700 26015G25KT P6SM -SHRA VCTS BKN040CB FM132100 27015G25KT P6SM -SHRA BKN040 PROB30 1321/1324 VRB15G30KT 2SM TSRA BR BKN030CB RMK NXT FCST BY 130000Z<br><br>
<br><br>
CYOO 122300Z AUTO 28004KT 240V330 9SM CLR 23/15 A2985 RMK SLP109 DENSITY ALT 1500FT<br><br>
CYOO 122200Z AUTO 28009KT 9SM OVC034 22/15 A2987 RMK SLP116 DENSITY ALT 1400FT<br><br>
TAF CYOO 121938Z 1220/1308 32010KT P6SM BKN025 TEMPO 1220/1222 BKN020 FM122300 34005KT P6SM SCT030 TEMPO 1223/1301 BKN030 RMK FCST BASED ON AUTO OBS. NXT FCST BY 130200Z<br><br>
<br><br>
CYTR 122300Z 25010KT 15SM FEW036 SCT210 24/16 A2983 RMK SC2CI2 SLP100<br><br>
CYTR 122200Z 21011KT 15SM SCT042 25/18 A2981 RMK SC3 SLP093<br><br>
TAF CYTR 121730Z 1218/1318 30008KT P6SM SCT020 BKN060 TEMPO 1218/1220 BKN020 OVC060 FM130300 27005KT P6SM FEW030 SCT060 FM130800 VRB03KT P6SM FEW100 FM131500 22012KT P6SM FEW060 SCT100 RMK NXT FCST BY 130000Z<br><br>
<br><br>
