RETRIEVED AT : Jun 07 2019 17:05 Local <br>
  RETRIEVED AT: Jun 07 2019 21:05 UTC<br><br>
CYSN 072000Z 35006KT 15SM FEW250 25/11 A2999 RMK CI2 SLP157 DENSITY ALT 1500FT<br><br>
TAF CYSN 071939Z 0720/0801 33006KT P6SM SKC BECMG 0722/0724 02005KT RMK NXT FCST WILL BE ISSUED AT 081245Z<br><br>
<br><br>
CYHM 072000Z 09008KT 010V150 15SM FEW060 FEW260 25/10 A3000 RMK CU1CI2 CU TR SLP161 DENSITY ALT 2100FT<br><br>
TAF CYHM 071738Z 0718/0818 04006KT P6SM FEW240 FM080300 03005KT P6SM SKC BECMG 0812/0814 05015KT RMK NXT FCST BY 080000Z<br><br>
<br><br>
KIAG 072053Z 03008KT 10SM CLR 25/09 A3000 RMK AO2 SLP157 T02500089 56003<br><br>
KIAG 071953Z 36009KT 10SM CLR 25/10 A3000 RMK AO2 SLP159 T02500100<br><br>
KIAG 071720Z 0718/0818 VRB05KT P6SM FEW250<br><br>
<br><br>
KBUF 072054Z 01009KT 10SM FEW060 FEW290 25/09 A2999 RMK AO2 SLP154 T02500094 57002<br><br>
KBUF 071954Z 36009KT 10SM FEW060 SCT250 25/10 A3000 RMK AO2 SLP157 T02500100<br><br>
KBUF 071720Z 0718/0818 VRB03KT P6SM FEW250<br><br>
<br><br>
CYYZ 072000Z 05010G17KT 350V070 15SM FEW250 26/08 A2999 RMK CI1 CI TR SLP156 DENSITY ALT 1900FT<br><br>
TAF CYYZ 072038Z 0721/0824 05012KT P6SM FEW250 BECMG 0723/0801 02007KT FM081200 08012KT P6SM SKC BECMG 0814/0816 13010G20KT RMK NXT FCST BY 080000Z<br><br>
<br><br>
CYOO 072000Z AUTO 33012G17KT 300V020 9SM CLR 26/07 A2998 RMK SLP153 DENSITY ALT 1800FT<br><br>
TAF CYOO 071939Z 0720/0808 VRB03KT P6SM SKC BECMG 0804/0806 04008KT RMK FCST BASED ON AUTO OBS. NXT FCST BY 080200Z<br><br>
<br><br>
CYTR 072000Z 20009KT 15SM FEW050 FEW250 22/12 A2997 RMK CF1CI1 SLP149<br><br>
TAF CYTR 071730Z 0718/0818 21012KT P6SM FEW250 BECMG 0800/0802 VRB03KT BECMG 0804/0806 04007KT FM081400 09007KT P6SM SKC BECMG 0816/0818 21010KT RMK NXT FCST BY 080000Z<br><br>
<br><br>
