RETRIEVED AT : Apr 21 2019 16:41 Local <br>
  RETRIEVED AT: Apr 21 2019 20:41 UTC<br><br>
CYSN 212000Z 23005KT 15SM OVC018 12/08 A3007 RMK SC8 WND ESTD SLP185<br><br>
CYSN 211900Z 23005KT 15SM BKN016 OVC037 11/08 A3006 RMK SC5SC3 WND ESTD SLP183<br><br>
TAF CYSN 211938Z 2120/2201 24005KT P6SM BKN015 OVC030 TEMPO 2120/2121 SCT015 BKN030 FM212100 29005KT P6SM BKN025 TEMPO 2121/2201 OVC020 RMK NXT FCST WILL BE ISSUED AT 221245Z<br><br>
<br><br>
CYHM 212000Z 18006KT 15SM OVC017 11/09 A3007 RMK SC8 CIG RAG SLP188<br><br>
CYHM 211900Z 22007KT 15SM FEW017 OVC024 11/08 A3006 RMK SC2SC6 SLP184<br><br>
TAF CYHM 211742Z 2118/2218 22007KT P6SM BKN008 OVC025 TEMPO 2118/2120 SCT008 OVC025 FM212000 25006KT P6SM OVC020 TEMPO 2120/2122 BKN025 FM212200 26005KT P6SM BKN025 TEMPO 2122/2124 BKN020 FM220000 VRB03KT P6SM FEW012 SCT120 TEMPO 2202/2214 2SM BR PROB30 2208/2213 1/2SM FG VV002 FM221400 05007KT P6SM BKN008 FM221700 06008KT P6SM FEW015 SCT080 RMK NXT FCST BY 220000Z<br><br>
<br><br>
KIAG 211953Z 23007KT 8SM BKN017 OVC023 11/07 A3007 RMK AO2 SLP192 T01060072 $<br><br>
KIAG 211853Z 24007KT 10SM OVC016 10/07 A3007 RMK AO2 SLP190 T01000067 $<br><br>
KIAG 211731Z 2118/2218 22005KT P6SM OVC010 FM220100 21007KT 5SM BR BKN060 FM220600 21005KT 4SM BR OVC030 FM220900 22004KT 1SM BR OVC007 FM221200 VRB03KT 4SM BR OVC015 FM221400 VRB03KT P6SM BKN035<br><br>
<br><br>
KBUF 211954Z 22012KT 10SM SCT008 SCT013 BKN035 BKN130 BKN200 09/07 A3009 RMK AO2 SLP195 T00940067<br><br>
KBUF 211936Z 23010KT 10SM SCT008 BKN013 BKN035 09/06 A3009 RMK AO2 T00890061<br><br>
KBUF 211854Z 23010KT 10SM BKN006 OVC031 08/07 A3008 RMK AO2 SLP191 T00830067<br><br>
KBUF 211844Z 24011KT 10SM SCT008 OVC031 08/07 A3008 RMK AO2 T00830067<br><br>
KBUF 212015Z 2120/2218 22012KT P6SM SCT008 BKN035 FM220500 22005KT 3SM BR BKN015 FM220900 23004KT 1SM BR OVC007 FM221200 VRB03KT 4SM BR OVC003 FM221400 00000KT P6SM BKN025 FM221700 VRB03KT P6SM SCT070<br><br>
<br><br>
CYYZ 212000Z 16009KT 15SM OVC028 11/07 A3006 RMK SC8 SLP185<br><br>
CYYZ 211900Z 00000KT 15SM FEW025 OVC030 13/07 A3005 RMK CU2SC6 SLP179<br><br>
TAF CYYZ 211742Z 2118/2224 25005KT P6SM OVC020 TEMPO 2118/2121 P6SM -RA BKN025 OVC080 FM212100 17007KT P6SM BKN025 TEMPO 2121/2122 BKN020 FM212300 14006KT P6SM SCT020 SCT120 BECMG 2202/2203 VRB03KT FM220900 33005KT P6SM SCT012 BKN100 TEMPO 2209/2215 BKN012 OVC100 FM221600 07008KT P6SM FEW015 BECMG 2219/2220 15010KT RMK NXT FCST BY 212100Z<br><br>
<br><br>
CYOO 212000Z AUTO 20005KT 9SM OVC023 10/08 A3007 RMK SLP186<br><br>
CYOO 211944Z AUTO 20006KT 9SM OVC023 10/07 A3007 RMK SLP186<br><br>
CYOO 211904Z AUTO 20005KT 160V250 9SM OVC025 10/08 A3006 RMK SLP185<br><br>
CYOO 211900Z AUTO 19006KT 170V250 9SM BKN023 OVC027 10/08 A3006 RMK SLP185<br><br>
TAF CYOO 211943Z 2120/2208 21005KT P6SM OVC025 TEMPO 2120/2122 OVC020 FM212200 29006KT P6SM SCT025 TEMPO 2122/2202 BKN020 BECMG 2200/2201 VRB03KT RMK FCST BASED ON AUTO OBS. NXT FCST BY 220200Z<br><br>
<br><br>
CYTR 212020Z 17004KT 15SM OVC016 11/08 A3007 RMK SC8 SLP186<br><br>
CYTR 212000Z 19003KT 15SM OVC014 11/08 A3007 RMK SC8 SLP187<br><br>
CYTR 211952Z 19004KT 15SM OVC014 11/08 A3007 RMK SC8 SLP186<br><br>
CYTR 211900Z 22004KT 12SM FEW007 OVC018 11/08 A3006 RMK SF2SC6 SLP183<br><br>
TAF AMD CYTR 211834Z 2118/2218 24008KT P6SM BKN005 OVC060 TEMPO 2118/2119 BKN015 OVC060 FM211900 24008KT P6SM BKN012 BKN060 TEMPO 2119/2122 BKN025 BKN060 FM212200 VRB03KT P6SM BKN040 BECMG 2206/2208 02008KT FM221400 02008KT P6SM SCT040 RMK NXT FCST BY 220000Z<br><br>
<br><br>
