RETRIEVED AT : Jul 01 2018 14:34 Local <br>
  RETRIEVED AT: Jul 01 2018 18:34 UTC<br><br>
TAF CYSN 011238Z 0113/0201 23012KT P6SM FEW240 RMK NXT FCST BY 012000Z<br><br>
<br><br>
CYHM 011800Z 18014KT 15SM FEW040 31/22 A3000 RMK CU1 SLP155 DENSITY ALT 2800FT<br><br>
CYHM 011700Z 22012KT 15SM FEW038 31/22 A3001 RMK CU1 CU TR SLP158 DENSITY ALT 2800FT<br><br>
TAF CYHM 011738Z 0118/0218 22015KT P6SM FEW040 BECMG 0200/0202 19008KT FM021200 24012G22KT P6SM BKN060 PROB30 0212/0218 2SM TSRA BR OVC020CB RMK NXT FCST BY 020000Z<br><br>
<br><br>
KIAG 011753Z 20012KT 10SM CLR 34/21 A3000 RMK AO2 SLP149 T03390206 10339 20261 58012<br><br>
KIAG 011653Z 21012KT 10SM CLR 34/22 A3001 RMK AO2 SLP154 T03390217<br><br>
KIAG 011737Z 0118/0218 22012G18KT P6SM SKC FM020000 20005KT P6SM SCT250 FM021200 22010KT P6SM SCT100<br><br>
<br><br>
KBUF 011754Z 25009KT 10SM FEW230 SCT280 31/20 A3002 RMK AO2 SLP158 T03110200 10317 20256 58013<br><br>
KBUF 011654Z 25009KT 10SM FEW035 FEW190 SCT270 31/21 A3003 RMK AO2 SLP164 T03060211<br><br>
KBUF 011737Z 0118/0218 23012G18KT P6SM SKC FM020000 20005KT P6SM SCT250 FM021200 23010KT P6SM SCT060 FM021700 23014G22KT P6SM SCT060<br><br>
<br><br>
CYYZ 011800Z 24014KT 160V250 15SM FEW050 FEW260 34/22 A2997 RMK CU1CI1 CU TR CI TR SLP145 DENSITY ALT 2800FT<br><br>
CYYZ 011725Z 21012KT 170V250 15SM FEW045 FEW260 33/21 A2997 RMK CU1CI1 CU TR CI TR WSHFT 1717 SLP146 DENSITY ALT 2700FT<br><br>
CYYZ 011700Z 26009G15KT 190V270 15SM FEW045 FEW260 33/22 A2998 RMK CU1CI1 CI TR SLP148 DENSITY ALT 2700FT<br><br>
TAF CYYZ 011738Z 0118/0224 23015KT P6SM FEW040 BECMG 0200/0202 22008KT FM021600 24015KT P6SM BKN050 PROB30 0217/0224 1SM +TSRA BR BKN020 OVC050CB RMK NXT FCST BY 012100Z<br><br>
<br><br>
CYOO 011800Z AUTO 19012G17KT 9SM CLR 31/21 A2997 RMK SLP149 DENSITY ALT 2300FT<br><br>
CYOO 011700Z AUTO 19011KT 9SM CLR 30/22 A2998 RMK SLP151 DENSITY ALT 2200FT<br><br>
CYOO has no TAF <br><br>
<br><br>
CYTR 011800Z 21010KT 12SM FEW040 SCT240 30/23 A2997 RMK CU1CI4 SLP148<br><br>
CYTR 011700Z 20008KT 12SM FEW040 SCT250 29/23 A2997 RMK CU1CI4 SLP150<br><br>
TAF CYTR 011730Z 0118/0218 22012KT P6SM FEW040 FEW240 BECMG 0123/0201 22008KT FM020100 22008KT P6SM SKC PROB30 0206/0210 1SM BR BECMG 0214/0216 23012G22KT RMK NXT FCST BY 020000Z<br><br>
<br><br>
