RETRIEVED AT : Dec 10 2017 09:10 Local <br>
  RETRIEVED AT: Dec 10 2017 14:10 UTC<br><br>
CYSN 101400Z 25013G21KT 15SM FEW030 SCT050 OVC100 M02/M08 A2987 RMK SC1SC2AC5 SLP123<br><br>
CYSN 101300Z 25017G24KT 15SM FEW030 OVC100 M02/M09 A2987 RMK SC2AC6 SLP119<br><br>
TAF CYSN 101340Z 1014/1102 25018G28KT P6SM SCT030 OVC100 FM101900 25020G30KT 4SM -SHSN BKN030 OVC060 TEMPO 1019/1101 P6SM NSW SCT030 BKN060 PROB30 1019/1101 21/2SM -SHSN OVC015 FM110100 25020G30KT P6SM BKN030 OVC060 RMK NXT FCST BY 102000Z<br><br>
<br><br>
TAF CYHM 101139Z 1012/1112 25010G20KT P6SM BKN040 BECMG 1013/1015 25015G25KT FM101800 26015G30KT P6SM -SN BKN030 OVC050 TEMPO 1018/1106 4SM -SN OVC020 PROB30 1103/1105 11/2SM -SHSN VV008 FM110600 33008KT P6SM SCT030 RMK NXT FCST BY 101800Z<br><br>
<br><br>
KIAG 101353Z 26019G25KT 10SM BKN040 OVC100 M02/M09 A2986 RMK AO2 PK WND 25026/1310 SLP126 T10171089<br><br>
KIAG 101253Z 27019G26KT 10SM FEW025 BKN033 OVC110 M02/M08 A2985 RMK AO2 PK WND 26026/1251 SLP123 T10171078<br><br>
KIAG 101120Z 1012/1112 27012KT P6SM BKN040 FM101500 26018G27KT P6SM BKN040 FM110000 25015G23KT P6SM BKN035 FM110200 25015G23KT P6SM VCSH BKN035 FM110500 28012KT P6SM VCSH BKN035 FM110700 31008KT P6SM BKN035<br><br>
<br><br>
KBUF 101354Z 27017G27KT 10SM FEW022 BKN055 OVC070 M03/M08 A2986 RMK AO2 PK WND 27027/1348 SLP121 T10281078<br><br>
KBUF 101254Z 28010G19KT 10SM FEW013 FEW026 BKN050 OVC130 M03/M07 A2985 RMK AO2 SLP116 T10281067<br><br>
KBUF 101120Z 1012/1112 27012KT P6SM BKN040 FM101500 25016G25KT P6SM BKN040 FM102100 25016G24KT 2SM -SHSN OVC015 FM110200 25014G20KT P6SM VCSH OVC035 FM110500 27010KT P6SM VCSH BKN035 FM110800 30007KT P6SM BKN035<br><br>
<br><br>
CYYZ 101400Z 26014KT 15SM FEW015 OVC040 M03/M10 A2983 RMK SC1SC8 SC TR SLP112<br><br>
CYYZ 101300Z CCA 28014KT 15SM FEW015 BKN040 OVC170 M03/M10 A2982 RMK SC1SC7AC1 SC TR CVCTV CLD EMBD SH W-N SLP108<br><br>
TAF CYYZ 101139Z 1012/1118 25010G20KT P6SM SCT025 BKN060 BECMG 1013/1015 25015G25KT FM101600 25015G25KT P6SM -SN BKN030 OVC060 TEMPO 1016/1101 5SM -SN OVC020 FM110100 25015KT 6SM -SN OVC030 TEMPO 1101/1104 3SM -SN OVC020 PROB30 1102/1104 33012G22KT 11/4SM -SN OVC015 FM110400 35012KT P6SM -SHSN BKN030 FM110600 35010KT P6SM SCT030 FM111500 09008KT P6SM BKN180 RMK NXT FCST BY 101500Z<br><br>
<br><br>
CYOO 101400Z AUTO 26010G17KT 9SM SCT090 BKN170 M03/M10 A2980 RMK SLP100<br><br>
CYOO 101300Z AUTO 26016G21KT 9SM OVC100 M03/M10 A2979 RMK SLP097<br><br>
CYOO 101246Z AUTO 26014G21KT 9SM FEW035 OVC110 M03/M08 A2979 RMK SLP095<br><br>
CYOO 101231Z AUTO 26012G17KT 9SM -SN BKN037 OVC110 M03/M08 A2979 RMK SLP094<br><br>
CYOO has no TAF <br><br>
<br><br>
TAF AMD CYTR 101406Z 1014/1112 27008KT P6SM SCT020 BKN070 TEMPO 1014/1018 P6SM -SHSN BKN020 OVC070 FM101800 25015G25KT P6SM SCT020 BKN070 TEMPO 1018/1022 4SM -SHSN BKN020 FM102200 26015G25KT P6SM FEW015 BKN030 TEMPO 1022/1101 4SM -SHSN BKN015 PROB30 1022/1101 1SM -SHSN BKN012 OVC030 FM110100 30012KT P6SM SCT030 BKN050 FM110600 33010KT P6SM SCT050 FM111000 33005KT P6SM FEW220 RMK NXT FCST BY 101800Z<br><br>
<br><br>
