RETRIEVED AT : Oct 03 2017 07:10 Local <br>
  RETRIEVED AT: Oct 03 2017 11:10 UTC<br><br>
CYSN 031100Z 18006KT 15SM SCT210 12/09 A3042 RMK CI3 SLP303<br><br>
CYSN has no TAF <br><br>
<br><br>
CYHM 031100Z 00000KT 15SM BCFG FEW240 10/10 A3043 RMK CI1 SLP308<br><br>
CYHM 031039Z 14003KT 15SM BCFG FEW250 10/10 A3042 RMK CI1 SLP306<br><br>
CYHM 031000Z 15002KT 15SM FEW250 10/10 A3041 RMK CI1 CI TR SLP303<br><br>
TAF CYHM 030548Z 0306/0406 04006KT P6SM SKC FM030800 VRB03KT P6SM SKC PROB30 0309/0313 11/2SM BR FM031500 20012KT P6SM SKC BECMG 0318/0320 20012G22KT RMK NXT FCST BY 031200Z<br><br>
<br><br>
KIAG 031053Z 14003KT 10SM CLR 08/04 A3044 RMK AO2 SLP312 T00780044<br><br>
KIAG 030953Z AUTO 10003KT 10SM CLR 08/05 A3042 RMK AO2 SLP305 T00830050<br><br>
KIAG 030854Z 0309/0406 15004KT P6SM FEW250 FM031400 21009KT P6SM SKC FM040000 19008KT P6SM FEW250<br><br>
<br><br>
KBUF 031054Z 15005KT 10SM FEW300 11/07 A3045 RMK AO2 SLP313 T01060067<br><br>
KBUF 030954Z 14006KT 10SM CLR 11/07 A3043 RMK AO2 SLP306 T01110067<br><br>
KBUF 030854Z 0309/0406 15005KT P6SM FEW250 FM031400 21009KT P6SM SKC FM040000 19008KT P6SM FEW250<br><br>
<br><br>
CYYZ 031100Z 00000KT 15SM SCT250 09/08 A3042 RMK CI3 SLP306<br><br>
CYYZ 031000Z 01003KT 15SM FEW250 09/07 A3042 RMK CI1 SLP304<br><br>
TAF CYYZ 030838Z 0309/0412 VRB03KT P6SM SKC BECMG 0314/0316 20012KT FM032000 21012G22KT P6SM SKC BECMG 0401/0403 20010KT FM040900 22010G20KT P6SM BKN050 RMK NXT FCST BY 031200Z<br><br>
<br><br>
CYOO 031100Z AUTO 08003KT 9SM CLR 11/10 A3043 RMK SLP309<br><br>
CYOO 031000Z AUTO 06003KT 9SM CLR 11/10 A3042 RMK SLP305<br><br>
CYOO has no TAF <br><br>
<br><br>
CYTR 031100Z 01002KT 12SM SCT230 06/06 A3046 RMK CI4 SLP319<br><br>
CYTR 031000Z 01003KT 15SM FEW035 FEW260 05/05 A3045 RMK SC1CI2 SLP314<br><br>
TAF CYTR 030530Z 0306/0406 01005KT P6SM FEW240 FM031000 18005KT 6SM BR FEW005 TEMPO 0310/0313 4SM BR PROB30 0310/0313 2SM BR FM031300 18008KT P6SM SCT250 RMK NXT FCST BY 031200Z<br><br>
<br><br>
