RETRIEVED AT : May 31 2020 16:05 Local <br>
  RETRIEVED AT: May 31 2020 20:05 UTC<br><br>
CYSN 311900Z 29006KT 260V010 15SM SCT060 15/04 A3024 RMK SC3 SLP242<br><br>
TAF AMD CYSN 311302Z 3113/0101 33008KT P6SM FEW015 BKN040 TEMPO 3113/3118 BKN015 FM311800 30010KT P6SM SCT040 TEMPO 3118/0101 BKN040 RMK NXT FCST BY 312000Z<br><br>
<br><br>
CYHM 311900Z 28010KT 190V360 15SM BKN055 BKN150 15/04 A3025 RMK CU7AC1 AC TR SLP247<br><br>
TAF CYHM 311738Z 3118/0118 32012KT P6SM BKN050 TEMPO 3118/0103 SCT050 FM010300 24007KT P6SM SCT060 BECMG 0113/0115 25015KT RMK NXT FCST BY 010000Z<br><br>
<br><br>
KIAG 311953Z 30007KT 10SM CLR 14/01 A3024 RMK AO2 SLP245 T01390006<br><br>
KIAG 311853Z 34012G17KT 10SM SCT060 13/01 A3024 RMK AO2 SLP246 T01330006<br><br>
KIAG 311727Z 3118/0118 33012KT P6SM SCT050 FM312200 26007KT P6SM BKN070 FM010800 28006KT P6SM SCT100 FM011600 24012G20KT P6SM BKN150<br><br>
<br><br>
KBUF 311954Z 32013G19KT 10SM SCT060 SCT080 13/01 A3023 RMK AO2 SLP241 T01330011 $<br><br>
KBUF 311854Z 29013G21KT 10SM BKN055 BKN070 13/02 A3024 RMK AO2 SLP243 T01330017 $<br><br>
KBUF 311727Z 3118/0118 34012KT P6SM SCT050 FM312200 26007KT P6SM BKN070 FM010800 28005KT P6SM SCT100 FM011600 25014G22KT P6SM BKN150<br><br>
<br><br>
CYYZ 311900Z 31006G18KT 280V060 15SM SCT055 SCT080 14/M02 A3023 RMK CF3AC1 AC TR SLP240<br><br>
TAF AMD CYYZ 311940Z 3119/0124 33010G20KT P6SM BKN060 TEMPO 3119/0104 SCT060 FM010400 VRB03KT P6SM SCT060 BECMG 0104/0106 22008KT FM011500 27015G25KT P6SM SCT070 RMK NXT FCST BY 312100Z<br><br>
<br><br>
CYOO 311900Z AUTO 31015G22KT 9SM FEW055 BKN140 15/01 A3021 RMK SLP235<br><br>
TAF CYOO 311938Z 3120/0108 32015G25KT P6SM SCT060 TEMPO 3120/3122 BKN060 FM312200 32015G25KT P6SM BKN060 TEMPO 3122/0104 P6SM -SHRA FM010400 29006KT P6SM SCT040 RMK FCST BASED ON AUTO OBS. NXT FCST BY 010200Z<br><br>
<br><br>
CYTR 311900Z 29010G15KT 15SM BKN055 BKN080 15/01 A3017 RMK SC6AC1 SLP219<br><br>
TAF CYTR 311731Z 3118/0118 30010G20KT P6SM BKN060 TEMPO 3118/0101 SCT060 FM010200 29007KT P6SM FEW100 BECMG 0108/0110 24005KT FM011300 24005KT P6SM BKN080 BECMG 0114/0116 24010G20KT RMK NXT FCST BY 010000Z<br><br>
<br><br>
