RETRIEVED AT : Jul 04 2020 08:05 Local <br>
  RETRIEVED AT: Jul 04 2020 12:05 UTC<br><br>
CYSN 041100Z 36009KT 15SM FEW120 FEW250 22/16 A2997 RMK AC1CI1 SLP147 DENSITY ALT 1300FT<br><br>
CYSN has no TAF <br><br>
<br><br>
CYHM 041100Z 36006KT 15SM FEW020 FEW250 21/14 A3000 RMK SC1CI1 SC TR CI TR SLP155 DENSITY ALT 1600FT<br><br>
TAF CYHM 041138Z 0412/0512 02008KT P6SM FEW020 FEW250 BECMG 0414/0416 04012KT BECMG 0422/0424 VRB03KT RMK NXT FCST BY 041800Z<br><br>
<br><br>
KIAG 041153Z 34008KT 10SM CLR 22/15 A2998 RMK AO2 SLP145 T02220150 10228 20200 53007<br><br>
KIAG 041053Z 34009KT 10SM CLR 22/16 A2997 RMK AO2 SLP141 T02170161<br><br>
KIAG 041120Z 0412/0512 34006KT P6SM SKC FM041600 03006KT P6SM FEW250 FM042100 36006KT P6SM SCT250 FM042300 00000KT P6SM FEW250 FM050800 22004KT P6SM FEW250<br><br>
<br><br>
KBUF 041154Z 34009KT 10SM FEW065 FEW200 24/18 A2998 RMK AO2 SLP146 T02390178 10239 20222 53006<br><br>
KBUF 041054Z 31003KT 10SM FEW065 23/17 A2997 RMK AO2 SLP142 T02330172<br><br>
KBUF 041120Z 0412/0512 00000KT P6SM FEW070 FM041700 01004KT P6SM FEW250 FM042100 35007KT P6SM SCT250 FM042300 02004KT P6SM FEW250 FM050800 20004KT P6SM FEW250<br><br>
<br><br>
CYYZ 041100Z 36012G17KT 15SM FEW250 21/13 A2999 RMK CI1 CI TR SLP155 DENSITY ALT 1400FT<br><br>
TAF CYYZ 041138Z 0412/0518 35012KT P6SM FEW250 FM041600 04008KT P6SM SKC BECMG 0417/0419 17010KT BECMG 0423/0501 36008KT FM051500 30010KT P6SM SCT100 RMK NXT FCST BY 041500Z<br><br>
<br><br>
CYOO 041100Z AUTO 36010KT 9SM CLR 21/12 A2997 RMK SLP149 DENSITY ALT 1200FT<br><br>
TAF CYOO 040740Z 0408/0420 34008KT P6SM FEW070 BECMG 0415/0417 17010KT RMK FCST BASED ON AUTO OBS. NXT FCST BY 041400Z<br><br>
<br><br>
CYTR 041100Z 01007KT 15SM FEW080 FEW250 21/14 A2996 RMK AC1CI1 SLP145<br><br>
TAF CYTR 041136Z 0412/0512 01005KT P6SM FEW080 BECMG 0417/0419 20008KT BECMG 0501/0503 VRB03KT RMK NXT FCST BY 041800Z<br><br>
<br><br>
