RETRIEVED AT : Oct 28 2018 10:05 Local <br>
  RETRIEVED AT: Oct 28 2018 14:05 UTC<br><br>
CYSN 281351Z 26005KT 3SM BR SCT002 OVC005 03/03 A2975 RMK SF3SC5 SLP078<br><br>
CYSN 281347Z 27005KT 240V300 3SM BR OVC004 03/03 A2975 RMK SC8 SLP078<br><br>
CYSN 281300Z 25004KT 5SM BR OVC006 03/03 A2976 RMK SC8 SLP080<br><br>
CYSN 281220Z 27005KT 5SM BR OVC008 03/03 A2976 RMK SC8 SLP082<br><br>
TAF AMD CYSN 281324Z 2813/2901 27005KT 5SM -RA -DZ BR OVC006 TEMPO 2813/2817 P6SM NSW OVC010 FM281700 26007KT 11/2SM -RA -DZ BR OVC005 TEMPO 2817/2819 6SM -RA BR OVC010 FM281900 24008KT P6SM -RA BKN015 BKN050 TEMPO 2819/2822 P6SM NSW SCT012 BKN050 FM282200 22008KT P6SM OVC015 TEMPO 2823/2824 P6SM -SHRA FM290000 VRB03KT P6SM -SHRA OVC015 RMK NXT FCST BY 282000Z<br><br>
<br><br>
CYHM 281337Z 24005KT 4SM -SN OVC003 01/01 A2975 RMK SF8 SLP084<br><br>
CYHM 281300Z 21003KT 2 1/2SM -SN BKN002 OVC012 01/01 A2975 RMK SN2SF4SC2 SLP084<br><br>
TAF CYHM 281145Z 2812/2912 33005KT 1SM -SNRA BR BKN004 OVC012 TEMPO 2812/2815 3SM BR SCT004 OVC015 FM281500 23005KT P6SM -RA -DZ BKN008 OVC025 TEMPO 2815/2819 P6SM NSW SCT010 OVC025 FM281900 23005KT P6SM BKN012 OVC040 TEMPO 2819/2821 SCT012 OVC040 FM282100 VRB03KT P6SM -SHRA OVC015 FM290300 35008KT P6SM OVC025 FM290500 31008KT P6SM SCT020 BKN050 BECMG 2907/2909 27010KT RMK NXT FCST BY 281800Z<br><br>
<br><br>
KIAG 281353Z 30004KT 3SM BR OVC004 02/02 A2974 RMK AO2 SLP084 T00220017<br><br>
KIAG 281351Z 29003KT 3SM BR OVC004 02/02 A2974 RMK AO2<br><br>
KIAG 281324Z 29005KT 2SM BR OVC005 02/02 A2975 RMK AO2 T00220017<br><br>
KIAG 281253Z 27004KT 3SM BR OVC005 02/02 A2975 RMK AO2 SLP085 T00220017<br><br>
KIAG 281120Z 2812/2912 VRB03KT 6SM -SHRA OVC005 FM281600 27004KT P6SM VCSH OVC007 FM281800 24009KT P6SM VCSH OVC012 FM290100 00000KT 6SM -SHRA OVC012 FM291000 29009KT P6SM VCSH OVC020<br><br>
<br><br>
KBUF 281354Z 26005KT 10SM BKN006 OVC012 03/02 A2974 RMK AO2 DZE52 CIG 003V008 SLP079 P0000 T00280022<br><br>
KBUF 281301Z 25004KT 5SM -DZ BR OVC004 02/02 A2975 RMK AO2 CIG 003V008 P0000 T00220022<br><br>
KBUF 281254Z 00000KT 4SM -DZ BR OVC006 02/02 A2975 RMK AO2 CIG 003V008 SLP080 P0000 T00220022<br><br>
KBUF 281238Z 29004KT 5SM -DZ BR BKN006 BKN010 OVC026 02/02 A2975 RMK AO2 P0000 T00220017<br><br>
KBUF 281229Z 27004KT 5SM -DZ BR SCT006 BKN010 OVC026 02/02 A2975 RMK AO2 P0000 T00220022<br><br>
KBUF 281120Z 2812/2912 27004KT 6SM -SHRA OVC005 FM281600 25008KT P6SM VCSH OVC012 FM290000 00000KT P6SM VCSH OVC007 FM290100 00000KT 6SM -SHRA OVC007 FM291100 28008KT P6SM VCSH OVC020<br><br>
<br><br>
CYYZ 281336Z 26005KT 10SM BKN007 OVC011 02/01 A2974 RMK SC6SC2 SLP079<br><br>
CYYZ 281300Z 27003KT 10SM SCT006 OVC022 02/01 A2975 RMK SC4SC4 SLP081<br><br>
CYYZ 281231Z 28004KT 6SM BR SCT006 OVC032 01/00 A2974 RMK SC4SC4 SLP080<br><br>
TAF CYYZ 281145Z 2812/2918 30006KT 6SM -RASN SCT005 OVC025 TEMPO 2812/2816 21/2SM -SN BKN005 OVC030 FM281600 26007KT P6SM BKN015 OVC030 TEMPO 2816/2818 P6SM -SHRA FM282300 VRB03KT 5SM -SHRA BR OVC012 FM290400 29006KT P6SM SCT020 OVC050 BECMG 2907/2909 27010KT FM291400 29010G20KT P6SM -SHRA OVC025 FM291700 29015G25KT P6SM SCT030 BKN100 RMK NXT FCST BY 281500Z<br><br>
<br><br>
CYOO 281358Z AUTO VRB02KT 9SM SCT007 SCT020 BKN044 OVC095 02/02 A2973 RMK SLP076<br><br>
CYOO 281352Z AUTO 29003KT 260V320 9SM SCT005 BKN020 BKN044 OVC095 02/02 A2973 RMK SLP075<br><br>
CYOO 281350Z AUTO 31003KT 260V320 9SM BKN005 BKN020 BKN044 OVC090 02/02 A2973 RMK SLP075<br><br>
CYOO 281347Z AUTO 31003KT 260V320 9SM SCT005 BKN020 BKN044 OVC090 02/02 A2973 RMK SLP076<br><br>
CYOO 281341Z AUTO 28004KT 9SM BKN005 BKN020 OVC095 02/02 A2974 RMK SLP077<br><br>
CYOO 281318Z AUTO 29003KT 270V330 9SM FEW005 BKN020 BKN049 02/02 A2974 RMK SLP078<br><br>
CYOO 281300Z AUTO 29004KT 9SM SCT020 OVC049 01/01 A2974 RMK SLP078<br><br>
CYOO 281239Z AUTO 28003KT 9SM SCT022 BKN047 OVC055 01/ A2974 RMK TD MISG SLP079<br><br>
CYOO 281210Z AUTO 27003KT 9SM BKN024 OVC048 01/ A2974 RMK TD MISG SLP079<br><br>
CYOO has no TAF <br><br>
<br><br>
CYTR 281300Z 32004KT 12SM OVC021 01/01 A2974 RMK SC8 SLP074<br><br>
CYTR 281221Z 31004KT 7SM OVC021 01/01 A2973 RMK SC8 SLP072<br><br>
TAF CYTR 281130Z 2812/2912 32005KT 6SM -SNRA BR SCT007 BKN012 OVC025 TEMPO 2812/2821 P6SM NSW SCT012 OVC025 BECMG 2816/2818 24005KT FM282100 24005KT P6SM SCT015 OVC025 TEMPO 2821/2903 6SM -RA BR OVC015 FM290300 VRB03KT P6SM SCT020 BKN060 RMK NXT FCST BY 281800Z<br><br>
<br><br>
