RETRIEVED AT : Feb 22 2020 22:05 Local <br>
  RETRIEVED AT: Feb 23 2020 03:05 UTC<br><br>
CYSN 230200Z CCA 23015KT 15SM FEW250 03/M04 A3012 RMK CI1 LAST STFD OBS/NEXT 231200 UTC SLP205<br><br>
CYSN has no TAF <br><br>
<br><br>
CYHM 230200Z 22009KT 15SM SKC 01/M04 A3010 RMK SLP206<br><br>
TAF CYHM 222338Z 2300/2324 24010G20KT P6SM SKC BECMG 2305/2307 24010KT FM230900 24010KT P6SM BKN220 FM231500 23010G20KT P6SM SCT030 BKN180 RMK NXT FCST BY 230600Z<br><br>
<br><br>
KIAG 230253Z 23012KT 10SM CLR 03/M05 A3012 RMK AO2 SLP212 T00281050 58008<br><br>
KIAG 230153Z 24015KT 10SM CLR 03/M05 A3012 RMK AO2 SLP215 T00281050<br><br>
KIAG 222336Z 2300/2324 23014G20KT P6SM FEW250 FM231300 22013G19KT P6SM SCT150 FM232300 20010KT P6SM SCT250<br><br>
<br><br>
KBUF 230254Z 23009KT 10SM CLR 02/M03 A3014 RMK AO2 SLP214 T00221028 58005<br><br>
KBUF 230154Z 22009KT 10SM CLR 02/M03 A3015 RMK AO2 SLP217 T00221028<br><br>
KBUF 222336Z 2300/2324 24013G19KT P6SM SKC FM230100 24013KT P6SM FEW200 FM231200 22011G17KT P6SM SCT150<br><br>
<br><br>
CYYZ 230200Z 20010G16KT 15SM SKC 02/M04 A3008 RMK SLP195<br><br>
TAF CYYZ 230238Z 2303/2406 20007G17KT P6SM SKC BECMG 2304/2306 23010KT FM230900 23010KT P6SM BKN270 FM231500 22010G20KT P6SM SCT030 BKN180 FM232100 22012G22KT P6SM SCT030 FM240300 23010G20KT P6SM FEW020 RMK NXT FCST BY 230600Z<br><br>
<br><br>
CYOO 230200Z AUTO 21004KT 9SM CLR 01/M02 A3010 RMK SLP200<br><br>
TAF CYOO 230141Z 2302/2314 22006KT P6SM SKC BECMG 2305/2307 26007KT FM230900 26007KT P6SM FEW020 SCT270 RMK FCST BASED ON AUTO OBS. NXT FCST BY 230800Z<br><br>
<br><br>
CYTR 230200Z 23009KT 15SM SKC 02/M02 A3010 RMK SLP197<br><br>
TAF CYTR 222330Z 2300/2324 25010KT P6SM FEW230 FM231200 26008KT P6SM SCT020 BKN300 BECMG 2315/2317 24010G20KT BECMG 2322/2324 24005KT RMK NXT FCST BY 230600Z<br><br>
<br><br>
