RETRIEVED AT : Nov 06 2017 14:10 Local <br>
  RETRIEVED AT: Nov 06 2017 19:10 UTC<br><br>
CYSN 061900Z 33010G16KT 290V350 15SM SCT037 BKN047 10/02 A3012 RMK SC3SC3 SLP202<br><br>
CYSN 061800Z 32010KT 15SM SCT035 BKN045 09/02 A3011 RMK SC3SC3 SLP199<br><br>
TAF CYSN 061338Z 0614/0702 33012KT P6SM BKN025 TEMPO 0614/0621 BKN020 FM062100 33008KT P6SM SCT025 RMK NXT FCST BY 062000Z<br><br>
<br><br>
CYHM 061900Z 34009G16KT 15SM BKN042 07/M01 A3011 RMK SC6 SLP202<br><br>
CYHM 061800Z 33015KT 15SM BKN036 07/M00 A3011 RMK SC6 SLP201<br><br>
TAF CYHM 061738Z 0618/0718 31010G20KT P6SM BKN040 FM070200 32005KT P6SM FEW030 SCT140 FM071400 32005KT P6SM FEW030 BKN120 BECMG 0716/0718 02005KT RMK NXT FCST BY 070000Z<br><br>
<br><br>
KIAG 061853Z 33011KT 10SM OVC040 09/00 A3011 RMK AO2 SLP202 T00890000<br><br>
KIAG 061753Z 32011KT 10SM OVC035 08/01 A3010 RMK AO2 SLP198 60001 T00830011 10089 20078 53021<br><br>
KIAG 061738Z 0618/0718 31012KT P6SM BKN040 FM070000 33006KT P6SM SCT040 FM070400 VRB03KT P6SM SCT090 FM070700 VRB03KT P6SM BKN080 FM070900 00000KT P6SM BKN025 FM071600 05004KT P6SM BKN025<br><br>
<br><br>
KBUF 061854Z 33011KT 10SM BKN037 BKN110 BKN170 BKN250 07/01 A3011 RMK AO2 SLP198 T00720011<br><br>
KBUF 061754Z 31009KT 10SM BKN034 BKN110 BKN170 BKN250 08/02 A3010 RMK AO2 SLP193 60000 T00780017 10083 20067 51022<br><br>
KBUF 061738Z 0618/0718 32006KT P6SM BKN035 FM070000 32005KT P6SM SCT035 FM070100 32004KT P6SM SCT140 FM071300 00000KT P6SM BKN080 FM071600 07004KT P6SM BKN100<br><br>
<br><br>
CYYZ 061900Z 33012G20KT 15SM BKN040 08/M02 A3011 RMK SC7 SLP200<br><br>
CYYZ 061800Z 34014KT 15SM SCT035 BKN042 08/M01 A3010 RMK SC3SC4 SLP197<br><br>
TAF CYYZ 061738Z 0618/0724 33015KT P6SM SCT030 BKN040 BECMG 0622/0623 35010KT FM070400 30005KT P6SM FEW030 SCT130 FM071400 30008KT P6SM SCT200 BECMG 0717/0719 16005KT RMK NXT FCST BY 062100Z<br><br>
<br><br>
CYOO 061900Z AUTO 31018G25KT 9SM BKN043 07/M03 A3010 RMK SLP198<br><br>
CYOO 061800Z AUTO 31017G22KT 9SM BKN041 07/M02 A3008 RMK SLP192<br><br>
CYOO has no TAF <br><br>
<br><br>
CYTR 061900Z 31013KT 15SM BKN038 BKN130 07/M00 A3008 RMK SC5AC1 SLP190<br><br>
CYTR 061800Z 30013G19KT 15SM SCT038 BKN130 08/M01 A3004 RMK SC4AC1 SLP175<br><br>
TAF CYTR 061730Z 0618/0718 30012G22KT P6SM SCT030 TEMPO 0618/0702 BKN030 BECMG 0620/0622 32008KT FM070600 VRB03KT P6SM FEW030 FM071400 VRB03KT P6SM BKN030 RMK NXT FCST BY 070000Z<br><br>
<br><br>
