RETRIEVED AT : Mar 21 2020 20:05 Local <br>
  RETRIEVED AT: Mar 22 2020 00:05 UTC<br><br>
CYSN 212300Z 04004KT 15SM SCT210 M02/M13 A3054 RMK CI3 SLP348<br><br>
TAF CYSN 211939Z 2120/2201 01006KT P6SM SKC RMK NXT FCST WILL BE ISSUED AT 221245Z<br><br>
<br><br>
CYHM 212300Z 05007KT 15SM FEW050 FEW170 M01/M11 A3051 RMK CF1AC2 CF TR SLP345<br><br>
TAF CYHM 212338Z 2200/2224 06006KT P6SM FEW040 BECMG 2210/2212 06012KT BECMG 2214/2216 09010G20KT RMK NXT FCST BY 220600Z<br><br>
<br><br>
KIAG 212353Z 04004KT 10SM CLR M03/M12 A3053 RMK AO2 SLP358 T10331122 11006 21039 52008<br><br>
KIAG 212253Z 04009KT 10SM CLR M02/M13 A3053 RMK AO2 SLP354 T10171133<br><br>
KIAG 212330Z 2200/2224 04009KT P6SM SKC FM220800 07004KT P6SM SKC FM221600 09010KT P6SM SKC FM221800 07010G16KT P6SM FEW250 FM222300 07011KT P6SM SCT200<br><br>
<br><br>
KBUF 212354Z 02009KT 10SM FEW200 M02/M16 A3052 RMK AO2 SLP347 T10171156 10011 21017 51011<br><br>
KBUF 212254Z 01007KT 10SM FEW200 M01/M12 A3051 RMK AO2 SLP343 T10061122<br><br>
KBUF 212330Z 2200/2224 01007KT P6SM FEW200 FM220900 07004KT P6SM SKC FM222000 09010KT P6SM FEW250 FM222300 08010KT P6SM SCT200<br><br>
<br><br>
CYYZ 212300Z 04009KT 15SM FEW190 SCT240 M01/M12 A3053 RMK AC1CI2 SLP349<br><br>
TAF CYYZ 212338Z 2200/2306 05010KT P6SM SCT220 FM221400 08012KT P6SM SCT020 BECMG 2215/2217 09015G25KT FM230000 09010KT P6SM BKN120 RMK NXT FCST BY 220300Z<br><br>
<br><br>
CYOO 212300Z AUTO 35007KT 9SM SCT180 BKN210 M01/M12 A3053 RMK SLP350<br><br>
TAF CYOO 211939Z 2120/2208 35008KT P6SM SKC FM220000 36008KT P6SM SCT170 BECMG 2205/2207 04008KT RMK FCST BASED ON AUTO OBS. NXT FCST BY 220200Z<br><br>
<br><br>
CYTR 212300Z 21008KT 15SM FEW180 SCT220 M01/M09 A3054 RMK AC2CI2 SLP348<br><br>
TAF CYTR 212330Z 2200/2224 VRB03KT P6SM SCT200 BECMG 2203/2205 03005KT FM220900 03005KT P6SM SKC BECMG 2213/2215 08010KT FM222300 08005KT P6SM FEW120 SCT250 RMK NXT FCST BY 220600Z<br><br>
<br><br>
