RETRIEVED AT : Oct 28 2017 15:10 Local <br>
  RETRIEVED AT: Oct 28 2017 19:10 UTC<br><br>
CYSN 281900Z 27011G16KT 15SM SCT015 OVC036 08/04 A2978 RMK SF3SC5 SLP088<br><br>
CYSN 281828Z 25007KT 10SM -RA SCT018 BKN033 OVC040 08/06 A2978 RMK SC3SC3SC2 SLP087<br><br>
CYSN 281800Z 26009KT 15SM FEW018 OVC031 08/05 A2978 RMK SC2SC6 SLP087<br><br>
TAF AMD CYSN 281403Z 2814/2901 28012KT 3SM -RA BR BKN007 OVC012 TEMPO 2814/2817 6SM -SHRA BR SCT007 OVC020 FM281700 27012KT 3SM -RA BR OVC012 TEMPO 2817/2820 6SM -SHRA OVC025 FM282000 25010KT 5SM -SHRA BR OVC020 TEMPO 2820/2901 P6SM NSW OVC030 RMK NXT FCST BY 282000Z<br><br>
<br><br>
CYHM 281900Z 25011KT 9SM -RA FEW007 FEW014 BKN040 OVC056 05/03 A2978 RMK CF1SC1SC6SC1 CF TR SLP092<br><br>
CYHM 281800Z 25008G15KT 8SM -RA FEW006 SCT009 OVC045 05/04 A2978 RMK CF2SC2SC4 SLP090<br><br>
CYHM 281720Z 25009KT 9SM -RA FEW007 SCT011 OVC037 05/04 A2977 RMK CF2SC2SC4 SLP088<br><br>
TAF CYHM 281740Z 2818/2918 25010KT P6SM -RA SCT010 OVC030 TEMPO 2818/2822 5SM -SHRA BR SCT007 BKN010 OVC020 FM282200 24012KT P6SM SCT015 OVC030 TEMPO 2822/2824 P6SM -SHRA BKN015 OVC025 FM290000 24008KT P6SM BKN030 BECMG 2901/2903 VRB03KT FM290900 04005KT 6SM BR SCT030 BKN200 PROB30 2909/2913 1SM BR FM291600 35005KT P6SM SCT030 RMK NXT FCST BY 290000Z<br><br>
<br><br>
KIAG 281853Z 28009KT 9SM -RA SCT009 OVC018 09/05 A2978 RMK AO2 RAB02E15B31 SLP090 P0001 T00890050<br><br>
KIAG 281753Z 30011KT 9SM OVC009 09/06 A2978 RMK AO2 RAE45 SLP088 P0000 60003 T00890056 10150 20089 51007<br><br>
KIAG 281730Z 2818/2918 28009KT P6SM -RA OVC009 FM282000 26007KT 4SM RA OVC007 FM290300 27004KT P6SM OVC025 FM290500 VRB03KT P6SM OVC035 FM290800 00000KT 6SM -RA OVC035 FM291000 00000KT 2SM -RA BR OVC035 FM291400 00000KT P6SM OVC020<br><br>
<br><br>
KBUF 281854Z 29006KT 8SM -RA SCT009 BKN014 OVC024 07/07 A2978 RMK AO2 SLP086 P0000 T00720067<br><br>
KBUF 281754Z 27008KT 10SM -RA BKN009 OVC014 09/08 A2977 RMK AO2 SLP083 P0001 60002 T00890078 10139 20089 51005<br><br>
KBUF 281717Z 30006KT 10SM -RA BKN008 BKN014 OVC024 09/08 A2976 RMK AO2 P0000 T00890078<br><br>
KBUF 281730Z 2818/2918 30006KT P6SM -RA BKN008 OVC014 FM282000 26008KT 4SM RA OVC007 FM290300 29005KT 5SM -RA OVC020 FM290800 00000KT 2SM RA BR OVC015 FM291100 00000KT 2SM -RA BR OVC015 FM291300 VRB03KT 6SM -RA OVC015 FM291700 35005KT P6SM OVC015<br><br>
<br><br>
CYYZ 281900Z 24008KT 10SM -RA FEW014 FEW022 OVC048 07/05 A2976 RMK SF1CU2SC6 SF TR SLP084<br><br>
CYYZ 281800Z 26008KT 10SM -RA FEW015 FEW021 OVC044 07/05 A2976 RMK SF1CU1SC6 SLP083<br><br>
TAF CYYZ 281740Z 2818/2924 27012KT P6SM -RA SCT012 OVC040 TEMPO 2818/2824 4SM -SHRA BR BKN012 OVC030 FM290000 27010KT P6SM BKN040 TEMPO 2900/2903 P6SM -SHRA BECMG 2901/2903 VRB03KT FM290300 VRB03KT P6SM FEW030 BKN140 PROB30 2909/2914 1SM BR FM291400 33008KT P6SM FEW030 SCT140 BKN200 RMK NXT FCST BY 282100Z<br><br>
<br><br>
CYOO 281900Z AUTO 23008KT 9SM -RA OVC040 08/06 A2976 RMK SLP080<br><br>
CYOO 281811Z AUTO 27006KT 9SM -RA SCT023 OVC034 09/07 A2975 RMK SLP078<br><br>
CYOO 281800Z AUTO 27007KT 9SM -RA BKN023 OVC032 09/07 A2975 RMK PCPN 0.8MM PAST HR SLP077<br><br>
CYOO 281753Z AUTO 26009KT 9SM -RA FEW018 BKN023 OVC030 09/07 A2975 RMK SLP078<br><br>
CYOO 281742Z AUTO 27009KT 9SM -RA SCT015 BKN025 OVC030 09/07 A2975 RMK SLP076<br><br>
CYOO has no TAF <br><br>
<br><br>
CYTR 281900Z 22007KT 15SM -SHRA FEW006 SCT035 BKN044 OVC079 12/12 A2972 RMK SF1SC2SC4AC1 SLP068<br><br>
CYTR 281800Z 20004KT 15SM -SHRA SCT032 OVC056 13/11 A2973 RMK SC3SC5 SLP070<br><br>
TAF CYTR 281730Z 2818/2918 VRB03KT P6SM -SHRA SCT020 OVC030 TEMPO 2818/2824 3SM -SHRA BR OVC020 BECMG 2818/2820 26010G20KT FM290000 28008KT P6SM SCT020 OVC030 TEMPO 2900/2907 4SM -SHRA BR BKN020 OVC030 FM290700 01005KT P6SM BKN030 BKN080 TEMPO 2907/2915 P6SM -SHRA FM291500 02006KT P6SM -SHRA SCT015 OVC050 RMK NXT FCST BY 290000Z<br><br>
<br><br>
