RETRIEVED AT : Jun 06 2020 07:05 Local <br>
  RETRIEVED AT: Jun 06 2020 11:05 UTC<br><br>
CYSN has no TAF <br><br>
<br><br>
TAF AMD CYHM 060629Z 0606/0706 VRB03KT P6SM BKN060 FM060800 30010KT P6SM FEW050 SCT200 PROB30 0608/0612 2SM BR FM061700 30010G20KT P6SM SCT070 FM070000 33010KT P6SM FEW050 BECMG 0703/0705 36010KT RMK NXT FCST BY 061200Z<br><br>
<br><br>
KIAG 060904Z 0609/0706 32005KT P6SM BKN070 FM061300 29004KT P6SM SCT150 FM061500 32006KT P6SM FEW250 FM062000 28010KT P6SM BKN250<br><br>
<br><br>
KBUF 060904Z 0609/0706 24004KT P6SM BKN060 FM061300 28005KT P6SM SCT250 FM062000 28011KT P6SM BKN100 FM070200 32007KT P6SM SCT120<br><br>
<br><br>
TAF CYYZ 060838Z 0609/0712 34010KT P6SM SCT100 FM061100 34012G22KT P6SM SKC FM061500 33010G20KT P6SM SCT070 FM070000 36010G20KT P6SM SKC BECMG 0706/0708 36010KT RMK NXT FCST BY 061200Z<br><br>
<br><br>
TAF CYOO 060738Z 0608/0620 28005KT P6SM BKN060 FM061000 32010G20KT P6SM SKC FM061700 33010G20KT P6SM SCT070 RMK FCST BASED ON AUTO OBS. NXT FCST BY 061400Z<br><br>
<br><br>
TAF AMD CYTR 060810Z 0608/0706 32008KT P6SM FEW008 BKN080 TEMPO 0608/0610 3SM BR SCT008 BKN060 FM061500 30012G22KT P6SM SCT080 FM061900 33012G22KT P6SM BKN040 PROB30 0619/0701 VRB15G25KT 2SM TSRA BR BKN020 OVC030CB FM070100 33008KT P6SM BKN050 RMK NXT FCST BY 061200Z<br><br>
<br><br>
