RETRIEVED AT : Feb 23 2020 06:05 Local <br>
  RETRIEVED AT: Feb 23 2020 11:05 UTC<br><br>
CYSN has no TAF <br><br>
<br><br>
CYHM 231000Z 22009KT 15SM BKN210 00/M05 A3006 RMK CI6 SLP189<br><br>
TAF CYHM 230538Z 2306/2406 24010G20KT P6SM SKC FM230900 24010KT P6SM BKN220 FM231500 23010G20KT P6SM SCT030 BKN180 BECMG 2317/2319 22015G25KT FM232100 22015G25KT P6SM SCT030 BECMG 2405/2406 23012KT RMK NXT FCST BY 231200Z<br><br>
<br><br>
KIAG 231053Z AUTO 21012KT 10SM CLR 01/M04 A3009 RMK AO2 SLP204 T00061039<br><br>
KIAG 230953Z AUTO 22012KT 10SM CLR 01/M04 A3009 RMK AO2 SLP205 T00061039<br><br>
KIAG 230903Z 2309/2406 22012KT P6SM SKC WS020/26035KT FM231100 21012G20KT P6SM SCT250 FM231700 22014G25KT P6SM FEW250 FM240000 20011G22KT P6SM FEW200 FM240300 21016G29KT P6SM SCT120<br><br>
<br><br>
KBUF 231054Z 21009KT 10SM SCT270 01/M08 A3010 RMK AO2 SLP203 T00061078<br><br>
KBUF 230954Z 22011KT 10SM FEW270 03/M07 A3011 RMK AO2 SLP202 T00281067<br><br>
KBUF 230903Z 2309/2406 23012KT P6SM FEW280 WS020/26035KT FM231100 21011G17KT P6SM SCT250 FM232100 21010G18KT P6SM FEW250 FM240200 21013G23KT P6SM SCT250<br><br>
<br><br>
CYYZ 231000Z 18010KT 15SM BKN220 01/M05 A3005 RMK CI5 SLP184<br><br>
TAF CYYZ 230838Z 2309/2412 16010KT P6SM SCT270 BECMG 2312/2314 22012KT FM231500 22010G20KT P6SM SCT030 BKN180 FM232100 22012G22KT P6SM SCT030 FM240300 23010G20KT P6SM FEW020 FM240900 24012KT P6SM SCT020 RMK NXT FCST BY 231200Z<br><br>
<br><br>
CYOO 231000Z AUTO 03004KT 7SM CLR M07/M07 A3005 RMK SLP186<br><br>
TAF CYOO 230738Z 2308/2320 VRB03KT P6SM SKC FM230900 VRB03KT P6SM FEW020 SCT270 BECMG 2311/2313 26007KT FM231500 22008G18KT P6SM SCT030 BKN180 RMK FCST BASED ON AUTO OBS. NXT FCST BY 231400Z<br><br>
<br><br>
CYTR 231000Z 22008KT 15SM FEW220 01/M00 A3006 RMK CI2 SLP185<br><br>
TAF CYTR 230530Z 2306/2406 20005KT P6SM SKC FM231200 26008KT P6SM SCT020 BKN220 BECMG 2315/2317 24010G20KT FM240000 22006KT P6SM FEW020 RMK NXT FCST BY 231200Z<br><br>
<br><br>
