RETRIEVED AT : Oct 19 2018 09:05 Local <br>
  RETRIEVED AT: Oct 19 2018 13:05 UTC<br><br>
CYSN 191200Z 23016G23KT 15SM SCT250 11/03 A3013 RMK CI4 SLP206<br><br>
TAF CYSN 191238Z 1913/2001 23015G25KT P6SM SCT250 BECMG 1917/1919 23020G30KT FM192300 23015G25KT P6SM SCT090 BKN220 RMK NXT FCST BY 192000Z<br><br>
<br><br>
CYHM 191200Z 23010KT 15SM FEW150 FEW230 07/M00 A3013 RMK AC1CI2 AC TR SLP213<br><br>
TAF CYHM 191138Z 1912/2012 22012G22KT P6SM SKC FM191500 23015G25KT P6SM FEW150 SCT200 BECMG 1917/1919 23020G30KT FM192300 23015G25KT P6SM SCT080 BKN150 FM200200 23015G30KT P6SM -RA OVC040 FM200500 24015G25KT 3SM -RA BR OVC015 FM200900 27010G20KT 5SM -SHRA BR BKN020 RMK NXT FCST BY 191800Z<br><br>
<br><br>
KIAG 191253Z 23018G25KT 10SM CLR 11/06 A3012 RMK AO2 PK WND 22026/1241 SLP209 T01060061<br><br>
KIAG 191153Z 23017G23KT 10SM CLR 09/06 A3014 RMK AO2 SLP214 T00940061 10100 20072 58018<br><br>
KIAG 191130Z 1912/2012 23014G26KT P6SM FEW250 FM192300 22014G25KT P6SM OVC110 FM200200 22017G30KT P6SM OVC070 FM200300 22019G32KT P6SM OVC025 FM200600 23021G32KT P6SM VCSH OVC015<br><br>
<br><br>
KBUF 191254Z 21017G23KT 10SM FEW021 FEW160 SCT260 08/04 A3016 RMK AO2 SLP216 T00830039<br><br>
KBUF 191154Z 21015G21KT 10SM FEW021 SCT250 07/03 A3016 RMK AO2 SLP217 T00670033 10072 20061 58016<br><br>
KBUF 191127Z 21012KT 10SM SCT021 SCT250 07/03 A3016 RMK AO2 T00670033<br><br>
KBUF 191218Z 1912/2012 21015G24KT P6SM FEW021 SCT250 FM192300 22013G21KT P6SM OVC110 FM200200 22017G25KT P6SM OVC070 FM200400 22020G30KT P6SM OVC035 FM200800 24018G31KT P6SM VCSH OVC015<br><br>
<br><br>
CYYZ 191200Z 22008KT 15SM SCT230 06/M00 A3010 RMK CI3 SLP198<br><br>
TAF CYYZ 191138Z 1912/2018 23012G22KT P6SM FEW230 FM191600 23015G25KT P6SM BKN200 BECMG 1916/1918 23018G30KT FM192300 23015G25KT P6SM BKN080 OVC150 FM200100 23018G30KT P6SM -RA OVC040 FM200500 23015G25KT P6SM -RA OVC020 FM200800 28013G23KT P6SM SCT030 FM201400 29015G25KT 5SM -SHRA BR OVC020 RMK NXT FCST BY 191500Z<br><br>
<br><br>
CYOO 191200Z AUTO VRB02KT 9SM CLR M01/M01 A3008 RMK SLP195<br><br>
CYOO has no TAF <br><br>
<br><br>
CYTR 191200Z 23011G16KT 15SM FEW250 07/01 A3007 RMK CI2 SLP186<br><br>
TAF CYTR 191130Z 1912/2012 24010G20KT P6SM FEW150 SCT250 BECMG 1912/1914 24018G28KT SCT150 BKN250 FM191900 24018G28KT P6SM SCT030 BKN150 FM200300 22018G28KT P6SM -SHRA OVC025 FM200600 24020G30KT 4SM -SHRA BR OVC015 FM201000 26015G25KT P6SM SCT015 BKN030 RMK NXT FCST BY 191800Z<br><br>
<br><br>
