RETRIEVED AT : Jul 04 2020 23:05 Local <br>
  RETRIEVED AT: Jul 05 2020 03:05 UTC<br><br>
CYSN has no TAF <br><br>
<br><br>
CYHM 050200Z 36007KT 310V010 15SM FEW250 22/15 A3000 RMK CI1 CI TR PRESRR SLP155 DENSITY ALT 1700FT<br><br>
TAF CYHM 042338Z 0500/0524 VRB03KT P6SM FEW250 BECMG 0513/0515 25007KT BECMG 0522/0524 02005KT RMK NXT FCST BY 050600Z<br><br>
<br><br>
KIAG 050253Z 00000KT 10SM CLR 20/13 A2998 RMK AO2 SLP146 T02000133 53007<br><br>
KIAG 050153Z 05003KT 10SM CLR 23/13 A2997 RMK AO2 SLP142 T02280133<br><br>
KIAG 050246Z 0503/0524 VRB03KT P6SM BKN250 FM051300 23005KT P6SM FEW250 FM051800 27010KT P6SM FEW060 SCT250<br><br>
<br><br>
KBUF 050254Z 18004KT 3SM HZ FEW260 24/11 A2999 RMK AO2 SLP150 T02390106 53008<br><br>
KBUF 050154Z 00000KT 10SM FEW200 FEW260 27/09 A2998 RMK AO2 SLP146 T02670089<br><br>
KBUF 050246Z 0503/0524 VRB03KT P6SM BKN250 FM051300 24006KT P6SM SCT250 FM051800 25010KT P6SM FEW060 SCT250<br><br>
<br><br>
CYYZ 050200Z 35011KT 15SM FEW260 25/08 A2998 RMK CI2 SLP150 DENSITY ALT 1800FT<br><br>
TAF CYYZ 050239Z 0503/0606 32010KT P6SM FEW240 BECMG 0503/0505 35005KT FM051700 17010KT P6SM FEW070 BECMG 0600/0602 36007KT RMK NXT FCST BY 050600Z<br><br>
<br><br>
CYOO 050200Z AUTO 34009KT 9SM CLR 24/11 A2995 RMK SLP143 DENSITY ALT 1500FT<br><br>
TAF CYOO 050139Z 0502/0514 34007KT P6SM SKC RMK FCST BASED ON AUTO OBS. NXT FCST BY 050800Z<br><br>
<br><br>
CYTR 050200Z AUTO 34005KT 9SM CLR 23/15 A2993 RMK SLP136<br><br>
CYTR 050145Z 34007KT 15SM FEW250 23/15 A2993 RMK CI2 LAST STFD OBS/NEXT 051000 UTC SLP135<br><br>
TAF CYTR 042330Z 0500/0524 20008KT P6SM SCT250 FM050200 35005KT P6SM SCT080 FM050900 VRB03KT P6SM BKN080 BECMG 0515/0517 23008KT FM052000 25012KT P6SM BKN030 BKN200 RMK FCST BASED ON AUTO OBS 050200-051000Z. NXT FCST BY 050600Z<br><br>
<br><br>
