RETRIEVED AT : Sep 08 2017 21:10 Local <br>
  RETRIEVED AT: Sep 09 2017 01:10 UTC<br><br>
CYSN 090100Z 35010KT 15SM BKN052 15/09 A3023 RMK SC7 LAST STFD OBS/NEXT 091100 UTC SLP241<br><br>
CYSN 090000Z 29003KT 15SM BKN035 14/12 A3021 RMK SC7 CU ASOCTD SLP233<br><br>
TAF CYSN 081938Z 0820/0901 32007KT P6SM BKN050 TEMPO 0820/0821 P6SM -SHRA RMK NXT FCST WILL BE ISSUED AT 091245Z<br><br>
<br><br>
CYHM 090100Z 02010KT 15SM FEW033TCU BKN044 12/08 A3027 RMK TCU2SC3 SLP254<br><br>
CYHM 090000Z 02008KT 15SM VCSH BKN042CB BKN250 13/09 A3024 RMK CB5CI1 CI TR SLP244<br><br>
TAF CYHM 082338Z 0900/0924 33006KT P6SM BKN050 FM090200 01008KT P6SM SCT040 FM091500 02012KT P6SM SCT040 RMK NXT FCST BY 090600Z<br><br>
<br><br>
KIAG 090053Z 35004KT 10SM OVC039 15/09 A3024 RMK AO2 SLP242 T01500094<br><br>
KIAG 082353Z 35004KT 10SM CLR 15/09 A3021 RMK AO2 SLP235 T01500089 10194 20150 53014<br><br>
KIAG 082339Z 0900/0924 01005KT P6SM BKN035 FM090600 36005KT P6SM SCT030 FM091300 36005KT P6SM SCT250<br><br>
<br><br>
KBUF 090054Z 36004KT 10SM FEW038 BKN070 13/10 A3024 RMK AO2 SLP242 T01280100 PNO<br><br>
KBUF 082354Z COR 35004KT 10SM FEW037 BKN070 BKN140 14/11 A3022 RMK AO2 SLP235 60000 T01390106 10167 20139 53015<br><br>
KBUF 082339Z 0900/0924 35006KT P6SM BKN035 FM090600 VRB03KT P6SM BKN030 FM091400 36005KT P6SM SCT030 FM091700 34007KT P6SM SCT200<br><br>
<br><br>
CYYZ 090100Z 35010G17KT 15SM SKC 12/07 A3026 RMK SLP251<br><br>
CYYZ 090000Z 36015KT 15SM FEW050 FEW250 13/07 A3024 RMK SC1CI1 SLP244<br><br>
TAF CYYZ 082338Z 0900/1006 36012KT P6SM FEW050 FM090600 35010KT P6SM SKC FM091500 01015KT P6SM FEW040 FM092300 35010KT P6SM SKC RMK NXT FCST BY 090300Z<br><br>
<br><br>
CYOO 090100Z AUTO 33006KT 9SM CLR 12/08 A3025 RMK SLP246<br><br>
CYOO 090000Z AUTO 33007KT 9SM CLR 13/08 A3023 RMK SLP240<br><br>
CYOO has no TAF <br><br>
<br><br>
CYTR 090100Z 36005KT 15SM FEW050 12/08 A3024 RMK SC1 SLP242<br><br>
CYTR 090000Z 01003KT 15SM FEW051 FEW250 13/09 A3021 RMK SC1CI1 SLP232<br><br>
TAF CYTR 082330Z 0900/0924 35005KT P6SM SCT040 FM091500 36010KT P6SM FEW040 RMK NXT FCST BY 090600Z<br><br>
<br><br>
