RETRIEVED AT : Jun 05 2019 13:12 Local <br>
  RETRIEVED AT: Jun 05 2019 17:12 UTC<br><br>
CYSN 051700Z 19010KT 10SM -SHRA SCT045 BKN060 OVC100 21/17 A2969 RMK SC3SC3AC2 CVCTV CLD EMBD SLP056 DENSITY ALT 1400FT<br><br>
CYSN 051619Z 21009KT 10SM -SHRA SCT045 BKN065 OVC100 21/17 A2972 RMK SC3SC3AC2 CVCTV CLD EMBD SLP065 DENSITY ALT 1400FT<br><br>
CYSN 051600Z 22013KT 15SM OVC065 22/15 A2972 RMK SC8 SLP066 DENSITY ALT 1500FT<br><br>
TAF CYSN 051238Z 0513/0601 22012KT P6SM OVC070 FM051700 22010G20KT P6SM -SHRA OVC060 TEMPO 0517/0520 5SM -SHRA BR FM052200 22010G20KT P6SM -SHRA OVC030 TEMPO 0522/0601 4SM SHRA BR OVC020 PROB30 0522/0601 VRB20G35KT 1SM +TSRA BR BKN008 OVC020CB RMK NXT FCST BY 052000Z<br><br>
<br><br>
CYHM 051700Z 16007KT 7SM FEW008 OVC022 18/18 A2969 RMK SF2SC6 SLP054 DENSITY ALT 1700FT<br><br>
CYHM 051634Z 18007KT 6SM -SHRA BR FEW006 OVC022 18/18 A2971 RMK SF2SC6 CVCTV CLD EMBD SLP060 DENSITY ALT 1600FT<br><br>
CYHM 051600Z 21005KT 5SM -SHRA BR OVC054 18/17 A2973 RMK SC8 CVCTV CLD EMBD SLP067 DENSITY ALT 1500FT<br><br>
CYHM 051550Z 21009KT 3SM -SHRA BR OVC042 18/17 A2974 RMK SC8 SLP071 DENSITY ALT 1500FT<br><br>
CYHM 051540Z 21010KT 2 1/2SM SHRA OVC043 18/16 A2974 RMK SC8 CVCTV CLD EMBD SLP071 DENSITY ALT 1600FT<br><br>
CYHM 051524Z 20010KT 7SM -SHRA OVC044 19/15 A2974 RMK SC8 CVCTV CLD EMBD SLP072 DENSITY ALT 1700FT<br><br>
TAF AMD CYHM 051348Z 0513/0612 19008KT P6SM BKN060 FM051500 20010G20KT P6SM -SHRA BKN040 TEMPO 0515/0518 4SM -SHRA BR FM052100 21015G25KT 3SM SHRA BR SCT012 OVC040 PROB30 0521/0524 VRB20G35KT 1SM +TSRA BR OVC008CB FM060000 28012G22KT P6SM BKN015 BECMG 0600/0602 33012KT FM061000 01008KT P6SM FEW015 RMK NXT FCST BY 051800Z<br><br>
<br><br>
KIAG 051653Z 19008KT 10SM SCT065 BKN090 21/15 A2972 RMK AO2 RAB17E38 SLP061 P0000 T02110150<br><br>
KIAG 051553Z 23012KT 10SM BKN060 OVC075 22/14 A2974 RMK AO2 SLP069 T02220139<br><br>
KIAG 051538Z 0516/0612 20010KT P6SM BKN060 FM051730 22010G17KT 6SM -SHRA OVC050 FM051900 22008KT P6SM BKN050 FM052200 23008KT 6SM -SHRA BR OVC025 FM060100 24005KT P6SM OVC012 FM061100 02006KT P6SM BKN035<br><br>
<br><br>
KBUF 051654Z 22009KT 10SM -RA FEW045 BKN060 BKN085 OVC130 22/15 A2974 RMK AO2 RAB47 SLP067 P0000 T02170150<br><br>
KBUF 051554Z 23010G18KT 10SM BKN065 BKN090 BKN140 BKN250 24/13 A2975 RMK AO2 SLP070 SHRA DSNT W-NW T02390133<br><br>
KBUF 051538Z 0516/0612 20013KT P6SM SCT060 BKN150 FM051730 23008KT 6SM -SHRA OVC050 FM051900 23008KT P6SM BKN050 FM052200 23008KT 6SM -SHRA BR OVC015 FM060100 23008KT P6SM VCSH OVC007 FM060500 27004KT P6SM OVC012<br><br>
<br><br>
CYYZ 051700Z 14006KT 10SM -SHRA BKN038 OVC060 16/14 A2970 RMK SC7SC1 CVCTV CLD EMBD SLP060 DENSITY ALT 1100FT<br><br>
CYYZ 051639Z 15012G18KT 10SM -SHRA BKN050 OVC110 17/14 A2971 RMK SC7AC1 CVCTV CLD EMBD SLP061 DENSITY ALT 1200FT<br><br>
CYYZ 051600Z 15007G16KT 12SM BKN057 OVC110 17/15 A2972 RMK SC6AC2 SLP066 DENSITY ALT 1200FT<br><br>
TAF CYYZ 051438Z 0515/0618 14008KT P6SM SCT060 OVC110 FM051600 15010KT P6SM -SHRA BKN060 OVC080 TEMPO 0516/0518 5SM -SHRA BR OVC040 FM051800 17012KT P6SM -SHRA BKN040 OVC120 FM052100 21012KT P6SM -SHRA SCT012 OVC040 TEMPO 0521/0524 4SM SHRA BR PROB30 0521/0524 VRB20G35KT 1SM +TSRA BR OVC008CB FM060000 VRB03KT 6SM -RA BR OVC012 FM060200 34008KT P6SM OVC012 PROB30 0602/0605 VRB03KT 2SM -RA BR OVC006 FM060500 34010KT P6SM OVC012 FM060900 34010KT P6SM FEW012 RMK NXT FCST BY 051800Z<br><br>
<br><br>
CYOO 051700Z AUTO 11007KT 9SM OVC055 15/13 A2973 RMK SLP070 DENSITY ALT 700FT<br><br>
CYOO 051625Z AUTO 12005KT 9SM BKN055 BKN070 15/13 A2974 RMK SLP074 DENSITY ALT 800FT<br><br>
CYOO 051611Z AUTO 13006KT 9SM -RA FEW034 BKN055 BKN071 OVC110 16/13 A2974 RMK SLP074 DENSITY ALT 800FT<br><br>
CYOO 051600Z AUTO 15005KT 9SM FEW034 SCT080 BKN110 17/14 A2974 RMK SLP074 DENSITY ALT 900FT<br><br>
TAF CYOO 051342Z 0514/0602 VRB03KT P6SM BKN040 BKN080 TEMPO 0514/0516 P6SM -SHRA BKN020 OVC040 FM051600 17008KT P6SM BKN030 FM051800 13012KT P6SM -SHRA BKN040 TEMPO 0518/0522 4SM -SHRA BR FM052200 10010KT 6SM -RA BR SCT006 OVC012 TEMPO 0522/0602 2SM SHRA BR OVC006 BECMG 0601/0602 36008KT RMK FCST BASED ON AUTO OBS. NXT FCST BY 052000Z<br><br>
<br><br>
CYTR 051700Z 07005KT 15SM FEW020 OVC090 18/14 A2975 RMK SC2AC6 SLP077<br><br>
CYTR 051600Z 09004KT 15SM FEW020 BKN090 BKN220 18/14 A2977 RMK SC2AC3CI2 SLP082<br><br>
TAF AMD CYTR 051638Z 0516/0612 09005KT P6SM FEW020 BKN090 BKN220 FM051800 10008KT P6SM SCT020 OVC040 TEMPO 0518/0523 4SM -SHRA BR OVC020 PROB30 0521/0523 VRB15G25KT 1SM TSRA BR BKN008 OVC025CB FM052300 VRB03KT P6SM -SHRA SCT012 OVC025 TEMPO 0523/0603 3SM SHRA BR OVC012 PROB40 0523/0603 VRB15G25KT 1SM TSRA BR BKN008 OVC025CB FM060300 36010KT P6SM SCT020 BKN030 TEMPO 0603/0609 BKN020 OVC030 RMK NXT FCST BY 051800Z<br><br>
<br><br>
