RETRIEVED AT : Dec 12 2017 11:10 Local <br>
  RETRIEVED AT: Dec 12 2017 16:10 UTC<br><br>
CYSN 121600Z 26014G23KT 4SM -SN OVC022 M03/M07 A2958 RMK SC8 SLP022<br><br>
CYSN 121500Z 29018G26KT 2 1/2SM -SN OVC017 M02/M06 A2956 RMK SC8 SLP015<br><br>
TAF CYSN 121339Z 1214/1302 27012G22KT 2SM -SN BLSN OVC015 TEMPO 1214/1216 6SM -SN SCT015 OVC030 FM121600 28020G30KT P6SM BKN025 OVC050 TEMPO 1216/1219 21/2SM -SHSN BLSN OVC025 FM122100 27020G30KT P6SM BKN040 RMK NXT FCST BY 122000Z<br><br>
<br><br>
CYHM 121600Z 29015G25KT 15SM -SN DRSN SCT025 BKN034 M05/M09 A2957 RMK SC3SC3 SLP027<br><br>
CYHM 121500Z 27017G24KT 8SM -SN DRSN SCT022 BKN030 BKN062 M05/M08 A2956 RMK SC3SC2SC2 SLP024<br><br>
TAF CYHM 121138Z 1212/1312 27010KT 6SM -SN SCT030 OVC050 TEMPO 1212/1214 21/2SM -SN BLSN OVC025 BECMG 1212/1214 30015G25KT FM121400 29020G35KT P6SM -SN SCT030 OVC050 TEMPO 1214/1216 3SM -SHSN BLSN OVC030 FM121900 30020G30KT P6SM SCT050 BECMG 1220/1222 29015KT RMK NXT FCST BY 121800Z<br><br>
<br><br>
KIAG 121521Z 1215/1312 29019G30KT 3/4SM -SN BKN012 OVC020 FM121700 27017G27KT P6SM VCSH OVC035 FM130200 30018G27KT 1SM -SN BLSN OVC015<br><br>
<br><br>
KBUF 121554Z 27015KT 1 1/4SM R23/5500VP6000FT -SN BLSN BKN015 BKN023 OVC034 M04/M06 A2957 RMK AO2 PK WND 28027/1520 SLP024 P0000 T10391061<br><br>
KBUF 121524Z 29019G27KT 1SM R23/4500V6000FT -SN BLSN SCT010 BKN021 OVC034 M04/M06 A2956 RMK AO2 PK WND 28027/1520 P0000 T10391056<br><br>
KBUF 121454Z 30012G21KT 1 1/4SM R23/4500VP6000FT -SN BLSN FEW007 BKN011 OVC019 M02/M04 A2954 RMK AO2 SLP011 P0000 60003 T10221039 53014<br><br>
KBUF 121452Z 30014G21KT 1 1/4SM R23/4500VP6000FT -SN BLSN FEW007 BKN011 OVC019 M02/M04 A2953 RMK AO2 P0000<br><br>
KBUF 121413Z 28013G21KT 1 3/4SM -SN BR BKN010 OVC021 M02/M03 A2952 RMK AO2 P0000 T10171028<br><br>
KBUF 121521Z 1215/1312 30012G21KT 1SM -SN BLSN FEW007 OVC012 FM121700 27017G27KT P6SM VCSH OVC035 FM130200 28016G25KT 1SM -SN BLSN BKN015<br><br>
<br><br>
CYYZ 121600Z 30018G27KT 12SM -SN DRSN SCT025 BKN055 M04/M09 A2954 RMK CU3SC4 SLP013<br><br>
CYYZ 121500Z 29021KT 8SM -SN FEW018 OVC043 M03/M07 A2953 RMK CF2SC6 PCPN VRY LGT SLP008<br><br>
TAF CYYZ 121438Z 1215/1318 28015G25KT P6SM -SN BKN030 OVC060 TEMPO 1215/1217 4SM -SHSN OVC030 FM121700 29020G30KT P6SM SCT030 TEMPO 1217/1302 BKN030 FM130200 33015G25KT P6SM -SHSN BKN025 TEMPO 1302/1305 2SM -SHSN BLSN OVC020 BECMG 1305/1307 33015KT FM131600 31015KT P6SM FEW025 RMK NXT FCST BY 121800Z<br><br>
<br><br>
CYOO has no TAF <br><br>
<br><br>
CYTR 121600Z 01008KT 12SM -SN SCT015 OVC038 M07/M09 A2950 RMK SC3SC5 PCPN VRY LGT SLP995<br><br>
CYTR 121538Z 02009KT 8SM -SN SCT015 OVC028 M07/M09 A2951 RMK SC4SC4 SLP998<br><br>
CYTR 121500Z 01008KT 3SM -SN OVC015 M07/M09 A2952 RMK SC8 SLP001<br><br>
CYTR 121429Z 36007KT 2 1/2SM -SN OVC013 M07/M09 A2952 RMK SN2SC6 SLP002<br><br>
TAF AMD CYTR 121311Z 1213/1312 02010KT 6SM -SN SCT012 OVC030 TEMPO 1213/1221 11/2SM -SN OVC012 FM122100 29012G22KT 3SM -SN BLSN BKN020 OVC040 BECMG 1302/1304 33012G22KT FM130900 32012G22KT P6SM BKN020 RMK NXT FCST BY 121800Z<br><br>
<br><br>
