RETRIEVED AT : Dec 09 2017 13:10 Local <br>
  RETRIEVED AT: Dec 09 2017 18:10 UTC<br><br>
TAF CYSN 091339Z 0914/1002 16010KT P6SM SCT015 BKN080 TEMPO 0914/0917 BKN015 BKN080 FM091700 21012KT P6SM FEW020 BKN080 BECMG 0920/0922 22007KT FM100000 22005KT P6SM -SN BKN020 OVC060 RMK NXT FCST BY 092000Z<br><br>
<br><br>
CYHM 091800Z 20010G16KT 15SM SCT042 BKN060 OVC070 00/M09 A2974 RMK SC4SC2AS2 SLP080<br><br>
CYHM 091700Z 20011G17KT 15SM FEW025 SCT062 BKN070 OVC090 M00/M08 A2975 RMK CF1SC2AC3AS2 SUN DIMLY VISBL SLP085<br><br>
TAF CYHM 091742Z 0918/1018 21012KT P6SM FEW020 BKN080 BECMG 0920/0922 22007KT FM100000 22005KT P6SM -SN BKN030 OVC060 BECMG 1002/1004 28007KT FM101500 26015G25KT 6SM -SN BKN030 RMK NXT FCST BY 100000Z<br><br>
<br><br>
KIAG 091753Z 23010KT 10SM OVC110 02/M10 A2976 RMK AO2 SLP091 T00171100 10017 21028 58026<br><br>
KIAG 091653Z 20010KT 10SM CLR 02/M08 A2979 RMK AO2 SLP100 T00171083<br><br>
KIAG 091721Z 0918/1018 20010KT P6SM BKN120 FM092300 VRB03KT P6SM OVC090 FM100200 26004KT P6SM VCSH BKN080 FM100600 26007KT P6SM VCSH OVC045 FM101200 28011G19KT P6SM BKN040 FM101500 27015G26KT P6SM OVC050<br><br>
<br><br>
KBUF 091754Z 23007KT 10SM SCT080 BKN120 BKN190 00/M11 A2977 RMK AO2 SLP089 4/001 T00001106 10000 21050 56028<br><br>
KBUF 091654Z 20009KT 10SM SCT070 BKN120 BKN180 M02/M11 A2979 RMK AO2 SLP095 T10171106<br><br>
KBUF 091721Z 0918/1018 21009KT P6SM BKN120 FM100200 VRB03KT P6SM VCSH OVC050 FM100500 26006KT 1SM -SN OVC015 FM100800 26008KT P6SM VCSH OVC040 FM101200 27011G19KT P6SM BKN025 FM101500 27015G27KT P6SM OVC035<br><br>
<br><br>
TAF CYYZ 091742Z 0918/1024 20008KT P6SM SCT025 OVC040 TEMPO 0918/0923 P6SM -SN BECMG 1002/1004 26005KT FM100900 30012KT P6SM BKN040 FM101800 26015G25KT P6SM -SN BKN030 RMK NXT FCST BY 092100Z<br><br>
<br><br>
CYOO has no TAF <br><br>
<br><br>
CYTR 091800Z 19005KT 15SM FEW023 OVC039 02/M04 A2979 RMK CU2SC6 SLP095<br><br>
CYTR 091700Z 22007KT 12SM SCT023 OVC160 01/M03 A2982 RMK SC4AC4 SLP104<br><br>
TAF CYTR 091730Z 0918/1018 21007KT P6SM SCT020 BKN030 OVC160 TEMPO 0918/0921 P6SM -SHSN BKN020 OVC030 FM092100 VRB03KT P6SM SCT020 BKN030 OVC070 TEMPO 0921/1006 5SM -SHSN BKN020 OVC030 FM100600 30005KT P6SM SCT070 BKN140 BECMG 1009/1011 30010KT BECMG 1017/1018 26012G22KT RMK NXT FCST BY 100000Z<br><br>
<br><br>
