RETRIEVED AT : Jul 05 2020 04:05 Local <br>
  RETRIEVED AT: Jul 05 2020 08:05 UTC<br><br>
CYSN has no TAF <br><br>
<br><br>
CYHM 050700Z 01003KT 15SM FEW250 19/05 A2999 RMK CI1 CI TR SLP154 DENSITY ALT 1300FT<br><br>
TAF CYHM 050538Z 0506/0606 VRB03KT P6SM SKC BECMG 0514/0516 24007KT BECMG 0517/0519 30007KT FM060000 36007KT P6SM FEW080 FM060300 VRB03KT P6SM SKC RMK NXT FCST BY 051200Z<br><br>
<br><br>
KIAG 050753Z AUTO 00000KT 8SM CLR 17/13 A2997 RMK AO2 SLP146 T01670128<br><br>
KIAG 050653Z AUTO 00000KT 10SM CLR 19/13 A2998 RMK AO2 SLP147 T01890133<br><br>
KIAG 050520Z 0506/0606 00000KT 6SM HZ SCT250 FM050800 00000KT P6SM SCT250 FM051300 23005KT P6SM SCT250 FM051700 26008KT P6SM SCT250 FM052300 22005KT P6SM SCT250<br><br>
<br><br>
KBUF 050754Z 18004KT 10SM FEW280 19/15 A2999 RMK AO2 SLP150 T01890150<br><br>
KBUF 050654Z 19003KT 8SM FEW280 19/15 A2999 RMK AO2 SLP151 T01940150<br><br>
KBUF 050520Z 0506/0606 19004KT 4SM HZ SCT250 FM050800 20004KT P6SM SCT250 FM051300 23006KT P6SM SCT250 FM051700 25010KT P6SM SCT250 FM052300 22005KT P6SM SCT250<br><br>
<br><br>
CYYZ 050700Z 32007KT 15SM SKC 20/06 A2998 RMK SLP152 DENSITY ALT 1300FT<br><br>
TAF CYYZ 050538Z 0506/0612 34005KT P6SM FEW240 BECMG 0511/0513 24007KT BECMG 0515/0517 16010KT FM060100 36005KT P6SM SKC BECMG 0609/0611 07005KT RMK NXT FCST BY 050900Z<br><br>
<br><br>
CYOO 050700Z AUTO 35006KT 9SM CLR 19/12 A2997 RMK SLP147 DENSITY ALT 900FT<br><br>
TAF CYOO 050738Z 0508/0520 34007KT P6SM SKC FM051700 17010KT P6SM FEW080 RMK FCST BASED ON AUTO OBS. NXT FCST BY 051400Z<br><br>
<br><br>
CYTR 050700Z AUTO 26002KT 9SM CLR 17/13 A2996 RMK SLP146<br><br>
TAF CYTR 050530Z 0506/0606 VRB03KT P6SM FEW100 FM050900 VRB03KT P6SM BKN080 BECMG 0515/0517 23010KT FM052000 28010G20KT P6SM BKN030 BKN200 FM060300 33008KT P6SM SCT150 BKN250 RMK FCST BASED ON AUTO OBS 050600-051000Z. NXT FCST BY 051200Z<br><br>
<br><br>
