RETRIEVED AT : Feb 22 2020 13:05 Local <br>
  RETRIEVED AT: Feb 22 2020 18:05 UTC<br><br>
CYSN 221700Z 23016G22KT 15SM FEW038 BKN250 04/M04 A3019 RMK SC2CI3 SLP230<br><br>
TAF CYSN 221338Z 2214/2302 24010G20KT P6SM SKC FM221700 24012G22KT P6SM SCT025 RMK NXT FCST BY 222000Z<br><br>
<br><br>
CYHM 221700Z 23016G22KT 15SM FEW035 FEW240 03/M06 A3018 RMK CF1CI1 CF TR SLP230<br><br>
TAF CYHM 221742Z 2218/2318 24012G22KT P6SM SKC BECMG 2305/2307 24010KT FM230900 24010KT P6SM BKN220 FM231500 23010G20KT P6SM SCT030 BKN180 RMK NXT FCST BY 230000Z<br><br>
<br><br>
KIAG 221753Z 23016G27KT 10SM BKN026 02/M04 A3017 RMK AO2 PK WND 23028/1658 SLP232 T00171044 10022 21022 58013<br><br>
KIAG 221653Z 23018G22KT 10SM BKN026 02/M04 A3021 RMK AO2 SLP243 T00221044<br><br>
KIAG 221722Z 2218/2318 23018G26KT P6SM BKN025 FM221900 23016G24KT P6SM SCT030 FM222300 23014G22KT P6SM SKC FM231200 22014G22KT P6SM SCT200<br><br>
<br><br>
KBUF 221754Z 22025G31KT 10SM SCT024 02/M06 A3019 RMK AO2 PK WND 23035/1718 SLP231 T00171056 10022 21006 58011<br><br>
KBUF 221717Z 23020G34KT 10SM SCT024 02/M05 A3021 RMK AO2 PK WND 23034/1717 T00171050<br><br>
KBUF 221654Z 24021G35KT 10SM BKN022 01/M05 A3022 RMK AO2 PK WND 25035/1652 SLP241 T00111050<br><br>
KBUF 221722Z 2218/2318 24020G30KT P6SM SCT025 FM222000 24016G24KT P6SM SCT030 FM230100 23014G22KT P6SM SKC FM231200 22014G22KT P6SM SCT200<br><br>
<br><br>
CYYZ 221700Z 20013KT 190V270 15SM FEW250 03/M06 A3015 RMK CI1 CONTRAILS SLP219<br><br>
TAF CYYZ 221742Z 2218/2324 24012G22KT P6SM SKC BECMG 2302/2304 23010KT FM230900 23010KT P6SM BKN270 FM231500 22010G20KT P6SM SCT030 BKN180 FM232100 22012G22KT P6SM SCT030 RMK NXT FCST BY 222100Z<br><br>
<br><br>
CYOO 221700Z AUTO 24011G17KT 9SM CLR 01/M07 A3015 RMK SLP219<br><br>
TAF CYOO 221339Z 2214/2302 25010KT P6SM SKC FM221600 25012G22KT P6SM SCT030 TEMPO 2216/2221 BKN030 BECMG 2300/2302 23012KT RMK FCST BASED ON AUTO OBS. NXT FCST BY 222000Z<br><br>
<br><br>
CYTR 221700Z 22010KT 15SM FEW250 01/M05 A3015 RMK CI2 SLP215<br><br>
TAF CYTR 221730Z 2218/2318 22010KT P6SM FEW250 BECMG 2221/2223 25008KT FM231200 26008KT P6SM SCT020 BKN300 BECMG 2315/2317 24010G20KT RMK NXT FCST BY 230000Z<br><br>
<br><br>
