RETRIEVED AT : May 23 2020 11:05 Local <br>
  RETRIEVED AT: May 23 2020 15:05 UTC<br><br>
CYSN 231400Z VRB02KT 4SM BR FEW010 OVC042 17/17 A3004 RMK SC1SC7 SLP174 DENSITY ALT 600FT<br><br>
TAF AMD CYSN 231412Z 2314/2401 VRB03KT 4SM BR FEW010 BKN040 BECMG 2314/2316 P6SM NSW FM231700 05008KT P6SM BKN040 BECMG 2322/2324 VRB03KT RMK NXT FCST BY 232000Z<br><br>
<br><br>
CYHM 231400Z 24004KT 15SM BKN060 19/17 A3005 RMK SC7 SLP178 DENSITY ALT 1300FT<br><br>
TAF CYHM 231138Z 2312/2412 VRB03KT P6SM FEW020 BKN100 BECMG 2313/2315 23006KT FM231800 10008KT P6SM -SHRA BKN040 PROB30 2318/2324 4SM TSRA BKN030CB FM240000 12006KT P6SM SCT040 BECMG 2401/2403 VRB03KT FM240600 VRB03KT P6SM SKC PROB40 2406/2412 3/4SM BR RMK NXT FCST BY 231800Z<br><br>
<br><br>
KIAG 231453Z 24004KT 3SM BR BKN049 BKN060 OVC075 18/17 A3006 RMK AO2 RAB10E52 SLP179 P0001 60001 T01780167 51015<br><br>
KIAG 231353Z 23003KT 6SM BR FEW005 SCT037 OVC065 18/16 A3005 RMK AO2 SLP175 T01780161<br><br>
KIAG 231343Z 2314/2412 VRB03KT 6SM BR SCT004 BKN035 OVC060 TEMPO 2314/2316 4SM BR FM231600 35004KT P6SM SCT035 BKN050 FM232000 03005KT P6SM BKN050 FM240600 10005KT P6SM SCT050 FM240900 13005KT P6SM SCT045<br><br>
<br><br>
KBUF 231454Z 24009KT 10SM BKN004 OVC041 17/15 A3007 RMK AO2 SLP182 T01670150 53018<br><br>
KBUF 231444Z 22007KT 10SM BKN004 OVC041 17/15 A3006 RMK AO2 T01720150<br><br>
KBUF 231407Z 25004KT 6SM BR SCT003 BKN040 OVC060 17/16 A3005 RMK AO2 T01720156<br><br>
KBUF 231354Z 25005KT 6SM BR BKN003 OVC040 17/16 A3005 RMK AO2 SLP175 T01720156<br><br>
KBUF 231341Z 2314/2412 VRB03KT 6SM BR OVC004 TEMPO 2315/2316 SCT004 BKN050 FM231600 VRB03KT P6SM BKN050 FM240100 08005KT P6SM SCT100<br><br>
<br><br>
CYYZ 231400Z VRB03KT 15SM FEW150 22/12 A3004 RMK AC1 SLP173 DENSITY ALT 1400FT<br><br>
TAF CYYZ 231438Z 2315/2418 VRB03KT P6SM FEW150 FM231700 13010KT P6SM SCT050 FM240000 15008KT P6SM -SHRA OVC030 BECMG 2404/2406 08005KT FM240800 VRB03KT 11/2SM BR BKN006 FM241300 15012KT P6SM SCT006 BKN020 FM241600 17012G22KT P6SM FEW020 OVC030 RMK NXT FCST BY 231800Z<br><br>
<br><br>
CYOO 231400Z AUTO 13005KT 100V180 9SM CLR 19/12 A3004 RMK SLP175 DENSITY ALT 800FT<br><br>
TAF CYOO 231349Z 2314/2402 VRB03KT P6SM SKC FM231700 15007KT P6SM SCT040 RMK FCST BASED ON AUTO OBS. NXT FCST BY 232000Z<br><br>
<br><br>
CYTR 231400Z 13003KT 15SM FEW220 22/13 A3004 RMK CI2 SLP172<br><br>
TAF CYTR 231130Z 2312/2412 VRB03KT P6SM FEW100 SCT220 FM231300 VRB03KT P6SM SKC BECMG 2315/2317 20010KT BECMG 2402/2404 05005KT FM241000 09005KT P6SM SCT080 BKN150 RMK NXT FCST BY 231800Z<br><br>
<br><br>
