RETRIEVED AT : Apr 25 2018 04:30 Local <br>
  RETRIEVED AT: Apr 25 2018 08:30 UTC<br><br>
CYSN has no TAF <br><br>
<br><br>
CYHM 250800Z 04006KT 3/8SM R12/3500FT/N -RA FG OVC002 07/07 A2993 RMK SF8 SLP138<br><br>
CYHM 250700Z 04007KT 3/8SM R12/4000FT/N -RA FC OVC002 08/08 A2994 RMK SF8 SLP144<br><br>
TAF AMD CYHM 250713Z 2507/2606 05008KT 1/2SM -RA FG VV001 TEMPO 2507/2515 2SM -RA BR BKN002 OVC015 FM251500 05006KT 2SM -RA BR OVC004 TEMPO 2515/2518 6SM -RA BR OVC008 FM251800 35006KT 4SM -RA BR BKN008 OVC015 TEMPO 2518/2520 P6SM NSW SCT008 OVC015 FM252000 33008KT 5SM -RA BR FEW008 OVC015 FM252300 32012G22KT 6SM -SHRA BR OVC015 FM260100 31012G22KT P6SM BKN012 BKN040 RMK NXT FCST BY 251200Z<br><br>
<br><br>
KIAG 250753Z AUTO 09003KT 8SM -RA FEW044 BKN060 OVC080 11/08 A2993 RMK AO2 SLP139 P0001 T01060083<br><br>
KIAG 250653Z AUTO 10007KT 8SM -RA BKN055 OVC090 11/08 A2995 RMK AO2 SLP144 P0000 T01060078<br><br>
KIAG 250526Z 2506/2606 10008KT 6SM -RA OVC040 FM251500 VRB03KT 6SM -RA SCT012 OVC015 FM251900 31007KT 6SM -RA BKN007 OVC012 FM252200 32008KT P6SM VCSH OVC012 FM260100 32010KT P6SM OVC020<br><br>
<br><br>
KBUF 250754Z 07007KT 10SM -RA BKN040 OVC055 09/09 A2992 RMK AO2 RAB0658E15B45 SLP135 P0000 T00940089<br><br>
KBUF 250654Z 07003KT 10SM FEW050 OVC090 09/09 A2996 RMK AO2 RAE08 SLP145 P0000 T00940089<br><br>
KBUF 250526Z 2506/2606 09007KT 6SM -RA OVC045 FM250900 08004KT 3SM -RA BR SCT012 OVC040 FM251500 VRB04KT 6SM -RA OVC015 FM251800 26004KT 6SM -RA BKN007 OVC012 FM252300 31008KT P6SM BKN007 OVC012 FM260100 31009KT P6SM OVC015<br><br>
<br><br>
CYYZ 250800Z 10010KT 6SM -RA BR BKN005 OVC019 09/08 A2994 RMK SF6SC2 SLP142<br><br>
CYYZ 250700Z 10007KT 6SM -RA BR BKN005 BKN018 OVC030 10/09 A2996 RMK SF5SC2SC1 SLP149<br><br>
TAF CYYZ 250539Z 2506/2612 10007KT 6SM -RA BR SCT004 OVC030 TEMPO 2506/2508 3SM -RA BR OVC004 FM250800 10006KT 2SM -RA BR OVC004 TEMPO 2508/2518 6SM -RA BR OVC006 PROB30 2508/2515 11/2SM -RA BR OVC003 FM251800 01006KT 4SM -RA BR BKN006 OVC012 TEMPO 2518/2520 6SM BR SCT006 OVC012 FM252000 35010KT 5SM -RA BR BKN012 OVC040 BECMG 2521/2523 34012G22KT FM260000 33015G25KT 4SM -SHRA BR BKN008 OVC040 FM260900 33015G25KT P6SM BKN008 BKN030 OVC090 RMK NXT FCST BY 250900Z<br><br>
<br><br>
CYOO 250800Z AUTO 09006KT 9SM -RA OVC030 09/08 A2996 RMK SLP149<br><br>
CYOO 250700Z AUTO 09006KT 6SM -RA BR BKN038 OVC045 08/07 A2998 RMK SLP157<br><br>
CYOO 250649Z AUTO 08005KT 6SM -RA BR OVC038 08/07 A2999 RMK SLP158<br><br>
CYOO has no TAF <br><br>
<br><br>
CYTR 250800Z 09004KT 6SM -DZ BR BKN052 OVC120 09/08 A3000 RMK SC5AS3 SLP160<br><br>
CYTR 250700Z 05003KT 7SM -DZ OVC120 08/07 A3001 RMK AS8 SLP165<br><br>
TAF CYTR 250530Z 2506/2606 VRB03KT P6SM -SHRA FEW012 SCT030 OVC120 TEMPO 2506/2509 4SM -SHRA BR BKN012 OVC030 FM250900 VRB03KT 4SM -SHRA BR OVC008 TEMPO 2509/2515 P6SM -SHRA OVC015 FM251500 10005KT 4SM -SHRA BR OVC010 TEMPO 2515/2606 2SM -SHRA BR OVC005 BECMG 2520/2522 35008KT RMK NXT FCST BY 251200Z<br><br>
<br><br>
