RETRIEVED AT : Oct 28 2017 13:10 Local <br>
  RETRIEVED AT: Oct 28 2017 17:10 UTC<br><br>
CYSN 281700Z 26008KT 15SM OVC022 09/06 A2978 RMK SC8 SLP085<br><br>
CYSN 281646Z 27007KT 10SM -DZ OVC012 08/06 A2977 RMK SF8 SLP084<br><br>
CYSN 281621Z 26008KT 15SM OVC011 09/07 A2978 RMK SC8 SLP087<br><br>
CYSN 281600Z 27009G17KT 15SM -RA SCT012 OVC021 09/07 A2978 RMK SF3SC5 SLP086<br><br>
TAF AMD CYSN 281403Z 2814/2901 28012KT 3SM -RA BR BKN007 OVC012 TEMPO 2814/2817 6SM -SHRA BR SCT007 OVC020 FM281700 27012KT 3SM -RA BR OVC012 TEMPO 2817/2820 6SM -SHRA OVC025 FM282000 25010KT 5SM -SHRA BR OVC020 TEMPO 2820/2901 P6SM NSW OVC030 RMK NXT FCST BY 282000Z<br><br>
<br><br>
CYHM 281700Z 26007KT 10SM -RA FEW008 BKN011 OVC035 05/04 A2978 RMK CF1SC6SC1 SLP089<br><br>
CYHM 281625Z 26010KT 12SM -RA SCT009 BKN014 OVC032 06/05 A2977 RMK CF3SC3SC2 SLP088<br><br>
CYHM 281600Z 26007KT 9SM -RA FEW010 BKN014 OVC031 06/05 A2978 RMK CF2SC3SC3 SLP089<br><br>
TAF CYHM 281138Z 2812/2912 26010KT 3SM -SHRA BR BKN005 OVC012 TEMPO 2812/2814 6SM -RA BR SCT005 BKN012 OVC025 FM281400 25010KT 3SM -SHRA BR BKN007 OVC020 TEMPO 2814/2818 6SM -RA BR SCT007 OVC025 FM281800 25012KT 6SM -SHRA BR BKN012 OVC025 FM282100 24012KT P6SM BKN015 OVC025 FM290000 24008KT P6SM BKN030 BECMG 2901/2903 VRB03KT FM290900 04005KT 6SM BR SCT030 BKN200 PROB30 2909/2912 1SM BR RMK NXT FCST BY 281800Z<br><br>
<br><br>
KIAG 281653Z 28009KT 9SM -RA OVC009 09/06 A2977 RMK AO2 SLP084 P0002 T00940061<br><br>
KIAG 281553Z 28009KT 10SM -RA BKN009 OVC015 10/07 A2977 RMK AO2 SLP085 P0001 T01000067<br><br>
KIAG 281504Z 2815/2912 28011KT P6SM -RA BKN007 OVC017 FM281800 26007KT 4SM -RA BR OVC007 FM282300 25007KT 6SM -RA BR OVC020 FM290300 28004KT P6SM OVC025 FM290700 VRB03KT P6SM OVC035<br><br>
<br><br>
KBUF 281654Z 28009KT 10SM -RA SCT008 BKN014 OVC020 09/08 A2977 RMK AO2 SLP082 P0001 T00890078<br><br>
KBUF 281632Z 29010KT 10SM -RA BKN008 BKN014 OVC020 10/09 A2977 RMK AO2 CIG 006V010 P0000 T01000089<br><br>
KBUF 281601Z 27008KT 10SM -RA FEW009 BKN014 OVC024 12/10 A2977 RMK AO2 P0000 T01170100<br><br>
KBUF 281554Z 24007KT 10SM -RA SCT014 BKN024 OVC032 13/11 A2976 RMK AO2 SLP078 P0000 T01280106<br><br>
KBUF 281531Z 23008G18KT 10SM -RA FEW012 BKN022 OVC032 13/11 A2976 RMK AO2 P0000 T01280111<br><br>
KBUF 281504Z 2815/2912 23014KT P6SM -RA FEW019 OVC035 FM281800 24009KT 4SM -RA BR OVC007 FM290100 26005KT 6SM -RA BR OVC012 FM290700 VRB03KT 6SM -RA BR OVC015<br><br>
<br><br>
CYYZ 281700Z 27009KT 10SM -RA FEW013 FEW019 OVC037 07/04 A2976 RMK SF1CU1SC7 SF TR SLP082<br><br>
CYYZ 281600Z 27010KT 10SM -RA SCT014 OVC023 08/06 A2976 RMK SF4SC4 SLP082<br><br>
TAF CYYZ 281438Z 2815/2918 27012KT P6SM -RA SCT012 OVC030 TEMPO 2815/2818 4SM -SHRA BR BKN012 OVC030 FM281800 26012KT P6SM -SHRA SCT012 BKN040 OVC080 FM282100 24010G20KT P6SM BKN025 TEMPO 2821/2823 BKN020 FM282300 25008KT P6SM FEW020 FM290400 VRB03KT P6SM FEW030 BKN140 PROB30 2909/2914 1SM BR FM291400 33008KT P6SM FEW030 SCT140 BKN200 RMK NXT FCST BY 281800Z<br><br>
<br><br>
CYOO 281700Z AUTO 25008KT 9SM -RA BKN011 OVC028 09/08 A2974 RMK SLP074<br><br>
CYOO 281659Z AUTO 25008KT 9SM -RA BKN011 OVC028 09/08 A2974 RMK SLP075<br><br>
CYOO 281625Z AUTO 25008KT 9SM -RA FEW008 OVC026 10/08 A2975 RMK SLP078<br><br>
CYOO 281600Z AUTO 26005KT 9SM -RA BKN022 OVC027 10/08 A2975 RMK SLP078<br><br>
CYOO 281553Z AUTO 26006KT 9SM -RA BKN020 OVC028 10/08 A2975 RMK SLP077<br><br>
CYOO 281551Z AUTO 25006KT 9SM -RA SCT020 BKN026 OVC041 10/08 A2975 RMK SLP077<br><br>
CYOO 281546Z AUTO 26006KT 9SM -RA BKN020 BKN028 OVC041 10/08 A2975 RMK SLP077<br><br>
CYOO 281541Z AUTO 26007KT 9SM -RA SCT020 BKN028 OVC041 10/08 A2975 RMK SLP077<br><br>
CYOO 281540Z AUTO 27007KT 9SM -RA FEW018 BKN024 BKN030 OVC041 10/08 A2974 RMK SLP076<br><br>
CYOO 281538Z AUTO 26008KT 9SM -RA SCT018 SCT022 BKN030 OVC041 10/08 A2974 RMK SLP076<br><br>
CYOO 281537Z AUTO 26008KT 9SM -RA SCT018 BKN024 BKN030 OVC041 10/08 A2974 RMK SLP076<br><br>
CYOO 281524Z AUTO 28008KT 9SM FEW007 BKN018 BKN022 OVC027 10/08 A2973 RMK SLP073<br><br>
CYOO has no TAF <br><br>
<br><br>
CYTR 281700Z 19003KT 10SM -SHRA BKN021 OVC058 13/12 A2974 RMK SC5SC3 SLP073<br><br>
CYTR 281605Z 19006KT 15SM -SHRA SCT065 BKN080 OVC240 14/11 A2974 RMK SC3AC4CI1 SLP073<br><br>
CYTR 281600Z 19006KT 15SM SCT065 BKN075 OVC240 14/11 A2974 RMK SC3AC4CI1 SLP073<br><br>
TAF CYTR 281131Z 2812/2912 14005KT P6SM FEW140 FEW240 BECMG 2814/2816 18012KT SCT040 BKN080 FM281600 18012KT P6SM SCT040 OVC080 TEMPO 2816/2818 P6SM -SHRA OVC040 FM281800 26012G22KT P6SM -SHRA SCT020 OVC030 TEMPO 2818/2907 3SM -SHRA BR OVC020 BECMG 2900/2902 28008KT FM290700 01005KT P6SM SCT020 OVC030 TEMPO 2907/2912 5SM -RA BR RMK NXT FCST BY 281800Z<br><br>
<br><br>
