RETRIEVED AT : Feb 21 2020 07:05 Local <br>
  RETRIEVED AT: Feb 21 2020 12:05 UTC<br><br>
CYSN has no TAF <br><br>
<br><br>
CYHM 211100Z 23012KT 15SM SKC M10/M14 A3045 RMK FROIN SLP330<br><br>
TAF CYHM 211138Z 2112/2212 24008KT P6SM SKC BECMG 2113/2115 24012G22KT BECMG 2117/2119 23018G28KT FM220400 24015KT P6SM SKC FM220900 24015KT P6SM OVC020 RMK NXT FCST BY 211800Z<br><br>
<br><br>
KIAG 211153Z 23009KT 10SM CLR M09/M14 A3048 RMK AO2 SLP342 T10891139 11083 21100 58004<br><br>
KIAG 211053Z AUTO 24009KT 10SM CLR M08/M13 A3049 RMK AO2 SLP345 T10831133<br><br>
KIAG 211133Z 2112/2212 24011KT P6SM FEW025 FEW250 FM211400 24011G19KT P6SM FEW250 FM211700 23018G25KT P6SM SKC FM220400 24015G24KT P6SM SKC<br><br>
<br><br>
KBUF 211154Z 27010KT 10SM FEW026 M07/M15 A3048 RMK AO2 SLP334 T10721150 11072 21083 58003<br><br>
KBUF 211127Z 27009KT 10SM SCT027 M07/M14 A3048 RMK AO2 T10721144<br><br>
KBUF 211104Z 27009KT 10SM BKN026 M07/M14 A3049 RMK AO2 T10721144<br><br>
KBUF 211054Z 28008KT 10SM SCT028 M07/M14 A3049 RMK AO2 SLP337 T10721139<br><br>
KBUF 211133Z 2112/2212 24009KT P6SM BKN025 FM211400 24010G16KT P6SM FEW250 FM211700 24015G25KT P6SM FEW250 FM220400 24015G25KT P6SM SKC<br><br>
<br><br>
CYYZ 211100Z 18010KT 15SM SKC M10/M14 A3045 RMK SLP324<br><br>
TAF CYYZ 211138Z 2112/2218 21008KT P6SM SKC FM211400 24012KT P6SM SKC BECMG 2116/2118 24015G25KT FM220400 24015KT P6SM SKC FM220900 24015KT P6SM OVC020 FM221500 23015G25KT P6SM BKN020 RMK NXT FCST BY 211500Z<br><br>
<br><br>
