RETRIEVED AT : Mar 22 2020 00:05 Local <br>
  RETRIEVED AT: Mar 22 2020 04:05 UTC<br><br>
CYSN has no TAF <br><br>
<br><br>
CYHM 220300Z 02008KT 60SM FEW200 M05/M11 A3056 RMK CI1 SLP364<br><br>
TAF CYHM 212338Z 2200/2224 06006KT P6SM FEW040 BECMG 2210/2212 06012KT BECMG 2214/2216 09010G20KT RMK NXT FCST BY 220600Z<br><br>
<br><br>
KIAG 220353Z AUTO 04003KT 10SM CLR M06/M11 A3057 RMK AO2 SLP372 T10561106<br><br>
KIAG 220253Z 01004KT 10SM CLR M04/M12 A3057 RMK AO2 SLP371 T10441122 51013<br><br>
KIAG 220245Z 2203/2224 01004KT P6SM SCT250 FM220800 07004KT P6SM SKC FM221600 08010G16KT P6SM FEW250 FM222300 07011KT P6SM SCT200<br><br>
<br><br>
KBUF 220354Z 00000KT 10SM CLR M04/M13 A3057 RMK AO2 SLP363 T10391128<br><br>
KBUF 220254Z 06004KT 10SM CLR M03/M14 A3056 RMK AO2 SLP361 T10281139 51014<br><br>
KBUF 220245Z 2203/2224 04005KT P6SM SCT250 FM220900 07004KT P6SM SKC FM222000 09010KT P6SM FEW250 FM222300 08010KT P6SM SCT200<br><br>
<br><br>
CYYZ 220300Z 03009G15KT 15SM SKC M05/M12 A3059 RMK SLP370<br><br>
TAF CYYZ 220238Z 2203/2306 03008KT P6SM FEW200 FM221400 08012KT P6SM SCT020 BECMG 2215/2217 09015G25KT FM230000 09010KT P6SM BKN120 RMK NXT FCST BY 220600Z<br><br>
<br><br>
CYOO 220300Z AUTO 34009KT 9SM CLR M05/M09 A3059 RMK SLP368<br><br>
TAF CYOO 220138Z 2202/2214 36006KT P6SM FEW200 FM220800 04008KT P6SM SKC BECMG 2213/2214 08010KT RMK FCST BASED ON AUTO OBS. NXT FCST BY 220800Z<br><br>
<br><br>
CYTR 220300Z 04004KT 15SM FEW180 M06/M08 A3060 RMK AC1 SLP368<br><br>
TAF CYTR 212330Z 2200/2224 VRB03KT P6SM SCT200 BECMG 2203/2205 03005KT FM220900 03005KT P6SM SKC BECMG 2213/2215 08010KT FM222300 08005KT P6SM FEW120 SCT250 RMK NXT FCST BY 220600Z<br><br>
<br><br>
