RETRIEVED AT : Sep 09 2018 09:05 Local <br>
  RETRIEVED AT: Sep 09 2018 13:05 UTC<br><br>
CYSN 091200Z 07009KT 15SM FEW025 OVC250 12/08 A3020 RMK SC1CI7 SLP228<br><br>
TAF CYSN 091238Z 0913/1001 08010G20KT P6SM FEW025 OVC250 BECMG 0914/0916 08015G25KT FM092100 09015G25KT P6SM -RA SCT030 OVC100 RMK NXT FCST BY 092000Z<br><br>
<br><br>
CYHM 091200Z 08014G20KT 15SM FEW025 FEW040 OVC240 12/07 A3019 RMK CU1SC1CI8 CU TR SC TR SLP229<br><br>
TAF CYHM 091138Z 0912/1012 08010KT P6SM FEW020 BKN240 BECMG 0912/0913 08015G25KT FM091600 08018G28KT P6SM FEW030 OVC200 FM092300 09018G28KT P6SM -RA BKN040 OVC100 FM100200 07015G25KT P6SM -RA BKN020 OVC060 FM100400 07015G25KT 5SM -RA BR BKN008 OVC015 FM100600 07015G25KT 2SM -RA BR OVC008 PROB30 1008/1012 1/4SM SHRA FG VV001 RMK NXT FCST BY 091800Z<br><br>
<br><br>
KIAG 091253Z 08010KT 10SM CLR 12/06 A3021 RMK AO2 SLP234 T01170061<br><br>
KIAG 091153Z 10007KT 10SM CLR 11/06 A3021 RMK AO2 SLP235 T01110056 10111 20094 53003<br><br>
KIAG 091120Z 0912/1012 08009KT P6SM OVC200 FM091500 08013G20KT P6SM OVC150 FM092200 08010KT P6SM OVC120 FM100200 09011G17KT 6SM -RA OVC090 FM100500 09012G19KT 6SM -RA OVC035 FM100700 08013G20KT 1 1/2SM +RA BR OVC025<br><br>
<br><br>
KBUF 091254Z 07010KT 10SM FEW040 FEW100 BKN140 OVC240 11/07 A3020 RMK AO2 SLP230 FU E T01110067<br><br>
KBUF 091154Z 07011KT 10SM FEW040 FEW150 OVC240 11/06 A3020 RMK AO2 SLP230 T01060056 10111 20100 51004<br><br>
KBUF 091120Z 0912/1012 08010KT P6SM OVC200 FM091500 08013G20KT P6SM OVC150 FM092200 09011KT P6SM OVC120 FM100100 09011G17KT 6SM -RA OVC090 FM100400 09012G19KT 6SM -RA OVC035 FM100600 08013G20KT 1 1/2SM +RA BR OVC020<br><br>
<br><br>
CYYZ 091200Z 06009KT 15SM FEW030 BKN260 11/04 A3024 RMK SC1CS6 SLP242<br><br>
TAF CYYZ 091138Z 0912/1018 06010G20KT P6SM FEW030 BKN240 TEMPO 0912/0915 BKN020 BECMG 0913/0915 09015G25KT FM091500 09015G25KT P6SM BKN030 OVC200 TEMPO 0915/0916 BKN020 FM091900 08015G25KT P6SM SCT030 OVC200 BECMG 0922/0924 08015KT FM100600 10012G22KT P6SM -RA BKN020 OVC070 FM100800 10015G25KT 5SM -RA BR BKN008 OVC012 PROB30 1008/1016 2SM -RA BR BKN003 OVC008 RMK NXT FCST BY 091500Z<br><br>
<br><br>
CYOO 091200Z AUTO 05007KT 9SM CLR 10/06 A3026 RMK SLP250<br><br>
CYOO has no TAF <br><br>
<br><br>
CYTR 091200Z 05008KT 15SM FEW030 BKN250 08/06 A3030 RMK SC1CI7 SLP263<br><br>
TAF CYTR 091130Z 0912/1012 04006KT P6SM BKN240 BECMG 0913/0915 07012G22KT BECMG 0922/0924 06010KT FM100400 12010KT P6SM FEW040 OVC150 FM101000 12010KT P6SM -RA BKN030 OVC060 RMK NXT FCST BY 091800Z<br><br>
<br><br>
