RETRIEVED AT : May 04 2018 06:30 Local <br>
  RETRIEVED AT: May 04 2018 10:30 UTC<br><br>
CYSN has no TAF <br><br>
<br><br>
CYHM 041000Z 07009KT 040V120 2 1/2SM BR BKN002 OVC012 10/10 A2984 RMK SF5SC3 SLP109<br><br>
CYHM 040956Z VRB02KT 2 1/2SM BR BKN002 OVC014 10/10 A2985 RMK SF5SC3 SLP112<br><br>
CYHM 040900Z 08010KT 3SM -RA BR SCT002 BKN018 OVC025 10/10 A2987 RMK SF3SC2SC3 SLP119<br><br>
TAF AMD CYHM 040923Z 0409/0506 09007KT 2SM -SHRA BR BKN002 OVC010 TEMPO 0409/0411 6SM BR SCT002 OVC020 FM041100 19008KT 4SM -SHRA BR BKN006 OVC015 TEMPO 0411/0415 P6SM -SHRA SCT006 OVC025 FM041500 22020G30KT P6SM BKN025 BKN100 TEMPO 0415/0418 BKN020 BECMG 0416/0418 22030G45KT FM041800 22030G45KT P6SM BKN030 TEMPO 0418/0421 5SM -SHRA BR BKN020 PROB40 0418/0420 VRB25G40KT 2SM TSRA BR OVC020CB FM042200 29020G35KT P6SM SCT020 BECMG 0500/0502 27012G22KT FM050500 27008KT P6SM BKN040 RMK NXT FCST BY 041200Z<br><br>
<br><br>
KIAG 041017Z AUTO 10005KT 8SM BKN003 BKN016 OVC026 13/12 A2985 RMK AO2 RAE13 P0001 T01330117<br><br>
KIAG 041002Z AUTO 09003KT 4SM -RA BR FEW003 BKN015 OVC027 13/11 A2986 RMK AO2 CIG 009V020 P0000 T01330111<br><br>
KIAG 040953Z AUTO 11004KT 4SM -RA BR FEW017 BKN025 OVC030 13/11 A2986 RMK AO2 SLP113 P0013 T01330111<br><br>
KIAG 040930Z AUTO 06005KT 5SM -RA BR FEW004 BKN023 OVC035 13/11 A2987 RMK AO2 P0011 T01330111<br><br>
KIAG 040914Z AUTO 08004KT 2SM +RA BR SCT003 BKN024 OVC044 13/11 A2988 RMK AO2 P0009 T01330111<br><br>
KIAG 040911Z AUTO 08003KT 1 3/4SM +RA BR BKN003 BKN016 OVC046 13/11 A2988 RMK AO2 P0008 T01330111<br><br>
KIAG 040855Z AUTO 08006KT 3SM -RA BR BKN003 OVC047 13/11 A2988 RMK AO2 P0000 T01330111<br><br>
KIAG 040853Z AUTO 08006KT 2 1/2SM -RA BR OVC002 13/11 A2988 RMK AO2 RAE09B18 SLP120 P0005 60007 T01330111 58017<br><br>
KIAG 040843Z AUTO 05003KT 2 1/2SM -RA BR OVC002 13/12 A2990 RMK AO2 RAE09B18 P0003 T01330117<br><br>
KIAG 040833Z AUTO 09005KT 3SM RA BR OVC002 13/12 A2989 RMK AO2 RAE09B18 P0001 T01330117<br><br>
KIAG 040855Z 0409/0506 10005KT 2SM -SHRA BR OVC003 FM041200 19010KT 4SM -SHRA BR OVC003 FM041400 20015KT P6SM OVC007 FM041600 21019G29KT P6SM OVC020 FM041900 24024G40KT P6SM -SHRA VCTS BKN035CB FM050100 27020G38KT P6SM SCT025 FM050300 28013G28KT P6SM SCT250<br><br>
<br><br>
KBUF 041024Z 00000KT 2 1/2SM BR BKN004 OVC009 13/13 A2988 RMK AO2 RAE18 CIG 002V005 P0004 T01280128<br><br>
KBUF 041006Z 10005KT 3SM -RA BR BKN008 OVC013 13/13 A2986 RMK AO2 CIG 005V011 P0004 T01280128<br><br>
KBUF 041000Z 11004KT 2 1/2SM +RA BR SCT004 OVC011 13/13 A2986 RMK AO2 P0001 T01280128<br><br>
KBUF 040954Z 13005KT 3SM -RA BR BKN004 OVC010 12/12 A2987 RMK AO2 CIG 002V007 SLP116 P0007 T01220122<br><br>
KBUF 040934Z 00000KT 3SM -RA BR OVC003 12/12 A2987 RMK AO2 P0007 T01220122<br><br>
KBUF 040915Z 06003KT 2SM -RA BR OVC003 12/12 A2988 RMK AO2 P0007 T01220122<br><br>
KBUF 040905Z 00000KT 1 1/2SM R23/2600VP6000FT RA BR OVC003 12/12 A2989 RMK AO2 P0006 T01220122<br><br>
KBUF 040854Z 00000KT 1/2SM R23/2000V3000FT +RA FG VV002 12/12 A2989 RMK AO2 SLP123 P0004 60004 T01170117 56018<br><br>
KBUF 040851Z 00000KT 1/2SM R23/2000V3000FT -RA FG VV002 12/12 A2990 RMK AO2 P0004<br><br>
KBUF 040857Z 0409/0506 17005KT 1/2SM -SHRA FG OVC003 FM041200 21012KT 4SM -SHRA BR OVC003 FM041400 20015KT P6SM OVC007 FM041600 23019G42KT P6SM OVC035 FM042000 27023G38KT P6SM -SHRA VCTS BKN035CB FM050100 27020G38KT P6SM SCT025 FM050400 27011G23KT P6SM SCT250<br><br>
<br><br>
CYYZ 041017Z 12008KT 8SM -RA SCT005 OVC038 10/08 A2982 RMK SF3SC5 PRESFR SLP102<br><br>
CYYZ 041000Z 13006KT 3SM RA BR FEW003 BKN012 OVC040 10/08 A2984 RMK SF2SC5SC1 PRESFR SLP109<br><br>
CYYZ 040941Z 17004KT 3SM +RA BR SCT003 OVC012 11/09 A2987 RMK SF3SC5 SLP118<br><br>
CYYZ 040927Z VRB02KT 5SM RA BR OVC012 10/09 A2988 RMK SC8 SLP120<br><br>
CYYZ 040900Z 12003KT 5SM -RA BR OVC012 11/09 A2988 RMK SC8 SLP120<br><br>
TAF CYYZ 040839Z 0409/0512 13008KT 2SM -SHRA BR OVC004 TEMPO 0409/0411 6SM -SHRA BR OVC012 PROB30 0409/0411 1SM BR OVC003 FM041100 18010G20KT 3SM -SHRA BR BKN006 OVC010 TEMPO 0411/0414 P6SM NSW SCT006 OVC012 PROB30 0412/0414 2SM TSRA BR BKN030CB OVC060 FM041400 22015G30KT 6SM -SHRA BR BKN015 FM041700 22025G38KT P6SM SCT020 SCT180 PROB30 0417/0420 VRB25G40KT 2SM TSRA BR OVC020CB FM042100 28025G42KT P6SM BKN030 BECMG 0423/0501 29020G38KT FM050300 28015G25KT P6SM FEW030 BKN060 FM050600 27012KT P6SM FEW060 RMK NXT FCST BY 041200Z<br><br>
<br><br>
CYOO 041029Z AUTO 11006KT 6SM -RA BR BKN021 OVC075 10/08 A2985 RMK SLP113<br><br>
CYOO 041021Z AUTO 10006KT 5SM -RA BR BKN021 OVC085 10/08 A2985 RMK PRESFR SLP113<br><br>
CYOO 041003Z AUTO 00000KT 9SM -RA BKN023 BKN090 OVC110 10/08 A2988 RMK PRESRR SLP120<br><br>
CYOO 041000Z AUTO 00000KT 9SM -RA SCT025 BKN090 OVC110 10/08 A2987 RMK SLP119<br><br>
CYOO 040920Z AUTO 00000KT 9SM -RA FEW060 OVC100 10/08 A2989 RMK SLP124<br><br>
CYOO 040900Z AUTO 00000KT 9SM OVC110 09/08 A2988 RMK SLP122<br><br>
CYOO 040837Z AUTO 02004KT 9SM OVC110 09/08 A2988 RMK PRESFR SLP123<br><br>
CYOO has no TAF <br><br>
<br><br>
CYTR 041015Z 09005KT 5SM BR OVC001 12/11 A2989 RMK SF8 PRESRR SLP123<br><br>
CYTR 041000Z 07006KT 6SM -SHRA BR OVC002 12/10 A2987 RMK SF8 SLP118<br><br>
CYTR 040943Z 07006KT 10SM -SHRA OVC004 12/10 A2986 RMK SF8 SLP114<br><br>
CYTR 040932Z 08005KT 10SM -SHRA OVC005 11/09 A2987 RMK SF8 PRESFR SLP116<br><br>
CYTR 040900Z 00000KT 10SM OVC007 10/09 A2990 RMK SF8 SLP128<br><br>
CYTR 040851Z 02002KT 15SM BKN008 OVC110 10/08 A2991 RMK SF6AC2 SLP130<br><br>
CYTR 040845Z 33002KT 15SM BKN011 OVC250 10/08 A2992 RMK SF5CI3 SLP134<br><br>
TAF AMD CYTR 041019Z 0410/0506 08005KT 4SM -SHRA BR OVC001 TEMPO 0410/0415 P6SM -SHRA OVC008 FM041500 22010G20KT 4SM -SHRA BR OVC008 TEMPO 0415/0418 6SM -RA BR OVC015 BECMG 0415/0417 22015G25KT FM041800 22022G32KT P6SM OVC012 TEMPO 0418/0421 5SM -SHRA BR FM042100 22025G35KT P6SM OVC025 BECMG 0422/0424 26025G35KT BECMG 0501/0503 27015KT RMK NXT FCST BY 041200Z<br><br>
<br><br>
