RETRIEVED AT : May 25 2018 21:05 Local <br>
  RETRIEVED AT: May 26 2018 01:05 UTC<br><br>
CYSN 260000Z 23013G20KT 15SM FEW250 26/08 A2978 RMK CI1 CI TR SLP086 DENSITY ALT 1800FT<br><br>
TAF CYSN 251938Z 2520/2601 23012G22KT P6SM SCT240 RMK NXT FCST WILL BE ISSUED AT 261245Z<br><br>
<br><br>
CYHM 260000Z 23011KT 15SM FEW130 FEW250 24/10 A2982 RMK AC1CI2 AC TR SLP096 DENSITY ALT 2200FT<br><br>
TAF CYHM 252338Z 2600/2624 23010G20KT P6SM SCT250 BECMG 2600/2602 23010KT FM261000 23008KT P6SM BKN200 FM261400 23015KT P6SM BKN060 OVC160 BECMG 2619/2621 25015G25KT RMK NXT FCST BY 260600Z<br><br>
<br><br>
KIAG 260053Z 21011KT 10SM CLR 21/09 A2982 RMK AO2 SLP094 T02060094<br><br>
KIAG 252353Z 22013KT 10SM CLR 25/09 A2981 RMK AO2 SLP092 T02500094 10283 20250 55012<br><br>
KIAG 252325Z 2600/2624 23010KT P6SM SKC FM261500 23008KT P6SM BKN150<br><br>
<br><br>
KBUF 260054Z 22008KT 10SM FEW250 FEW300 20/09 A2984 RMK AO2 SLP102 T02000094<br><br>
KBUF 252354Z 23007KT 10SM FEW250 FEW300 21/10 A2984 RMK AO2 SLP102 T02060100 10250 20206 56010<br><br>
KBUF 252325Z 2600/2624 23008KT P6SM SKC<br><br>
<br><br>
CYYZ 260000Z 24013G20KT 15SM FEW150 27/12 A2977 RMK AC1 AC TR SLP081 DENSITY ALT 2300FT<br><br>
TAF CYYZ 252338Z 2600/2706 24012G22KT P6SM FEW150 BECMG 2600/2602 25010KT FM261000 27008KT P6SM SCT080 BKN160 BECMG 2616/2618 22010KT FM262000 22015KT P6SM BKN080 PROB30 2620/2624 VRB15G30KT 1SM +TSRA BKN020 OVC060CB FM270000 30012KT P6SM FEW060 BKN100 BECMG 2702/2704 36005KT RMK NXT FCST BY 260300Z<br><br>
<br><br>
CYOO 260000Z AUTO 21007KT 170V240 9SM CLR 24/09 A2975 RMK SLP075 DENSITY ALT 1700FT<br><br>
CYOO has no TAF <br><br>
<br><br>
CYTR 260000Z 24012G17KT 15SM FEW072 25/11 A2974 RMK AC2 SLP072<br><br>
TAF CYTR 252330Z 2600/2624 22010KT P6SM FEW090 SCT250 FM260600 21008KT P6SM SCT080 BKN200 FM261900 23012KT P6SM BKN080 PROB30 2621/2624 VRB15G25KT 1SM +TSRA BR BKN030 BKN060CB RMK NXT FCST BY 260600Z<br><br>
<br><br>
