RETRIEVED AT : Sep 01 2017 22:10 Local <br>
  RETRIEVED AT: Sep 02 2017 02:10 UTC<br><br>
CYSN 020100Z 00000KT 15SM FEW180 BKN250 12/07 A3018 RMK AC2CI5 LAST STFD OBS/NEXT 021100 UTC SLP223<br><br>
CYSN has no TAF <br><br>
<br><br>
CYHM 020200Z 10002KT 15SM BKN250 11/07 A3020 RMK CI6 SLP231<br><br>
CYHM 020100Z 08003KT 15SM OVC250 12/07 A3019 RMK CI8 MOON DIMLY VSBL SLP228<br><br>
TAF CYHM 012339Z 0200/0224 06007KT P6SM BKN240 BECMG 0213/0215 11015KT FM022000 12015KT P6SM -SHRA BKN025 OVC140 FM022300 13010KT 6SM -RA BR OVC010 RMK NXT FCST BY 020600Z<br><br>
<br><br>
KIAG 020153Z 00000KT 10SM CLR 12/07 A3020 RMK AO2 SLP229 T01170067<br><br>
KIAG 020053Z 00000KT 10SM CLR 13/06 A3019 RMK AO2 SLP226 T01280061<br><br>
KIAG 012329Z 0200/0224 10004KT P6SM SCT250 FM020100 VRB03KT P6SM SCT250 FM020500 12004KT P6SM SCT250 FM021400 11008KT P6SM SCT250 FM022100 13010KT P6SM OVC070 FM022300 14009KT P6SM OVC040<br><br>
<br><br>
KBUF 020154Z 05003KT 10SM BKN200 12/06 A3020 RMK AO2 SLP228 T01220061<br><br>
KBUF 020054Z 09003KT 10SM BKN200 13/06 A3019 RMK AO2 SLP225 T01330056<br><br>
KBUF 012329Z 0200/0224 08005KT P6SM SCT250 FM020500 11004KT P6SM SCT250 FM021500 12008KT P6SM BKN250 FM021900 13009KT P6SM BKN140 FM022000 13010KT P6SM OVC100 FM022300 14008KT P6SM OVC040<br><br>
<br><br>
CYYZ 020200Z 30004KT 240V310 15SM BKN210 13/07 A3019 RMK CI6 SLP228<br><br>
CYYZ 020100Z 16003KT 140V210 15SM BKN210 14/07 A3019 RMK CI6 SLP227<br><br>
TAF CYYZ 012339Z 0200/0306 14005KT P6SM BKN240 BECMG 0200/0202 33005KT BECMG 0213/0215 12015KT FM022300 16010KT P6SM -SHRA BKN030 OVC100 FM030500 14008KT 3SM -SHRA BR OVC007 RMK NXT FCST BY 020300Z<br><br>
<br><br>
CYOO 020200Z AUTO 36003KT 9SM CLR 10/07 A3020 RMK SLP229<br><br>
CYOO 020100Z AUTO 27002KT 9SM CLR 13/07 A3018 RMK SLP225<br><br>
CYOO has no TAF <br><br>
<br><br>
CYTR 020200Z 02002KT 15SM FEW250 10/09 A3019 RMK CI2 SLP226<br><br>
CYTR 020100Z 00000KT 15SM FEW250 13/10 A3017 RMK CI2 SLP219<br><br>
TAF CYTR 012330Z 0200/0224 20008KT P6SM BKN250 BECMG 0200/0202 VRB03KT BECMG 0216/0218 14008KT FM022200 14008KT P6SM BKN120 RMK NXT FCST BY 020600Z<br><br>
<br><br>
