CYSN 311800Z 01014KT 15SM FEW035 FEW250 19/11 A3010 RMK CU2CI1 CI TR SLP193 DENSITY ALT 800FT<br><br>
TAF CYSN 311246Z 3113/0101 01010KT P6SM FEW025 SCT090 TEMPO 3113/3116 BKN025 BKN090 RMK NXT FCST BY 312000Z<br><br>
CYHM 311800Z 01008G16KT 320V030 15SM FEW040 BKN045 BKN240 19/10 A3012 RMK CU2SC4CI1 SLP201 DENSITY ALT 1200FT<br><br>
TAF CYHM 311738Z 3118/0118 01015KT P6SM BKN030 BKN230 FM312200 01010KT P6SM FEW040 SCT250 RMK NXT FCST BY 010000Z<br><br>
KIAG 311853Z 36009KT 10SM FEW037 18/07 A3010 RMK AO2 SLP191 T01830072<br><br>
KIAG 311753Z 35007KT 10SM SCT027 BKN044 19/09 A3010 RMK AO2 SLP192 T01890094 10206 20172 53005<br><br>
KIAG 311732Z 3118/0118 36010KT P6SM BKN040 FM312000 35010KT P6SM SCT040 FM010400 02006KT P6SM SCT035 FM011400 03008KT P6SM SKC<br><br>
KBUF 311854Z 36008KT 10SM FEW035 SCT050 SCT250 19/09 A3008 RMK AO2 SLP185 T01890089<br><br>
KBUF 311754Z 33012G16KT 10SM SCT030 BKN050 BKN250 18/11 A3009 RMK AO2 SLP188 T01830106 10189 20150 53004<br><br>
KBUF 311732Z 3118/0118 35010KT P6SM BKN040 FM312100 35008KT P6SM SCT040 FM010400 02005KT P6SM SCT035 FM011400 02008KT P6SM SKC<br><br>
CYYZ 311800Z 34013G21KT 15SM SCT040 BKN240 19/08 A3011 RMK SC4CI1 SLP198 DENSITY ALT 1000FT<br><br>
TAF CYYZ 311738Z 3118/0124 35012G22KT P6SM SCT040 BECMG 3123/0101 36010KT SKC RMK NXT FCST BY 312100Z<br><br>
CYOO 311800Z AUTO 34018KT 9SM FEW044 18/07 A3008 RMK SLP188 DENSITY ALT 700FT<br><br>
