RETRIEVED AT : Nov 06 2017 17:10 Local <br>
  RETRIEVED AT: Nov 06 2017 22:10 UTC<br><br>
CYSN 062200Z 35006KT 15SM BKN048 07/M00 A3018 RMK SC7 SLP223<br><br>
CYSN 062100Z 35006KT 320V030 15SM BKN046 07/00 A3016 RMK SC7 SLP216<br><br>
TAF CYSN 061945Z 0620/0702 32010KT P6SM SCT030 TEMPO 0620/0702 BKN030 BECMG 0700/0702 24005KT RMK NXT FCST WILL BE ISSUED AT 071345Z<br><br>
<br><br>
CYHM 062200Z 33007KT 15SM BKN042 05/M01 A3018 RMK SC7 SLP226<br><br>
CYHM 062100Z 33009KT 15SM BKN041 BKN170 07/M01 A3016 RMK SC5AC1 AC TR SLP218<br><br>
TAF CYHM 061738Z 0618/0718 31010G20KT P6SM BKN040 FM070200 32005KT P6SM FEW030 SCT140 FM071400 32005KT P6SM FEW030 BKN120 BECMG 0716/0718 02005KT RMK NXT FCST BY 070000Z<br><br>
<br><br>
KIAG 062153Z 33006KT 10SM OVC040 08/M01 A3018 RMK AO2 SLP226 T00781006<br><br>
KIAG 062053Z 01008KT 10SM OVC045 08/M01 A3015 RMK AO2 SLP216 T00831006 53017<br><br>
KIAG 062104Z 0621/0718 34012KT P6SM BKN040 FM070000 33006KT P6SM SCT040 FM070400 VRB03KT P6SM SCT090 FM070700 VRB03KT P6SM BKN080 FM070900 00000KT P6SM BKN025 FM071600 05004KT P6SM BKN025<br><br>
<br><br>
KBUF 062154Z 33006KT 10SM OVC042 07/01 A3017 RMK AO2 SLP221 OCNL BINOVC T00670011<br><br>
KBUF 062054Z 34008KT 10SM BKN041 BKN250 07/01 A3015 RMK AO2 SLP212 T00720006 53017<br><br>
KBUF 062104Z 0621/0718 32006KT P6SM BKN035 FM070000 32005KT P6SM SCT035 FM070100 32004KT P6SM SCT140 FM071300 00000KT P6SM BKN080 FM071600 07004KT P6SM BKN100<br><br>
<br><br>
CYYZ 062200Z 34012KT 15SM SCT035 BKN045 06/M03 A3018 RMK SC3SC4 SLP228<br><br>
CYYZ 062100Z 31016KT 15SM BKN043 BKN070 06/M03 A3016 RMK SC7AC1 AC TR SLP220<br><br>
TAF CYYZ 062038Z 0621/0724 33015KT P6SM BKN040 BECMG 0622/0623 35010KT FM070400 30005KT P6SM FEW030 SCT130 FM071400 30008KT P6SM SCT200 BECMG 0717/0719 16005KT RMK NXT FCST BY 070000Z<br><br>
<br><br>
CYOO 062200Z AUTO 35008KT 9SM OVC037 05/M01 A3017 RMK SLP220<br><br>
CYOO 062100Z AUTO 35008KT 290V360 9SM OVC037 06/M01 A3015 RMK PRESRR SLP216<br><br>
CYOO has no TAF <br><br>
<br><br>
CYTR 062200Z 32007KT 15SM SCT038 05/M02 A3016 RMK SC4 SLP215<br><br>
CYTR 062100Z 32006KT 15SM BKN036 06/M01 A3013 RMK SC5 SLP206<br><br>
TAF CYTR 061730Z 0618/0718 30012G22KT P6SM SCT030 TEMPO 0618/0702 BKN030 BECMG 0620/0622 32008KT FM070600 VRB03KT P6SM FEW030 FM071400 VRB03KT P6SM BKN030 RMK NXT FCST BY 070000Z<br><br>
<br><br>
