RETRIEVED AT : Feb 21 2020 16:05 Local <br>
  RETRIEVED AT: Feb 21 2020 21:05 UTC<br><br>
CYSN 212000Z 23018G28KT 15SM FEW030 00/M09 A3037 RMK SC1 SC TR SLP292<br><br>
TAF CYSN 211938Z 2120/2202 24020G30KT P6SM FEW030 RMK NXT FCST WILL BE ISSUED AT 221345Z<br><br>
<br><br>
CYHM 212000Z 23019KT 15SM FEW036 M00/M09 A3034 RMK CU1 CU TR SLP290<br><br>
TAF CYHM 211738Z 2118/2218 23015G25KT P6SM SKC BECMG 2118/2120 23018G28KT FM220400 24012G22KT P6SM SKC FM221000 24015KT P6SM BKN020 FM221700 24012G22KT P6SM SCT025 RMK NXT FCST BY 220000Z<br><br>
<br><br>
KIAG 212053Z 24022G30KT 10SM CLR M01/M09 A3035 RMK AO2 PK WND 25031/2031 SLP297 T10111089 56024<br><br>
KIAG 211953Z 23024G30KT 10SM CLR M01/M09 A3037 RMK AO2 PK WND 24035/1940 SLP305 T10111089<br><br>
KIAG 211720Z 2118/2218 23018G26KT P6SM FEW035 FM212200 24018G26KT P6SM SKC<br><br>
<br><br>
