RETRIEVED AT : Jul 13 2019 11:32 Local <br>
  RETRIEVED AT: Jul 13 2019 15:32 UTC<br><br>
CYSN 131500Z 20017KT 15SM FEW020 SCT250 26/18 A2991 RMK CF1CI2 SLP130 DENSITY ALT 1700FT<br><br>
CYSN 131400Z 21013G18KT 10SM FEW022 SCT250 25/19 A2992 RMK CF2CI2 SLP133 DENSITY ALT 1600FT<br><br>
TAF CYSN 131238Z 1313/1401 23012KT P6SM FEW250 FM131800 22012G22KT P6SM SCT060 TEMPO 1318/1321 BKN060 FM132100 23012G22KT P6SM BKN060 TEMPO 1321/1401 P6SM -SHRA OVC040 PROB30 1321/1401 VRB15G30KT 2SM TSRA BR BKN020 OVC040CB RMK NXT FCST BY 132000Z<br><br>
<br><br>
CYHM 131500Z 23013G18KT 15SM FEW022 SCT260 25/19 A2993 RMK CU2CI2 SLP135 DENSITY ALT 2200FT<br><br>
CYHM 131400Z 23013KT 15SM FEW016 SCT260 24/19 A2994 RMK CF2CI1 SLP137 DENSITY ALT 2000FT<br><br>
TAF CYHM 131145Z 1312/1412 22006KT P6SM FEW240 BECMG 1314/1316 23010G20KT BECMG 1316/1318 24012G22KT FM131800 25012G22KT P6SM BKN040 PROB30 1318/1324 VRB15G25KT 2SM TSRA BR BKN040CB FM140000 25010KT P6SM SCT020 BKN040 BECMG 1400/1402 30008KT FM140500 30008KT P6SM SKC RMK NXT FCST BY 131800Z<br><br>
<br><br>
KIAG 131453Z 21015KT 10SM CLR 24/17 A2994 RMK AO2 SLP136 T02440172 58002<br><br>
KIAG 131353Z 23013G19KT 10SM FEW017 24/18 A2995 RMK AO2 SLP138 T02390183<br><br>
KIAG 131350Z 24014G19KT 10SM SCT017 24/18 A2995 RMK AO2<br><br>
KIAG 131428Z 1314/1412 23014KT P6SM SKC FM131700 23016G24KT P6SM SCT050 SCT250 FM132200 23012KT P6SM VCSH BKN050 FM140100 26008KT P6SM SCT050 FM140600 29006KT P6SM SKC<br><br>
<br><br>
KBUF 131454Z 22012KT 10SM FEW020 FEW250 24/16 A2996 RMK AO2 SLP142 T02390161 57002<br><br>
KBUF 131354Z 22013KT 10SM FEW012 FEW250 23/17 A2996 RMK AO2 SLP142 T02330167<br><br>
KBUF 131428Z 1314/1412 23014KT P6SM SKC FM131700 23016G24KT P6SM FEW050 SCT100 FM132300 24014KT P6SM VCSH BKN050 FM140200 25008KT P6SM SCT040<br><br>
<br><br>
CYYZ 131500Z 21012G20KT 15SM BKN068 27/17 A2990 RMK AC5 SLP124 DENSITY ALT 2100FT<br><br>
CYYZ 131400Z 22009G15KT 15SM BKN080 26/18 A2991 RMK AC5 SLP127 DENSITY ALT 2000FT<br><br>
TAF AMD CYYZ 131449Z 1315/1418 22012G22KT P6SM BKN080 FM131700 25012G22KT P6SM BKN060 TEMPO 1317/1319 P6SM -SHRA VCTS BKN040CB FM131900 26012G22KT P6SM BKN060 TEMPO 1319/1324 P6SM -SHRA SCT020 OVC040 PROB30 1319/1323 VRB15G30KT 2SM TSRA BR BKN012 OVC040CB FM140000 28008KT P6SM SCT030 FM140300 32008KT P6SM SKC FM141100 34010KT P6SM FEW010 FM141500 33010KT P6SM SCT030 RMK NXT FCST BY 131800Z<br><br>
<br><br>
CYOO 131500Z AUTO 18010KT 9SM CLR 23/18 A2990 RMK SLP127 DENSITY ALT 1500FT<br><br>
CYOO 131400Z AUTO 18004KT 140V220 9SM CLR 23/18 A2990 RMK SLP127 DENSITY ALT 1400FT<br><br>
TAF CYOO 131339Z 1314/1402 22006KT P6SM FEW080 FM131600 22008KT P6SM BKN060 FM131800 22010G20KT P6SM BKN060 TEMPO 1318/1323 P6SM -SHRA BKN020 OVC040 PROB30 1319/1323 VRB15G30KT 2SM TSRA BR BKN012 OVC040CB FM132300 26008KT P6SM FEW020 SCT060 TEMPO 1323/1402 P6SM -SHRA BKN020 BKN060 RMK FCST BASED ON AUTO OBS. NXT FCST BY 132000Z<br><br>
<br><br>
CYTR 131500Z 21009KT 15SM FEW092 FEW230 24/18 A2990 RMK AC1CI1 SLP126<br><br>
CYTR 131400Z 22007KT 15SM SCT065 BKN200 22/17 A2991 RMK SC4CI1 SLP128<br><br>
TAF CYTR 131130Z 1312/1412 VRB03KT P6SM FEW090 SCT200 FM131600 22010G20KT P6SM FEW040 BKN080 FM132000 24012G22KT P6SM SCT020 BKN040 TEMPO 1320/1324 P6SM -SHRA BKN020 OVC040 PROB30 1320/1324 VRB20G30KT 2SM TSRA BKN020CB OVC040 FM140000 25010KT P6SM SCT020 BKN040 TEMPO 1400/1404 BKN020 OVC040 FM140400 31005KT P6SM SKC RMK NXT FCST BY 131800Z<br><br>
<br><br>
