RETRIEVED AT : Sep 07 2018 21:05 Local <br>
  RETRIEVED AT: Sep 08 2018 01:05 UTC<br><br>
CYSN 080000Z 03005KT 15SM FEW044 OVC250 20/15 A3018 RMK SC2CI6 SLP220 DENSITY ALT 700FT<br><br>
TAF CYSN 071938Z 0720/0801 03008KT P6SM FEW050 BKN250 RMK NXT FCST WILL BE ISSUED AT 081245Z<br><br>
<br><br>
CYHM 080000Z 03005KT 15SM FEW020 FEW090 OVC210 18/16 A3020 RMK CU1AC1CI6 SLP228 DENSITY ALT 1000FT<br><br>
TAF CYHM 072338Z 0800/0824 05008KT P6SM FEW020 BKN240 BECMG 0808/0810 03012KT BECMG 0814/0816 05012G22KT RMK NXT FCST BY 080600Z<br><br>
<br><br>
KIAG 080053Z 02004KT 10SM CLR 18/14 A3020 RMK AO2 SLP227 T01830139<br><br>
KIAG 072353Z 02005KT 10SM CLR 19/14 A3019 RMK AO2 SLP222 T01890139 10244 20189 53004<br><br>
KIAG 072337Z 0800/0824 05005KT P6SM SCT250 FM080700 03004KT P6SM BKN250 FM081000 05014G22KT P6SM BKN250 FM082200 06010KT P6SM SCT250<br><br>
<br><br>
KBUF 080054Z 01003KT 10SM FEW050 OVC220 19/14 A3020 RMK AO2 SLP226 T01940144<br><br>
KBUF 072354Z 03004KT 10SM FEW050 FEW090 BKN200 OVC280 19/14 A3019 RMK AO2 SLP220 T01940139 10250 20194 53007<br><br>
KBUF 072337Z 0800/0824 04005KT P6SM BKN250 FM081100 06012G20KT P6SM BKN250 FM082300 06009KT P6SM SCT250<br><br>
<br><br>
CYYZ 080000Z 36013KT 15SM FEW050 SCT210 BKN260 20/11 A3020 RMK CU1CI3CI4 CU TR SLP229 DENSITY ALT 1000FT<br><br>
TAF CYYZ 072338Z 0800/0906 35012KT P6SM FEW050 BKN250 BECMG 0805/0807 02010KT FM081600 07010KT P6SM SCT250 BECMG 0901/0903 04010KT RMK NXT FCST BY 080300Z<br><br>
<br><br>
CYOO 080000Z AUTO 33006KT 9SM CLR 19/12 A3019 RMK SLP226 DENSITY ALT 600FT<br><br>
CYOO has no TAF <br><br>
<br><br>
CYTR 080000Z 00000KT 15SM FEW040 SCT180 OVC250 18/13 A3017 RMK SC1AC3CI5 SLP220<br><br>
TAF CYTR 072330Z 0800/0824 01008KT P6SM FEW040 BKN180 OVC250 FM081200 04012G22KT P6SM FEW030 SCT250 BECMG 0817/0819 04012KT RMK NXT FCST BY 080600Z<br><br>
<br><br>
