RETRIEVED AT : Mar 28 2020 15:05 Local <br>
  RETRIEVED AT: Mar 28 2020 19:05 UTC<br><br>
CYSN 281800Z 09008KT 3SM -RA BR OVC004 07/07 A2984 RMK SF8 SLP109<br><br>
TAF CYSN 281238Z 2813/2901 07008KT P6SM OVC080 TEMPO 2813/2815 5SM -SHRA BR BKN007 OVC050 FM281500 07010KT P6SM -RA FEW007 OVC030 TEMPO 2815/2817 3SM -RA BR BKN005 OVC015 FM281700 07012KT P6SM FEW006 OVC012 TEMPO 2817/2822 5SM -DZ BR BKN006 OVC010 FM282200 07012KT 6SM -DZ OVC008 TEMPO 2822/2901 3SM -RA -DZ BR OVC005 RMK NXT FCST BY 282000Z<br><br>
<br><br>
CYHM 281849Z 03016KT 3/4SM R12/P6000FT/U BR OVC002 03/03 A2986 RMK FG4SF4 PRESRR SLP120<br><br>
CYHM 281825Z 04014G19KT 1/2SM R12/P6000FT/D FG OVC002 03/03 A2984 RMK FG6SF2 SLP115<br><br>
CYHM 281800Z 04015KT 3/4SM R12/3500VP6000FT/D BR BKN002 04/03 A2986 RMK FG3SF5 SLP120<br><br>
CYHM 281748Z 03016G23KT 5/8SM R12/P6000FT/N BR OVC002 04/04 A2986 RMK FG4SF4 VIS SW 1 SLP120<br><br>
CYHM 281736Z 05016G21KT 3/4SM R12/P6000FT/N -RA BR OVC002 04/04 A2984 RMK FG3SF5 SLP115<br><br>
CYHM 281724Z 05016G22KT 2SM -RA BR OVC002 04/03 A2985 RMK CF8 VIS SW 3 SLP119<br><br>
TAF AMD CYHM 281850Z 2818/2918 04015G25KT 1/2SM -DZ FG VV002 TEMPO 2818/2906 2SM BR OVC004 FM290600 04015G25KT 3/4SM -RA BR OVC002 TEMPO 2906/2912 3SM SHRA BR OVC005 FM291200 06008KT 1/4SM -RA FG VV001 PROB30 2913/2916 1SM +TSRA BR OVC002CB FM291600 22012KT 5SM -SHRA BR OVC008 BECMG 2916/2918 23018G28KT RMK NXT FCST BY 290000Z<br><br>
<br><br>
KIAG 281900Z 11012KT 10SM FEW013 BKN028 OVC070 10/08 A2983 RMK AO2 T01000078<br><br>
KIAG 281853Z 11011KT 10SM FEW008 BKN075 OVC085 09/07 A2983 RMK AO2 RAE07 SLP109 P0000 T00940072<br><br>
KIAG 281821Z 12012KT 10SM FEW008 BKN075 OVC085 09/08 A2983 RMK AO2 RAE07 P0000 T00940078<br><br>
KIAG 281753Z 12012KT 9SM -RA FEW008 BKN028 OVC075 09/08 A2985 RMK AO2 SLP116 P0003 60032 T00940083 10094 20056 58019<br><br>
KIAG 281740Z 11010KT 6SM -RA BR FEW009 SCT030 OVC075 09/08 A2986 RMK AO2 P0003 T00940083<br><br>
KIAG 281720Z 2818/2918 10009KT 5SM -RA BR OVC025 FM282000 10008KT P6SM OVC015 FM290400 09005KT P6SM -SHRA OVC007 FM290900 12007KT 4SM RA BR OVC005 FM291400 15012G19KT 6SM -SHRA BR OVC012 WS015/20045KT FM291700 18016G23KT P6SM OVC035 WS015/20045KT<br><br>
<br><br>
KBUF 281854Z 09008KT 10SM -RA BKN027 BKN035 OVC060 09/07 A2984 RMK AO2 SLP107 P0000 T00940072<br><br>
KBUF 281841Z 10009KT 10SM -RA BKN027 BKN035 OVC060 09/07 A2984 RMK AO2 P0000 T00940067<br><br>
KBUF 281754Z 09011KT 10SM -RA BKN030 OVC040 09/07 A2987 RMK AO2 SLP118 P0001 60044 T00890067 10094 20078 56013<br><br>
KBUF 281720Z 2818/2918 08010KT 6SM -RA BR OVC025 FM282100 09008KT P6SM OVC015 FM290400 11005KT P6SM -SHRA OVC007 FM290900 16013KT 4SM RA BR OVC007 FM291400 17016G24KT 6SM -SHRA BR OVC015 WS015/20045KT FM291700 18015G25KT P6SM OVC035 WS015/20045KT<br><br>
<br><br>
CYYZ 281800Z CCA 08021KT 15SM FEW008 BKN016 BKN042 05/03 A2989 RMK CF1SC5SC1 PRESFR SLP130<br><br>
CYYZ 281737Z 07015G21KT 15SM FEW008 BKN018 OVC060 05/03 A2991 RMK CF1SC6SC1 SLP134<br><br>
TAF AMD CYYZ 281850Z 2818/2924 08015G25KT P6SM BKN015 OVC040 FM282100 08015G25KT P6SM OVC015 TEMPO 2821/2903 5SM -DZ BR BKN007 OVC015 FM290300 08015G25KT 5SM -DZ BR OVC006 TEMPO 2903/2907 P6SM NSW OVC010 FM290700 08015G25KT 11/2SM -RA BR OVC003 TEMPO 2907/2914 5SM SHRA BR OVC006 FM291400 09012KT 1SM -RA BR OVC002 PROB30 2914/2916 1SM +TSRA BR OVC002CB FM291700 23015KT 5SM -SHRA BR BKN008 OVC015 BECMG 2917/2919 24020G35KT FM291900 24020G35KT P6SM -SHRA BKN020 BKN040 RMK NXT FCST BY 282100Z<br><br>
<br><br>
CYOO 281845Z AUTO 09011KT 9SM BKN016 OVC065 08/03 A2990 RMK SLP131<br><br>
CYOO 281839Z AUTO 08010G16KT 9SM SCT016 OVC065 08/03 A2991 RMK SLP133<br><br>
CYOO 281800Z AUTO 08011G16KT 9SM BKN018 OVC028 07/03 A2992 RMK SLP139<br><br>
CYOO 281744Z AUTO 09015KT 9SM BKN020 BKN028 OVC085 06/03 A2991 RMK SLP136<br><br>
CYOO 281735Z AUTO 09013G20KT 9SM -RA BKN020 BKN065 OVC085 07/03 A2992 RMK SLP138<br><br>
TAF CYOO 281338Z 2814/2902 07010KT P6SM OVC100 FM281800 07012KT P6SM FEW025 OVC070 TEMPO 2818/2821 P6SM -RA BKN020 OVC040 FM282100 07012G22KT P6SM OVC015 TEMPO 2821/2902 4SM -DZ BR BKN007 OVC012 RMK FCST BASED ON AUTO OBS. NXT FCST BY 282000Z<br><br>
<br><br>
CYTR 281852Z 09007KT 15SM OVC020 07/02 A2997 RMK SC8 WND ESTD SLP154<br><br>
CYTR 281825Z 09005KT 10SM -RA BKN020 OVC050 06/02 A2998 RMK SC6SC2 WND ESTD SLP156<br><br>
CYTR 281800Z CCA 09005KT 10SM -RA BKN030 OVC050 06/01 A2999 RMK SC5SC3 WND ESTD SLP159<br><br>
TAF AMD CYTR 281834Z 2818/2918 09008KT P6SM BKN025 OVC050 TEMPO 2818/2823 6SM -RA BR BKN015 OVC040 FM282300 09010KT 6SM -RA BR BKN015 OVC030 TEMPO 2823/2903 5SM -RA -DZ BR OVC008 FM290300 10012KT 5SM -RA BR BKN006 OVC030 FM290900 10015KT 3SM RA BR BKN005 OVC030 PROB30 2909/2914 1SM -TSRA BR BKN005 OVC030CB RMK NXT FCST BY 290000Z<br><br>
<br><br>
