RETRIEVED AT : Oct 03 2017 03:10 Local <br>
  RETRIEVED AT: Oct 03 2017 07:10 UTC<br><br>
CYSN has no TAF <br><br>
<br><br>
CYHM 030700Z 04005KT 15SM FEW250 10/10 A3038 RMK CI1 SLP291<br><br>
CYHM 030600Z 04004KT 15SM FEW250 10/10 A3038 RMK CI1 SLP292<br><br>
TAF CYHM 030548Z 0306/0406 04006KT P6SM SKC FM030800 VRB03KT P6SM SKC PROB30 0309/0313 11/2SM BR FM031500 20012KT P6SM SKC BECMG 0318/0320 20012G22KT RMK NXT FCST BY 031200Z<br><br>
<br><br>
KIAG 030653Z AUTO 00000KT 10SM CLR 09/06 A3039 RMK AO2 SLP293 T00940061<br><br>
KIAG 030553Z AUTO 00000KT 10SM CLR 11/07 A3040 RMK AO2 SLP294 T01110072 10144 20100 55000<br><br>
KIAG 030521Z 0306/0406 15005KT P6SM FEW250 FM030900 18006KT P6SM FEW250 FM031400 21009KT P6SM SKC FM040000 19008KT P6SM FEW250<br><br>
<br><br>
KBUF 030654Z 14006KT 10SM CLR 11/07 A3040 RMK AO2 SLP296 T01110072<br><br>
KBUF 030554Z 15004KT 10SM CLR 12/07 A3041 RMK AO2 SLP296 T01170072 10156 20111 53002<br><br>
KBUF 030521Z 0306/0406 16006KT P6SM FEW250 FM031400 21009KT P6SM SKC FM040000 19008KT P6SM FEW250<br><br>
<br><br>
CYYZ 030600Z 01003KT 310V020 15SM FEW240 10/08 A3039 RMK CI2 SLP293<br><br>
TAF CYYZ 030548Z 0306/0412 VRB03KT P6SM SKC BECMG 0314/0316 20012KT FM032000 21012G22KT P6SM SKC BECMG 0401/0403 20010KT FM040900 22010G20KT P6SM BKN050 RMK NXT FCST BY 030900Z<br><br>
<br><br>
CYOO 030700Z AUTO 09005KT 9SM CLR 13/10 A3040 RMK SLP296<br><br>
CYOO 030600Z AUTO 09006KT 9SM CLR 12/10 A3039 RMK SLP294<br><br>
CYOO has no TAF <br><br>
<br><br>
CYTR 030700Z 01003KT 15SM SCT250 05/05 A3043 RMK CI3 SLP305<br><br>
CYTR 030600Z 03003KT 15SM SCT250 06/06 A3044 RMK CI4 SLP309<br><br>
TAF CYTR 030530Z 0306/0406 01005KT P6SM FEW240 FM031000 18005KT 6SM BR FEW005 TEMPO 0310/0313 4SM BR PROB30 0310/0313 2SM BR FM031300 18008KT P6SM SCT250 RMK NXT FCST BY 031200Z<br><br>
<br><br>
