RETRIEVED AT : May 06 2018 22:05 Local <br>
  RETRIEVED AT: May 07 2018 02:05 UTC<br><br>
CYSN 070100Z 12003KT 100V170 10SM -SHRA SCT060 OVC100 10/08 A2998 RMK SC4AC4 CVCTV CLD EMBD/ LAST STFD OBS / NEXT 071100UTC SLP154<br><br>
CYSN has no TAF <br><br>
<br><br>
CYHM 070100Z 02007KT 15SM -SHRA FEW061 SCT075 OVC092 11/09 A2999 RMK SC1AC3AC4 SLP158<br><br>
TAF CYHM 062338Z 0700/0724 03008KT P6SM -SHRA SCT040 OVC080 TEMPO 0700/0705 5SM -SHRA BR FM070500 04010KT P6SM SCT020 BKN040 TEMPO 0705/0710 BKN015 OVC030 FM071200 05010KT P6SM FEW050 BECMG 0714/0716 05010G20KT FM072000 05012KT P6SM SKC RMK NXT FCST BY 070600Z<br><br>
<br><br>
KIAG 070153Z 03006KT 10SM OVC090 13/08 A2999 RMK AO2 RAE42 SLP157 P0001 T01330083<br><br>
KIAG 070053Z 35008KT 10SM -RA FEW055 FEW070 OVC090 13/07 A2999 RMK AO2 RAB2357 SLP156 P0000 T01280067<br><br>
KIAG 062332Z 0700/0724 01010KT P6SM -SHRA BKN060 FM070300 34004KT P6SM VCSH BKN070 FM070500 02008KT P6SM BKN060 FM070900 03011KT P6SM SCT045 FM071700 05011KT P6SM SKC FM072100 05008KT P6SM SKC<br><br>
<br><br>
KBUF 070154Z 04008KT 10SM -RA SCT065 BKN080 OVC100 13/07 A3000 RMK AO2 SLP157 P0000 T01280072 $<br><br>
KBUF 070054Z 35010KT 10SM -RA SCT060 OVC075 14/06 A2999 RMK AO2 RAB11 SLP155 PCPN VRY LGT P0000 T01440056 $<br><br>
KBUF 062332Z 0700/0724 03010KT P6SM -SHRA BKN070 FM070300 34004KT P6SM VCSH BKN070 FM070500 03007KT P6SM BKN060 FM070900 03010KT P6SM SCT040 FM071700 05010G16KT P6SM SKC FM072300 04008KT P6SM SKC<br><br>
<br><br>
CYYZ 070130Z 35008KT 15SM -RA BKN067 OVC095 15/08 A3000 RMK AC7AC1 SLP160 DENSITY ALT 600FT<br><br>
CYYZ 070100Z 26004KT 15SM BKN067 OVC088 14/09 A2999 RMK AC6AC2 SLP157 DENSITY ALT 600FT<br><br>
TAF CYYZ 062338Z 0700/0806 01010KT P6SM -SHRA OVC070 FM070600 03010KT P6SM BKN040 FM071000 03008KT P6SM FEW040 BECMG 0713/0715 08012KT FM071800 12010KT P6SM SKC BECMG 0800/0802 20005KT RMK NXT FCST BY 070300Z<br><br>
<br><br>
CYOO 070100Z AUTO 05005KT 9SM OVC085 16/03 A2998 RMK SLP156 DENSITY ALT 500FT<br><br>
CYOO 070011Z AUTO 02007KT 9SM SCT090 OVC120 16/06 A2996 RMK SLP147 DENSITY ALT 500FT<br><br>
CYOO has no TAF <br><br>
<br><br>
CYTR 070100Z 03010G18KT 15SM OVC078 15/01 A2998 RMK AC8 SLP154<br><br>
TAF CYTR 062330Z 0700/0724 VRB03KT P6SM OVC070 TEMPO 0700/0704 P6SM -SHRA SCT040 OVC070 BECMG 0702/0704 03010KT FM070400 03010KT P6SM SCT060 FM070700 03008KT P6SM SKC BECMG 0717/0718 20008KT FM072000 25005KT P6SM SKC RMK NXT FCST BY 070600Z<br><br>
<br><br>
