RETRIEVED AT : Oct 21 2017 13:10 Local <br>
  RETRIEVED AT: Oct 21 2017 17:10 UTC<br><br>
CYSN 211700Z 20010KT 15SM OVC250 22/10 A3024 RMK CI8 SLP241 DENSITY ALT 900FT<br><br>
CYSN 211600Z 21010G15KT 15SM SCT130 OVC230 21/12 A3026 RMK AC3CI5 SLP249 DENSITY ALT 700FT<br><br>
TAF CYSN 211238Z 2113/2201 20010KT P6SM BKN240 BECMG 2123/2124 18007KT RMK NXT FCST BY 212000Z<br><br>
<br><br>
CYHM 211700Z 20008KT 170V230 15SM BKN250 21/13 A3025 RMK CS7 SLP247 DENSITY ALT 1300FT<br><br>
CYHM 211600Z 19010KT 15SM BKN250 19/12 A3026 RMK CS7 HALO SLP250 DENSITY ALT 1100FT<br><br>
TAF CYHM 211139Z 2112/2212 23005KT P6SM BKN250 FM211600 20008KT P6SM BKN250 FM220000 16006KT P6SM BKN220 BECMG 2201/2203 SCT220 BECMG 2204/2206 19008G18KT RMK NXT FCST BY 211800Z<br><br>
<br><br>
KIAG 211653Z 20009KT 10SM CLR 23/08 A3026 RMK AO2 SLP247 T02280083<br><br>
KIAG 211553Z 22007KT 10SM CLR 21/08 A3027 RMK AO2 SLP253 T02060078<br><br>
KIAG 211508Z 2115/2212 20006KT P6SM BKN200 FM220000 17006KT P6SM BKN200<br><br>
<br><br>
KBUF 211654Z 22009KT 10SM FEW150 BKN200 OVC250 22/06 A3027 RMK AO2 SLP250 T02220056<br><br>
KBUF 211554Z 21007KT 10SM FEW150 BKN200 OVC250 21/06 A3028 RMK AO2 SLP256 T02060061<br><br>
KBUF 211505Z 2115/2212 20008KT P6SM BKN200 FM220000 17006KT P6SM BKN200<br><br>
<br><br>
CYYZ 211700Z 15005KT 110V170 15SM FEW180 OVC250 19/13 A3024 RMK AS2CS6 HALO SLP241 DENSITY ALT 800FT<br><br>
CYYZ 211600Z 14005KT 15SM FEW190 OVC250 18/12 A3024 RMK AS2CS6 SLP244 DENSITY ALT 700FT<br><br>
TAF CYYZ 211438Z 2115/2218 18003KT P6SM BKN250 BECMG 2115/2117 20012KT BECMG 2122/2124 16005KT FM220600 15003KT P6SM SCT250 BECMG 2213/2215 18006KT RMK NXT FCST BY 211800Z<br><br>
<br><br>
CYOO 211700Z AUTO 19006KT 9SM CLR 17/10 A3025 RMK SLP248<br><br>
CYOO 211600Z AUTO 20005KT 160V230 9SM CLR 17/10 A3026 RMK SLP250<br><br>
CYOO has no TAF <br><br>
<br><br>
CYTR 211700Z 21008KT 15SM FEW095 OVC250 17/12 A3025 RMK AC2CS6 HALO SLP247<br><br>
CYTR 211600Z 20010KT 15SM SCT095 OVC250 17/13 A3026 RMK AC3CI5 SLP249<br><br>
TAF CYTR 211130Z 2112/2212 VRB03KT P6SM FEW250 TEMPO 2112/2113 4SM BR FM211300 23005KT P6SM BKN250 BECMG 2116/2118 22010KT BECMG 2122/2124 14005KT RMK NXT FCST BY 211800Z<br><br>
<br><br>
