RETRIEVED AT : Sep 30 2017 22:10 Local <br>
  RETRIEVED AT: Oct 01 2017 02:10 UTC<br><br>
CYSN 010100Z 18003KT 15SM SKC 06/04 A3040 RMK LAST STFD OBS/NEXT 011100 UTC SLP298<br><br>
CYSN has no TAF <br><br>
<br><br>
CYHM 010200Z 15004KT 15SM SKC 07/02 A3040 RMK SLP302<br><br>
CYHM 010100Z 10003KT 15SM SKC 08/02 A3040 RMK SLP301<br><br>
TAF CYHM 302338Z 0100/0124 VRB03KT P6SM FEW050 FM012100 10008KT P6SM FEW030 RMK NXT FCST BY 010600Z<br><br>
<br><br>
KIAG 010153Z 00000KT 10SM CLR 08/04 A3041 RMK AO2 SLP303 T00830039<br><br>
KIAG 010053Z 00000KT 10SM CLR 09/03 A3040 RMK AO2 SLP302 T00890033<br><br>
KIAG 302321Z 0100/0124 00000KT P6SM SKC FM011300 VRB05KT P6SM SKC<br><br>
<br><br>
KBUF 010154Z 00000KT 10SM CLR 09/04 A3041 RMK AO2 SLP301 T00890044<br><br>
KBUF 010054Z 00000KT 10SM CLR 09/04 A3041 RMK AO2 SLP300 T00940044<br><br>
KBUF 302321Z 0100/0124 00000KT P6SM SKC FM011300 VRB05KT P6SM SKC<br><br>
<br><br>
CYYZ 010200Z 01007KT 15SM SKC 09/03 A3041 RMK SLP303<br><br>
CYYZ 010100Z 03007KT 020V080 15SM SKC 11/03 A3040 RMK SLP301<br><br>
TAF CYYZ 302338Z 0100/0206 34007KT P6SM FEW040 FM011200 31005KT P6SM FEW040 BECMG 0115/0117 20008KT BECMG 0123/0124 VRB03KT RMK NXT FCST BY 010300Z<br><br>
<br><br>
CYOO 010200Z AUTO 36003KT 9SM CLR 07/04 A3040 RMK SLP300<br><br>
CYOO 010100Z AUTO 01003KT 9SM CLR 07/04 A3040 RMK SLP300<br><br>
CYOO has no TAF <br><br>
<br><br>
CYTR 010200Z 00000KT 15SM SKC 05/04 A3040 RMK SLP297<br><br>
CYTR 010100Z 00000KT 15SM SKC 07/05 A3039 RMK SLP294<br><br>
TAF CYTR 302330Z 0100/0124 VRB03KT P6SM FEW040 FEW200 BECMG 0116/0118 22008KT BECMG 0123/0124 VRB03KT RMK NXT FCST BY 010600Z<br><br>
<br><br>
