RETRIEVED AT : Mar 22 2020 17:05 Local <br>
  RETRIEVED AT: Mar 22 2020 21:05 UTC<br><br>
CYSN 222000Z 05016G23KT 15SM SCT150 BKN190 02/M06 A3053 RMK AC3CI4 SLP344<br><br>
TAF AMD CYSN 222022Z 2220/2301 07012G22KT P6SM SCT150 BKN190 FM230000 07010KT P6SM BKN150 RMK NXT FCST WILL BE ISSUED AT 231245Z<br><br>
<br><br>
CYHM 222000Z 05020KT 15SM FEW035 BKN200 M00/M07 A3052 RMK SC1CC6 SC TR SLP349<br><br>
TAF CYHM 221738Z 2218/2318 06012G22KT P6SM FEW030 SCT250 FM222300 05012G22KT P6SM BKN120 OVC200 FM230400 05012KT P6SM OVC070 TEMPO 2305/2307 11/2SM -SN OVC020 PROB30 2305/2307 P6SM -FZRA FM230700 05010KT 3/4SM -SN VV005 TEMPO 2307/2309 2SM -SN OVC008 FM231200 05010KT 3/4SM -SNRA BR OVC003 PROB30 2312/2315 1/8SM -SNRA FG VV001 FM231500 04007KT 3/4SM -RA BR OVC002 RMK NXT FCST BY 230000Z<br><br>
<br><br>
KIAG 222053Z 10013G17KT 10SM CLR 03/M11 A3050 RMK AO2 SLP344 T00281106 56036<br><br>
KIAG 221953Z 08013G21KT 10SM CLR 03/M11 A3052 RMK AO2 SLP351 T00281106<br><br>
KIAG 222059Z 2221/2318 10013G17KT P6SM BKN200 FM230000 08012KT P6SM BKN150 FM230600 15008KT 3SM -SN OVC025 FM231000 15008KT 4SM -RASN OVC015 FM231200 16010KT 6SM -RA OVC015<br><br>
<br><br>
KBUF 222054Z 07011KT 10SM SCT190 BKN250 04/M11 A3049 RMK AO2 SLP334 T00391106 56037<br><br>
KBUF 221954Z 07012KT 10SM FEW170 BKN200 BKN250 04/M11 A3051 RMK AO2 SLP341 T00391106<br><br>
KBUF 222059Z 2221/2318 07012KT P6SM BKN200 FM230000 08010KT P6SM BKN150 FM230600 15006KT 3SM -SN OVC025 FM230900 16010KT 2SM -RASN OVC015 FM231100 17010KT 6SM -RA OVC015<br><br>
<br><br>
CYYZ 222000Z 10013G23KT 15SM FEW030 SCT180 SCT220 M00/M09 A3056 RMK CF1AC3CI1 CF TR SLP359<br><br>
TAF CYYZ 222038Z 2221/2324 10012G22KT P6SM FEW030 SCT180 BKN220 FM230000 09012KT P6SM BKN120 OVC180 FM230500 09012KT P6SM OVC070 FM230700 09012KT P6SM -SN BKN040 OVC070 TEMPO 2308/2309 2SM -SN OVC040 FM230900 09012KT 1SM -SN VV009 FM231300 09010KT 3/4SM -SNRA BR OVC004 FM231500 09010KT 1SM -RA BR OVC003 FM232100 07008KT 2SM -DZ BR OVC003 RMK NXT FCST BY 230000Z<br><br>
<br><br>
CYOO 222000Z AUTO 11008G20KT 9SM CLR M00/M09 A3059 RMK SLP367<br><br>
TAF CYOO 221938Z 2220/2308 10012G22KT P6SM SKC BECMG 2223/2301 08012KT FM230600 09012KT P6SM OVC080 TEMPO 2307/2308 P6SM -SN RMK FCST BASED ON AUTO OBS. NXT FCST BY 230200Z<br><br>
<br><br>
CYTR 222000Z 12009KT 15SM FEW200 02/M12 A3064 RMK CI1 SLP380<br><br>
TAF CYTR 221730Z 2218/2318 08008KT P6SM FEW030 FM222300 08005KT P6SM FEW120 SCT250 FM230500 06008KT P6SM FEW050 OVC120 BECMG 2307/2309 14012G22KT FM230900 14012G22KT 5SM -RA BR SCT012 OVC020 FM231100 14012G22KT 2SM -RASN BR SCT008 OVC012 FM231400 14012G22KT 1SM -RASN BR OVC008 RMK NXT FCST BY 230000Z<br><br>
<br><br>
