RETRIEVED AT : Mar 14 2020 19:05 Local <br>
  RETRIEVED AT: Mar 14 2020 23:05 UTC<br><br>
CYSN 142200Z 30006KT 15SM BKN032 OVC080 03/M02 A3042 RMK SC7AC1 SLP307<br><br>
TAF CYSN 141938Z 1420/1501 28007KT P6SM BKN030 OVC200 BECMG 1420/1422 SCT030 OVC180 FM150000 36008KT P6SM FEW030 OVC140 RMK NXT FCST WILL BE ISSUED AT 151245Z<br><br>
<br><br>
CYHM 142200Z 31007KT 15SM BKN024 OVC130 01/M04 A3042 RMK SC7AC1 SLP311<br><br>
TAF CYHM 141738Z 1418/1518 28010KT P6SM OVC020 TEMPO 1418/1503 BKN025 OVC200 FM150300 03010KT P6SM BKN040 OVC120 FM150600 03010KT P6SM SCT040 BKN120 FM151200 03015KT P6SM FEW030 SCT120 FM151500 04015KT P6SM FEW030 RMK NXT FCST BY 150000Z<br><br>
<br><br>
KIAG 142253Z 22006KT 10SM OVC027 01/M02 A3043 RMK AO2 SLP319 T00111022<br><br>
KIAG 142153Z 22009KT 10SM OVC027 01/M03 A3042 RMK AO2 SLP314 T00111028<br><br>
KIAG 142105Z 1421/1518 25008KT P6SM OVC025 FM150000 30008KT P6SM SCT025 OVC120 FM150300 01006KT P6SM SCT060 BKN100 FM151000 04006KT P6SM SCT050<br><br>
<br><br>
KBUF 142254Z 24007KT 10SM OVC028 01/M03 A3043 RMK AO2 SLP314 T00111033<br><br>
KBUF 142154Z 23008KT 10SM BKN028 OVC150 01/M03 A3041 RMK AO2 SLP308 T00111033<br><br>
KBUF 142104Z 1421/1518 25008KT P6SM BKN025 FM150000 30006KT P6SM SCT025 BKN120 FM150300 35006KT P6SM SCT050 BKN100 FM151000 02006KT P6SM SCT050<br><br>
<br><br>
CYYZ 142226Z 04010KT 15SM OVC032 02/M04 A3042 RMK SC8 SLP310<br><br>
CYYZ 142200Z VRB05KT 15SM BKN032 OVC160 03/M04 A3041 RMK SC7AS1 SLP306<br><br>
TAF CYYZ 142038Z 1421/1524 29005KT P6SM SCT030 OVC160 BECMG 1422/1424 36008KT FM151200 02012KT P6SM FEW040 BECMG 1518/1520 08010KT SCT180 RMK NXT FCST BY 150000Z<br><br>
<br><br>
CYOO 142200Z AUTO 34008KT 9SM OVC150 02/M04 A3042 RMK SLP309<br><br>
TAF CYOO 141938Z 1420/1508 30010G20KT P6SM BKN030 BKN220 BECMG 1420/1422 30010KT SCT020 BKN160 RMK FCST BASED ON AUTO OBS. NXT FCST BY 150200Z<br><br>
<br><br>
CYTR 142200Z 28010KT 15SM OVC250 04/M04 A3038 RMK CS8 SLP292<br><br>
TAF CYTR 141730Z 1418/1518 30010G20KT P6SM FEW030 BKN250 FM150000 31010KT P6SM FEW040 BKN160 BECMG 1502/1504 02008KT BECMG 1510/1512 SKC RMK NXT FCST BY 150000Z<br><br>
<br><br>
