RETRIEVED AT : Feb 22 2020 11:05 Local <br>
  RETRIEVED AT: Feb 22 2020 16:05 UTC<br><br>
CYSN 221500Z 24015G23KT 15SM FEW020 BKN250 02/M06 A3022 RMK SC1CI5 SLP238<br><br>
TAF CYSN 221338Z 2214/2302 24010G20KT P6SM SKC FM221700 24012G22KT P6SM SCT025 RMK NXT FCST BY 222000Z<br><br>
<br><br>
CYHM 221500Z 25018KT 15SM FEW240 00/M08 A3019 RMK CI1 SLP236<br><br>
TAF CYHM 221138Z 2212/2312 24010G20KT P6SM FEW020 FM221700 24012G22KT P6SM SCT025 FM230600 24010KT P6SM SCT015 FM230900 24010KT P6SM FEW020 BKN260 RMK NXT FCST BY 221800Z<br><br>
<br><br>
