RETRIEVED AT : Nov 04 2017 20:10 Local <br>
  RETRIEVED AT: Nov 05 2017 00:10 UTC<br><br>
CYSN 050000Z 08009G15KT 15SM SCT053 OVC081 07/02 A3013 RMK SC4AC4 SLP209<br><br>
CYSN 042300Z 07009G15KT 15SM BKN070 OVC170 07/02 A3015 RMK AC6AC2 SLP215<br><br>
TAF CYSN 041938Z 0420/0501 09012G22KT P6SM SCT120 BKN160 BKN230 FM050000 09010G20KT P6SM BKN040 BKN120 OVC220 RMK NXT FCST WILL BE ISSUED AT 051245Z<br><br>
<br><br>
CYHM 050000Z 06020G27KT 15SM SCT047 BKN075 OVC140 06/03 A3010 RMK SC3AC3AC2 SLP202<br><br>
CYHM 042300Z 06017G26KT 15SM FEW018 BKN063 BKN068 06/02 A3013 RMK SC1SC4AC2 SLP212<br><br>
TAF CYHM 042338Z 0500/0524 06015G25KT P6SM BKN050 OVC140 TEMPO 0500/0501 P6SM -SHRA BKN020 OVC050 FM050100 07012KT P6SM FEW012 OVC025 TEMPO 0501/0507 3SM -SHRA BR OVC012 PROB30 0501/0507 VRB15G25KT 2SM TSRA BR OVC008CB FM050700 10008KT 21/2SM -SHRA BR OVC008 TEMPO 0507/0509 6SM -SHRA BR OVC010 PROB30 0507/0509 VRB15G25KT 11/2SM TSRA BR OVC005CB FM050900 18012G22KT 6SM -SHRA BR OVC008 TEMPO 0509/0523 21/2SM -SHRA BR OVC005 BECMG 0512/0514 19015G25KT FM052300 21012G22KT 11/2SM SHRA BR OVC005 PROB40 0523/0524 VRB20G35KT 1SM +TSRA BR OVC004CB RMK NXT FCST BY 050600Z<br><br>
<br><br>
KIAG 042353Z 08012KT 10SM BKN050 OVC075 08/01 A3013 RMK AO2 SLP214 T00780011 10089 20072 58010<br><br>
KIAG 042253Z 07012KT 10SM OVC070 08/02 A3015 RMK AO2 SLP221 T00780017<br><br>
KIAG 042320Z 0500/0524 09011KT P6SM BKN100 FM050100 09010KT P6SM VCSH BKN050 FM050500 16008KT P6SM OVC035 WS020/20040KT FM051000 18012KT 4SM SHRA OVC025 WS020/20045KT FM051400 18016G23KT P6SM VCSH OVC025<br><br>
<br><br>
KBUF 042354Z 06012KT 10SM FEW050 BKN075 OVC120 07/02 A3012 RMK AO2 SLP206 T00670022 10089 20067 58010<br><br>
KBUF 042254Z 07012KT 10SM BKN065 BKN120 OVC170 07/02 A3014 RMK AO2 SLP211 T00670022<br><br>
KBUF 042320Z 0500/0524 09012KT P6SM BKN120 FM050100 10009KT P6SM VCSH BKN050 FM050500 14009KT P6SM OVC045 WS020/20040KT FM051000 17014G20KT 4SM SHRA OVC025 WS020/20045KT FM051400 18017G25KT P6SM VCSH OVC025<br><br>
<br><br>
CYYZ 050000Z 08015G22KT 15SM OVC019 05/01 A3015 RMK SC8 SLP217<br><br>
CYYZ 042300Z 09013G23KT 15SM SCT019 BKN070 05/01 A3018 RMK SC4AC3 SLP228<br><br>
TAF CYYZ 042338Z 0500/0606 09012G22KT P6SM BKN050 OVC140 TEMPO 0500/0502 6SM -SHRA BR BKN020 OVC050 FM050200 09010KT P6SM -SHRA OVC030 TEMPO 0502/0506 4SM -SHRA BR OVC020 FM050600 09006KT 6SM -SHRA BR SCT006 OVC015 TEMPO 0506/0508 21/2SM -SHRA BR OVC006 FM050800 13008KT 11/2SM -SHRA BR BKN003 OVC006 FM051200 19012G22KT 2SM -SHRA BR BKN006 OVC012 FM051700 20010G20KT 4SM -SHRA BR BKN008 OVC015 FM052100 21010G20KT 6SM -SHRA BR SCT008 OVC015 FM060000 19008KT 11/2SM SHRA BR OVC006 PROB40 0600/0603 VRB20G35KT 1SM +TSRA BR OVC004CB FM060300 26006KT 6SM BR SCT012 BKN070 FM060500 31012KT 6SM -SHRA BR BKN012 OVC030 RMK NXT FCST BY 050300Z<br><br>
<br><br>
CYOO 050000Z AUTO 08011G18KT 9SM OVC080 05/M01 A3018 RMK PRESFR SLP226<br><br>
CYOO 042300Z AUTO 09007KT 9SM BKN150 OVC170 05/M01 A3023 RMK SLP242<br><br>
CYOO has no TAF <br><br>
<br><br>
CYTR 050000Z 07009KT 15SM BKN120 OVC200 04/M00 A3025 RMK AC5CI3 SLP247<br><br>
CYTR 042300Z 07009KT 15SM FEW120 OVC200 04/M00 A3026 RMK AC2CI6 SLP250<br><br>
TAF CYTR 042330Z 0500/0524 08010KT P6SM BKN120 OVC200 FM050200 09010KT P6SM SCT020 BKN060 TEMPO 0502/0506 5SM -SHRA BR SCT020 OVC040 FM050600 14010KT P6SM -RA BKN025 OVC040 TEMPO 0506/0511 3SM -RA BR OVC010 FM051100 16012KT 6SM -RA BR SCT010 OVC020 TEMPO 0511/0520 3SM -RA BR FM052000 19010KT 2SM -RA BR SCT007 OVC012 RMK NXT FCST BY 050600Z<br><br>
<br><br>
