RETRIEVED AT : Apr 04 2020 14:05 Local <br>
  RETRIEVED AT: Apr 04 2020 18:05 UTC<br><br>
CYSN 041700Z 31003KT 250V040 15SM BKN009 BKN020 09/07 A3005 RMK SF5SC2 SLP179<br><br>
TAF AMD CYSN 041707Z 0417/0501 VRB03KT P6SM BKN009 OVC025 TEMPO 0417/0419 SCT009 BKN025 FM041900 32005KT P6SM BKN025 TEMPO 0419/0501 BKN020 RMK NXT FCST BY 042000Z<br><br>
<br><br>
CYHM 041700Z 22003KT 15SM BKN023 11/04 A3004 RMK SC7 SLP178<br><br>
TAF CYHM 041740Z 0418/0518 VRB03KT P6SM BKN025 TEMPO 0418/0420 BKN020 FM042200 VRB03KT P6SM BKN030 BKN080 FM050500 22007KT P6SM -SHRA BKN030 OVC050 FM050700 25007KT P6SM BKN025 OVC050 FM051000 29008KT P6SM BKN010 OVC030 FM051400 32010KT P6SM SCT015 RMK NXT FCST BY 050000Z<br><br>
<br><br>
KIAG 041753Z 27006KT 10SM OVC022 09/06 A3004 RMK AO2 SLP182 T00940056 10094 20056 56010<br><br>
KIAG 041653Z 00000KT 10SM OVC016 09/06 A3004 RMK AO2 SLP182 T00890061<br><br>
KIAG 041741Z 0418/0518 00000KT P6SM OVC016 FM042100 VRB03KT P6SM BKN020 FM042300 23004KT P6SM BKN040 FM050200 19004KT P6SM SCT080 FM051200 31004KT P6SM OVC025<br><br>
<br><br>
KBUF 041754Z 31003KT 10SM BKN020 11/05 A3004 RMK AO2 SLP176 60000 T01060050 10106 20061 58011<br><br>
KBUF 041654Z 21004KT 10SM FEW010 SCT014 BKN020 10/06 A3005 RMK AO2 SLP179 T01000056<br><br>
KBUF 041741Z 0418/0518 21004KT P6SM BKN020 FM041900 VRB03KT P6SM BKN025 FM042200 25005KT P6SM BKN035 FM051300 28004KT P6SM OVC035<br><br>
<br><br>
CYYZ 041710Z 15010G15KT 080V170 15SM FEW019 BKN026 BKN250 10/06 A3003 RMK CF1SC5CI1 WSHFT 1705 SLP176<br><br>
CYYZ 041700Z 08009KT 15SM FEW019 BKN026 BKN250 10/05 A3003 RMK CF1SC6CI1 CF TR SLP175<br><br>
TAF CYYZ 041740Z 0418/0524 15010KT P6SM FEW020 BKN030 FM050000 13008KT P6SM BKN030 BKN100 FM050300 15008KT P6SM -SHRA BKN030 OVC080 FM050700 VRB03KT 4SM BR SCT006 OVC015 PROB40 0507/0509 2SM BR OVC006 FM050900 35008KT P6SM SCT008 BKN012 OVC040 PROB30 0509/0513 OVC008 FM051500 34015KT P6SM SCT015 FM052100 36012KT P6SM SKC RMK NXT FCST BY 042100Z<br><br>
<br><br>
CYOO 041700Z AUTO 19006KT 130V210 9SM BKN011 OVC018 08/07 A3005 RMK SLP180<br><br>
TAF AMD CYOO 041613Z 0416/0502 VRB03KT P6SM OVC015 TEMPO 0416/0420 BKN025 FM042000 18007KT P6SM BKN030 RMK FCST BASED ON AUTO OBS. NXT FCST BY 042000Z<br><br>
<br><br>
CYTR 041700Z 18006KT 15SM FEW030 BKN080 11/06 A3005 RMK SC2AC3 SLP177<br><br>
TAF CYTR 041730Z 0418/0518 20008KT P6SM FEW030 BKN080 BECMG 0500/0502 VRB03KT FM050900 VRB03KT 5SM -SHRA BR BKN020 OVC060 FM051100 VRB03KT 2SM -DZ BR OVC008 FM051400 31005KT P6SM OVC015 FM051700 32010KT P6SM SCT025 RMK NXT FCST BY 050000Z<br><br>
<br><br>
