RETRIEVED AT : Feb 23 2020 19:05 Local <br>
  RETRIEVED AT: Feb 24 2020 00:05 UTC<br><br>
CYSN 232300Z 22008KT 15SM SKC 07/M07 A2992 RMK SLP137<br><br>
TAF CYSN 231942Z 2320/2402 22015G25KT P6SM SCT240 RMK NXT FCST WILL BE ISSUED AT 241345Z<br><br>
<br><br>
CYHM 232300Z 22010KT 15SM FEW120 05/M05 A2991 RMK AC1 AC TR SLP137<br><br>
TAF CYHM 232338Z 2400/2424 22010G20KT P6SM FEW240 BECMG 2401/2403 23012KT FM241100 23008KT P6SM BKN015 BECMG 2417/2419 27006KT RMK NXT FCST BY 240600Z<br><br>
<br><br>
KIAG 232353Z 23012KT 10SM CLR 04/M05 A2994 RMK AO2 SLP150 T00441050 10083 20039 55003<br><br>
KIAG 232253Z 20009KT 10SM CLR 06/M06 A2993 RMK AO2 SLP147 T00561061<br><br>
KIAG 232339Z 2400/2424 20009KT P6SM FEW250 FM240200 21014G20KT P6SM FEW250 WS020/23045KT FM240500 22014G21KT P6SM FEW250 FM241400 25010KT P6SM BKN035<br><br>
<br><br>
KBUF 232354Z 19004KT 10SM FEW250 06/M07 A2995 RMK AO2 SLP148 T00611067 10083 20056 55007<br><br>
KBUF 232254Z 20005KT 10SM FEW250 06/M07 A2994 RMK AO2 SLP146 T00611067<br><br>
KBUF 232339Z 2400/2424 20007KT P6SM FEW250 FM240200 22011G17KT P6SM FEW250 WS020/24040KT FM240800 22012KT P6SM FEW250 FM241400 24013G20KT P6SM BKN035 FM242100 25006KT P6SM BKN035<br><br>
<br><br>
CYYZ 232300Z 19012G18KT 15SM FEW250 07/M06 A2990 RMK CI1 CI TR SLP132<br><br>
TAF CYYZ 232338Z 2400/2506 20010G20KT P6SM SCT240 BECMG 2401/2403 23010KT FM241000 22008KT P6SM BKN020 FM241800 27008KT P6SM SCT030 FM250000 34007KT P6SM SCT030 BKN180 RMK NXT FCST BY 240300Z<br><br>
<br><br>
CYOO 232300Z AUTO 21007KT 9SM CLR 05/M04 A2991 RMK SLP138<br><br>
TAF CYOO 231942Z 2320/2408 20010G20KT P6SM FEW240 BECMG 2400/2402 22008KT RMK FCST BASED ON AUTO OBS. NXT FCST BY 240200Z<br><br>
<br><br>
CYTR 232300Z 16003KT 15SM BKN060 04/M03 A2995 RMK SC6 SLP145<br><br>
TAF CYTR 232330Z 2400/2424 VRB03KT P6SM BKN060 FM241200 25010KT P6SM SCT020 TEMPO 2412/2418 BKN020 BECMG 2415/2417 24010G20KT FM241800 24010KT P6SM FEW030 BKN210 RMK NXT FCST BY 240600Z<br><br>
<br><br>
