RETRIEVED AT : Jun 06 2020 19:05 Local <br>
  RETRIEVED AT: Jun 06 2020 23:05 UTC<br><br>
TAF CYSN 061938Z 0620/0701 26012KT P6SM SCT080 TEMPO 0620/0621 30015G25KT P6SM -SHRA BKN080 FM062100 31012G22KT P6SM SCT060 RMK NXT FCST WILL BE ISSUED AT 071245Z<br><br>
<br><br>
TAF CYHM 061739Z 0618/0718 31012G22KT P6SM BKN070 FM070000 33010G20KT P6SM SKC BECMG 0702/0704 36010KT FM071700 33010KT P6SM FEW050 RMK NXT FCST BY 070000Z<br><br>
<br><br>
KIAG 062114Z 0621/0718 25012KT P6SM SCT060 BKN100 FM062300 29012KT P6SM SCT060 FM070300 34006KT P6SM SCT060 FM071400 33012KT P6SM SCT050<br><br>
<br><br>
KBUF 062111Z 0621/0718 25012G22KT P6SM VCSH BKN060 FM062300 30012KT P6SM SCT050 FM070400 32006KT P6SM SCT050 FM071200 01005KT P6SM SCT050<br><br>
<br><br>
TAF CYYZ 062039Z 0621/0724 35015G25KT P6SM SCT070 FM070000 36010G20KT P6SM SKC BECMG 0703/0705 36010KT RMK NXT FCST BY 070000Z<br><br>
<br><br>
TAF CYOO 061938Z 0620/0708 31012G22KT P6SM SCT070 BKN100 FM070000 33010G20KT P6SM SCT050 BECMG 0702/0704 33008KT BECMG 0705/0707 36008KT RMK FCST BASED ON AUTO OBS. NXT FCST BY 070200Z<br><br>
<br><br>
TAF AMD CYTR 062207Z 0622/0718 31010G20KT P6SM -SHRA BKN050 TEMPO 0622/0624 VRB15G25KT 11/2SM TSRA BR BKN020 OVC050CB FM062330 33008KT P6SM BKN050 FM070800 35005KT P6SM SCT050 RMK NXT FCST BY 070000Z<br><br>
<br><br>
