RETRIEVED AT : May 05 2018 16:05 Local <br>
  RETRIEVED AT: May 05 2018 20:05 UTC<br><br>
CYSN 051900Z 23015G23KT 15SM FEW050 FEW120 FEW250 24/10 A2997 RMK CU1AC1CI2 CU TR AC TR SLP150 DENSITY ALT 1400FT<br><br>
TAF CYSN 051938Z 0520/0601 23015G25KT P6SM FEW050 SCT240 FM052200 24012G22KT P6SM FEW040 BKN080 TEMPO 0522/0601 P6SM -SHRA BECMG 0522/0524 26012KT RMK NXT FCST WILL BE ISSUED AT 061245Z<br><br>
<br><br>
CYHM 051900Z 23019G27KT 15SM FEW060TCU FEW090 BKN250 23/11 A2998 RMK TCU2AC1CI3 AC TR SLP156 DENSITY ALT 1900FT<br><br>
TAF CYHM 051738Z 0518/0618 24015G25KT P6SM FEW060 BKN220 TEMPO 0519/0524 P6SM -SHRA BKN060 PROB30 0520/0524 3SM TSRA BR BKN030 OVC060CB FM060000 23012KT P6SM SCT040 BKN080 BECMG 0606/0608 VRB03KT FM060900 22005KT P6SM FEW050 SCT100 FM061600 24008KT P6SM -SHRA SCT030 OVC100 RMK NXT FCST BY 060000Z<br><br>
<br><br>
KIAG 051953Z 23019G26KT 10SM CLR 24/06 A3000 RMK AO2 PK WND 23027/1903 SLP158 T02390056<br><br>
KIAG 051853Z 24016G25KT 10SM CLR 24/06 A3000 RMK AO2 PK WND 24028/1836 SLP159 T02390061<br><br>
KIAG 051722Z 0518/0618 23018G27KT P6SM BKN200 FM052300 22009KT P6SM BKN250 FM060200 21005KT P6SM BKN250 FM060900 VRB03KT P6SM BKN090 FM061600 04005KT P6SM BKN080<br><br>
<br><br>
KBUF 051954Z 23015G20KT 10SM FEW070 SCT230 20/07 A3002 RMK AO2 SLP166 T02000072<br><br>
KBUF 051854Z 24015KT 10SM FEW070 SCT230 20/07 A3002 RMK AO2 SLP166 T02000072<br><br>
KBUF 051722Z 0518/0618 23018G25KT P6SM BKN200 FM052300 22009KT P6SM BKN250 FM060200 20005KT P6SM BKN250 FM060900 VRB03KT P6SM BKN090 FM061600 06005KT P6SM BKN090<br><br>
<br><br>
CYYZ 051900Z 30018KT 240V310 15SM SCT060 BKN075 BKN260 23/08 A2994 RMK CU4AC1CI1 SLP139 DENSITY ALT 1700FT<br><br>
TAF CYYZ 051738Z 0518/0624 24015G25KT P6SM FEW040 FM052000 23012G22KT P6SM FEW040 BKN070 TEMPO 0520/0524 P6SM -SHRA BKN040 BECMG 0522/0524 25015KT FM060500 33006KT P6SM FEW060 SCT120 FM061200 01005KT P6SM SCT040 BECMG 0613/0615 09008KT FM061900 10010KT P6SM -SHRA SCT050 BKN080 FM062200 34012G22KT P6SM -SHRA SCT015 OVC040 RMK NXT FCST BY 052100Z<br><br>
<br><br>
CYOO 051900Z AUTO 20013G18KT 9SM BKN080 OVC100 20/09 A2993 RMK SLP139 DENSITY ALT 1000FT<br><br>
CYOO has no TAF <br><br>
<br><br>
CYTR 051900Z 22015KT 15SM SCT052 BKN250 19/10 A2995 RMK SC4CI2 SLP142<br><br>
TAF CYTR 051730Z 0518/0618 23015G25KT P6SM SCT060 SCT250 FM051900 23015G25KT P6SM BKN060 BKN250 BECMG 0521/0523 20008KT FM060200 20005KT P6SM FEW060 BKN250 FM061200 04008KT P6SM FEW050 SCT250 RMK NXT FCST BY 060000Z<br><br>
<br><br>
