RETRIEVED AT : May 30 2020 21:05 Local <br>
  RETRIEVED AT: May 31 2020 01:05 UTC<br><br>
CYSN 310000Z 26004KT 15SM SCT047 13/10 A3006 RMK SC3 SLP180<br><br>
TAF CYSN 301938Z 3020/3101 29015G25KT P6SM SCT040 TEMPO 3020/3101 BKN040 RMK NXT FCST WILL BE ISSUED AT 311245Z<br><br>
<br><br>
CYHM 310000Z 32010G16KT 15SM FEW045 BKN094 14/03 A3008 RMK CU1AC6 CU TR SHRA DNST SW SLP189<br><br>
TAF CYHM 302338Z 3100/3124 33012G22KT P6SM FEW050 TEMPO 3101/3106 P6SM -SHRA BKN040 BECMG 3102/3104 31008KT FM311200 34010KT P6SM FEW020 BECMG 3116/3118 29012KT RMK NXT FCST BY 310600Z<br><br>
<br><br>
KIAG 310053Z 32003KT 10SM BKN075 13/08 A3008 RMK AO2 SLP187 T01280078<br><br>
KIAG 302353Z 32008KT 10SM CLR 14/07 A3006 RMK AO2 SLP182 T01390072 10189 20139 51019<br><br>
KIAG 302329Z 3100/3124 30013KT P6SM SCT050 FM311500 34010G16KT P6SM FEW250 FM311700 31009KT P6SM FEW250 FM312000 28010KT P6SM SCT100<br><br>
<br><br>
KBUF 310054Z 30005KT 10SM FEW032 SCT040 12/07 A3008 RMK AO2 SLP187 T01170067 $<br><br>
KBUF 302354Z 31010KT 10SM SCT040 13/07 A3006 RMK AO2 SLP181 T01330067 10167 20133 53013 $<br><br>
KBUF 310030Z 3101/3124 31010KT P6SM SCT040 FM310300 31004KT P6SM SCT070 FM311500 34010G16KT P6SM FEW250 FM311900 30011KT P6SM FEW250<br><br>
<br><br>
CYYZ 310000Z 35011KT 15SM FEW040 SCT055 14/05 A3005 RMK CF1SC3 CF TR SLP180<br><br>
TAF CYYZ 302338Z 3100/0106 34015G25KT P6SM SCT050 TEMPO 3100/3104 BKN050 BECMG 3100/3102 34012KT FM310400 34010KT P6SM SCT040 FM310700 34010KT P6SM BKN030 FM311100 34012KT P6SM FEW030 FM311900 31015G25KT P6SM BKN060 RMK NXT FCST BY 310300Z<br><br>
<br><br>
CYOO 310000Z AUTO 31015G20KT 9SM CLR 14/04 A3004 RMK SLP175<br><br>
TAF CYOO 301938Z 3020/3108 29018G28KT P6SM BKN050 BECMG 3101/3103 33007KT RMK FCST BASED ON AUTO OBS. NXT FCST BY 310200Z<br><br>
<br><br>
CYTR 310000Z 32013KT 15SM FEW028 15/06 A2998 RMK SC2 SLP154<br><br>
TAF CYTR 302330Z 3100/3124 30012G22KT P6SM FEW025 SCT080 BECMG 3100/3102 33008KT FEW080 FM310600 VRB03KT P6SM FEW020 SCT070 FM311200 34008KT P6SM SKC FM311600 30010KT P6SM FEW070 BECMG 3116/3118 30010G20KT RMK NXT FCST BY 310600Z<br><br>
<br><br>
