RETRIEVED AT : Sep 08 2018 20:05 Local <br>
  RETRIEVED AT: Sep 09 2018 00:05 UTC<br><br>
CYSN 082300Z 06008KT 15SM BKN250 14/07 A3023 RMK CI7 SLP240<br><br>
TAF CYSN 081938Z 0820/0901 07012G22KT P6SM FEW025 BKN250 RMK NXT FCST WILL BE ISSUED AT 091245Z<br><br>
<br><br>
CYHM 082300Z 05010G18KT 15SM BKN250 13/07 A3023 RMK CI7 SLP242<br><br>
TAF CYHM 082338Z 0900/0924 06012KT P6SM BKN200 BECMG 0911/0913 08015G25KT FM091600 08018G28KT P6SM FEW030 OVC180 FM092300 09018G28KT P6SM -RA SCT030 OVC100 RMK NXT FCST BY 090600Z<br><br>
<br><br>
KIAG 082353Z 06005KT 10SM CLR 12/07 A3024 RMK AO2 SLP244 T01220067 10167 20122 55000<br><br>
KIAG 082253Z 05010KT 10SM CLR 14/06 A3024 RMK AO2 SLP242 T01390061<br><br>
KIAG 082335Z 0900/0924 05010KT P6SM BKN250 FM091100 09009KT P6SM BKN250 FM091400 09011G17KT P6SM BKN250<br><br>
<br><br>
KBUF 082354Z 04008KT 10SM FEW090 SCT130 BKN250 13/06 A3024 RMK AO2 SLP241 T01330061 10178 20133 53002<br><br>
KBUF 082254Z 05010KT 10SM SCT080 BKN240 14/06 A3023 RMK AO2 SLP237 T01440061<br><br>
KBUF 082335Z 0900/0924 05010KT P6SM SCT080 BKN250 FM091200 09009KT P6SM BKN250 FM091700 08013G19KT P6SM BKN250 FM092100 09013KT P6SM OVC200<br><br>
<br><br>
CYYZ 082300Z 07006KT 15SM BKN250 16/03 A3025 RMK CI7 SLP246<br><br>
TAF CYYZ 082338Z 0900/1006 08007KT P6SM FEW050 BKN180 BECMG 0901/0903 06010KT FM091000 04013KT P6SM SCT030 OVC180 BECMG 0913/0915 08015G25KT BKN030 OVC160 FM091900 08015G25KT P6SM SCT030 OVC150 BECMG 0922/0924 08015KT FM100400 10012G22KT P6SM -RA BKN020 OVC070 BECMG 1004/1006 10015G25KT RMK NXT FCST BY 090300Z<br><br>
<br><br>
CYOO 082300Z AUTO 08003KT 9SM CLR 15/06 A3025 RMK SLP248<br><br>
CYOO has no TAF <br><br>
<br><br>
CYTR 082300Z 02003KT 15SM SCT150 BKN210 15/06 A3026 RMK AS4CS3 SUN DIMLY VISBL SLP249<br><br>
TAF CYTR 082330Z 0900/0924 04005KT P6SM SCT150 BKN210 BECMG 0913/0915 07012G22KT BECMG 0922/0924 06010KT RMK NXT FCST BY 090600Z<br><br>
<br><br>
