RETRIEVED AT : Jun 05 2020 20:05 Local <br>
  RETRIEVED AT: Jun 06 2020 00:05 UTC<br><br>
TAF CYSN 051938Z 0520/0601 22010KT P6SM SCT250 RMK NXT FCST WILL BE ISSUED AT 061245Z<br><br>
<br><br>
TAF CYHM 052338Z 0600/0624 20012KT P6SM BKN060 TEMPO 0600/0602 P6SM VCTS BKN050CB FM060600 29010KT P6SM SCT040 FM061600 30015G25KT P6SM SCT080 RMK NXT FCST BY 060600Z<br><br>
<br><br>
KIAG 052324Z 0600/0624 23010KT P6SM BKN250 FM060500 24006KT P6SM VCSH BKN060 FM060800 28006KT P6SM SCT080 FM061400 30010KT P6SM FEW250 FM061800 29010G18KT P6SM SCT060 FM062200 29008KT P6SM FEW200<br><br>
<br><br>
KBUF 052324Z 0600/0624 22008KT P6SM BKN250 FM060500 24006KT P6SM VCSH BKN060 FM060900 28006KT P6SM BKN090 FM061200 27006KT P6SM FEW100 SCT250 FM061800 26012G18KT P6SM SCT060<br><br>
<br><br>
TAF CYYZ 052338Z 0600/0706 16010KT P6SM BKN060 TEMPO 0600/0602 VRB20G30KT P6SM VCTS OVC050CB BECMG 0602/0604 31010KT FM060600 31010KT P6SM SCT050 BECMG 0614/0616 32015G25KT BECMG 0702/0704 36010KT RMK NXT FCST BY 060300Z<br><br>
<br><br>
TAF CYOO 051938Z 0520/0608 20010KT P6SM -SHRA BKN070 TEMPO 0520/0521 5SM -SHRA BR VCTS BKN040CB FM052100 20010KT P6SM -SHRA BKN050 TEMPO 0521/0603 VRB15G25KT 2SM +TSRA BR BKN040CB BECMG 0601/0603 VRB03KT FM060300 VRB03KT P6SM -SHRA BKN050 FM060700 32010KT P6SM SKC RMK FCST BASED ON AUTO OBS. NXT FCST BY 060200Z<br><br>
<br><br>
TAF CYTR 052330Z 0600/0624 20008KT P6SM FEW050 SCT070 BKN150 TEMPO 0600/0602 VRB15G25KT 2SM TSRA BR BKN020 OVC030CB FM060200 VRB03KT P6SM FEW010 BKN080 TEMPO 0602/0603 5SM -SHRA BR SCT010 BKN030 PROB40 0604/0609 1SM BR FM060900 VRB03KT P6SM FEW008 BKN060 BECMG 0609/0611 31008G18KT FM061200 31010G20KT P6SM FEW020 FM061700 30012G22KT P6SM SCT080 FM062000 33012G22KT P6SM BKN050 PROB30 0620/0624 VRB15G25KT 2SM TSRA BR BKN020 OVC030CB RMK NXT FCST BY 060600Z<br><br>
<br><br>
