RETRIEVED AT : Aug 31 2018 22:05 Local <br>
  RETRIEVED AT: Sep 01 2018 02:05 UTC<br><br>
CYSN 010100Z 12005KT 15SM FEW250 18/17 A3017 RMK CI2 LAST STFD OBS / NEXT 011100UTC SLP218 DENSITY ALT 600FT<br><br>
CYSN has no TAF <br><br>
<br><br>
CYHM 010100Z 06005KT 15SM FEW250 16/15 A3019 RMK CI1 CI TR SLP223 DENSITY ALT 800FT<br><br>
TAF CYHM 312338Z 0100/0124 06005KT P6SM SKC PROB30 0106/0112 1/2SM FG VV002 FM011400 20012KT P6SM SCT020 FM011600 21012G22KT P6SM FEW040 RMK NXT FCST BY 010600Z<br><br>
<br><br>
KIAG 010153Z 09003KT 10SM CLR 18/15 A3018 RMK AO2 SLP219 T01780150<br><br>
KIAG 010053Z 07004KT 10SM BKN031 19/16 A3018 RMK AO2 SLP220 T01940161<br><br>
KIAG 312329Z 0100/0124 VRB05KT P6SM FEW040 SCT250 FM010600 VRB04KT P6SM SCT040 FM011300 20010KT P6SM SCT040 FM012100 20009KT P6SM SCT250<br><br>
<br><br>
KBUF 010154Z 06004KT 10SM FEW025 19/17 A3018 RMK AO2 SLP219 T01890167<br><br>
KBUF 010054Z 36006KT 10SM FEW027 FEW037 20/17 A3019 RMK AO2 SLP221 T02000167<br><br>
KBUF 312329Z 0100/0124 VRB05KT P6SM FEW040 SCT250 FM010300 16004KT P6SM FEW250 FM010500 17005KT P6SM SCT040 FM011300 20010KT P6SM SCT040 FM012200 20008KT P6SM SCT250<br><br>
<br><br>
CYYZ 010100Z 13005KT 15SM FEW230 19/14 A3017 RMK CI1 SLP219 DENSITY ALT 1000FT<br><br>
TAF AMD CYYZ 010203Z 0102/0206 VRB03KT P6SM SKC PROB30 0109/0112 3/4SM BR FM011400 20007KT P6SM FEW020 FM011600 20010G20KT P6SM SCT030 BECMG 0116/0117 18010G20KT BECMG 0201/0203 22006KT FM020500 22005KT P6SM -SHRA BKN040 PROB30 0205/0206 2SM +TSRA BR BKN040CB RMK NXT FCST BY 010300Z<br><br>
<br><br>
CYOO 010100Z AUTO 00000KT 9SM CLR 19/16 A3018 RMK SLP223 DENSITY ALT 600FT<br><br>
CYOO has no TAF <br><br>
<br><br>
CYTR 010100Z 05002KT 15SM SCT035 BKN110 19/17 A3020 RMK SC4AC2 SLP227<br><br>
TAF CYTR 312330Z 0100/0124 VRB03KT P6SM FEW030 BKN250 FM010300 10005KT P6SM FEW015 BKN025 TEMPO 0104/0116 BKN015 OVC025 PROB30 0106/0112 2SM BR OVC008 FM011600 20008KT P6SM FEW025 RMK NXT FCST BY 010600Z<br><br>
<br><br>
