RETRIEVED AT : Mar 06 2020 22:05 Local <br>
  RETRIEVED AT: Mar 07 2020 03:05 UTC<br><br>
CYSN 070200Z 02014G20KT 8SM BKN041 01/M02 A3022 RMK SC7 LAST STFD OBS/NEXT 071200Z SLP237<br><br>
CYSN 070117Z 03014G20KT 8SM BKN046 01/M02 A3019 RMK SC7 PRESRR SLP230<br><br>
CYSN has no TAF <br><br>
<br><br>
CYHM 070200Z 36015G21KT 15SM FEW015 FEW038 BKN055 M01/M04 A3022 RMK CU1SC2SC5 CU TR SLP246<br><br>
CYHM 070144Z 36012KT 15SM FEW015 BKN060 BKN100 M01/M03 A3021 RMK CU1SC5AC2 CU TR SLP243<br><br>
CYHM 070122Z 36013G18KT 15SM -SN FEW012 SCT016 BKN058 M01/M03 A3020 RMK CF1SC2SC4 SLP239<br><br>
TAF AMD CYHM 070108Z 0701/0724 01012G22KT P6SM OVC030 TEMPO 0701/0703 6SM -SN OVC012 FM070600 01010KT P6SM SCT020 FM071200 36006KT P6SM SKC FM071800 25009KT P6SM FEW120 BECMG 0722/0724 21009KT RMK NXT FCST BY 070600Z<br><br>
<br><br>
KIAG 070253Z 02010KT 10SM OVC030 00/M04 A3022 RMK AO2 UPB0157E02B18E30SNE0157B02E18 SLP249 P0000 60000 T00001044 51021<br><br>
KIAG 070246Z 02012KT 10SM BKN030 OVC037 00/M04 A3022 RMK AO2 UPB0157E02B18E30SNE0157B02E18 P0000 T00001039<br><br>
KIAG 070153Z 01010KT 8SM -SN BKN023 BKN028 OVC044 00/M02 A3019 RMK AO2 UPB00E03B25E32SNE00B03E25B32 SLP239 P0000 T00001022<br><br>
KIAG 070150Z 01010KT 6SM -SN BR BKN023 BKN028 OVC044 00/M02 A3019 RMK AO2 UPB00E03B25E32SNE00B03E25B32 P0000<br><br>
KIAG 070230Z 0703/0724 01014G22KT 6SM -SHSN OVC025 FM070400 01014KT P6SM BKN025 FM070600 01012KT P6SM SCT040 FM071600 29006KT P6SM BKN100<br><br>
<br><br>
KBUF 070254Z 01010G17KT 3SM -SN BR FEW007 BKN033 OVC043 M01/M03 A3021 RMK AO2 SLP240 P0000 60001 T10061028 53023<br><br>
KBUF 070213Z 36011G20KT 9SM -SN FEW007 BKN013 OVC024 00/M02 A3019 RMK AO2 P0000 T00001022<br><br>
KBUF 070154Z 36012KT 9SM -SN FEW007 SCT013 OVC026 00/M02 A3018 RMK AO2 SLP227 P0000 T00001017<br><br>
KBUF 070115Z 36009KT 8SM -SN FEW009 BKN024 OVC032 01/M01 A3015 RMK AO2 P0000 T00061011<br><br>
KBUF 070230Z 0703/0724 01012KT 6SM -SHSN OVC015 FM070400 01012KT P6SM BKN025 FM070600 36008KT P6SM SCT040 FM071700 25010KT P6SM BKN100<br><br>
<br><br>
CYYZ 070200Z 03013G22KT 15SM BKN035 BKN060 00/M05 A3024 RMK SC5SC2 PRESRR SLP250<br><br>
TAF CYYZ 070238Z 0703/0806 02012G22KT P6SM BKN040 FM070600 36012G22KT P6SM SCT025 FM070900 36012KT P6SM SKC FM071500 35008KT P6SM FEW120 BECMG 0715/0717 23009KT RMK NXT FCST BY 070600Z<br><br>
<br><br>
CYOO 070200Z AUTO 01013G21KT 9SM BKN036 OVC085 00/M07 A3022 RMK SLP242<br><br>
TAF CYOO 070138Z 0702/0714 02010G20KT P6SM OVC030 BECMG 0704/0706 36010KT FM070600 36010KT P6SM FEW030 RMK FCST BASED ON AUTO OBS. NXT FCST BY 070800Z<br><br>
<br><br>
CYTR 070200Z 02012KT 15SM FEW024 BKN070 M00/M07 A3020 RMK SC2AC2 SLP231<br><br>
TAF CYTR 062330Z 0700/0724 03015G25KT P6SM OVC025 TEMPO 0700/0702 P6SM -SHSN OVC020 BECMG 0702/0704 01015KT FM070500 01012KT P6SM SCT025 FM070800 36008KT P6SM SKC BECMG 0718/0720 26008KT RMK NXT FCST BY 070600Z<br><br>
<br><br>
