RETRIEVED AT : Nov 13 2017 17:10 Local <br>
  RETRIEVED AT: Nov 13 2017 22:10 UTC<br><br>
CYSN 132200Z 26003KT 7SM OVC045 05/02 A3037 RMK SC8 SLP289<br><br>
CYSN 132100Z 28007KT 8SM OVC045 05/02 A3037 RMK SC8 SLP288<br><br>
TAF CYSN 131939Z 1320/1402 30005KT P6SM BKN012 OVC030 TEMPO 1320/1402 SCT015 OVC030 RMK NXT FCST WILL BE ISSUED AT 141345Z<br><br>
<br><br>
CYHM 132200Z 27006KT 15SM OVC042 04/02 A3036 RMK SC8 SLP291<br><br>
CYHM 132100Z 29005KT 12SM OVC042 05/02 A3036 RMK SC8 SLP290<br><br>
TAF CYHM 131738Z 1318/1418 30005KT P6SM FEW012 OVC030 TEMPO 1318/1403 5SM BR BKN012 OVC030 FM140300 VRB03KT 4SM BR OVC015 TEMPO 1403/1416 P6SM NSW OVC025 FM141600 26006KT P6SM BKN025 RMK NXT FCST BY 140000Z<br><br>
<br><br>
KIAG 132153Z 00000KT 8SM BKN016 OVC043 05/02 A3036 RMK AO2 SLP294 T00500017<br><br>
KIAG 132053Z 00000KT 7SM OVC048 06/02 A3036 RMK AO2 SLP293 T00560022 51004<br><br>
KIAG 132111Z 1321/1418 VRB03KT P6SM SCT008 OVC045 TEMPO 1321/1324 BKN008 FM140200 VRB03KT P6SM BKN025 FM141300 28004KT P6SM OVC035 FM141700 VRB03KT P6SM BKN040<br><br>
<br><br>
KBUF 132203Z 00000KT 5SM BR SCT008 BKN021 OVC045 04/03 A3036 RMK AO2 T00390028<br><br>
KBUF 132154Z 00000KT 6SM BR FEW010 SCT023 OVC046 04/02 A3036 RMK AO2 RAE29 SLP288 P0000 T00390022<br><br>
KBUF 132145Z 00000KT 5SM BR SCT011 SCT023 OVC046 04/03 A3036 RMK AO2 RAE29 P0000 T00390028<br><br>
KBUF 132054Z 32005KT 7SM -RA BKN011 OVC026 04/02 A3036 RMK AO2 RAB33 SLP287 P0000 60000 T00390022 52005<br><br>
KBUF 132109Z 1321/1418 30004KT P6SM BKN015 OVC025 FM140200 VRB03KT P6SM OVC025 FM141500 VRB03KT P6SM BKN035<br><br>
<br><br>
CYYZ 132200Z 30008KT 15SM FEW025 OVC050 05/00 A3035 RMK SC2SC6 SLP286<br><br>
CYYZ 132100Z 22002KT 12SM BKN023 OVC050 05/01 A3035 RMK SC5SC3 SLP286<br><br>
TAF CYYZ 132038Z 1321/1424 VRB03KT P6SM FEW020 OVC040 TEMPO 1321/1403 P6SM -DZ BKN015 OVC030 FM140300 VRB03KT 4SM BR OVC015 TEMPO 1403/1417 P6SM NSW OVC025 FM141700 15006KT P6SM BKN025 RMK NXT FCST BY 140000Z<br><br>
<br><br>
CYOO 132200Z AUTO 22003KT 9SM SCT008 BKN013 04/02 A3036 RMK SLP289<br><br>
CYOO 132138Z AUTO 19004KT 9SM BKN015 OVC049 04/02 A3036 RMK SLP287<br><br>
CYOO 132116Z AUTO 18003KT 9SM SCT015 SCT021 OVC049 04/02 A3036 RMK SLP288<br><br>
CYOO 132100Z AUTO 18003KT 9SM BKN015 OVC021 04/02 A3036 RMK SLP287<br><br>
CYOO 132020Z AUTO 20004KT 9SM BKN017 OVC050 05/02 A3035 RMK SLP285<br><br>
CYOO has no TAF <br><br>
<br><br>
CYTR 132200Z 01002KT 15SM BKN028 OVC047 04/01 A3037 RMK SC7SC1 SLP288<br><br>
CYTR 132100Z 31002KT 15SM OVC033 04/01 A3037 RMK SC8 SLP289<br><br>
TAF CYTR 131730Z 1318/1418 03005KT P6SM FEW009 BKN025 TEMPO 1318/1320 BKN009 OVC020 FM140600 02004KT P6SM SCT010 BKN025 TEMPO 1406/1415 BKN010 OVC025 RMK NXT FCST BY 140000Z<br><br>
<br><br>
