RETRIEVED AT : Nov 11 2018 17:05 Local <br>
  RETRIEVED AT: Nov 11 2018 22:05 UTC<br><br>
CYSN 112100Z 20005KT 15SM FEW030 OVC081 04/M02 A3027 RMK SC2AC6 SLP256<br><br>
TAF CYSN 111939Z 1120/1202 26010KT P6SM SCT030 BKN080 TEMPO 1120/1124 5SM -SHSN BKN020 OVC030 BECMG 1122/1124 24005KT RMK NXT FCST WILL BE ISSUED AT 121345Z<br><br>
<br><br>
CYHM 112100Z 20010KT 15SM SCT034 OVC078 03/M03 A3025 RMK SC3AC5 SLP253<br><br>
TAF CYHM 111740Z 1118/1218 25010KT P6SM BKN030 OVC080 TEMPO 1118/1202 3SM -SHSN BKN015 OVC040 PROB30 1118/1121 11/2SM -SHSN OVC010 FM120200 23005KT P6SM SCT030 BKN060 FM121000 VRB03KT P6SM BKN050 BKN200 FM121600 24005KT P6SM BKN030 BKN140 RMK NXT FCST BY 120000Z<br><br>
<br><br>
KIAG 112153Z 00000KT 10SM BKN030 BKN036 OVC080 02/M03 A3027 RMK AO2 SLP265 T00221028<br><br>
KIAG 112053Z 18005KT 10SM BKN033 OVC040 03/M03 A3027 RMK AO2 SLP266 T00281028 56008<br><br>
KIAG 112114Z 1121/1218 20006KT P6SM OVC035 TEMPO 1121/1123 BKN025 FM112300 24007KT P6SM OVC035 FM120300 23004KT 6SM -DZ BR OVC025 FM120700 VRB03KT 5SM -DZ BR OVC025 FM121300 19005KT P6SM OVC035 FM121600 20007KT P6SM OVC060<br><br>
<br><br>
KBUF 112154Z 13004KT 10SM FEW007 SCT037 BKN080 01/00 A3028 RMK AO2 SLP261 T00110000<br><br>
KBUF 112054Z 17005KT 10SM SCT006 BKN035 BKN045 BKN140 01/01 A3028 RMK AO2 SLP262 60001 T00110006 56008<br><br>
KBUF 112037Z 16005KT 10SM SCT005 BKN033 BKN041 BKN140 01/01 A3028 RMK AO2 T00110006<br><br>
KBUF 112015Z 17006KT 10SM BKN005 BKN031 OVC043 01/01 A3028 RMK AO2 T00110006<br><br>
KBUF 112114Z 1121/1218 20006KT P6SM BKN035 FM120400 20005KT 6SM -DZ BR OVC025 FM120800 21005KT 4SM -DZ BR OVC015 FM121400 20005KT P6SM OVC045 FM121700 21009KT P6SM OVC080<br><br>
<br><br>
CYYZ 112100Z 24008KT 15SM FEW035 OVC080 03/M05 A3025 RMK CU1AC8 CU TR SLP253<br><br>
TAF CYYZ 112039Z 1121/1224 24010KT P6SM BKN040 OVC080 TEMPO 1121/1124 P6SM -SHSN FM120300 26006KT P6SM BKN050 FM120900 24005KT P6SM SCT050 BKN200 FM121600 24010KT P6SM SCT040 BKN140 FM122000 21008KT P6SM BKN030 BKN120 RMK NXT FCST BY 120000Z<br><br>
<br><br>
CYOO 112100Z AUTO VRB02KT 9SM OVC090 01/M00 A3027 RMK SLP258<br><br>
CYOO 112048Z AUTO 36002KT 9SM FEW055 BKN091 01/M01 A3027 RMK SLP259<br><br>
CYOO 112036Z AUTO VRB02KT 9SM -RA SCT041 BKN090 01/M00 A3027 RMK SLP259<br><br>
CYOO 112030Z AUTO 29003KT 9SM -RA -UP BKN039 BKN085 01/M00 A3027 RMK SLP259<br><br>
CYOO 112015Z AUTO 26003KT 240V330 6SM -UP BR BKN029 OVC039 01/M00 A3027 RMK SLP259<br><br>
CYOO 112006Z AUTO VRB02KT 4SM -UP BR BKN025 OVC036 01/M00 A3027 RMK SLP259<br><br>
CYOO has no TAF <br><br>
<br><br>
CYTR 112100Z 16004KT 15SM BKN032 BKN180 02/M04 A3030 RMK SC5AC2 SLP266<br><br>
TAF CYTR 111730Z 1118/1218 VRB03KT P6SM SCT040 BKN150 TEMPO 1118/1123 6SM -SHSN BKN040 BECMG 1118/1120 24005KT FM112300 24005KT P6SM SCT015 OVC030 TEMPO 1123/1207 5SM -SHRASN OVC015 FM120700 27005KT P6SM SCT020 BKN040 FM121400 24005KT P6SM -SHRA BKN020 OVC040 BECMG 1216/1218 22012KT RMK NXT FCST BY 120000Z<br><br>
<br><br>
