RETRIEVED AT : Mar 07 2020 14:05 Local <br>
  RETRIEVED AT: Mar 07 2020 19:05 UTC<br><br>
CYSN 071800Z 28005KT 230V320 15SM FEW030 M00/M08 A3049 RMK SC1 SC TR SLP331<br><br>
TAF CYSN 071338Z 0714/0802 36007KT P6SM FEW020 FM071800 29008KT P6SM SKC FM072100 24007KT P6SM FEW120 BECMG 0723/0801 20010KT RMK NXT FCST BY 072000Z<br><br>
<br><br>
CYHM 071800Z 26007KT 230V300 15SM SKC M00/M09 A3047 RMK SLP331<br><br>
TAF CYHM 071738Z 0718/0818 27008KT P6SM SKC FM080000 22012KT P6SM FEW120 FM081200 22010KT P6SM SKC RMK NXT FCST BY 080000Z<br><br>
<br><br>
KIAG 071853Z 23011G16KT 10SM CLR 01/M06 A3046 RMK AO2 SLP330 T00061061<br><br>
KIAG 071753Z 28007KT 10SM CLR 00/M07 A3047 RMK AO2 SLP333 T00001067 10000 21050 58006<br><br>
KIAG 071730Z 0718/0818 29007KT P6SM FEW250 FM072100 24009KT P6SM FEW250 FM080200 22012G24KT P6SM SCT150 FM081200 23015G21KT P6SM FEW250<br><br>
<br><br>
KBUF 071854Z 24012G19KT 10SM FEW035 00/M06 A3046 RMK AO2 SLP326 T00001061<br><br>
KBUF 071754Z 23010KT 10SM FEW035 01/M06 A3046 RMK AO2 SLP325 T00061056 10006 21044 58006<br><br>
KBUF 071730Z 0718/0818 25007KT P6SM FEW030 FM072100 24011KT P6SM FEW250 FM072200 24010G16KT P6SM FEW250 FM080900 23012G25KT P6SM SCT150 FM081500 23017G33KT P6SM FEW250<br><br>
<br><br>
CYYZ 071800Z VRB06KT 15SM FEW250 01/M11 A3046 RMK CI1 CI TR SLP325<br><br>
TAF CYYZ 071738Z 0718/0824 23005KT P6SM FEW120 FM081200 25010G20KT P6SM SKC RMK NXT FCST BY 072100Z<br><br>
<br><br>
CYOO 071800Z AUTO 17010KT 150V220 9SM CLR 00/M08 A3046 RMK SLP322<br><br>
TAF CYOO 071338Z 0714/0802 36010KT P6SM SKC BECMG 0716/0718 23009KT FM072100 23010KT P6SM FEW120 FM080000 20010KT P6SM BKN110 RMK FCST BASED ON AUTO OBS. NXT FCST BY 072000Z<br><br>
<br><br>
CYTR 071800Z 22008KT 15SM FEW210 M00/M10 A3045 RMK CI1 SLP316<br><br>
TAF CYTR 071730Z 0718/0818 22008KT P6SM FEW210 FM072100 24008KT P6SM FEW120 BKN210 FM080100 24008KT P6SM SCT080 BKN100 FM080800 26008KT P6SM SCT170 BKN240 RMK NXT FCST BY 080000Z<br><br>
<br><br>
