RETRIEVED AT : Jun 30 2018 07:05 Local <br>
  RETRIEVED AT: Jun 30 2018 11:05 UTC<br><br>
CYSN has no TAF <br><br>
<br><br>
CYHM 301000Z 21006KT 15SM FEW190 SCT230 21/20 A3003 RMK AC2CI1 SLP165 DENSITY ALT 1600FT<br><br>
TAF CYHM 300538Z 3006/0106 21008KT P6SM FEW240 BECMG 3013/3015 23012G22KT FM301700 23015KT P6SM FEW040 BECMG 0100/0102 28008KT RMK NXT FCST BY 301200Z<br><br>
<br><br>
KIAG 301053Z 00000KT 10SM CLR 24/18 A3005 RMK AO2 SLP167 T02390183<br><br>
KIAG 300953Z AUTO 14003KT 10SM CLR 22/17 A3004 RMK AO2 SLP167 T02170172<br><br>
KIAG 300901Z 3009/0106 20007KT P6SM SKC FM301100 22011KT P6SM SKC FM301400 23018G24KT P6SM SCT250 FM010000 22009KT P6SM SKC<br><br>
<br><br>
KBUF 300901Z 3009/0106 19006KT P6SM SKC FM301100 22011KT P6SM SKC FM301400 24018G24KT P6SM SCT250 FM010000 22009KT P6SM SKC<br><br>
<br><br>
CYYZ 301000Z 18004KT 15SM FEW190 BKN220 23/19 A2999 RMK AC2CC3 SLP154 DENSITY ALT 1600FT<br><br>
TAF CYYZ 300838Z 3009/0112 26008KT P6SM SCT200 BECMG 3012/3014 26015KT FEW030 FEW240 FM010000 25010KT P6SM FEW240 RMK NXT FCST BY 301200Z<br><br>
<br><br>
CYOO 301000Z AUTO 01003KT 9SM BKN065 20/17 A3000 RMK PRESRR SLP160 DENSITY ALT 1000FT<br><br>
CYOO has no TAF <br><br>
<br><br>
CYTR 301032Z 22010KT 15SM FEW042 BKN097 BKN250 20/19 A2995 RMK SC1AC5CI2 PRESFR OCNL LTNG DIST SE MOVG SE SLP143<br><br>
CYTR 301000Z 19009KT 15SM TS FEW014 BKN028 BKN250 20/18 A3000 RMK SF2SC4CI1 CB SE MOVG SE FRQ LTGICCCCG SLP158<br><br>
CYTR 300943Z 01003G24KT 5SM -TSRA BKN011 OVC033CB 19/18 A3004 RMK SF6CB2 CB OVRHD MOVG SE CONTUS LTGICCCCG /R10/ SLP174<br><br>
CYTR 300939Z 07008G24KT 3SM TSRA BKN011 OVC033CB 19/18 A3005 RMK SF6CB2 CB OVRHD MOVG SE CONTUS LTGICCCCG PRESRR SLP177<br><br>
CYTR 300934Z 34017G24KT 1/2SM +TSRA OVC033CB 20/17 A3012 RMK CB8 CB OVRHD MOVG SE CONTUS LTGICCCCG PRESRR SLP198<br><br>
CYTR 300930Z 35014G29KT 6SM +TSRA BKN033CB OVC120 21/16 A3010 RMK CB6AC2 CB OVRHD MOVG SE CONTUS LTGICCCCG PRESRR SLP194<br><br>
CYTR 300916Z 05002KT 15SM TS SCT048CB BKN120 OVC250 18/15 A3003 RMK CB3AC3CI2 CB N MOVG SE CONTUS LTGICCCCG PRESRR SLP169<br><br>
TAF AMD CYTR 300942Z 3009/0106 VRB03KT P6SM FEW040 SCT250 TEMPO 3009/3012 VRB20G40KT 1/2SM +TSRAGR FG OVC020CB FM301200 24010KT P6SM BKN040 BKN100 TEMPO 3012/3014 5SM -SHRA BR OVC030 PROB30 3012/3014 VRB20G40KT 1SM +TSRAGR BR OVC020CB FM301400 24012G22KT P6SM SCT040 SCT250 BECMG 3023/0101 24010KT RMK NXT FCST BY 301200Z<br><br>
<br><br>
