RETRIEVED AT : Oct 28 2018 07:05 Local <br>
  RETRIEVED AT: Oct 28 2018 11:05 UTC<br><br>
CYSN has no TAF <br><br>
<br><br>
CYHM 281000Z 31003KT 2 1/2SM -SN SCT007 OVC024 00/00 A2976 RMK SF3SC5 MOON DIMLY VSBL SLP087<br><br>
CYHM 280952Z 30003KT 2 1/2SM -SN BKN008 OVC018 00/00 A2976 RMK SF6SC2 SLP088<br><br>
CYHM 280911Z 34005KT 2 1/2SM -SN BKN004 OVC017 00/00 A2976 RMK SF5SC3 SLP086<br><br>
TAF CYHM 280538Z 2806/2906 02010KT 2SM -SN BR OVC004 TEMPO 2806/2810 6SM -RASN BR OVC006 FM281000 36008KT 5SM -SNRA BR OVC008 TEMPO 2810/2812 6SM -SN SCT008 OVC012 FM281200 33005KT 6SM -RASN SCT008 OVC012 FM281500 23005KT P6SM -RA -DZ BKN010 OVC040 FM281900 23005KT P6SM BKN015 OVC040 FM282100 VRB03KT P6SM -SHRA OVC015 FM290300 35008KT P6SM OVC025 FM290500 31008KT P6SM SCT020 BKN050 RMK NXT FCST BY 281200Z<br><br>
<br><br>
KIAG 281053Z 33003KT 10SM -RA BKN009 OVC016 02/01 A2975 RMK AO2 RAB0954 SLP085 P0002 T00220011<br><br>
KIAG 281046Z AUTO 00000KT 10SM -RA BKN009 OVC016 02/01 A2975 RMK AO2 RAB0954 P0001 T00220011<br><br>
KIAG 281020Z AUTO 36004KT 9SM -RA SCT006 OVC016 02/01 A2975 RMK AO2 RAB0954 P0001 T00220011<br><br>
KIAG 280953Z AUTO 34003KT 10SM OVC006 02/02 A2974 RMK AO2 RAE42 SLP084 P0000 T00220017<br><br>
KIAG 280852Z 2809/2906 35007KT 6SM -SHRA OVC003 FM281400 27004KT 6SM -SHRA OVC007 FM281800 24009KT P6SM OVC012 FM290000 00000KT P6SM OVC015 FM290100 00000KT P6SM VCSH OVC012<br><br>
<br><br>
KBUF 281054Z 29004KT 10SM -RA OVC007 02/02 A2975 RMK AO2 DZE45RAB45 SLP080 P0002 T00220017<br><br>
KBUF 280954Z 33005KT 8SM -DZ OVC005 02/02 A2974 RMK AO2 CIG 004V009 SLP078 P0001 T00220022<br><br>
KBUF 280943Z 33005KT 8SM -DZ OVC005 02/02 A2974 RMK AO2 CIG 004V009 P0001 T00220017<br><br>
KBUF 280852Z 2809/2906 34007KT 6SM -SHRA OVC003 FM281500 26006KT P6SM VCSH OVC007 FM281900 24009KT P6SM OVC007 FM290100 00000KT P6SM VCSH OVC007 FM290500 00000KT P6SM VCSH OVC007<br><br>
<br><br>
CYYZ 281009Z 32007KT 6SM -SN SCT005 OVC035 01/M00 A2976 RMK SF3SC5 SLP085<br><br>
CYYZ 281000Z 33007KT 7SM -SN SCT015 OVC038 01/00 A2976 RMK SF3SC5 SLP085<br><br>
CYYZ 280907Z 33006KT 5SM -SN FEW004 OVC023 01/M00 A2976 RMK SF2SC6 SLP086<br><br>
TAF CYYZ 280839Z 2809/2912 34008KT 3SM -SN BKN009 OVC025 TEMPO 2809/2813 6SM -SNRA SCT009 OVC025 FM281300 32008KT P6SM -RASN SCT008 OVC030 TEMPO 2813/2816 5SM -SN BKN008 OVC030 FM281600 26007KT P6SM BKN015 OVC050 TEMPO 2816/2819 P6SM -SHRA FM282300 VRB03KT 5SM -SHRA BR OVC012 FM290400 29006KT P6SM SCT020 OVC050 BECMG 2907/2909 27010KT RMK NXT FCST BY 281200Z<br><br>
<br><br>
CYOO 281059Z AUTO 29003KT 9SM -RA OVC019 01/01 A2975 RMK SLP081<br><br>
CYOO 281000Z AUTO 32003KT 9SM OVC021 01/01 A2975 RMK SLP081<br><br>
CYOO 280914Z AUTO 32003KT 6SM HZ FEW005 SCT016 OVC021 01/ A2975 RMK TD MISG SLP082<br><br>
CYOO has no TAF <br><br>
<br><br>
CYTR 281048Z 34005KT 7SM -SN OVC025 01/01 A2973 RMK SC8 SLP071<br><br>
CYTR 281014Z 34005KT 6SM -RASN BR OVC025 01/01 A2973 RMK SC8 SLP071<br><br>
CYTR 281000Z 34005KT 4SM -PL OVC025 01/01 A2973 RMK SC8 SLP071<br><br>
CYTR 280955Z 34005KT 3SM -PL FEW011 OVC025 01/01 A2973 RMK SF2SC6 SLP071<br><br>
CYTR 280928Z 34004KT 2SM -PL OVC011 01/00 A2973 RMK SF8 VIS VRB 1 1/2-2 1/2 CIG VRB 8-14 SLP072<br><br>
TAF AMD CYTR 281028Z 2810/2906 34005KT 6SM -RASN BR SCT010 OVC025 TEMPO 2810/2812 4SM -SNRA -PL BR BKN010 OVC020 FM281200 34005KT P6SM SCT007 BKN015 OVC030 BECMG 2816/2818 24005KT FM282100 24005KT 6SM -SHRA BR SCT007 OVC015 RMK NXT FCST BY 281200Z<br><br>
<br><br>
