RETRIEVED AT : Mar 21 2020 14:05 Local <br>
  RETRIEVED AT: Mar 21 2020 18:05 UTC<br><br>
CYSN 211700Z 03007KT 15SM BKN020 M03/M08 A3057 RMK SC5 SLP358<br><br>
TAF CYSN 211238Z 2113/2201 35010KT P6SM BKN025 TEMPO 2113/2116 BKN020 FM211600 01010KT P6SM SCT020 TEMPO 2116/2118 BKN020 FM211800 01010KT P6SM SKC RMK NXT FCST BY 212000Z<br><br>
<br><br>
CYHM 211700Z 05008KT 360V080 15SM FEW035 FEW240 M03/M11 A3053 RMK CU1CI1 CU TR SLP354<br><br>
TAF CYHM 211741Z 2118/2218 05008KT P6SM SKC BECMG 2210/2212 06012KT BECMG 2214/2216 09010G20KT RMK NXT FCST BY 220000Z<br><br>
<br><br>
KIAG 211800Z VRB03KT 10SM FEW027 M02/M09 A3053 RMK AO2 T10171089<br><br>
KIAG 211753Z 06008KT 10SM BKN024 M02/M09 A3053 RMK AO2 SLP356 60000 T10221089 11017 21056 58004<br><br>
KIAG 211653Z VRB06KT 10SM BKN024 M03/M08 A3054 RMK AO2 SLP360 T10281083<br><br>
KIAG 211720Z 2118/2218 10008KT P6SM SCT025 FM211900 36007KT P6SM SKC FM220000 03003KT P6SM SCT200 FM221000 08006KT P6SM SKC<br><br>
<br><br>
KBUF 211754Z 06008KT 10SM SCT035 SCT200 01/M08 A3051 RMK AO2 SLP341 T00061083 10006 21044 58005<br><br>
KBUF 211654Z VRB04KT 10SM SCT034 M01/M09 A3052 RMK AO2 SLP344 T10061089<br><br>
KBUF 211626Z VRB03KT 10SM FEW028 M02/M09 A3052 RMK AO2 T10221094<br><br>
KBUF 211720Z 2118/2218 01007KT P6SM SKC FM220000 05003KT P6SM SCT200 FM221000 08006KT P6SM SKC<br><br>
<br><br>
CYYZ 211700Z 06011G17KT 15SM FEW180 M02/M16 A3055 RMK AC1 AC TR SLP357<br><br>
TAF CYYZ 211741Z 2118/2224 06008G18KT P6SM SKC BECMG 2120/2122 01010KT FM220000 01010KT P6SM SCT170 BECMG 2211/2213 06010KT SKC FM221400 08012KT P6SM SCT020 BECMG 2215/2217 09015G25KT RMK NXT FCST BY 212100Z<br><br>
<br><br>
CYOO 211700Z AUTO 01005KT 320V060 9SM CLR M02/M13 A3055 RMK SLP356<br><br>
TAF CYOO 211343Z 2114/2202 36010G20KT P6SM SKC BECMG 2115/2117 35010KT FM220000 36008KT P6SM SCT170 RMK FCST BASED ON AUTO OBS. NXT FCST BY 212000Z<br><br>
<br><br>
CYTR 211700Z 02006KT 15SM FEW200 M02/M12 A3056 RMK CI1 SLP356<br><br>
TAF CYTR 211730Z 2118/2218 01008KT P6SM FEW200 BECMG 2203/2205 03005KT FM221300 07010KT P6SM SKC RMK NXT FCST BY 220000Z<br><br>
<br><br>
