RETRIEVED AT : Sep 24 2017 08:10 Local <br>
  RETRIEVED AT: Sep 24 2017 12:10 UTC<br><br>
CYSN 241200Z 20004KT 10SM SKC 20/19 A3014 RMK SLP209 DENSITY ALT 800FT<br><br>
CYSN 241100Z 19004KT 8SM SKC 18/17 A3014 RMK SLP206 DENSITY ALT 500FT<br><br>
CYSN has no TAF <br><br>
<br><br>
CYHM 241200Z 20003KT 12SM FEW240 17/17 A3017 RMK CI1 CI TR SLP218 DENSITY ALT 1000FT<br><br>
CYHM 241100Z 22002KT 12SM MIFG FEW100 FEW240 17/16 A3016 RMK AC1CI1 AC TR CI TR SLP213 DENSITY ALT 900FT<br><br>
TAF CYHM 241138Z 2412/2512 VRB03KT P6SM SKC FM241700 05007KT P6SM FEW050 BECMG 2421/2423 VRB03KT RMK NXT FCST BY 241800Z<br><br>
<br><br>
KIAG 241153Z 00000KT 8SM BCFG CLR 20/17 A3016 RMK AO2 SLP210 T02000172 10217 20183 53008<br><br>
KIAG 241053Z 00000KT 8SM BCFG CLR 18/16 A3015 RMK AO2 SLP207 T01830161<br><br>
KIAG 241035Z AUTO 00000KT 3SM BR CLR 19/17 A3015 RMK AO2 T01890167<br><br>
KIAG 241024Z AUTO 00000KT 1 3/4SM R28R/6000VP6000FT HZ CLR 19/16 A3015 RMK AO2 VIS 3/4V5 T01890161<br><br>
KIAG 241120Z 2412/2512 00000KT 4SM BR SKC FM241300 26004KT P6SM SKC FM241700 34006KT P6SM SKC FM250000 VRB03KT P6SM SKC FM250800 00000KT 3SM BR SKC<br><br>
<br><br>
KBUF 241154Z 18004KT 10SM CLR 18/16 A3017 RMK AO2 SLP216 T01780156 10194 20172 53007<br><br>
KBUF 241054Z 14004KT 10SM CLR 18/16 A3017 RMK AO2 SLP212 T01780156<br><br>
KBUF 241120Z 2412/2512 16004KT P6SM SKC FM241400 23005KT P6SM SKC FM241900 33007KT P6SM SKC FM250000 VRB03KT P6SM SKC<br><br>
<br><br>
CYYZ 241200Z 31002KT 15SM SKC 21/19 A3015 RMK SLP210 DENSITY ALT 1200FT<br><br>
CYYZ 241100Z 33005KT 15SM FEW250 22/18 A3014 RMK CI1 CI TR SLP207 DENSITY ALT 1300FT<br><br>
TAF CYYZ 241138Z 2412/2518 32005KT P6SM SKC FM241500 26008KT P6SM FEW050 BECMG 2502/2504 33005KT BECMG 2510/2512 VRB03KT FM251500 17008KT P6SM SCT240 RMK NXT FCST BY 241500Z<br><br>
<br><br>
CYOO 241200Z AUTO 34004KT 8SM CLR 19/18 A3015 RMK SLP211 DENSITY ALT 800FT<br><br>
CYOO 241132Z AUTO 36003KT 6SM BR CLR 17/16 A3015 RMK SLP210 DENSITY ALT 500FT<br><br>
CYOO 241120Z AUTO 01003KT 5SM BR CLR 17/16 A3015 RMK SLP208 DENSITY ALT 500FT<br><br>
CYOO 241100Z AUTO 00000KT 8SM CLR 17/16 A3014 RMK SLP206 DENSITY ALT 500FT<br><br>
CYOO has no TAF <br><br>
<br><br>
CYTR 241200Z 32003KT 8SM SKC 21/19 A3012 RMK SLP201<br><br>
CYTR 241100Z 30002KT 6SM BR MIFG FEW160 18/18 A3012 RMK AC1 SLP198<br><br>
TAF CYTR 241130Z 2412/2512 VRB03KT P6SM SKC TEMPO 2412/2413 3SM BR BECMG 2414/2416 20008KT FM250000 VRB03KT P6SM SKC PROB30 2509/2512 2SM BR RMK NXT FCST BY 241800Z<br><br>
<br><br>
