RETRIEVED AT : May 22 2020 08:05 Local <br>
  RETRIEVED AT: May 22 2020 12:05 UTC<br><br>
CYSN 221100Z 00000KT 15SM FEW250 11/09 A3011 RMK CI2 SLP199<br><br>
CYSN has no TAF <br><br>
<br><br>
CYHM 221100Z 17003KT 15SM FEW250 12/07 A3012 RMK CI1 SLP201<br><br>
TAF CYHM 221152Z 2212/2312 VRB03KT P6SM FEW250 FM221800 18008KT P6SM FEW050 SCT070 BKN120 FM222000 22010KT P6SM FEW020 BKN050 OVC070 TEMPO 2220/2224 P6SM -SHRA SCT020 OVC050 FM230000 20008KT P6SM -SHRA FEW008 SCT015 OVC030 TEMPO 2300/2309 4SM -SHRA BR BKN015 OVC030 FM230900 28005KT P6SM SCT030 BKN070 RMK NXT FCST BY 221800Z<br><br>
<br><br>
KIAG 221153Z 20005KT 10SM CLR 16/11 A3012 RMK AO2 SLP198 T01610106 10161 20089 56004<br><br>
KIAG 221053Z 00000KT 10SM CLR 12/09 A3012 RMK AO2 SLP200 T01170094<br><br>
KIAG 221120Z 2212/2312 VRB03KT P6SM SCT200 FM221500 06005KT P6SM BKN200 FM222000 07006KT P6SM BKN040 FM230200 VRB03KT P6SM VCSH OVC035 FM230600 VRB03KT P6SM VCSH OVC015<br><br>
<br><br>
KBUF 221154Z 00000KT 10SM FEW250 17/11 A3012 RMK AO2 SLP199 T01670106 10167 20128 56005<br><br>
KBUF 221054Z 17005KT 10SM FEW250 14/10 A3013 RMK AO2 SLP200 T01440100<br><br>
KBUF 221120Z 2212/2312 VRB03KT P6SM SCT200 FM221500 VRB03KT P6SM BKN200 FM222000 23007KT P6SM BKN040 FM230100 VRB03KT 6SM -SHRA OVC025 FM230700 VRB03KT 5SM BR VCSH OVC008<br><br>
<br><br>
CYYZ 221100Z 00000KT 15SM FEW260 12/04 A3011 RMK CI1 CI TR SLP199<br><br>
TAF CYYZ 221152Z 2212/2318 VRB03KT P6SM SKC BECMG 2214/2216 15010KT FM221800 15010KT P6SM FEW100 SCT150 FM222000 15010KT P6SM SCT070 BKN090 BKN200 TEMPO 2220/2306 BKN070 OVC090 FM230600 11005KT P6SM FEW008 SCT090 BKN180 BECMG 2308/2310 02008KT FM231000 02008KT P6SM FEW030 FEW080 SCT200 FM231500 10008KT P6SM SKC BECMG 2316/2318 15010KT RMK NXT FCST BY 221500Z<br><br>
<br><br>
CYOO 221100Z AUTO 02003KT 9SM CLR 10/04 A3011 RMK SLP201<br><br>
TAF CYOO 220742Z 2208/2220 VRB03KT P6SM SKC BECMG 2214/2216 20008KT FM221800 18008KT P6SM SCT150 RMK FCST BASED ON AUTO OBS. NXT FCST BY 221400Z<br><br>
<br><br>
CYTR 221100Z 00000KT 15SM FEW240 09/04 A3013 RMK CI1 SLP204<br><br>
TAF CYTR 221130Z 2212/2312 VRB03KT P6SM FEW240 BECMG 2215/2217 22010KT BECMG 2222/2224 VRB03KT FM230000 VRB03KT P6SM BKN250 RMK NXT FCST BY 221800Z<br><br>
<br><br>
