RETRIEVED AT : Oct 21 2018 14:05 Local <br>
  RETRIEVED AT: Oct 21 2018 18:05 UTC<br><br>
CYSN 211700Z 30011G18KT 15SM BKN040 05/M04 A3017 RMK SC7 SLP222<br><br>
TAF CYSN 211238Z 2113/2201 33010KT P6SM BKN030 TEMPO 2113/2115 P6SM -SHSN FM212100 28012KT P6SM BKN040 TEMPO 2121/2201 P6SM -SHRA BKN020 RMK NXT FCST BY 212000Z<br><br>
<br><br>
CYHM 211700Z 30010KT 15SM FEW025 BKN035 04/M03 A3018 RMK CU2SC5 SLP228<br><br>
TAF CYHM 211738Z 2118/2218 30010G20KT P6SM BKN040 TEMPO 2120/2124 P6SM -SHRA BKN020 BECMG 2122/2124 27010KT FM220000 27010KT P6SM BKN040 BKN120 BECMG 2202/2204 23010KT FM220800 25010KT P6SM SCT040 BKN100 FM221700 24012G22KT P6SM SCT060 RMK NXT FCST BY 220000Z<br><br>
<br><br>
KIAG 211753Z 29011KT 10SM BKN039 OVC046 04/M04 A3016 RMK AO2 SLP224 60000 T00391039 10044 20011 58006<br><br>
KIAG 211653Z 29015KT 10SM BKN041 04/M04 A3017 RMK AO2 SLP227 T00441039<br><br>
KIAG 211720Z 2118/2218 29013G20KT P6SM BKN040 FM220000 27009KT P6SM BKN050 FM220200 26008KT P6SM SCT050 FM220900 23006KT P6SM BKN040 FM221300 20010KT P6SM VCSH BKN035<br><br>
<br><br>
KBUF 211754Z 29012G20KT 10SM BKN042 BKN048 05/M03 A3015 RMK AO2 SLP217 60000 T00501033 10050 20011 58005<br><br>
KBUF 211654Z 30010G17KT 10SM BKN038 BKN045 04/M04 A3017 RMK AO2 SLP221 T00391039<br><br>
KBUF 211608Z 28011KT 10SM BKN030 OVC035 03/M03 A3017 RMK AO2 T00331028<br><br>
KBUF 211720Z 2118/2218 29012G18KT P6SM BKN035 FM220000 27008KT P6SM BKN050 FM220300 25005KT P6SM SCT050 FM220800 21006KT P6SM BKN035 FM221200 21011KT P6SM VCSH BKN030<br><br>
<br><br>
CYYZ 211700Z 32015G22KT 15SM BKN040 04/M07 A3016 RMK SC7 SLP222<br><br>
TAF CYYZ 211738Z 2118/2224 31012G22KT P6SM BKN040 FM212300 29010G20KT P6SM BKN040 TEMPO 2123/2202 P6SM -SHRASN FM220200 25008KT P6SM BKN030 TEMPO 2204/2208 P6SM -SHSN FM220800 25010KT P6SM SCT040 BKN080 FM221200 24010KT P6SM FEW030 SCT080 FM222100 25012KT P6SM BKN050 BECMG 2222/2224 24007KT RMK NXT FCST BY 212100Z<br><br>
<br><br>
CYOO 211700Z AUTO 29013KT 9SM OVC037 04/M03 A3014 RMK SLP214<br><br>
CYOO has no TAF <br><br>
<br><br>
CYTR 211700Z 34010G18KT 15SM FEW038 04/M06 A3011 RMK SC2 SLP200<br><br>
TAF CYTR 211730Z 2118/2218 33010G20KT P6SM SCT040 TEMPO 2118/2212 BKN040 BECMG 2200/2202 VRB03KT FM221200 25005KT P6SM BKN030 TEMPO 2216/2218 P6SM -SHRA RMK NXT FCST BY 220000Z<br><br>
<br><br>
