RETRIEVED AT : May 16 2020 21:05 Local <br>
  RETRIEVED AT: May 17 2020 01:05 UTC<br><br>
CYSN 170000Z 07005KT 15SM BKN250 14/09 A3018 RMK CI7 SLP223<br><br>
TAF CYSN 161938Z 1620/1701 02006KT P6SM FEW030 RMK NXT FCST WILL BE ISSUED AT 171245Z<br><br>
<br><br>
CYHM 170000Z 07009KT 15SM BKN260 15/08 A3018 RMK CI6 SLP223<br><br>
TAF CYHM 162338Z 1700/1724 09008KT P6SM FEW030 BKN250 FM170300 06008KT P6SM SKC FM171000 06012KT P6SM SCT040 BKN200 FM171600 05015G25KT P6SM SCT040 BKN140 FM171800 05015G25KT P6SM -RA SCT020 BKN040 OVC080 TEMPO 1718/1721 5SM -RA BR BKN020 OVC040 FM172100 05015G25KT 2SM -RA BR OVC006 RMK NXT FCST BY 170600Z<br><br>
<br><br>
KIAG 170053Z 07006KT 10SM CLR 13/08 A3019 RMK AO2 SLP229 T01330078<br><br>
KIAG 162353Z 05007KT 10SM CLR 16/08 A3019 RMK AO2 SLP229 T01560083 10189 20156 53007<br><br>
KIAG 162320Z 1700/1724 05005KT P6SM SCT250 FM171400 09014G22KT P6SM OVC100 FM172100 07016G24KT 6SM -SHRA OVC025<br><br>
<br><br>
KBUF 170054Z 05009KT 10SM SCT240 15/07 A3019 RMK AO2 SLP227 T01500072<br><br>
KBUF 162354Z 03008KT 10SM FEW180 BKN240 17/07 A3019 RMK AO2 SLP226 T01670072 10194 20167 53008<br><br>
KBUF 162320Z 1700/1724 05005KT P6SM SCT250 FM171400 09012G20KT P6SM OVC100 FM172000 07012G20KT 6SM -SHRA OVC025<br><br>
<br><br>
CYYZ 170000Z 12006KT 15SM FEW050 BKN260 13/07 A3020 RMK SC1CI6 SLP230<br><br>
TAF CYYZ 162338Z 1700/1806 15010KT P6SM FEW050 BKN250 BECMG 1701/1703 06007KT FM170900 08008KT P6SM SCT050 BKN220 FM171200 09012KT P6SM SCT050 OVC150 BECMG 1717/1719 09012G22KT FM172100 09012G22KT P6SM -RA BKN030 OVC070 TEMPO 1721/1803 3SM -RA BR BKN012 OVC030 FM180300 09012KT 2SM -RA BR OVC008 RMK NXT FCST BY 170300Z<br><br>
<br><br>
CYOO 170000Z AUTO 14005KT 9SM CLR 12/06 A3022 RMK SLP238<br><br>
TAF CYOO 161938Z 1620/1708 20008KT P6SM FEW050 TEMPO 1620/1701 BKN050 BECMG 1622/1624 12005KT FM170100 VRB03KT P6SM FEW050 FM170600 05007KT P6SM FEW040 SCT240 RMK FCST BASED ON AUTO OBS. NXT FCST BY 170200Z<br><br>
<br><br>
CYTR 170000Z 21006KT 15SM FEW040 SCT250 12/06 A3023 RMK SC1CI4 SLP240<br><br>
TAF CYTR 162330Z 1700/1724 22008KT P6SM FEW040 BECMG 1700/1702 VRB03KT BECMG 1706/1708 04008KT FM171200 05010KT P6SM BKN200 BECMG 1716/1718 09010KT OVC150 FM172200 06008KT P6SM SCT060 OVC100 TEMPO 1722/1724 P6SM -RA BKN060 OVC100 RMK NXT FCST BY 170600Z<br><br>
<br><br>
