RETRIEVED AT : Nov 24 2018 17:26 Local <br>
  RETRIEVED AT: Nov 24 2018 22:26 UTC<br><br>
CYSN 242200Z 19012KT 15SM -RA OVC027 06/05 A2965 RMK SC8 SLP045<br><br>
CYSN 242115Z 18012KT 15SM -RA OVC030 07/04 A2965 RMK NS8 SLP045<br><br>
CYSN 242100Z 18014KT 15SM OVC030 07/04 A2965 RMK SC8 SLP044<br><br>
TAF CYSN 241940Z 2420/2502 17012G22KT P6SM FEW012 OVC030 TEMPO 2420/2502 4SM -RA BR BKN007 OVC020 BECMG 2423/2501 19012KT RMK NXT FCST WILL BE ISSUED AT 251345Z<br><br>
<br><br>
CYHM 242200Z 18009KT 4SM -RADZ BR OVC007 05/05 A2962 RMK SC8 SLP040<br><br>
CYHM 242137Z 17009KT 2 1/2SM -RADZ BR OVC008 05/05 A2963 RMK SC8 SLP041<br><br>
CYHM 242130Z 18009KT 4SM -RADZ BR OVC009 05/05 A2963 RMK SC8 SLP041<br><br>
CYHM 242100Z 18009KT 8SM -RADZ FEW010 OVC013 05/05 A2962 RMK SF2SC6 SLP040<br><br>
CYHM 242031Z 17008KT 12SM -DZ SCT009 OVC014 05/05 A2962 RMK SF3SC5 SLP039<br><br>
TAF AMD CYHM 241830Z 2418/2518 13010G20KT 1SM -RA BR OVC005 TEMPO 2418/2502 6SM BR SCT008 OVC012 BECMG 2419/2421 17012KT FM250200 20010KT P6SM SCT008 OVC015 TEMPO 2502/2509 3SM -DZ BR BKN006 OVC012 BECMG 2504/2506 23010KT FM250900 24010KT P6SM OVC015 FM251600 24012KT P6SM BKN020 RMK NXT FCST BY 250000Z<br><br>
<br><br>
KIAG 242200Z 18010KT 10SM -RA OVC028 06/03 A2966 RMK AO2 P0000 T00560028<br><br>
KIAG 242153Z 18011KT 10SM -RA OVC030 06/03 A2966 RMK AO2 RAE07B43 SLP055 P0000 T00560028<br><br>
KIAG 242053Z 18009KT 10SM -RA OVC033 06/02 A2966 RMK AO2 RAB51 SLP056 P0000 60000 T00610022 55009<br><br>
KIAG 242112Z 2421/2518 17010KT P6SM -SHRA OVC035 FM242300 17010G16KT P6SM VCSH OVC025 FM250300 19010KT P6SM OVC015 FM250700 22009KT 5SM -DZ BR OVC008 FM251600 25011KT P6SM OVC020<br><br>
<br><br>
KBUF 242154Z 16009KT 10SM -RA OVC031 06/02 A2967 RMK AO2 SLP053 P0001 T00560022 $<br><br>
KBUF 242054Z 17010KT 10SM -RA BKN039 OVC055 06/03 A2967 RMK AO2 RAB27 SLP052 P0000 60000 T00610028 56013 $<br><br>
KBUF 242112Z 2421/2518 17013KT P6SM -SHRA OVC035 FM242300 17010KT P6SM VCSH OVC025 FM250300 19009KT P6SM OVC015 FM250700 22010KT 5SM -DZ BR OVC007 FM251600 25011KT P6SM OVC015<br><br>
<br><br>
CYYZ 242216Z 12008KT 5SM -RA BR SCT006 OVC014 05/03 A2964 RMK SF3SC5 SLP045<br><br>
CYYZ 242200Z 13007KT 4SM -RADZ BR FEW004 OVC009 05/03 A2964 RMK SF2SF6 SLP046<br><br>
CYYZ 242136Z 12008KT 4SM -RADZ BR SCT008 OVC015 04/03 A2965 RMK SF3SC5 SLP047<br><br>
CYYZ 242111Z 11009KT 4SM -DZ BR SCT007 OVC013 04/03 A2965 RMK SF4SF4 SLP047<br><br>
CYYZ 242100Z 12009KT 090V160 2 1/2SM -DZ BR SCT004 OVC010 04/03 A2965 RMK SF3SF5 SLP048<br><br>
TAF CYYZ 242038Z 2421/2524 14010G20KT 2SM -RA BR BKN005 OVC012 TEMPO 2421/2502 6SM -DZ BR SCT006 OVC012 BECMG 2423/2501 16008KT FM250200 18008KT P6SM OVC007 TEMPO 2502/2506 2SM -DZ BR OVC003 FM250600 21008KT P6SM OVC012 TEMPO 2506/2509 5SM -DZ BR OVC005 FM250900 24010KT P6SM OVC015 TEMPO 2509/2512 OVC007 FM251600 25012KT P6SM BKN020 BECMG 2520/2522 23006KT RMK NXT FCST BY 250000Z<br><br>
<br><br>
CYOO 242200Z AUTO 09008KT 8SM OVC015 04/04 A2968 RMK SLP059<br><br>
CYOO 242118Z AUTO 10009G15KT 6SM BR FEW005 OVC015 03/03 A2969 RMK SLP062<br><br>
CYOO 242106Z AUTO 10009KT 3SM BR FEW005 OVC015 03/03 A2969 RMK SLP061<br><br>
CYOO 242103Z AUTO 10009KT 3SM -RA BR SCT005 OVC015 04/04 A2969 RMK SLP061<br><br>
CYOO 242100Z AUTO 10010KT 2 1/2SM -RA BR SCT005 OVC015 04/04 A2969 RMK SLP061<br><br>
CYOO has no TAF <br><br>
<br><br>
CYTR 242224Z 16003KT 4SM -RA BR OVC007 04/03 A2976 RMK SF8 SLP081<br><br>
CYTR 242200Z 16006KT 6SM -RA BR OVC007 04/03 A2976 RMK SF8 SLP083<br><br>
CYTR 242100Z 14006KT 12SM -SHRA OVC007 04/03 A2977 RMK SF8 SLP085<br><br>
CYTR 242044Z 15007KT 7SM -SHRA OVC007 04/03 A2977 RMK SF8 SLP086<br><br>
TAF AMD CYTR 241957Z 2419/2518 12005KT P6SM -RA SCT006 OVC015 TEMPO 2419/2502 2SM -RA BR BKN006 OVC012 FM250200 16008KT 2SM -RA BR OVC006 TEMPO 2502/2506 5SM -RA BR SCT006 OVC012 FM250600 18008KT 6SM BR SCT006 OVC012 TEMPO 2506/2511 2SM -RA -DZ BR OVC006 FM251100 24010KT 5SM -DZ BR OVC015 TEMPO 2511/2515 P6SM NSW SCT015 OVC025 FM251500 25010G20KT P6SM SCT015 BKN025 TEMPO 2515/2518 BKN015 OVC025 RMK NXT FCST BY 250000Z<br><br>
<br><br>
