RETRIEVED AT : Sep 14 2019 07:07 Local <br>
  RETRIEVED AT: Sep 14 2019 11:07 UTC<br><br>
CYSN has no TAF <br><br>
<br><br>
CYHM 141000Z 26007KT 15SM FEW025 BKN035 16/13 A3008 RMK SC2SC4 SLP187 DENSITY ALT 900FT<br><br>
TAF CYHM 140539Z 1406/1506 22015G25KT P6SM OVC008 TEMPO 1406/1408 SCT008 OVC015 FM140800 24012KT P6SM OVC015 TEMPO 1408/1412 BKN025 FM141200 25015G25KT P6SM BKN020 TEMPO 1412/1418 BKN025 FM141800 25012G22KT P6SM BKN030 BECMG 1421/1423 25008KT FM150400 25008KT P6SM FEW030 RMK NXT FCST BY 141200Z<br><br>
<br><br>
KIAG 141103Z 29012KT 10SM FEW015 BKN020 BKN031 18/14 A3008 RMK AO2 WSHFT 1043 T01780144<br><br>
KIAG 141053Z 28015KT 10SM SCT015 BKN022 19/17 A3007 RMK AO2 SLP182 T01940172<br><br>
KIAG 140953Z AUTO 22011KT 10SM OVC022 19/17 A3006 RMK AO2 SLP175 T01890172<br><br>
KIAG 140731Z 1408/1506 21012KT P6SM BKN035 FM140830 21012G20KT P6SM BKN015 FM141200 24012G20KT P6SM SCT025 BKN250 FM141800 25012G18KT P6SM FEW090 FM150100 24006KT P6SM FEW250<br><br>
<br><br>
KBUF 141054Z 22010KT 10SM BKN020 BKN026 19/17 A3009 RMK AO2 SLP186 T01940167<br><br>
KBUF 140954Z 20012KT 10SM BKN027 OVC034 19/16 A3007 RMK AO2 SLP180 T01940161<br><br>
KBUF 140912Z 20013KT 10SM BKN029 OVC036 19/16 A3006 RMK AO2 T01940161<br><br>
KBUF 140659Z 1407/1506 21012G22KT P6SM SCT025 BKN040 TEMPO 1408/1412 BKN025 FM141200 24012G22KT P6SM SCT025 BKN250 FM141800 24015G25KT P6SM SCT100 FM142200 25012KT P6SM FEW250<br><br>
<br><br>
CYYZ 141000Z 25003KT 15SM FEW040 17/14 A3005 RMK SC1 SLP176 DENSITY ALT 800FT<br><br>
TAF CYYZ 140838Z 1409/1512 24012KT P6SM BKN015 TEMPO 1409/1414 BKN025 FM141400 26015G25KT P6SM BKN025 FM141800 26012G22KT P6SM BKN030 TEMPO 1418/1423 SCT030 FM142300 27012KT P6SM SCT030 FM150200 30007KT P6SM FEW025 RMK NXT FCST BY 141200Z<br><br>
<br><br>
CYOO 141000Z AUTO 23006KT 9SM FEW033 SCT040 BKN049 19/18 A3002 RMK SLP166 DENSITY ALT 800FT<br><br>
CYOO 140909Z AUTO 21012G17KT 9SM SCT008 19/18 A3001 RMK SLP163 DENSITY ALT 900FT<br><br>
TAF CYOO 140738Z 1408/1420 24012KT P6SM SCT012 OVC030 TEMPO 1408/1411 P6SM -SHRA BKN007 OVC012 FM141100 26012KT P6SM BKN015 TEMPO 1411/1417 BKN025 FM141700 26012G22KT P6SM BKN030 RMK FCST BASED ON AUTO OBS. NXT FCST BY 141400Z<br><br>
<br><br>
CYTR 141049Z 21008KT 12SM OVC009 18/17 A3004 RMK SF8 SLP172<br><br>
CYTR 141000Z 20007KT 12SM OVC012 18/17 A3003 RMK SF8 SLP171<br><br>
TAF CYTR 140530Z 1406/1506 15008KT P6SM SCT008 BKN020 OVC050 TEMPO 1406/1408 4SM -SHRA BR BKN008 OVC020 FM140800 20010KT P6SM SCT005 OVC015 TEMPO 1408/1413 4SM -DZ BR BKN005 OVC015 FM141300 23012G22KT P6SM SCT015 BKN030 FM141800 24012G22KT P6SM SCT030 BECMG 1422/1424 24008KT FM150200 24005KT P6SM SKC RMK NXT FCST BY 141200Z<br><br>
<br><br>
