RETRIEVED AT : Dec 04 2017 11:45 Local <br>
  RETRIEVED AT: Dec 04 2017 16:45 UTC<br><br>
CYSN 041600Z 15006KT 120V180 10SM FEW180 OVC230 08/02 A3023 RMK AC2CI6 PRESFR SLP240<br><br>
CYSN 041500Z 10005KT 6SM BR OVC200 04/03 A3026 RMK CI8 SLP251<br><br>
TAF CYSN 041352Z 0414/0502 12006KT 2SM BR BKN160 OVC200 BECMG 0414/0416 P6SM NSW FM041800 14010KT P6SM SCT120 OVC200 FM050000 16012KT P6SM BKN120 OVC200 RMK NXT FCST BY 042000Z<br><br>
<br><br>
CYHM 041600Z 13008KT 10SM SCT220 BKN230 06/04 A3021 RMK CI3CS4 HALO SLP238<br><br>
CYHM 041509Z 09007KT 2SM BR SCT005 BKN210 03/03 A3023 RMK FG1SF2CI2 SLP248<br><br>
CYHM 041455Z 08007KT 1 1/2SM BR BKN004 OVC210 03/03 A3023 RMK FG4SF2CI2 SLP249<br><br>
TAF AMD CYHM 041554Z 0415/0512 08008KT 2SM BR SCT005 BKN210 BECMG 0416/0418 P6SM NSW SCT150 OVC200 FM041900 12010KT P6SM SCT150 OVC200 FM042100 14012KT P6SM BKN100 OVC150 BECMG 0501/0503 18015KT FM050700 19018G28KT P6SM -SHRA BKN030 OVC080 FM051100 19022G32KT 4SM -RA BR BKN007 OVC015 RMK NXT FCST BY 041800Z<br><br>
<br><br>
KIAG 041553Z 12004KT 6SM HZ CLR 06/02 A3024 RMK AO2 SLP252 T00560017<br><br>
KIAG 041453Z 14003KT 3SM BR CLR 03/01 A3027 RMK AO2 SLP264 I3000 T00280006 56009<br><br>
KIAG 041523Z 0415/0512 VRB03KT 3SM BR SKC FM041600 13005KT P6SM BKN200 FM041800 16010KT P6SM BKN150 FM050000 17016G22KT P6SM OVC100 WS020/20055KT FM050900 18019G26KT P6SM -RA OVC050 WS020/20055KT<br><br>
<br><br>
KBUF 041523Z 0415/0512 14006KT P6SM BKN200 FM041800 16012KT P6SM BKN150 FM050000 17013G22KT P6SM OVC100 WS020/20055KT FM051000 18019G28KT P6SM -RA OVC060 WS020/19055KT<br><br>
<br><br>
TAF CYYZ 041459Z 0415/0518 09006KT 3/4SM BR OVC002 TEMPO 0415/0416 1SM BR BKN004 OVC120 BECMG 0416/0418 P6SM NSW SCT150 OVC200 FM041800 10010KT P6SM SCT150 OVC200 TEMPO 0418/0419 5SM BR FM042200 11010KT P6SM OVC120 FM050500 17012KT P6SM -SHRA OVC040 FM050900 18012G22KT P6SM -RA OVC020 FM051200 18015G25KT 5SM -RA BR OVC012 FM051500 21020G30KT P6SM BKN007 OVC015 FM051700 23022G35KT P6SM BKN020 OVC040 RMK NXT FCST BY 041800Z<br><br>
<br><br>
CYOO 041600Z AUTO 11011G16KT 1 1/4SM BR OVC004 04/04 A3025 RMK PRESFR SLP250<br><br>
CYOO 041513Z AUTO 10010KT 2SM BR BKN004 04/04 A3028 RMK SLP260<br><br>
CYOO 041500Z AUTO 10008KT 2SM BR FEW004 03/03 A3028 RMK SLP262<br><br>
CYOO has no TAF <br><br>
<br><br>
CYTR 041600Z 09003KT 3SM BR OVC008 05/05 A3031 RMK ST8 VIS VRB 2 1/4-4 SLP268<br><br>
CYTR 041523Z 09002KT 3SM BR BKN003 04/04 A3033 RMK ST7 VIS VRB 2 1/4-4 SLP274<br><br>
CYTR 041500Z 09004KT 2SM BR OVC002 04/04 A3033 RMK ST8 VIS VRB 1 1/2-2 1/2 SLP274<br><br>
TAF AMD CYTR 041506Z 0415/0512 VRB03KT 1/2SM FG VV002 TEMPO 0415/0418 3SM BR SCT002 OVC020 FM041800 15012KT P6SM SCT020 BKN180 TEMPO 0418/0420 3SM BR BKN020 FM042200 15012KT P6SM OVC100 FM051000 15015KT P6SM -RA SCT030 BKN060 OVC100 RMK NXT FCST BY 041800Z<br><br>
<br><br>
