RETRIEVED AT : Jun 07 2020 16:05 Local <br>
  RETRIEVED AT: Jun 07 2020 20:05 UTC<br><br>
TAF CYSN 071939Z 0720/0801 33006KT P6SM FEW050 BECMG 0723/0801 03006KT RMK NXT FCST WILL BE ISSUED AT 081245Z<br><br>
<br><br>
TAF CYHM 071738Z 0718/0818 32008G18KT P6SM FEW050 BECMG 0723/0801 04008KT FM080500 04006KT P6SM FEW090 SCT120 RMK NXT FCST BY 080000Z<br><br>
<br><br>
KIAG 071726Z 0718/0818 31008KT P6SM FEW250 FM080200 VRB03KT P6SM SCT250 FM081500 33006KT P6SM SCT200<br><br>
<br><br>
KBUF 071726Z 0718/0818 32012KT P6SM SCT045 FM080200 VRB03KT P6SM SCT250 FM081500 32006KT P6SM SCT200<br><br>
<br><br>
TAF CYYZ 071738Z 0718/0824 36010G20KT P6SM FEW050 BECMG 0800/0802 01012KT SKC FM080600 01008KT P6SM FEW090 SCT120 FM081600 15008KT P6SM SCT070 BECMG 0820/0822 16008G18KT RMK NXT FCST BY 072100Z<br><br>
<br><br>
TAF CYOO 071939Z 0720/0808 30008KT P6SM SKC BECMG 0800/0802 34008KT FM080600 36006KT P6SM SCT160 RMK FCST BASED ON AUTO OBS. NXT FCST BY 080200Z<br><br>
<br><br>
TAF CYTR 071730Z 0718/0818 24008KT P6SM FEW050 BECMG 0722/0724 34005KT FM080000 34005KT P6SM FEW050 SCT280 FM081000 34005KT P6SM FEW280 BECMG 0816/0818 24008KT RMK NXT FCST BY 080000Z<br><br>
<br><br>
