RETRIEVED AT : May 17 2020 01:05 Local <br>
  RETRIEVED AT: May 17 2020 05:05 UTC<br><br>
CYSN has no TAF <br><br>
<br><br>
CYHM 170400Z 03007KT 15SM SCT210 08/06 A3020 RMK CI3 SLP231<br><br>
TAF CYHM 162338Z 1700/1724 09008KT P6SM FEW030 BKN250 FM170300 06008KT P6SM SKC FM171000 06012KT P6SM SCT040 BKN200 FM171600 05015G25KT P6SM SCT040 BKN140 FM171800 05015G25KT P6SM -RA SCT020 BKN040 OVC080 TEMPO 1718/1721 5SM -RA BR BKN020 OVC040 FM172100 05015G25KT 2SM -RA BR OVC006 RMK NXT FCST BY 170600Z<br><br>
<br><br>
KIAG 170453Z AUTO 09004KT 10SM CLR 09/06 A3020 RMK AO2 SLP231 T00940056 401890078 $<br><br>
KIAG 170353Z AUTO 10005KT 10SM CLR 10/06 A3020 RMK AO2 SLP233 T01000061 $<br><br>
KIAG 170228Z 1702/1724 06006KT P6SM SCT250 FM171400 09014G22KT P6SM OVC100 FM172100 07016G24KT 6SM -SHRA OVC025<br><br>
<br><br>
KBUF 170454Z 09005KT 10SM FEW220 BKN280 11/06 A3020 RMK AO2 SLP229 T01060056 401940067<br><br>
KBUF 170354Z 09006KT 10SM BKN260 12/06 A3021 RMK AO2 SLP231 T01170056<br><br>
KBUF 170228Z 1702/1724 05006KT P6SM SCT250 FM171400 09012G20KT P6SM OVC100 FM172000 07012G20KT 6SM -SHRA OVC025<br><br>
<br><br>
CYYZ 170400Z 06003KT 15SM BKN260 11/06 A3021 RMK CI6 SLP234<br><br>
TAF CYYZ 170238Z 1703/1806 06007KT P6SM FEW050 BKN250 FM170900 08008KT P6SM SCT050 BKN220 FM171200 09012KT P6SM SCT050 OVC150 BECMG 1717/1719 09012G22KT FM172100 09012G22KT P6SM -RA BKN030 OVC070 TEMPO 1721/1803 3SM -RA BR BKN012 OVC030 FM180300 09012KT 2SM -RA BR OVC008 RMK NXT FCST BY 170600Z<br><br>
<br><br>
CYOO 170400Z AUTO 02004KT 9SM CLR 07/05 A3023 RMK SLP240<br><br>
TAF CYOO 170138Z 1702/1714 09005KT P6SM FEW050 BKN240 FM170800 06007KT P6SM BKN240 TEMPO 1708/1712 2SM BR RMK FCST BASED ON AUTO OBS. NXT FCST BY 170800Z<br><br>
<br><br>
CYTR 170400Z 00000KT 15SM FEW250 06/04 A3025 RMK CI2 SLP246<br><br>
TAF CYTR 162330Z 1700/1724 22008KT P6SM FEW040 BECMG 1700/1702 VRB03KT BECMG 1706/1708 04008KT FM171200 05010KT P6SM BKN200 BECMG 1716/1718 09010KT OVC150 FM172200 06008KT P6SM SCT060 OVC100 TEMPO 1722/1724 P6SM -RA BKN060 OVC100 RMK NXT FCST BY 170600Z<br><br>
<br><br>
