RETRIEVED AT : Mar 29 2020 15:05 Local <br>
  RETRIEVED AT: Mar 29 2020 19:05 UTC<br><br>
CYSN 291830Z 21003KT 130V270 15SM SCT040 SCT250 13/13 A2949 RMK SC3CI1 CB S AND E PRESFR SLP991 DENSITY ALT 700FT<br><br>
CYSN 291800Z 28010G30KT 4SM -TSRA OVC021 09/09 A2954 RMK SC8 CB EMBDD PRESRR SLP005<br><br>
CYSN 291751Z 27017G28KT 230V330 3SM -TSRA OVC016CB 09/09 A2954 RMK CB8 PRESRR SLP005<br><br>
CYSN 291745Z 32013KT 10SM -SHRA OVC037 09/08 A2950 RMK CU8 PRESRR SLP993<br><br>
TAF AMD CYSN 291902Z 2919/3001 21008KT P6SM SCT040 BECMG 2919/2921 23020G38KT FM300000 23015G30KT P6SM BKN030 RMK NXT FCST BY 292000Z<br><br>
<br><br>
CYHM 291800Z 21012KT 15SM FEW030 BKN080 18/14 A2951 RMK CF2AC3 SLP995 DENSITY ALT 1900FT<br><br>
TAF CYHM 291738Z 2918/3018 21010G20KT P6SM BKN025 BKN240 TEMPO 2918/2919 3SM +TSRAGR BR BKN005 OVC015CB FM291900 23020G38KT P6SM SCT020 BKN040 TEMPO 2919/2922 BKN020 BKN040 FM292200 23020G32KT P6SM BKN030 BKN050 TEMPO 3000/3002 BKN020 OVC040 FM300200 23018G28KT P6SM -SHRA BKN020 OVC030 TEMPO 3002/3006 SCT020 OVC040 FM300600 23015G25KT P6SM -SHRA OVC015 BECMG 3014/3016 26015G25KT RMK NXT FCST BY 300000Z<br><br>
<br><br>
KIAG 291853Z 24011KT 10SM SCT055 BKN065 BKN085 16/12 A2952 RMK AO2 PK WND 28040/1801 WSHFT 1754 LTG DSNT E-S RAB1756E24 TSB1756E23 SLP001 P0004 T01610122<br><br>
KIAG 291837Z 27011KT 10SM BKN050 BKN070 OVC080 16/13 A2952 RMK AO2 PK WND 28040/1801 WSHFT 1754 LTG DSNT NE AND E RAB1756E24 TSB1756E23 P0004 T01560128<br><br>
KIAG 291829Z 27010KT 10SM VCTS FEW037 BKN060 OVC075 14/12 A2953 RMK AO2 PK WND 28040/1801 WSHFT 1754 LTG DSNT N-SE RAB1756E24 TSB1756E23 P0004 T01440117<br><br>
KIAG 291820Z 27013G24KT 9SM -TSRA SCT042 SCT055 OVC075 14/12 A2953 RMK AO2 PK WND 28040/1801 WSHFT 1754 LTG DSNT N-SE RAB1756 TSB1756 P0004 T01440117<br><br>
KIAG 291811Z 27022G38KT 2SM TSRA BR BKN044 BKN065 BKN080 13/11 A2954 RMK AO2 PK WND 28040/1801 WSHFT 1754 VIS 1V4 LTG DSNT ALQDS RAB1756 TSB1756 P0004 T01330111<br><br>
KIAG 291807Z 26022G40KT 1 3/4SM R28R/5500VP6000FT TSRA SQ FEW024 BKN050 OVC075 14/11 A2954 RMK AO2 PK WND 28040/1801 VIS 3/4V5 LTG DSNT ALQDS RAB1756 TSB1756 P0003 T01390111<br><br>
KIAG 291801Z 27032G40KT 3SM R28R/5500VP6000FT -TSRA SQ FEW030 BKN045 BKN060 19/14 A2954 RMK AO2 PK WND 28040/1801 LTG DSNT ALQDS RAB1756 TSB1756 PRESRR P0001 T01890139<br><br>
KIAG 291753Z 21013KT 10SM VCTS FEW048 SCT060 BKN080 20/14 A2948 RMK AO2 PK WND 20030/1712 LTG DSNT S-NW SLP986 T02000144 10217 20089 58021<br><br>
KIAG 291734Z 2918/3018 22018G30KT 2SM TSRA OVC025CB TEMPO 2918/2919 VRB30G45KT 1SM +TSRA OVC015CB FM291900 24020G34KT P6SM VCSH BKN040 FM292100 24023G38KT P6SM BKN050 FM300200 24018G32KT P6SM BKN080 FM300800 23018G29KT P6SM -SHRA OVC030 FM301200 23018G31KT 5SM -SHRA BR OVC015<br><br>
<br><br>
KBUF 291854Z 21011KT 10SM -RA BKN047 BKN075 BKN095 16/13 A2955 RMK AO2 PK WND 22059/1804 LTG DSNT E-S RAB05E23B48 TSB00E39 SLP008 TS MOVD NE P0017 T01610128<br><br>
KBUF 291840Z 27011KT 10SM FEW011 BKN049 16/13 A2954 RMK AO2 PK WND 22059/1804 LTG DSNT ALQDS RAB05E23 TSB00E39 TS MOVD NE P0017 T01560133<br><br>
KBUF 291823Z 26014G29KT 10SM TS FEW011 SCT029 BKN044CB 15/13 A2954 RMK AO2 PK WND 22059/1804 LTG DSNT NW-NE RAB05E23 TSB00 OCNL LTGCCIC VC N-E-S TS VC N-E-S MOV NE P0017 T01500128<br><br>
KBUF 291817Z 26019G30KT 2 1/2SM R23/2000VP6000FT TSRA BR FEW025 BKN044CB BKN060 14/12 A2953 RMK AO2 PK WND 22059/1804 LTG DSNT NW-NE RAB05 TSB00 FRQ LTGCC SW-OHD-N TS SW-OHD-W MOV NE P0017 T01390122<br><br>
KBUF 291806Z 23038G59KT 3/4SM R23/1400VP6000FT TSRA SQ SCT044CB BKN080 BKN180 20/13 A2954 RMK AO2 PK WND 22059/1804 LTG DSNT SW-N RAB05 TSB00 PRESRR FRQ LTGCC VC SW-NW TS VC SW-NW MOV NE P0000 T02000133<br><br>
KBUF 291802Z 19019G27KT 10SM TS SCT040CB BKN110 BKN180 22/14 A2947 RMK AO2 PK WND 18027/1800 LTG DSNT SW-N TSB00 FRQ LTGCC VC SW-NW TS VC SW-NW MOV NE T02170139<br><br>
KBUF 291800Z 19019G27KT 10SM TS SCT040CB BKN110 BKN180 22/14 A2947 RMK AO2 PK WND 18027/1800 LTG DSNT SW-N TSB00 T02170139<br><br>
KBUF 291754Z 20020G29KT 10SM SCT035 BKN110 BKN170 BKN250 22/14 A2949 RMK AO2 PK WND 19030/1712 LTG DSNT SW-NW SLP984 CB DSNT SW-NW MOV NE 60000 T02220144 10233 20139 58027<br><br>
KBUF 291733Z 2918/3018 20018G30KT 2SM TSRA OVC025CB TEMPO 2918/2919 VRB30G45KT 1SM +TSRA OVC015CB FM291900 23018G34KT P6SM VCSH OVC025 FM292100 24023G38KT P6SM BKN045 FM300200 24018G32KT P6SM BKN040 FM300900 24020G30KT P6SM -SHRA OVC030 FM301200 24019G31KT 4SM -SHRA BR OVC015<br><br>
<br><br>
CYYZ 291800Z CCA 15006KT 080V180 10SM SCT007 BKN030 BKN120 12/11 A2951 RMK ST4SC2AC1 SLP996 DENSITY ALT 800FT<br><br>
CYYZ 291723Z 12003KT 7SM BKN005 BKN025 10/10 A2951 RMK ST6SC1 SLP997 DENSITY ALT 600FT<br><br>
TAF CYYZ 291738Z 2918/3024 10006KT WS005/22020KT P6SM SCT004 BKN020 TEMPO 2918/2919 SCT020 BKN040 BECMG 2918/2919 23015G30KT FM291900 23015G30KT P6SM SCT020 BKN040 TEMPO 2919/2920 P6SM VCTS BKN012CB BKN040 BECMG 2919/2920 23020G38KT FM292200 23018G30KT P6SM SCT025 BKN040 TEMPO 3002/3004 BKN020 OVC040 FM300400 23015G25KT P6SM -SHRA OVC015 TEMPO 3004/3006 OVC025 BECMG 3008/3010 24012G22KT FM301700 26015G25KT P6SM -SHRA OVC015 RMK NXT FCST BY 292100Z<br><br>
<br><br>
CYOO 291904Z AUTO 07004KT 040V110 7SM -RA FEW045 BKN097 OVC130 12/12 A2950 RMK PRESFR TS/LTNG TEMPO UNAVBL SLP993 DENSITY ALT 600FT<br><br>
CYOO 291857Z AUTO 09010KT 080V240 5SM -RA BR FEW045 BKN096 OVC120 11/11 A2950 RMK TS/LTNG TEMPO UNAVBL SLP994 DENSITY ALT 600FT<br><br>
CYOO 291848Z AUTO 00000KT 9SM -RA FEW019 SCT100 BKN120 11/11 A2952 RMK TS/LTNG TEMPO UNAVBL SLP000 DENSITY ALT 500FT<br><br>
CYOO 291832Z AUTO 10003KT 060V130 9SM SCT014 BKN120 BKN160 BKN240 11/11 A2951 RMK TS/LTNG TEMPO UNAVBL SLP998 DENSITY ALT 500FT<br><br>
CYOO 291800Z AUTO 09005KT 040V110 9SM SCT012 BKN018 BKN024 OVC033 10/10 A2952 RMK TS/LTNG TEMPO UNAVBL SLP000<br><br>
CYOO 291707Z AUTO 09005KT 9SM OVC012 09/09 A2953 RMK TS/LTNG TEMPO UNAVBL SLP005<br><br>
TAF CYOO 291338Z 2914/3002 09018G28KT 3SM -RA BR OVC004 TEMPO 2914/2917 6SM -RA BR SCT004 OVC008 PROB30 2915/2917 2SM +TSRA BR SCT005 OVC010CB FM291700 17012KT 5SM -SHRA BR BKN005 OVC015 TEMPO 2917/2920 P6SM NSW BKN020 BECMG 2918/2920 23018G30KT FM292000 23018G30KT P6SM BKN020 BKN040 TEMPO 2920/2924 SCT020 BKN040 FM300000 23015G25KT P6SM BKN030 TEMPO 3000/3002 BKN020 RMK FCST BASED ON AUTO OBS. NXT FCST BY 292000Z<br><br>
<br><br>
CYTR 291843Z 17004KT 15SM SCT012 OVC039 12/09 A2956 RMK SF4SC4 SLP013<br><br>
CYTR 291816Z 15005KT 15SM BKN011 OVC035 12/08 A2956 RMK SF5SC3 CIG VRB 8-14 SLP013<br><br>
CYTR 291800Z 12009KT 10SM -RA BKN011 OVC018 10/08 A2957 RMK SF6SC2 CIG VRB 8-14 SLP017<br><br>
TAF AMD CYTR 291901Z 2919/3018 17005KT P6SM SCT012 OVC040 TEMPO 2919/2921 VRB20G35KT 1SM +TSRA BR BKN005 OVC015CB FM292100 22015G25KT P6SM SCT015 OVC040 TEMPO 2921/2924 2SM -SHRA BR BKN010 OVC025 PROB30 2921/2922 VRB15G30KT 1SM +TSRA BR BKN005 OVC015CB FM300300 24015KT P6SM OVC020 FM300800 23012KT 6SM -RA BR OVC010 FM301300 23012G22KT 3SM -SHRA BR OVC008 RMK NXT FCST BY 300000Z<br><br>
<br><br>
