RETRIEVED AT : Oct 15 2017 18:10 Local <br>
  RETRIEVED AT: Oct 15 2017 22:10 UTC<br><br>
CYSN 152200Z 26018G35KT 15SM FEW035 OVC090 19/13 A2968 RMK SC2AC6 SLP051 DENSITY ALT 1200FT<br><br>
CYSN 152100Z 26021G33KT 15SM FEW036 BKN060 OVC150 20/15 A2963 RMK SC2SC3AC3 SLP036 DENSITY ALT 1300FT<br><br>
TAF CYSN 151946Z 1520/1601 22025G40KT P6SM -SHRA SCT020 BKN070 TEMPO 1520/1521 VRB35G50KT 11/2SM +SHRA BR OVC020 FM152030 27020G35KT P6SM SCT020 BKN070 FM152300 27020G30KT P6SM BKN025 RMK NXT FCST WILL BE ISSUED AT 161245Z<br><br>
<br><br>
CYHM 152200Z 29026G38KT 15SM FEW024 BKN045 BKN061 BKN110 16/10 A2971 RMK CU2SC3SC2AC1 AC TR PRESRR SLP063 DENSITY ALT 1400FT<br><br>
CYHM 152100Z 27020G30KT 15SM FEW022 FEW057 BKN073 17/13 A2966 RMK CU1SC2AC5 CU TR SLP044 DENSITY ALT 1500FT<br><br>
CYHM 152025Z 26020G28KT 15SM FEW012 FEW020 BKN060 BKN120 17/15 A2964 RMK CF1CU1SC4AC2 CF TR SLP038 DENSITY ALT 1600FT<br><br>
TAF AMD CYHM 151937Z 1519/1618 27020G35KT P6SM -SHRA SCT020 BKN040 OVC120 TEMPO 1519/1520 VRB30G45KT 11/2SM SHRA BR OVC020CB FM152000 27020G35KT P6SM BKN025 BKN120 TEMPO 1521/1523 BKN020 OVC120 FM152300 28020G30KT P6SM BKN025 BECMG 1601/1603 31015G25KT BECMG 1603/1605 31010KT FM160800 31008KT P6SM FEW030 BECMG 1614/1616 31010G20KT RMK NXT FCST BY 160000Z<br><br>
<br><br>
KIAG 152153Z 27018G28KT 10SM SCT028 SCT035 OVC060 20/13 A2969 RMK AO2 PK WND 27034/2126 PRESRR SLP050 T02000128<br><br>
KIAG 152053Z 27018G30KT 10SM FEW031 BKN048 OVC070 21/14 A2965 RMK AO2 PK WND 29045/2025 RAB26E36 SLP036 P0000 60000 T02060144 53014<br><br>
KIAG 152104Z 1521/1618 27024G40KT P6SM OVC050 FM160300 30015G25KT P6SM SCT030 FM160800 32012G19KT P6SM BKN035 FM161100 31010KT P6SM BKN035 FM161400 30010G20KT P6SM SCT035<br><br>
<br><br>
KBUF 152154Z 25018G26KT 10SM FEW024 BKN050 BKN100 19/13 A2969 RMK AO2 PK WND 25033/2125 RAE03 SLP052 P0000 T01890128 $<br><br>
KBUF 152054Z 26019G27KT 10SM -RA SCT021 BKN050 OVC100 20/17 A2965 RMK AO2 PK WND 24037/1956 SLP036 P0015 60015 T02000172 53005<br><br>
KBUF 152104Z 1521/1618 27026G42KT P6SM VCSH OVC050 FM160300 29015G24KT P6SM BKN030 FM161100 31010KT P6SM BKN030 FM161400 30010G18KT P6SM SCT035<br><br>
<br><br>
CYYZ 152200Z 29029G36KT 15SM FEW030 SCT050 BKN260 15/10 A2968 RMK CU2SC2CI3 PRESRR SLP052 DENSITY ALT 1000FT<br><br>
CYYZ 152100Z 27029G36KT 15SM FEW030 FEW040 BKN100 BKN180 18/13 A2960 RMK SF2SC1AC4AC1 SC TR SLP024 DENSITY ALT 1500FT<br><br>
TAF AMD CYYZ 152143Z 1521/1624 30025G40KT P6SM SCT025 BKN100 TEMPO 1521/1523 BKN025 OVC100 FM152300 30022G32KT P6SM BKN025 BECMG 1600/1602 32018G28KT BECMG 1603/1605 34010G20KT FM160600 34012KT P6SM BKN020 TEMPO 1608/1614 P6SM -SHRA FM161500 33010G20KT P6SM BKN020 FM161700 33012G22KT P6SM BKN030 FM162100 32012G22KT P6SM FEW040 BECMG 1622/1624 32010KT RMK NXT FCST BY 160000Z<br><br>
<br><br>
CYOO 152200Z AUTO 27020G34KT 9SM FEW041 BKN100 OVC120 19/13 A2961 RMK PRESRR SLP027 DENSITY ALT 1300FT<br><br>
CYOO 152100Z AUTO 25014G21KT 9SM BKN085 BKN110 OVC170 19/14 A2955 RMK SLP008 DENSITY ALT 1400FT<br><br>
CYOO 152027Z AUTO 26013G20KT 9SM FEW075 BKN091 OVC110 19/16 A2955 RMK SLP007 DENSITY ALT 1300FT<br><br>
CYOO has no TAF <br><br>
<br><br>
CYTR 152200Z 23011G18KT 15SM BKN063 BKN097 19/16 A2955 RMK SC6AC2 CU TOPS N SLP006<br><br>
CYTR 152140Z 23011G18KT 15SM FEW019 BKN052 19/16 A2954 RMK SC2SC6 SLP002<br><br>
CYTR 152121Z 25016G21KT 15SM BKN019 20/16 A2953 RMK SC7 PRESRR SLP002<br><br>
CYTR 152100Z 25021G41KT 10SM -SHRA FEW010 BKN022 BKN040 OVC085 20/18 A2951 RMK SF1SC4SC2AC2 SLP995<br><br>
CYTR 152052Z 23023G30KT 7SM SHRA SCT006 BKN024 OVC038 21/18 A2951 RMK SF3SC4SC1 SLP995<br><br>
CYTR 152046Z CCB 22016G25KT 2SM +SHRA FEW010 BKN029 BKN060 OVC090 22/17 A2949 RMK SF1SC5SC2AC1 SLP987<br><br>
TAF AMD CYTR 152132Z 1521/1618 26020G35KT P6SM SCT015 BKN030 TEMPO 1521/1524 BKN015 OVC030 BECMG 1602/1604 28015G25KT FM160800 32012KT P6SM BKN030 RMK NXT FCST BY 160000Z<br><br>
<br><br>
