RETRIEVED AT : Feb 24 2020 01:05 Local <br>
  RETRIEVED AT: Feb 24 2020 06:05 UTC<br><br>
CYSN has no TAF <br><br>
<br><br>
CYHM 240500Z 23012G19KT 15SM SKC 04/M03 A2989 RMK SLP130<br><br>
TAF CYHM 240538Z 2406/2506 22010G20KT P6SM SKC BECMG 2406/2408 22010KT FM241100 23008KT P6SM SCT015 FM242300 VRB03KT P6SM SCT030 OVC130 RMK NXT FCST BY 241200Z<br><br>
<br><br>
KIAG 240553Z AUTO 23016G26KT 10SM CLR 06/M05 A2990 RMK AO2 PK WND 23026/0549 SLP134 T00561050 10056 20028 56012<br><br>
KIAG 240453Z AUTO 22013KT 10SM CLR 04/M05 A2990 RMK AO2 SLP135 T00441050 400830000<br><br>
KIAG 240537Z 2406/2506 22015KT P6SM SKC WS020/24045KT FM241100 22015KT P6SM SKC FM241400 22011G18KT P6SM SCT250 FM242000 25006KT P6SM BKN090 FM250300 05005KT P6SM OVC040<br><br>
<br><br>
KBUF 240554Z 23013G21KT 10SM CLR 07/M07 A2991 RMK AO2 SLP133 T00671067 10067 20028 58011<br><br>
KBUF 240454Z 21009KT 10SM CLR 04/M07 A2992 RMK AO2 SLP137 T00391067 400831011<br><br>
KBUF 240537Z 2406/2506 21012KT P6SM SKC WS020/24040KT FM241100 22014KT P6SM FEW250 FM241400 22012G18KT P6SM FEW250 FM242000 25007KT P6SM BKN090 FM250200 05004KT P6SM OVC040<br><br>
<br><br>
CYYZ 240500Z 23010KT 15SM SKC 04/M03 A2986 RMK SLP119<br><br>
TAF CYYZ 240538Z 2406/2512 21010G20KT P6SM SKC BECMG 2406/2408 23010KT FM241000 23008KT P6SM SCT020 FM241800 27008KT P6SM FEW030 BECMG 2421/2423 VRB03KT FM250000 02007KT P6SM FEW030 BKN150 FM251000 03010KT P6SM BKN030 OVC090 RMK NXT FCST BY 240900Z<br><br>
<br><br>
CYOO 240500Z AUTO 20006KT 9SM CLR 03/M02 A2987 RMK SLP120<br><br>
TAF CYOO 240138Z 2402/2414 22007KT P6SM SKC BECMG 2408/2410 25005KT RMK FCST BASED ON AUTO OBS. NXT FCST BY 240800Z<br><br>
<br><br>
CYTR 240500Z 27002KT 15SM SKC 01/M03 A2989 RMK SLP124<br><br>
TAF CYTR 240530Z 2406/2506 VRB03KT P6SM SKC FM241200 25010KT P6SM SCT020 TEMPO 2412/2415 BKN020 BECMG 2415/2417 24010G20KT FM241800 24010KT P6SM FEW030 BKN210 BECMG 2500/2502 VRB03KT RMK NXT FCST BY 241200Z<br><br>
<br><br>
