RETRIEVED AT : Jun 27 2020 23:05 Local <br>
  RETRIEVED AT: Jun 28 2020 03:05 UTC<br><br>
CYSN has no TAF <br><br>
<br><br>
CYHM 280200Z 26006KT 15SM FEW030TCU BKN070 23/20 A2972 RMK TCU2AC3 SLP062 DENSITY ALT 2100FT<br><br>
TAF CYHM 272339Z 2800/2824 25008KT P6SM FEW025 SCT080 FM280800 26006KT P6SM SCT070 FM281100 30006KT P6SM SKC FM281700 05006KT P6SM BKN040 BECMG 2820/2822 12008KT RMK NXT FCST BY 280600Z<br><br>
<br><br>
KIAG 280253Z 23008KT 10SM SCT095 21/19 A2972 RMK AO2 SLP061 T02060189 53004<br><br>
KIAG 280153Z 23007KT 10SM FEW080 21/18 A2971 RMK AO2 SLP056 T02110183<br><br>
KIAG 280257Z 2803/2824 23007KT P6SM VCSH SCT050 BKN200 TEMPO 2804/2806 6SM -SHRA OVC040 FM280700 23004KT P6SM BKN050 FM281000 28005KT P6SM BKN040 FM281500 31007KT P6SM SCT050 SCT250<br><br>
<br><br>
KBUF 280254Z 21009KT 10SM SCT050 BKN090 19/19 A2974 RMK AO2 SLP069 T01940189 53004<br><br>
KBUF 280154Z 22010KT 10SM SCT080 20/19 A2974 RMK AO2 SLP067 T02000189<br><br>
KBUF 280257Z 2803/2824 23008KT P6SM VCSH SCT050 BKN200 TEMPO 2805/2807 6SM -SHRA OVC040 FM280800 26004KT P6SM BKN012 FM281300 26008KT P6SM BKN040<br><br>
<br><br>
CYYZ 280236Z 32014G24KT 12SM -SHRA FEW040 OVC060 21/19 A2971 RMK CF1SC8 CF TR CVCTV CLD EMBD SLP060 DENSITY ALT 1700FT<br><br>
CYYZ 280232Z 31018G24KT 12SM SHRA BKN060 22/19 A2971 RMK SC7 CVCTV CLD EMBD PRESRR SLP060 DENSITY ALT 1800FT<br><br>
CYYZ 280226Z 32019KT 15SM OVC060 24/18 A2971 RMK SC8 WSHFT 0216 PRESRR SLP058 DENSITY ALT 2100FT<br><br>
CYYZ 280200Z 26009KT 15SM FEW030CB BKN085 BKN220 25/18 A2969 RMK CB1AC4CS2 OCNL LTGIC W SLP054 DENSITY ALT 2200FT<br><br>
TAF CYYZ 280239Z 2803/2906 30012KT P6SM FEW040 BKN080 TEMPO 2803/2804 30015G25KT P6SM -SHRA VCTS SCT030CB BKN060 FM280400 32006KT P6SM FEW070 BECMG 2808/2810 34010KT BECMG 2810/2812 01010KT FM281700 02010KT P6SM BKN050 FM282300 02010KT P6SM SCT050 RMK NXT FCST BY 280600Z<br><br>
<br><br>
CYOO 280249Z AUTO 22007KT 150V240 3SM RA BR SCT017 SCT024 BKN035 OVC060 20/20 A2972 RMK SLP063 DENSITY ALT 1400FT<br><br>
CYOO 280246Z AUTO 22008KT 150V240 2SM RA BR FEW017 SCT027 BKN037 OVC060 21/20 A2972 RMK VIS VRB 1 1/4-3 SLP065 DENSITY ALT 1400FT<br><br>
CYOO 280238Z AUTO 21007G15KT 200V280 2 1/4SM +RA BR FEW017 SCT023 BKN034 OVC075 20/20 A2971 RMK PRESRR SLP063 DENSITY ALT 1400FT<br><br>
CYOO 280235Z AUTO 23009G15KT 210V310 3SM +RA BR SCT020 BKN034 BKN048 OVC075 21/19 A2971 RMK PRESRR SLP063 DENSITY ALT 1400FT<br><br>
CYOO 280234Z AUTO 24010G15KT 230V330 3SM +RA BR BKN022 BKN037 BKN048 OVC075 21/19 A2972 RMK PRESRR SLP063 DENSITY ALT 1400FT<br><br>
CYOO 280231Z AUTO 27010G15KT 260V010 4SM +RA BR SCT022 BKN034 BKN048 OVC075 21/19 A2972 RMK PRESRR SLP063 DENSITY ALT 1400FT<br><br>
CYOO 280229Z AUTO 27009KT 260V030 5SM RA BR SCT029 BKN048 OVC075 21/18 A2971 RMK PRESRR SLP062 DENSITY ALT 1400FT<br><br>
CYOO 280224Z AUTO VRB02KT 5SM +RA SCT038 BKN048 BKN075 OVC100 21/18 A2970 RMK SLP056 DENSITY ALT 1400FT<br><br>
CYOO 280222Z AUTO VRB04KT 6SM +RA FEW040 SCT048 BKN075 OVC110 21/18 A2969 RMK SLP055 DENSITY ALT 1500FT<br><br>
CYOO 280214Z AUTO VRB02KT 9SM -RA FEW048 BKN075 OVC100 22/17 A2969 RMK SLP053 DENSITY ALT 1600FT<br><br>
CYOO 280200Z AUTO 13003KT 070V170 9SM FEW075 BKN100 BKN140 BKN170 22/17 A2968 RMK LTNG DIST W SLP050 DENSITY ALT 1600FT<br><br>
TAF AMD CYOO 280229Z 2802/2814 35005KT P6SM FEW040 SCT100 TEMPO 2802/2804 VRB15G25KT 21/2SM +SHRA VCTS SCT020CB BKN040 OVC090 FM280500 VRB03KT P6SM SKC TEMPO 2807/2812 5SM BR PROB30 2808/2812 1/2SM FG FEW002 FM281200 34007KT P6SM SKC RMK FCST BASED ON AUTO OBS. NXT FCST BY 280800Z<br><br>
<br><br>
CYTR 280200Z 16002KT 15SM FEW050 FEW095 BKN250 21/20 A2968 RMK SC2AC1CI4 SLP050<br><br>
TAF CYTR 272330Z 2800/2824 25010G20KT P6SM SCT050 BKN250 BECMG 2800/2802 23005KT FM280800 VRB03KT P6SM SCT020 BKN050 PROB30 2808/2812 1SM BR OVC005 FM281600 VRB03KT P6SM -SHRA BKN050 RMK NXT FCST BY 280600Z<br><br>
<br><br>
