RETRIEVED AT : Mar 27 2020 20:05 Local <br>
  RETRIEVED AT: Mar 28 2020 00:05 UTC<br><br>
CYSN 272300Z 06006KT 15SM FEW250 06/01 A3003 RMK CI2 SLP173<br><br>
TAF CYSN 271939Z 2720/2801 01008KT P6SM FEW030 BECMG 2723/2724 07005KT RMK NXT FCST WILL BE ISSUED AT 281245Z<br><br>
<br><br>
CYHM 272300Z 06009KT 15SM FEW180 06/01 A3001 RMK AC1 SLP170<br><br>
TAF CYHM 272338Z 2800/2824 06010KT P6SM FEW180 FM280500 04012KT P6SM BKN150 FM281200 05015KT 5SM -SHRA BR OVC020 FM281400 05015KT 11/2SM -RA BR OVC006 FM281900 05015G25KT 1/2SM -DZ FG VV002 RMK NXT FCST BY 280600Z<br><br>
<br><br>
KIAG 272353Z 05005KT 10SM CLR 05/00 A3002 RMK AO2 SLP177 T00500000 10100 20050 50009<br><br>
KIAG 272253Z 03006KT 10SM CLR 08/01 A3002 RMK AO2 SLP175 T00780006<br><br>
KIAG 272338Z 2800/2824 05004KT P6SM FEW250 FM280900 09005KT P6SM OVC120 FM281500 10008KT 6SM -SHRA OVC040 FM281700 11010KT 6SM -RA OVC020 FM282100 11010G16KT P6SM OVC015<br><br>
<br><br>
KBUF 272354Z 04008KT 10SM FEW220 FEW280 08/02 A3002 RMK AO2 SLP170 T00780017 10128 20078 51016<br><br>
KBUF 272254Z 04010KT 10SM FEW240 FEW280 10/02 A3001 RMK AO2 SLP168 T01000022<br><br>
KBUF 272338Z 2800/2824 04006KT P6SM FEW250 FM280700 09005KT P6SM OVC120 FM281400 12007KT P6SM -SHRA OVC035 FM281600 12008KT 6SM -RA OVC025 FM281900 12009KT 6SM -RA OVC015<br><br>
<br><br>
CYYZ 272300Z 15012G17KT 15SM FEW260 06/M00 A3002 RMK CI1 SLP173<br><br>
TAF CYYZ 272338Z 2800/2906 14008KT P6SM FEW260 FM280500 06008KT P6SM BKN150 FM281400 08012G22KT 5SM -SHRA BR BKN020 OVC060 FM281600 08012G22KT 3SM -RA BR OVC015 FM282000 08015G25KT 2SM -DZ BR BKN008 OVC012 FM290500 09015KT 11/2SM -RA BR OVC004 RMK NXT FCST BY 280300Z<br><br>
<br><br>
CYOO 272300Z AUTO 19005KT 140V210 9SM CLR 07/02 A3003 RMK SLP175<br><br>
TAF CYOO 271939Z 2720/2808 18008KT P6SM FEW030 BECMG 2723/2724 VRB03KT FM280500 05010KT P6SM BKN150 RMK FCST BASED ON AUTO OBS. NXT FCST BY 280200Z<br><br>
<br><br>
CYTR 272300Z 21004KT 15SM SKC 04/01 A3004 RMK SLP177<br><br>
TAF CYTR 272330Z 2800/2824 VRB03KT P6SM SKC FM280800 VRB03KT P6SM SCT140 PROB30 2808/2812 2SM BR FM281500 09010KT P6SM SCT050 BKN100 FM282100 08008KT P6SM BKN025 BKN050 RMK NXT FCST BY 280600Z<br><br>
<br><br>
