RETRIEVED AT : Mar 13 2020 07:05 Local <br>
  RETRIEVED AT: Mar 13 2020 11:05 UTC<br><br>
CYSN has no TAF <br><br>
<br><br>
CYHM 131042Z 26013G20KT 15SM SCT013 OVC024 10/08 A2953 RMK SC6NS2 SLP007 DENSITY ALT 800FT<br><br>
CYHM 131000Z 24017G24KT 8SM -RA BKN009 OVC015 11/10 A2951 RMK SC7SC1 SLP999 DENSITY ALT 900FT<br><br>
TAF AMD CYHM 130808Z 1308/1406 20010G20KT 6SM -RA BR SCT005 OVC012 TEMPO 1308/1312 2SM RA BR OVC005 BECMG 1310/1312 27022G32KT FM131200 27022G32KT P6SM BKN020 OVC030 FM131800 27022G35KT P6SM BKN030 BECMG 1322/1324 27015G25KT RMK NXT FCST BY 131200Z<br><br>
<br><br>
KIAG 131053Z 23017G27KT 10SM -RA OVC007 11/09 A2953 RMK AO2 PK WND 23028/1037 CIG 006V011 SLP004 P0011 T01060094<br><br>
KIAG 131030Z AUTO 23015G22KT 3SM RA BR BKN008 OVC017 11/09 A2952 RMK AO2 CIG 006V012 P0009 T01060094<br><br>
KIAG 131020Z AUTO 23011G21KT 3SM RA BR SCT008 BKN013 OVC019 11/09 A2952 RMK AO2 P0006 T01060094<br><br>
KIAG 130953Z AUTO 20015G21KT 7SM -RA OVC023 11/09 A2951 RMK AO2 SLP998 P0004 T01060089<br><br>
KIAG 130837Z 1309/1406 19016G24KT 5SM RA OVC025 WS020/19050KT FM131030 23020G30KT 4SM -SHRA BR OVC008 FM131200 26018G26KT P6SM BKN025 FM131700 26025G35KT P6SM SCT040 FM140000 26016G24KT P6SM SCT040<br><br>
<br><br>
KBUF 131054Z 21018G24KT 5SM RA BR SCT009 BKN013 OVC020 12/10 A2954 RMK AO2 PK WND 20026/1004 SLP003 P0008 T01170100<br><br>
KBUF 131041Z 20017G23KT 4SM +RA BR SCT008 SCT013 OVC021 12/10 A2953 RMK AO2 PK WND 20026/1004 P0005 T01170100<br><br>
KBUF 130954Z 20016G24KT 10SM -RA BKN028 OVC034 12/09 A2953 RMK AO2 SLP001 P0005 T01220089<br><br>
KBUF 130837Z 1309/1406 18016G24KT 5SM RA OVC025 WS020/19050KT FM131100 25020G30KT 1SM -SHRA BR OVC008 FM131300 25018G26KT P6SM BKN015 FM131700 25025G35KT P6SM BKN040 FM140000 25018G26KT P6SM SCT040<br><br>
<br><br>
CYYZ 131047Z 25007KT 10SM SCT014 BKN022 BKN075 08/08 A2950 RMK SF3SC3AC1 SLP995<br><br>
CYYZ 131008Z 20010KT 6SM -RA BR SCT006 OVC013 07/06 A2949 RMK SF3SC5 SLP992<br><br>
CYYZ 131000Z 18010KT 6SM -RA BR BKN003 OVC010 07/06 A2948 RMK SF5ST3 SLP989<br><br>
CYYZ 130943Z 17009KT 6SM -RA BR OVC003 06/06 A2948 RMK ST8 SLP987<br><br>
CYYZ 130936Z 18011KT 8SM -RA OVC004 06/06 A2949 RMK ST8 SLP990<br><br>
TAF AMD CYYZ 131046Z 1310/1412 20010KT 6SM -RA BR SCT006 OVC012 TEMPO 1310/1311 4SM -RA BR BKN006 OVC012 BECMG 1310/1311 27020G30KT FM131100 27020G30KT P6SM -SHRA BKN008 OVC020 TEMPO 1311/1312 P6SM NSW SCT008 OVC020 BECMG 1311/1312 28025G38KT FM131200 28025G38KT P6SM OVC020 FM131500 27025G35KT P6SM BKN025 BECMG 1322/1324 28020G30KT FM140600 29012G22KT P6SM SCT025 RMK NXT FCST BY 131200Z<br><br>
<br><br>
CYOO 131055Z AUTO 24010G15KT 2SM BR OVC003 08/08 A2949 RMK SLP990<br><br>
CYOO 131000Z AUTO 17004KT 1 1/2SM RA BR OVC005 07/07 A2947 RMK SLP986<br><br>
TAF CYOO 130738Z 1308/1320 14006KT P6SM SCT007 OVC040 TEMPO 1308/1309 5SM -SHRA BR BKN007 OVC040 FM130900 17012KT 2SM -RA BR OVC006 TEMPO 1309/1312 6SM -RA BR SCT006 OVC012 PROB40 1309/1312 1/2SM -RA FG VV002 FM131200 25018G28KT P6SM SCT007 OVC015 TEMPO 1312/1314 5SM -SHRA BR BKN007 OVC015 FM131400 27020G30KT P6SM SCT020 BKN030 FM131800 27020G30KT P6SM BKN040 RMK FCST BASED ON AUTO OBS. NXT FCST BY 131400Z<br><br>
<br><br>
CYTR 131000Z 16008KT 5SM -RA SCT008 OVC020 07/06 A2952 RMK SF3SC5 SLP999<br><br>
CYTR 130920Z 16008G15KT 6SM RA SCT013 OVC040 07/06 A2956 RMK SC3SC5 SLP012<br><br>
TAF CYTR 130530Z 1306/1406 VRB03KT P6SM SCT020 OVC060 TEMPO 1306/1311 5SM SHRA BR SCT006 BKN020 OVC060 BECMG 1306/1308 13012KT FM131100 17012KT 2SM SHRA BR BKN006 OVC012 TEMPO 1311/1313 4SM -SHRA BR SCT006 OVC012 FM131300 27015G25KT P6SM BKN012 FM131500 26020G35KT P6SM BKN020 FM132200 25020G35KT P6SM BKN030 RMK NXT FCST BY 131200Z<br><br>
<br><br>
