RETRIEVED AT : Jun 03 2018 07:05 Local <br>
  RETRIEVED AT: Jun 03 2018 11:05 UTC<br><br>
CYSN has no TAF <br><br>
<br><br>
CYHM 031000Z 06007KT 15SM BKN017 BKN030 14/12 A2986 RMK SC5SC2 SLP111 DENSITY ALT 900FT<br><br>
TAF AMD CYHM 031004Z 0310/0406 07008KT P6SM BKN020 BKN200 TEMPO 0310/0318 BKN025 BKN200 FM031800 07010KT P6SM -SHRA OVC020 TEMPO 0319/0321 3SM -SHRA BR BKN006 OVC012 FM032100 07008KT 3SM -SHRA BR BKN006 OVC012 TEMPO 0321/0402 6SM -SHRA BR SCT008 OVC015 FM040200 23010G20KT P6SM OVC012 FM040500 24012KT P6SM BKN015 RMK NXT FCST BY 031200Z<br><br>
<br><br>
KIAG 030902Z 0309/0406 00000KT P6SM OVC030 FM031300 12004KT P6SM BKN035 FM031900 16013G19KT P6SM VCSH OVC035 FM032300 17009KT 5SM -SHRA OVC025 FM040200 18013G22KT 6SM -SHRA OVC020<br><br>
<br><br>
KBUF 031054Z 10006KT 10SM BKN037 BKN050 16/13 A2988 RMK AO2 SLP115 T01560133<br><br>
KBUF 030954Z 05003KT 10SM FEW027 BKN042 16/13 A2988 RMK AO2 SLP118 T01560133<br><br>
KBUF 030932Z 02003KT 10SM SCT026 OVC041 15/13 A2988 RMK AO2 T01500133<br><br>
KBUF 030902Z 0309/0406 36004KT P6SM SCT028 OVC040 FM031100 16011G22KT P6SM BKN035 FM031800 15013G22KT P6SM VCSH OVC035 FM032100 16014KT 6SM -SHRA BKN030 FM040100 18014G24KT 6SM -SHRA OVC015<br><br>
<br><br>
CYYZ 031025Z 10007KT 15SM FEW040 FEW230 16/09 A2987 RMK SC1CI1 SLP115 DENSITY ALT 1000FT<br><br>
CYYZ 031000Z 11003KT 070V140 15SM BKN037 16/12 A2987 RMK SC7 SLP118 DENSITY ALT 900FT<br><br>
TAF CYYZ 030838Z 0309/0412 05005KT P6SM FEW040 FM031400 08010KT P6SM BKN025 BKN180 FM031900 09010KT P6SM OVC020 TEMPO 0319/0321 5SM -SHRA BR BKN008 OVC012 FM032100 10010KT 3SM -SHRA BR BKN008 OVC012 BECMG 0400/0402 20010KT FM040300 25010G20KT P6SM OVC015 FM040600 26010KT P6SM BKN015 BECMG 0410/0412 27012G22KT RMK NXT FCST BY 031200Z<br><br>
<br><br>
CYOO 031000Z AUTO 09009KT 9SM OVC043 16/07 A2988 RMK SLP119 DENSITY ALT 700FT<br><br>
CYOO has no TAF <br><br>
<br><br>
CYTR 031000Z 05004KT 15SM BKN050 15/09 A2993 RMK SC7 SLP135<br><br>
TAF CYTR 030533Z 0306/0406 04005KT P6SM FEW040 FM030900 07010KT P6SM SCT040 FM031200 09012KT P6SM SCT030 BKN060 FM031500 12012G22KT P6SM -SHRA SCT015 OVC025 TEMPO 0315/0319 5SM -SHRA BR BKN015 OVC025 BECMG 0316/0318 14018G28KT FM031900 14018G28KT 4SM -RA BR OVC015 TEMPO 0319/0404 2SM SHRA BR OVC008 FM040400 16015G25KT 5SM -DZ BR OVC020 RMK NXT FCST BY 031200Z<br><br>
<br><br>
