RETRIEVED AT : Nov 05 2017 22:10 Local <br>
  RETRIEVED AT: Nov 06 2017 03:10 UTC<br><br>
CYSN 060200Z 21014G21KT 15SM -RA SCT019 BKN045 OVC086 16/14 A2972 RMK SC3SC2AC3 LAST STFD OBS/NEXT 061200UTC PRESRR SLP066 DENSITY ALT 800FT<br><br>
CYSN has no TAF <br><br>
<br><br>
CYHM 060300Z 21008KT 3SM -DZ BR BKN004 OVC012 14/14 A2973 RMK SF5ST3 SLP069 DENSITY ALT 1200FT<br><br>
CYHM 060253Z 21010KT 3SM -DZ BR BKN004 OVC012 15/14 A2973 RMK SF5ST3 SLP069 DENSITY ALT 1200FT<br><br>
CYHM 060235Z 22008KT 3SM -RA BR BKN008 OVC013 14/14 A2973 RMK SF5SC3 SLP069 DENSITY ALT 1200FT<br><br>
CYHM 060222Z 23008KT 3SM RA BR BKN007 OVC012 15/14 A2973 RMK SC5SC3 SLP070 DENSITY ALT 1200FT<br><br>
CYHM 060212Z 22009KT 3SM -RA BR SCT007 OVC020 15/14 A2972 RMK SF3SC5 SLP066 DENSITY ALT 1200FT<br><br>
CYHM 060207Z 23008KT 4SM -RA BR SCT013 OVC020 15/14 A2972 RMK SC3SC5 SLP067 DENSITY ALT 1200FT<br><br>
CYHM 060200Z 23008KT 4SM RA BR SCT015 OVC024 15/14 A2972 RMK SC3SC5 SLP066 DENSITY ALT 1200FT<br><br>
CYHM 060154Z 22009KT 12SM -RA SCT022 OVC035 15/14 A2971 RMK SC4SC4 SLP065 DENSITY ALT 1200FT<br><br>
TAF CYHM 052339Z 0600/0624 18015G25KT P6SM FEW004 BKN060 OVC100 TEMPO 0600/0603 5SM -SHRA BR BKN004 OVC020 BECMG 0600/0602 23012KT FM060300 25010KT 4SM -DZ BR OVC006 TEMPO 0603/0610 6SM BR SCT006 OVC010 BECMG 0603/0605 30010KT FM061000 31007KT P6SM FEW008 BKN015 FM061200 31009KT P6SM SCT020 FM061500 31009G19KT P6SM FEW025 FM062100 34009KT P6SM FEW140 RMK NXT FCST BY 060600Z<br><br>
<br><br>
KIAG 060253Z 20012KT 10SM SCT070 BKN100 16/13 A2974 RMK AO2 RAE25 SLP070 P0001 60007 T01610133 53005<br><br>
KIAG 060239Z 20014KT 10SM SCT013 BKN110 16/13 A2973 RMK AO2 RAE25 P0001 T01610133<br><br>
KIAG 060153Z 22006KT 10SM -RA BKN013 BKN041 OVC095 17/14 A2972 RMK AO2 LTG DSNT E RAB0059 SLP067 P0006 T01670139<br><br>
KIAG 060146Z 24006KT 9SM -RA BKN013 BKN041 OVC095 17/14 A2972 RMK AO2 LTG DSNT E AND SE RAB0059 P0006 T01670139<br><br>
KIAG 060306Z 0603/0624 20015KT 6SM -SHRA OVC035 FM060600 29010KT P6SM OVC012 FM062000 33011KT P6SM FEW025 BKN250<br><br>
<br><br>
KBUF 060254Z 19012KT 10SM BKN048 OVC060 15/13 A2976 RMK AO2 RAE50 SLP078 P0006 60058 T01500133 55002 $<br><br>
KBUF 060154Z 16014KT 5SM +RA BKN060 BKN080 OVC100 15/14 A2972 RMK AO2 LTG DSNT E TSE05B22E47 SLP065 OCNL LTGCC DSNT E CB DSNT E MOV E TS MOVD E P0029 T01500139 $<br><br>
KBUF 060147Z 16015G24KT 4SM +RA BKN060 BKN080 OVC100 15/14 A2972 RMK AO2 LTG DSNT E AND SE TSE05B22E47 PRESFR OCNL LTGCC DSNT E CB DSNT E MOV E TS MOVD E P0025 T01500144 $<br><br>
KBUF 060124Z 18014KT 5SM +TSRA SCT060CB BKN080 OVC100 15/14 A2976 RMK AO2 LTG DSNT SE-SW TSE05B22 OCNL LTGCC N TS N MOV E P0013 T01500139 $<br><br>
KBUF 060111Z 18014KT 5SM RA SCT025 BKN035 OVC075 15/14 A2976 RMK AO2 LTG DSNT NE-S TSE05 OCNL LTGIC DSNT E CB DSNT E MOV E TS MOVD E P0008 T01500139 $<br><br>
KBUF 060306Z 0603/0624 20011KT 6SM -SHRA BKN035 FM060600 30012KT P6SM OVC015 FM062100 33010KT P6SM FEW025 BKN250<br><br>
<br><br>
CYYZ 060300Z 19007KT 15SM SCT016 OVC038 15/14 A2970 RMK SC4SC4 SLP062 DENSITY ALT 1000FT<br><br>
CYYZ 060246Z 19006KT 15SM SCT029 BKN045 OVC095 15/14 A2970 RMK SC4SC2AC2 SLP061 DENSITY ALT 1000FT<br><br>
CYYZ 060200Z 17006KT 15SM -RA SCT020 BKN044 OVC095 14/14 A2969 RMK SC3SC3AC2 SLP057 DENSITY ALT 900FT<br><br>
TAF CYYZ 060238Z 0603/0706 19007KT 5SM -DZ BR BKN020 OVC040 TEMPO 0603/0605 P6SM -RA SCT020 BKN040 FM060500 31010KT P6SM BKN020 TEMPO 0605/0618 SCT025 FM061800 33010G20KT P6SM FEW030 FEW260 BECMG 0619/0621 36010KT BECMG 0701/0703 34009KT RMK NXT FCST BY 060600Z<br><br>
<br><br>
CYOO 060303Z AUTO 20003KT 6SM BR FEW004 BKN008 BKN012 OVC100 13/12 A2970 RMK SLP061 DENSITY ALT 500FT<br><br>
CYOO 060300Z AUTO 20003KT 160V220 6SM BR SCT004 BKN010 OVC100 13/12 A2970 RMK SLP060 DENSITY ALT 500FT<br><br>
CYOO 060249Z AUTO VRB02KT 7SM SCT004 BKN010 OVC100 13/12 A2970 RMK SLP059 DENSITY ALT 500FT<br><br>
CYOO 060247Z AUTO VRB02KT 7SM -RA SCT004 BKN010 OVC100 13/12 A2970 RMK SLP059 DENSITY ALT 500FT<br><br>
CYOO 060244Z AUTO VRB02KT 6SM -RA BR SCT004 SCT010 OVC100 13/12 A2970 RMK SLP061 DENSITY ALT 500FT<br><br>
CYOO 060241Z AUTO VRB02KT 6SM -RA BR BKN004 OVC100 13/12 A2970 RMK SLP061 DENSITY ALT 500FT<br><br>
CYOO 060233Z AUTO 14003KT 4SM -RA BR BKN004 OVC110 13/12 A2970 RMK SLP059 DENSITY ALT 500FT<br><br>
CYOO 060228Z AUTO 13002KT 4SM -RA BR SCT004 OVC100 13/12 A2970 RMK SLP059 DENSITY ALT 500FT<br><br>
CYOO 060227Z AUTO 13003KT 4SM BR SCT004 OVC100 13/12 A2970 RMK SLP059 DENSITY ALT 500FT<br><br>
CYOO 060216Z AUTO VRB02KT 5SM BR BKN004 OVC110 13/12 A2970 RMK SLP060 DENSITY ALT 500FT<br><br>
CYOO 060200Z AUTO VRB02KT 9SM OVC004 13/12 A2970 RMK SLP059 DENSITY ALT 600FT<br><br>
CYOO has no TAF <br><br>
<br><br>
CYTR 060300Z 18008KT 15SM BKN008 OVC020 14/13 A2972 RMK SF5SC3 SLP067<br><br>
CYTR 060227Z 19011G16KT 15SM SCT009 OVC020 14/13 A2973 RMK SF4SC4 SLP068<br><br>
CYTR 060200Z 19010KT 8SM -DZ OVC009 14/13 A2974 RMK SF8 SLP073<br><br>
CYTR 060138Z 18013KT 15SM BKN006 OVC072 14/13 A2974 RMK SF5AC3 SLP072<br><br>
TAF CYTR 052330Z 0600/0624 18010KT P6SM -SHRA SCT005 OVC025 TEMPO 0600/0604 2SM +SHRA BR OVC005 PROB30 0600/0603 VRB20G35KT 3/4SM +TSRA BR BKN003 OVC030CB FM060400 20010KT 1SM -RA -DZ BR BKN004 OVC010 BECMG 0604/0606 25010KT FM060800 29010G20KT P6SM SCT012 BKN030 TEMPO 0608/0613 BKN012 OVC030 FM061500 29010G20KT P6SM SCT030 BECMG 0620/0622 30008KT RMK NXT FCST BY 060600Z<br><br>
<br><br>
