RETRIEVED AT : Oct 14 2018 05:18 Local <br>
  RETRIEVED AT: Oct 14 2018 09:18 UTC<br><br>
CYSN has no TAF <br><br>
<br><br>
CYHM 140900Z 17003KT 15SM BKN036 BKN100 03/01 A3009 RMK SC5AC1 SLP197<br><br>
CYHM 140800Z 17004KT 15SM SCT100 BKN180 02/01 A3009 RMK AC3AC2 SLP198<br><br>
TAF CYHM 140542Z 1406/1506 VRB03KT P6SM SCT240 FM141000 VRB03KT P6SM BKN030 BECMG 1414/1416 21010KT FM142200 19010KT P6SM SCT040 BECMG 1501/1503 VRB03KT RMK NXT FCST BY 141200Z<br><br>
<br><br>
KIAG 140853Z AUTO 00000KT 10SM BKN034 OVC045 04/03 A3011 RMK AO2 SLP205 T00440028 53006<br><br>
KIAG 140753Z AUTO 12003KT 9SM OVC041 04/02 A3010 RMK AO2 SLP203 T00390022<br><br>
KIAG 140904Z 1409/1506 00000KT P6SM BKN035 FM141800 23008KT P6SM SCT110 FM150000 20004KT P6SM FEW250 FM150300 16004KT P6SM FEW250<br><br>
<br><br>
KBUF 140854Z 18006KT 10SM BKN037 07/04 A3012 RMK AO2 SLP204 T00670044 52008<br><br>
KBUF 140754Z 17004KT 10SM BKN037 07/03 A3011 RMK AO2 SLP199 T00670028<br><br>
KBUF 140904Z 1409/1506 18006KT P6SM BKN035 FM141700 23007KT P6SM SCT110 FM142300 VRB03KT P6SM FEW250 FM150300 16004KT P6SM FEW250<br><br>
<br><br>
CYYZ 140900Z 00000KT 15SM SCT100 BKN190 04/M00 A3009 RMK AC3AC3 SLP194<br><br>
CYYZ 140800Z 00000KT 15SM BKN180 04/M00 A3009 RMK AC5 SLP195<br><br>
TAF CYYZ 140842Z 1409/1512 VRB03KT P6SM FEW240 FM141200 VRB03KT P6SM BKN110 BECMG 1414/1416 20010KT FM141900 20012KT P6SM BKN030 FM150100 VRB03KT P6SM FEW040 BKN260 FM150900 VRB03KT P6SM -SHRA OVC080 RMK NXT FCST BY 141200Z<br><br>
<br><br>
CYOO 140900Z AUTO 01003KT 9SM OVC200 01/01 A3010 RMK SLP198<br><br>
CYOO 140800Z AUTO 03003KT 9SM SCT200 M00/M00 A3009 RMK SLP197<br><br>
CYOO has no TAF <br><br>
<br><br>
TAF CYTR 140530Z 1406/1506 VRB03KT P6SM FEW040 TEMPO 1406/1410 5SM BR FM141000 VRB03KT P6SM FEW030 BKN180 FM141400 22008KT P6SM BKN025 BKN150 TEMPO 1414/1421 P6SM -SHRA BECMG 1415/1417 22010G20KT FM150000 VRB03KT P6SM SCT025 BKN250 RMK NXT FCST BY 141200Z<br><br>
<br><br>
