RETRIEVED AT : Jul 13 2019 07:11 Local <br>
  RETRIEVED AT: Jul 13 2019 11:11 UTC<br><br>
CYSN 131100Z 22005KT 8SM FEW250 20/20 A2992 RMK CI1 SLP133 DENSITY ALT 1000FT<br><br>
CYSN has no TAF <br><br>
<br><br>
CYHM 131100Z 23006KT 15SM FEW240 17/17 A2995 RMK CI1 SLP142 DENSITY ALT 1200FT<br><br>
CYHM 131000Z 23006KT 15SM FEW130 SCT250 14/14 A2993 RMK AC2CI2 SLP138 DENSITY ALT 900FT<br><br>
TAF CYHM 130538Z 1306/1406 23006KT P6SM FEW250 FM130800 24006KT P6SM FEW006 FM131200 23008KT P6SM SKC BECMG 1314/1316 23010G20KT BECMG 1316/1318 24012G22KT FM131800 25012G22KT P6SM BKN040 PROB30 1318/1324 VRB15G25KT 2SM TSRA BR BKN040CB FM140000 25010KT P6SM SCT020 BKN040 BECMG 1400/1402 30008KT FM140500 30008KT P6SM SKC RMK NXT FCST BY 131200Z<br><br>
<br><br>
KIAG 131053Z 23005KT 10SM CLR 17/16 A2994 RMK AO2 SLP138 T01720156<br><br>
KIAG 130953Z 21005KT 10SM CLR 16/14 A2993 RMK AO2 SLP135 T01610139<br><br>
KIAG 130909Z 1309/1406 23004KT P6SM SCT250 FM131400 23012KT P6SM SCT250 FM131700 23015G25KT P6SM SCT050 SCT250 FM132200 23012KT P6SM VCSH BKN050 FM140100 26008KT P6SM SCT050<br><br>
<br><br>
KBUF 131054Z 20006KT 6SM BR SCT009 SCT200 SCT250 18/17 A2996 RMK AO2 SLP143 T01780167<br><br>
KBUF 131039Z 21006KT 6SM BR SCT009 SCT200 SCT250 17/16 A2996 RMK AO2 T01720161<br><br>
KBUF 130954Z 20005KT 7SM FEW150 FEW250 16/15 A2995 RMK AO2 SLP140 T01610150<br><br>
KBUF 130909Z 1309/1406 22005KT P6SM SCT250 FM131400 23012KT P6SM SCT250 FM131700 23015G25KT P6SM FEW050 SCT100 FM132300 24014KT P6SM VCSH BKN050 FM140200 25008KT P6SM SCT040<br><br>
<br><br>
CYYZ 131100Z 16009KT 15SM SCT110 BKN270 18/15 A2992 RMK AC4CI2 SLP131 DENSITY ALT 1100FT<br><br>
CYYZ 131000Z 17007KT 15SM SCT120 SCT250 16/14 A2991 RMK AC3CI1 CI TR SLP130 DENSITY ALT 900FT<br><br>
TAF CYYZ 130838Z 1309/1412 22006KT P6SM SKC FM131400 24012KT P6SM BKN060 BECMG 1315/1317 25012G22KT FM131700 25012G22KT P6SM -SHRA VCTS BKN040CB FM131900 26012G22KT P6SM BKN040 PROB30 1319/1324 VRB15G30KT 2SM TSRA BR BKN030CB FM140000 27008KT P6SM BKN040 FM140300 31008KT P6SM SCT040 BECMG 1410/1412 34012KT RMK NXT FCST BY 131200Z<br><br>
<br><br>
CYOO 131100Z AUTO 01003KT 9SM SCT110 15/14 A2991 RMK SLP130 DENSITY ALT 500FT<br><br>
CYOO 131000Z AUTO 00000KT 9SM FEW120 14/13 A2991 RMK SLP131<br><br>
TAF CYOO 130738Z 1308/1320 22006KT P6SM SKC FM131400 21010KT P6SM BKN060 BECMG 1316/1318 21010G20KT FM131900 27010G20KT P6SM BKN040 PROB30 1319/1320 VRB15G25KT 2SM TSRA BR BKN040CB RMK FCST BASED ON AUTO OBS. NXT FCST BY 131400Z<br><br>
<br><br>
CYTR 131100Z 28002KT 15SM FEW090 FEW200 16/14 A2991 RMK AC1CI1 SLP130<br><br>
CYTR 131000Z 00000KT 15SM FEW080 SCT240 14/13 A2990 RMK AC1CI4 MIFG RWY E SLP125<br><br>
TAF CYTR 130530Z 1306/1406 VRB03KT P6SM FEW040 BECMG 1314/1316 28008KT FEW040 SCT100 FM132100 24012G22KT P6SM SCT020 BKN040 TEMPO 1321/1403 P6SM -SHRA BKN020 BKN040 BECMG 1403/1405 25005KT SCT030 SCT060 RMK NXT FCST BY 131200Z<br><br>
<br><br>
