RETRIEVED AT : Jun 19 2020 12:05 Local <br>
  RETRIEVED AT: Jun 19 2020 16:05 UTC<br><br>
TAF CYSN 191238Z 1913/2001 21010KT P6SM SCT060 BECMG 1923/2001 21006KT RMK NXT FCST BY 192000Z<br><br>
<br><br>
TAF CYHM 191138Z 1912/2012 23008KT P6SM SCT060 BKN100 FM191500 20008KT P6SM BKN060 FM200100 VRB03KT P6SM SCT070 FM200500 25006KT P6SM FEW080 RMK NXT FCST BY 191800Z<br><br>
<br><br>
KIAG 191507Z 1915/2012 20008KT P6SM SCT070 SCT250 FM192000 24004KT P6SM BKN050 FM200000 20004KT P6SM SCT070<br><br>
<br><br>
KBUF 191507Z 1915/2012 27008KT P6SM SCT070 SCT250 FM192000 22006KT P6SM VCSH BKN050 FM200000 VRB03KT P6SM SCT050<br><br>
<br><br>
TAF CYYZ 191438Z 1915/2018 VRB03KT P6SM SCT060 BECMG 1915/1916 16010KT FM191600 16010KT P6SM SCT060 TEMPO 1917/1922 P6SM VCTS SCT060CB BKN100 FM192200 16010KT P6SM SCT060 BECMG 1923/2001 30006KT FM200500 VRB03KT P6SM SKC PROB30 2009/2012 2SM BR FM201500 16012KT P6SM FEW050 RMK NXT FCST BY 191800Z<br><br>
<br><br>
TAF CYOO 191339Z 1914/2002 VRB03KT P6SM SCT060 BECMG 1914/1916 20010KT BECMG 1923/2001 VRB03KT RMK FCST BASED ON AUTO OBS. NXT FCST BY 192000Z<br><br>
<br><br>
TAF CYTR 191130Z 1912/2012 VRB03KT P6SM FEW250 BECMG 1912/1914 21010KT BECMG 2000/2002 VRB03KT FM200800 VRB03KT P6SM SCT060 RMK NXT FCST BY 191800Z<br><br>
<br><br>
