RETRIEVED AT : Jun 12 2020 19:05 Local <br>
  RETRIEVED AT: Jun 12 2020 23:05 UTC<br><br>
TAF CYSN 121938Z 1220/1301 33010G20KT P6SM FEW040 BECMG 1223/1301 35007KT RMK NXT FCST WILL BE ISSUED AT 131245Z<br><br>
<br><br>
TAF CYHM 121738Z 1218/1318 31010G20KT P6SM FEW040 FM130100 32008KT P6SM SKC BECMG 1304/1306 VRB03KT BECMG 1310/1312 04008KT RMK NXT FCST BY 130000Z<br><br>
<br><br>
KIAG 122103Z 1221/1318 32012KT P6SM SKC FM130100 33007KT P6SM SKC FM130600 02004KT P6SM SKC FM131500 01010KT P6SM FEW050<br><br>
<br><br>
KBUF 122101Z 1221/1318 30008KT P6SM SCT050 FM130200 33005KT P6SM SKC FM130900 02005KT P6SM FEW040 FM131600 01010KT P6SM FEW050<br><br>
<br><br>
TAF CYYZ 122041Z 1221/1324 33015G30KT P6SM SCT050 TEMPO 1221/1224 BKN050 BECMG 1222/1224 34012KT FM130000 34012KT P6SM FEW100 BECMG 1300/1302 01010KT FM131200 01010KT P6SM SCT180 BECMG 1322/1324 VRB03KT RMK NXT FCST BY 130000Z<br><br>
<br><br>
TAF CYOO 121938Z 1220/1308 31012G22KT P6SM SCT050 BECMG 1300/1302 34008KT RMK FCST BASED ON AUTO OBS. NXT FCST BY 130200Z<br><br>
<br><br>
TAF CYTR 121730Z 1218/1318 29015G25KT P6SM FEW040 BECMG 1221/1223 30010KT FM130200 34008KT P6SM SCT040 BKN090 FM131100 01008KT P6SM BKN040 OVC180 RMK NXT FCST BY 130000Z<br><br>
<br><br>
