RETRIEVED AT : Feb 21 2020 12:05 Local <br>
  RETRIEVED AT: Feb 21 2020 17:05 UTC<br><br>
CYSN 211600Z 24014KT 15SM FEW030 M02/M15 A3046 RMK SC1 SC TR SLP323<br><br>
TAF CYSN 211338Z 2114/2202 24010KT P6SM FEW030 BECMG 2116/2118 24015G25KT BECMG 2120/2122 24020G30KT RMK NXT FCST BY 212000Z<br><br>
<br><br>
CYHM 211600Z 25015KT 15SM FEW035 M04/M14 A3043 RMK CU1 CU TR SLP323<br><br>
TAF CYHM 211138Z 2112/2212 24008KT P6SM SKC BECMG 2113/2115 24012G22KT BECMG 2117/2119 23018G28KT FM220400 24015KT P6SM SKC FM220900 24015KT P6SM OVC020 RMK NXT FCST BY 211800Z<br><br>
<br><br>
KIAG 211653Z 24018G25KT 10SM CLR M01/M13 A3045 RMK AO2 PK WND 24026/1632 SLP330 T10111128<br><br>
KIAG 211553Z 23018KT 10SM CLR M03/M16 A3045 RMK AO2 SLP332 T10281156<br><br>
KIAG 211427Z 2114/2212 24014G22KT P6SM SKC FM211600 23018G26KT P6SM SCT030 FM220400 24016G24KT P6SM SKC<br><br>
<br><br>
KBUF 211700Z 23020G30KT 10SM FEW028 M02/M09 A3045 RMK AO2 PK WND 23029/1658 T10171094<br><br>
KBUF 211654Z 23021G30KT 10SM CLR M02/M09 A3045 RMK AO2 PK WND 23030/1653 SLP322 T10171094<br><br>
KBUF 211554Z 23021G27KT 10SM FEW026 M02/M10 A3045 RMK AO2 PK WND 21027/1554 SLP325 P0000 T10221100<br><br>
KBUF 211646Z 2117/2212 24016G24KT P6SM SCT030 FM212100 24016G24KT P6SM SCT035<br><br>
<br><br>
CYYZ 211600Z 23007G17KT 190V260 15SM SKC M03/M11 A3042 RMK SLP313<br><br>
TAF CYYZ 211438Z 2115/2218 24010G20KT P6SM SKC BECMG 2117/2119 24015G25KT FM220600 24010G20KT P6SM SKC FM220900 24010G20KT P6SM OVC020 FM221500 23015G25KT P6SM BKN020 RMK NXT FCST BY 211800Z<br><br>
<br><br>
CYOO 211600Z AUTO 21006G17KT 9SM CLR M04/M11 A3041 RMK SLP308<br><br>
TAF CYOO 211338Z 2114/2202 25005KT P6SM SKC BECMG 2116/2118 25010G20KT FM212100 25015G25KT P6SM SKC RMK FCST BASED ON AUTO OBS. NXT FCST BY 212000Z<br><br>
<br><br>
CYTR 211600Z 25018G24KT 15SM FEW030 M03/M08 A3040 RMK SC1 SLP301<br><br>
TAF CYTR 211130Z 2112/2212 24008KT P6SM FEW040 BECMG 2115/2117 25012G22KT BECMG 2119/2121 24015G25KT FM220000 25012KT P6SM FEW030 FM220800 26008KT P6SM BKN030 RMK NXT FCST BY 211800Z<br><br>
<br><br>
