RETRIEVED AT : Nov 25 2018 06:43 Local <br>
  RETRIEVED AT: Nov 25 2018 11:43 UTC<br><br>
CYSN has no TAF <br><br>
<br><br>
CYHM 251100Z 24007KT 15SM SCT022 OVC027 05/04 A2973 RMK SC4SC4 SLP074<br><br>
CYHM 251000Z 24010KT 15SM OVC029 06/04 A2971 RMK SC8 SLP066<br><br>
TAF CYHM 250538Z 2506/2606 21010KT 5SM -DZ BR OVC015 TEMPO 2506/2508 P6SM NSW SCT015 OVC040 FM250800 24010KT P6SM OVC015 TEMPO 2508/2516 SCT015 OVC040 FM251600 25014KT P6SM BKN020 BECMG 2520/2522 23006KT FM260200 VRB03KT P6SM SCT020 BKN130 FM260500 05010KT P6SM -RA BKN015 OVC090 RMK NXT FCST BY 251200Z<br><br>
<br><br>
KIAG 251053Z AUTO 23009KT 9SM OVC035 06/04 A2973 RMK AO2 SLP075 T00610039 $<br><br>
KIAG 250953Z AUTO 24011KT 8SM OVC042 07/04 A2972 RMK AO2 SLP073 T00670044 $<br><br>
KIAG 250850Z 2509/2606 21012KT P6SM OVC035 FM251100 24012KT P6SM -DZ OVC015 FM251600 25011KT P6SM BKN012 FM252000 25007KT P6SM BKN020 FM260000 VRB03KT P6SM BKN020<br><br>
<br><br>
KBUF 251054Z 24013KT 10SM FEW025 BKN030 OVC037 07/05 A2974 RMK AO2 SLP074 T00670050<br><br>
KBUF 250954Z 25013KT 10SM FEW013 FEW022 OVC040 07/05 A2972 RMK AO2 SLP070 T00720050<br><br>
KBUF 250850Z 2509/2606 21012KT P6SM -DZ OVC015 FM251100 24012KT P6SM -DZ OVC012 FM251700 25009KT P6SM BKN012 FM260000 VRB03KT P6SM BKN012 FM260400 VRB03KT P6SM BKN080<br><br>
<br><br>
CYYZ 251100Z 24008KT 12SM OVC020 06/04 A2970 RMK SC8 SLP065<br><br>
CYYZ 251000Z 23006KT 10SM SCT018 OVC028 06/05 A2969 RMK SF4SC4 SLP060<br><br>
TAF AMD CYYZ 251006Z 2510/2612 24010KT P6SM SCT015 OVC025 TEMPO 2510/2514 5SM -DZ BR OVC015 FM251400 25012KT P6SM BKN020 TEMPO 2514/2522 BKN025 BECMG 2516/2518 27016KT FM252200 26008KT P6SM SCT025 FM260400 VRB03KT P6SM BKN020 OVC110 FM260700 04008KT P6SM -RA BKN020 OVC050 FM261000 05010G20KT 5SM -RA BR BKN008 OVC020 PROB30 2610/2612 2SM -RA BR OVC003 RMK NXT FCST BY 251200Z<br><br>
<br><br>
CYOO 251100Z AUTO 25006KT 9SM SCT040 BKN085 06/06 A2969 RMK SLP059<br><br>
CYOO 251000Z AUTO 24004KT 7SM FEW015 OVC029 06/06 A2968 RMK SLP055<br><br>
CYOO 250956Z AUTO 25005KT 6SM BR OVC029 06/06 A2968 RMK SLP055<br><br>
CYOO has no TAF <br><br>
<br><br>
CYTR 251139Z 22009KT 6SM BR OVC008 06/06 A2970 RMK SF8 SLP061<br><br>
CYTR 251105Z CCA 23007KT 7SM -SHRA OVC008 06/06 A2969 RMK SF8 SLP056<br><br>
CYTR 251100Z 23008KT 8SM BKN008 OVC030 06/06 A2969 RMK SF6SC2 SLP056<br><br>
CYTR 251041Z 23008KT 8SM OVC008 07/06 A2969 RMK SF8 SLP056<br><br>
CYTR 251000Z 21006KT 12SM OVC010 06/06 A2968 RMK SF8 SLP055<br><br>
TAF AMD CYTR 251112Z 2511/2606 24010KT 5SM -RA -DZ BR OVC008 TEMPO 2511/2515 P6SM NSW SCT008 OVC025 FM251500 25010G20KT P6SM SCT015 BKN025 TEMPO 2515/2518 BKN015 OVC025 FM251800 24008G18KT P6SM BKN025 BECMG 2522/2524 24005KT FM260000 24005KT 6SM BR SCT006 OVC020 RMK NXT FCST BY 251200Z<br><br>
<br><br>
