RETRIEVED AT : Sep 24 2017 17:10 Local <br>
  RETRIEVED AT: Sep 24 2017 21:10 UTC<br><br>
CYSN 242100Z 36004KT 15SM FEW040 31/20 A3008 RMK CU1 SLP185 DENSITY ALT 2100FT<br><br>
CYSN 242000Z 36007KT 12SM FEW040 31/20 A3009 RMK CU1 SLP189 DENSITY ALT 2100FT<br><br>
TAF CYSN 241938Z 2420/2501 36006KT P6SM FEW040 FM242300 VRB03KT P6SM SKC RMK NXT FCST WILL BE ISSUED AT 251245Z<br><br>
<br><br>
CYHM 242100Z VRB02KT 15SM FEW048 31/20 A3010 RMK CU1 CU TR SLP191 DENSITY ALT 2700FT<br><br>
CYHM 242000Z 17004KT 070V200 15SM FEW056 32/18 A3011 RMK CU1 SLP195 DENSITY ALT 2700FT<br><br>
TAF CYHM 241738Z 2418/2518 VRB03KT P6SM SKC RMK NXT FCST BY 250000Z<br><br>
<br><br>
KIAG 242053Z 01008KT 10SM CLR 32/19 A3009 RMK AO2 SLP183 T03220189 56012<br><br>
KIAG 241953Z 01003KT 10SM CLR 33/18 A3010 RMK AO2 SLP186 T03330183<br><br>
KIAG 241729Z 2418/2518 VRB03KT P6SM SKC FM241900 01006KT P6SM SKC FM242300 VRB04KT P6SM SKC FM250800 VRB03KT 3SM BR FEW250 FM251200 VRB03KT P6SM FEW250<br><br>
<br><br>
KBUF 242054Z VRB03KT 10SM FEW050 32/19 A3010 RMK AO2 SLP188 T03170189 56013<br><br>
KBUF 241954Z 28006KT 10SM FEW045 32/19 A3011 RMK AO2 SLP193 T03220194<br><br>
KBUF 241729Z 2418/2518 VRB03KT P6SM SKC FM242000 25005KT P6SM SKC FM250000 19004KT P6SM SKC FM250800 VRB03KT 4SM BR FEW250 FM251200 15004KT P6SM FEW250<br><br>
<br><br>
CYYZ 242100Z 14007KT 15SM FEW070 32/19 A3008 RMK CU1 SLP184 DENSITY ALT 2500FT<br><br>
CYYZ 242000Z 16007KT 15SM FEW065 33/19 A3009 RMK CU2 SLP188 DENSITY ALT 2600FT<br><br>
TAF CYYZ 242038Z 2421/2524 17008KT P6SM SKC BECMG 2422/2424 VRB03KT FM251700 15008KT P6SM SCT240 RMK NXT FCST BY 250000Z<br><br>
<br><br>
CYOO 242100Z AUTO 21006KT 9SM CLR 31/18 A3008 RMK SLP185 DENSITY ALT 2100FT<br><br>
CYOO 242025Z AUTO 22005KT 160V260 6SM HZ CLR 31/18 A3008 RMK SLP187 DENSITY ALT 2100FT<br><br>
CYOO 242016Z AUTO 17005KT 5SM HZ CLR 31/18 A3009 RMK SLP188 DENSITY ALT 2100FT<br><br>
CYOO 242000Z AUTO 17007KT 150V220 9SM CLR 31/19 A3009 RMK SLP188 DENSITY ALT 2100FT<br><br>
CYOO has no TAF <br><br>
<br><br>
CYTR 242100Z 19007KT 10SM SKC 29/21 A3005 RMK HAZY SLP175<br><br>
CYTR 242000Z 19008KT 15SM SKC 29/21 A3006 RMK SLP179<br><br>
TAF CYTR 241730Z 2418/2518 21009KT P6SM SKC BECMG 2423/2501 VRB03KT FM250400 VRB03KT P6SM SKC TEMPO 2504/2512 3SM BR BECMG 2515/2517 20008KT RMK NXT FCST BY 250000Z<br><br>
<br><br>
