RETRIEVED AT : Oct 21 2018 17:05 Local <br>
  RETRIEVED AT: Oct 21 2018 21:05 UTC<br><br>
CYSN 212000Z 29009KT 15SM OVC039 05/M02 A3013 RMK SC8 SLP209<br><br>
TAF CYSN 211939Z 2120/2201 30010G20KT P6SM BKN040 TEMPO 2121/2201 P6SM -SHRA BKN020 BECMG 2122/2124 27010KT RMK NXT FCST WILL BE ISSUED AT 221245Z<br><br>
<br><br>
CYHM 212000Z 26012KT 15SM SCT027 BKN036 BKN180 05/M01 A3013 RMK CU3SC3AC1 SLP213<br><br>
TAF CYHM 211738Z 2118/2218 30010G20KT P6SM BKN040 TEMPO 2120/2124 P6SM -SHRA BKN020 BECMG 2122/2124 27010KT FM220000 27010KT P6SM BKN040 BKN120 BECMG 2202/2204 23010KT FM220800 25010KT P6SM SCT040 BKN100 FM221700 24012G22KT P6SM SCT060 RMK NXT FCST BY 220000Z<br><br>
<br><br>
KIAG 212053Z 29008KT 10SM OVC038 04/M03 A3013 RMK AO2 SLP215 T00441028 56008<br><br>
KIAG 211953Z 29012KT 10SM OVC046 04/M04 A3014 RMK AO2 SLP218 T00441039<br><br>
KIAG 211720Z 2118/2218 29013G20KT P6SM BKN040 FM220000 27009KT P6SM BKN050 FM220200 26008KT P6SM SCT050 FM220900 23006KT P6SM BKN040 FM221300 20010KT P6SM VCSH BKN035<br><br>
<br><br>
KBUF 212054Z 29011KT 10SM BKN042 OVC047 04/M03 A3013 RMK AO2 SLP211 T00441033 56006<br><br>
KBUF 211954Z 29009KT 10SM BKN044 BKN050 04/M03 A3014 RMK AO2 SLP212 T00441033<br><br>
KBUF 211720Z 2118/2218 29012G18KT P6SM BKN035 FM220000 27008KT P6SM BKN050 FM220300 25005KT P6SM SCT050 FM220800 21006KT P6SM BKN035 FM221200 21011KT P6SM VCSH BKN030<br><br>
<br><br>
CYYZ 212000Z 30014G22KT 15SM OVC045 05/M04 A3012 RMK SC8 SLP209<br><br>
TAF CYYZ 212038Z 2121/2224 30012G22KT P6SM BKN040 FM212300 29010G20KT P6SM BKN040 TEMPO 2123/2202 P6SM -SHRASN FM220200 25008KT P6SM BKN030 TEMPO 2204/2208 P6SM -SHSN FM220800 25010KT P6SM SCT040 BKN080 FM221200 24010KT P6SM FEW030 SCT080 FM222100 25012KT P6SM BKN050 BECMG 2222/2224 24007KT RMK NXT FCST BY 220000Z<br><br>
<br><br>
CYOO 212000Z AUTO 28010G18KT 9SM OVC048 05/M04 A3012 RMK SLP205<br><br>
CYOO has no TAF <br><br>
<br><br>
CYTR 212000Z 29011G17KT 15SM SCT048 SCT200 05/M06 A3009 RMK SC3CI1 SLP192<br><br>
TAF AMD CYTR 211807Z 2118/2218 30012G22KT P6SM SCT040 TEMPO 2118/2212 BKN040 BECMG 2200/2202 VRB03KT FM221200 25005KT P6SM BKN030 TEMPO 2216/2218 P6SM -SHRA RMK NXT FCST BY 220000Z<br><br>
<br><br>
