RETRIEVED AT : Oct 07 2017 23:10 Local <br>
  RETRIEVED AT: Oct 08 2017 03:10 UTC<br><br>
CYSN has no TAF <br><br>
<br><br>
CYHM 080300Z 19017G23KT 15SM BKN082 BKN240 23/15 A2968 RMK AC6CI1 SLP048 DENSITY ALT 2200FT<br><br>
CYHM 080200Z 19013KT 15SM SCT080 BKN240 23/16 A2970 RMK AC4CI2 SLP056 DENSITY ALT 2100FT<br><br>
TAF CYHM 072338Z 0800/0824 20015KT P6SM FEW190 FM080200 19012KT WS005/19040KT P6SM BKN080 FM080500 20015KT WS005/20040KT P6SM -SHRA BKN050 TEMPO 0805/0809 4SM SHRA BR BKN020 OVC040 PROB30 0805/0808 VRB25G40KT 2SM +TSRA BKN008 OVC020CB FM080900 23015G30KT P6SM BKN025 FM081600 24015KT P6SM SKC BECMG 0821/0823 20007KT RMK NXT FCST BY 080600Z<br><br>
<br><br>
KIAG 080253Z 19011G20KT 10SM CLR 24/14 A2971 RMK AO2 SLP057 T02390144 58020<br><br>
KIAG 080153Z 18010KT 10SM CLR 23/14 A2974 RMK AO2 SLP065 T02330144<br><br>
KIAG 072333Z 0800/0824 20010KT P6SM FEW250 FM080500 19017G29KT 6SM SHRA VCTS OVC035CB FM080900 21022G43KT 6SM -SHRA OVC020 FM081000 22023G43KT P6SM BKN020 FM081200 24018G36KT P6SM SCT025 FM082000 23011KT P6SM SKC<br><br>
<br><br>
KBUF 080254Z 18015KT 10SM CLR 23/14 A2973 RMK AO2 SLP065 T02330144 58020<br><br>
KBUF 080154Z 19014KT 10SM CLR 23/14 A2976 RMK AO2 SLP073 T02330144<br><br>
KBUF 072333Z 0800/0824 19012KT P6SM FEW250 FM080500 19016G30KT 4SM SHRA VCTS OVC035CB FM080900 21022G43KT 5SM -SHRA OVC015 FM081100 25018G33KT P6SM SCT020 FM081400 25017G29KT P6SM SCT020 FM081900 24011KT P6SM FEW250<br><br>
<br><br>
CYYZ 080300Z 15006KT 15SM BKN075 BKN250 21/16 A2967 RMK AC6CI1 SLP048 DENSITY ALT 1700FT<br><br>
CYYZ 080200Z 15007KT 15SM SCT090 BKN250 21/16 A2969 RMK AC3CI3 SLP056 DENSITY ALT 1700FT<br><br>
TAF CYYZ 080238Z 0803/0906 15008KT WS005/19030KT P6SM FEW050 BKN250 FM080500 18018G30KT P6SM -SHRA BKN050 TEMPO 0805/0809 4SM SHRA BR SCT020 BKN040 PROB30 0805/0808 VRB30G40KT 2SM +TSRA BKN008 OVC020CB FM080900 24025G40KT P6SM BKN025 BECMG 0810/0812 24015G30KT FM081600 25015G25KT P6SM SKC BECMG 0816/0818 24015KT BECMG 0821/0823 20008KT FM090200 VRB03KT P6SM SCT220 RMK NXT FCST BY 080600Z<br><br>
<br><br>
CYOO 080300Z AUTO 16006KT 9SM FEW080 21/15 A2969 RMK SLP055 DENSITY ALT 1500FT<br><br>
CYOO 080200Z AUTO 18005KT 9SM CLR 21/15 A2972 RMK SLP064 DENSITY ALT 1400FT<br><br>
CYOO has no TAF <br><br>
<br><br>
CYTR 080300Z 19008KT 15SM BKN067 23/15 A2973 RMK AC6 SLP069<br><br>
CYTR 080200Z 23002KT 15SM SCT120 20/17 A2975 RMK AC4 SLP075<br><br>
TAF CYTR 072330Z 0800/0824 19004KT P6SM FEW080 BKN160 OVC250 FM080300 20012KT WS005/18037KT P6SM FEW020 BKN080 OVC160 TEMPO 0806/0808 5SM -SHRA BR BKN020 OVC080 PROB30 0806/0808 VRB20G35KT 1SM TSRA BR BKN006 OVC020CB FM080800 20015G25KT 3SM -SHRA BR BKN010 OVC025 TEMPO 0808/0811 6SM -SHRA BR SCT010 BKN025 PROB30 0808/0811 VRB20G40KT 1SM TSRA BR BKN008 OVC025CB FM081100 24020G35KT P6SM FEW015 OVC030 TEMPO 0811/0814 5SM -SHRA BR BKN015 OVC030 FM081800 26012G22KT P6SM SCT030 BECMG 0821/0823 24010KT RMK NXT FCST BY 080600Z<br><br>
<br><br>
