RETRIEVED AT : Feb 23 2020 00:05 Local <br>
  RETRIEVED AT: Feb 23 2020 05:05 UTC<br><br>
CYSN has no TAF <br><br>
<br><br>
CYHM 230400Z 23013KT 15SM SKC 02/M04 A3009 RMK SLP201<br><br>
TAF CYHM 222338Z 2300/2324 24010G20KT P6SM SKC BECMG 2305/2307 24010KT FM230900 24010KT P6SM BKN220 FM231500 23010G20KT P6SM SCT030 BKN180 RMK NXT FCST BY 230600Z<br><br>
<br><br>
KIAG 230453Z AUTO 22011KT 10SM CLR 01/M03 A3012 RMK AO2 SLP213 T00061033 400281022<br><br>
KIAG 230353Z 22010KT 10SM CLR 01/M04 A3012 RMK AO2 SLP213 T00111044<br><br>
KIAG 230309Z 2303/2324 23012KT P6SM FEW250 FM231200 22013G19KT P6SM BKN200 FM232300 20010KT P6SM SCT250<br><br>
<br><br>
KBUF 230454Z 22010KT 10SM CLR 03/M07 A3012 RMK AO2 SLP208 T00331067 400391006<br><br>
KBUF 230354Z 23012G17KT 10SM CLR 03/M04 A3012 RMK AO2 SLP209 T00281044<br><br>
KBUF 230309Z 2303/2324 23011KT P6SM FEW250 FM231200 22011G17KT P6SM BKN200<br><br>
<br><br>
CYYZ 230400Z 21007KT 15SM SKC 01/M04 A3007 RMK SLP192<br><br>
TAF CYYZ 230238Z 2303/2406 20007G17KT P6SM SKC BECMG 2304/2306 23010KT FM230900 23010KT P6SM BKN270 FM231500 22010G20KT P6SM SCT030 BKN180 FM232100 22012G22KT P6SM SCT030 FM240300 23010G20KT P6SM FEW020 RMK NXT FCST BY 230600Z<br><br>
<br><br>
CYOO 230400Z AUTO 00000KT 8SM CLR M04/M05 A3008 RMK SLP196<br><br>
TAF CYOO 230141Z 2302/2314 22006KT P6SM SKC BECMG 2305/2307 26007KT FM230900 26007KT P6SM FEW020 SCT270 RMK FCST BASED ON AUTO OBS. NXT FCST BY 230800Z<br><br>
<br><br>
CYTR 230400Z 22006KT 15SM SKC 02/M03 A3010 RMK SLP196<br><br>
TAF CYTR 222330Z 2300/2324 25010KT P6SM FEW230 FM231200 26008KT P6SM SCT020 BKN300 BECMG 2315/2317 24010G20KT BECMG 2322/2324 24005KT RMK NXT FCST BY 230600Z<br><br>
<br><br>
