RETRIEVED AT : Jul 01 2018 07:04 Local <br>
  RETRIEVED AT: Jul 01 2018 11:04 UTC<br><br>
CYSN has no TAF <br><br>
<br><br>
TAF AMD CYHM 011023Z 0110/0206 22008KT P6SM FEW240 TEMPO 0110/0112 5SM BR FM011600 22015KT P6SM FEW240 BECMG 0200/0202 19008KT RMK NXT FCST BY 011200Z<br><br>
<br><br>
KIAG 011053Z 22007KT 7SM CLR 25/20 A3002 RMK AO2 SLP158 T02500200<br><br>
KIAG 010953Z AUTO 21007KT 6SM HZ CLR 23/20 A3003 RMK AO2 SLP160 T02330200<br><br>
KIAG 010859Z 0109/0206 16004KT P6SM SKC FM011400 22010KT P6SM SCT250 FM020100 20005KT P6SM SCT250<br><br>
<br><br>
KBUF 011054Z 21007KT 10SM FEW300 23/21 A3004 RMK AO2 SLP167 T02330206<br><br>
KBUF 010954Z 19006KT 10SM FEW280 22/21 A3005 RMK AO2 SLP169 T02220206<br><br>
KBUF 010859Z 0109/0206 19006KT P6SM SKC FM011400 23010KT P6SM SCT250 FM020100 20006KT P6SM SCT250<br><br>
<br><br>
TAF CYYZ 010839Z 0109/0212 20008KT P6SM FEW240 BECMG 0114/0116 21015KT BECMG 0200/0202 22008KT RMK NXT FCST BY 011200Z<br><br>
<br><br>
CYOO has no TAF <br><br>
<br><br>
TAF CYTR 010530Z 0106/0206 22008KT P6SM FEW020 FM011600 24012KT P6SM FEW040 BECMG 0200/0202 VRB03KT RMK NXT FCST BY 011200Z<br><br>
<br><br>
