RETRIEVED AT : Oct 19 2018 17:05 Local <br>
  RETRIEVED AT: Oct 19 2018 21:05 UTC<br><br>
CYSN 192000Z 22020G29KT 190V260 15SM SCT130 OVC220 13/05 A2989 RMK AC3CI5 PRESFR SLP126<br><br>
TAF CYSN 191946Z 1920/2001 22015G30KT P6SM BKN150 OVC230 FM192300 23015G25KT P6SM BKN090 OVC150 RMK NXT FCST WILL BE ISSUED AT 201245Z<br><br>
<br><br>
CYHM 192000Z 23020G27KT 15SM FEW150 BKN170 13/02 A2989 RMK AC1AC6 SLP127 DENSITY ALT 800FT<br><br>
TAF CYHM 191740Z 1918/2018 23018G28KT P6SM FEW150 BKN220 FM192300 23015G25KT P6SM BKN080 OVC150 FM200200 23015G30KT P6SM -RA OVC040 FM200400 24015G25KT P6SM -RA OVC015 TEMPO 2004/2009 OVC025 FM200900 25012G22KT P6SM BKN020 OVC040 FM201700 27015G25KT P6SM -SHRA BKN030 BKN050 RMK NXT FCST BY 200000Z<br><br>
<br><br>
KIAG 192053Z 23020G25KT 10SM CLR 12/03 A2989 RMK AO2 PK WND 22030/2031 SLP126 T01220033 58028<br><br>
KIAG 191953Z 24019G29KT 10SM CLR 12/04 A2992 RMK AO2 PK WND 23029/1947 SLP139 T01220044<br><br>
KIAG 192050Z 1921/2018 22019G29KT P6SM BKN150 FM200200 22017G30KT P6SM BKN060 FM200600 23021G32KT P6SM OVC015 FM201100 26015G25KT P6SM BKN035<br><br>
<br><br>
KBUF 192054Z 23012G21KT 10SM FEW045 FEW110 BKN170 OVC260 12/05 A2990 RMK AO2 SLP129 T01220050 58028<br><br>
KBUF 191954Z 24013KT 10SM FEW130 BKN170 BKN240 13/03 A2994 RMK AO2 SLP140 VIRGA DSNT ALQDS T01280033<br><br>
KBUF 192050Z 1921/2018 23016G28KT P6SM BKN150 FM200000 22013G20KT P6SM BKN110 FM200200 22017G26KT P6SM BKN060 FM200700 23020G31KT P6SM OVC015 FM201100 26015G25KT 6SM BR VCSH BKN025 FM201300 26015G21KT P6SM VCSH BKN035<br><br>
<br><br>
CYYZ 192000Z 22011G19KT 15SM OVC170 15/05 A2985 RMK AS8 SLP113 DENSITY ALT 800FT<br><br>
TAF CYYZ 192039Z 1921/2024 23015G25KT P6SM OVC170 FM192300 23015G25KT P6SM BKN080 OVC150 FM200200 23018G28KT P6SM -RA OVC040 FM200500 23015G25KT P6SM -RA OVC020 TEMPO 2005/2008 OVC025 FM200800 28012G25KT P6SM BKN030 BKN050 FM201700 28015G28KT P6SM -SHRA BKN030 BKN050 FM202200 33015KT P6SM SCT030 BKN050 RMK NXT FCST BY 200000Z<br><br>
<br><br>
CYOO 192000Z AUTO 20013KT 9SM FEW095 BKN120 BKN140 11/08 A2985 RMK PRESFR SLP112<br><br>
CYOO has no TAF <br><br>
<br><br>
CYTR 192000Z 23015G21KT 15SM OVC150 12/07 A2985 RMK AC8 SLP112<br><br>
TAF CYTR 191730Z 1918/2018 23018G28KT P6SM SCT150 BKN220 FM192200 24018G28KT P6SM SCT030 BKN150 FM200300 22018G28KT P6SM -SHRA OVC025 FM200600 24020G30KT 4SM -SHRA BR OVC015 FM201000 26015G25KT P6SM SCT015 BKN030 RMK NXT FCST BY 200000Z<br><br>
<br><br>
