RETRIEVED AT : Mar 08 2020 04:05 Local <br>
  RETRIEVED AT: Mar 08 2020 08:05 UTC<br><br>
CYSN has no TAF <br><br>
<br><br>
CYHM 080700Z 21009KT 15SM BKN084 BKN110 M01/M03 A3034 RMK AC5AC2 SLP286<br><br>
TAF CYHM 080539Z 0806/0906 22010KT P6SM BKN100 BKN250 FM081200 22010KT P6SM SKC BECMG 0814/0816 23015G25KT BECMG 0820/0822 23018G30KT FM090000 22012G22KT P6SM BKN150 RMK NXT FCST BY 081200Z<br><br>
<br><br>
KIAG 080753Z AUTO 22011KT 10SM OVC090 01/M03 A3036 RMK AO2 SLP295 T00061028<br><br>
KIAG 080653Z AUTO 21008KT 10SM OVC090 00/M03 A3037 RMK AO2 SLP297 T00001033<br><br>
KIAG 080535Z 0806/0906 22011G17KT P6SM SCT100 FM081300 23015G22KT P6SM FEW200 FM081800 23015G28KT P6SM SKC FM090000 22010G19KT P6SM FEW250 FM090100 22010G19KT P6SM SCT200 WS020/23040KT<br><br>
<br><br>
KBUF 080754Z 21009KT 10SM BKN090 BKN130 02/M05 A3036 RMK AO2 SLP291 T00171050<br><br>
KBUF 080654Z 19006KT 10SM SCT090 SCT130 M01/M07 A3038 RMK AO2 SLP297 T10111067<br><br>
KBUF 080535Z 0806/0906 21009KT P6SM SCT150 FM081500 24012G22KT P6SM SCT150 FM082300 21009KT P6SM FEW250 FM090100 21010G17KT P6SM SCT250 FM090200 21010G18KT P6SM SCT200 WS020/23040KT<br><br>
<br><br>
CYYZ 080700Z 20009KT 15SM OVC090 01/M04 A3034 RMK AC8 SLP284<br><br>
TAF CYYZ 080539Z 0806/0912 17010KT P6SM BKN100 BKN160 FM081200 25012KT P6SM SKC BECMG 0812/0814 24010G20KT FM081800 22012G25KT P6SM SKC BECMG 0820/0822 22015G25KT FM090000 24012G22KT P6SM BKN150 BECMG 0906/0908 23010G20KT FM090900 23012KT P6SM BKN100 RMK NXT FCST BY 080900Z<br><br>
<br><br>
CYOO 080700Z AUTO 23005KT 9SM OVC090 01/M03 A3035 RMK SLP287<br><br>
TAF CYOO 080738Z 0808/0820 23005KT P6SM OVC090 FM081300 22006KT P6SM FEW100 FM081500 23012KT P6SM SKC BECMG 0817/0819 22010G20KT RMK FCST BASED ON AUTO OBS. NXT FCST BY 081400Z<br><br>
<br><br>
CYTR 080700Z 24006KT 15SM BKN091 OVC130 01/M02 A3034 RMK AC6AC2 SLP280<br><br>
TAF CYTR 080530Z 0806/0906 24010KT P6SM BKN080 BKN130 FM081500 24012KT P6SM SCT200 BECMG 0817/0819 23012G22KT BECMG 0822/0824 24010KT FM090300 24010KT P6SM BKN120 RMK NXT FCST BY 081200Z<br><br>
<br><br>
