RETRIEVED AT : Jun 27 2020 22:05 Local <br>
  RETRIEVED AT: Jun 28 2020 02:05 UTC<br><br>
CYSN 280100Z 22008KT 15SM SCT040 23/20 A2967 RMK SC3 LAST STFD OBS/NEXT 28 1100UTC SLP048 DENSITY ALT 1600FT<br><br>
CYSN has no TAF <br><br>
<br><br>
CYHM 280100Z 23011KT 15SM SCT023TCU BKN077 24/21 A2971 RMK TCU3AC3 SLP058 DENSITY ALT 2300FT<br><br>
TAF CYHM 272339Z 2800/2824 25008KT P6SM FEW025 SCT080 FM280800 26006KT P6SM SCT070 FM281100 30006KT P6SM SKC FM281700 05006KT P6SM BKN040 BECMG 2820/2822 12008KT RMK NXT FCST BY 280600Z<br><br>
<br><br>
KIAG 280153Z 23007KT 10SM FEW080 21/18 A2971 RMK AO2 SLP056 T02110183<br><br>
KIAG 280053Z 23009KT 10SM FEW080 22/18 A2970 RMK AO2 SLP052 T02170183<br><br>
KIAG 272332Z 2800/2824 23012G19KT P6SM BKN050 FM280300 22006KT P6SM VCSH BKN050 TEMPO 2803/2805 3SM TSRA OVC035CB FM280700 23004KT P6SM BKN050 FM281000 28005KT P6SM BKN040 FM281500 31007KT P6SM SCT050 SCT250<br><br>
<br><br>
KBUF 280154Z 22010KT 10SM SCT080 20/19 A2974 RMK AO2 SLP067 T02000189<br><br>
KBUF 280054Z 23009KT 10SM FEW009 SCT060 SCT220 21/19 A2972 RMK AO2 SLP061 T02060189<br><br>
KBUF 272332Z 2800/2824 24013G20KT P6SM BKN060 FM280300 23006KT P6SM VCSH BKN050 TEMPO 2804/2806 3SM TSRA OVC035CB FM280800 26004KT P6SM BKN012 FM281300 26008KT P6SM BKN040<br><br>
<br><br>
CYYZ 280100Z 26007KT 15SM FEW030CB FEW045 SCT220 25/18 A2967 RMK CB1SC1CI2 CB W SLP047 DENSITY ALT 2200FT<br><br>
TAF CYYZ 272339Z 2800/2906 28012KT P6SM BKN040 TEMPO 2800/2803 P6SM VCTS SCT050CB BECMG 2800/2802 32006KT FM280300 VRB03KT P6SM FEW070 BECMG 2808/2810 34010KT BECMG 2810/2812 01010KT FM281700 02010KT P6SM BKN050 FM282300 02010KT P6SM SCT050 RMK NXT FCST BY 280300Z<br><br>
<br><br>
CYOO 280100Z AUTO 01005KT 9SM BKN095 25/18 A2967 RMK LTNG DIST NW SLP046 DENSITY ALT 1900FT<br><br>
TAF CYOO 280138Z 2802/2814 35005KT P6SM FEW040 SCT100 FM280500 VRB03KT P6SM SKC TEMPO 2807/2812 5SM BR PROB30 2808/2812 1/2SM FG FEW002 FM281200 34007KT P6SM SKC RMK FCST BASED ON AUTO OBS. NXT FCST BY 280800Z<br><br>
<br><br>
CYTR 280100Z 22005KT 15SM SCT050 BKN095 BKN250 23/20 A2966 RMK SC3AC2CI2 SLP046<br><br>
TAF CYTR 272330Z 2800/2824 25010G20KT P6SM SCT050 BKN250 BECMG 2800/2802 23005KT FM280800 VRB03KT P6SM SCT020 BKN050 PROB30 2808/2812 1SM BR OVC005 FM281600 VRB03KT P6SM -SHRA BKN050 RMK NXT FCST BY 280600Z<br><br>
<br><br>
