RETRIEVED AT : Oct 21 2018 10:05 Local <br>
  RETRIEVED AT: Oct 21 2018 14:05 UTC<br><br>
CYSN 211300Z 35011KT 15SM BKN033 03/M02 A3016 RMK SC6 SLP217<br><br>
TAF CYSN 211238Z 2113/2201 33010KT P6SM BKN030 TEMPO 2113/2115 P6SM -SHSN FM212100 28012KT P6SM BKN040 TEMPO 2121/2201 P6SM -SHRA BKN020 RMK NXT FCST BY 212000Z<br><br>
<br><br>
CYHM 211300Z 30007G18KT 15SM FEW025 BKN038 02/M05 A3017 RMK CU1SC6 SLP227<br><br>
TAF CYHM 211138Z 2112/2212 30010G20KT P6SM BKN040 TEMPO 2112/2114 P6SM -SHSN BKN020 FM211600 29010G20KT P6SM BKN040 TEMPO 2120/2124 P6SM -SHRA BECMG 2122/2124 27010KT FM220000 27010KT P6SM BKN030 BKN120 BECMG 2202/2204 23010KT FM220600 24010KT P6SM SCT030 BKN100 RMK NXT FCST BY 211800Z<br><br>
<br><br>
KIAG 211353Z 34009KT 10SM BKN044 03/M03 A3016 RMK AO2 SLP227 T00281033<br><br>
KIAG 211253Z 35009KT 10SM BKN035 OVC043 02/M04 A3015 RMK AO2 SLP222 T00171044<br><br>
KIAG 211120Z 2112/2212 33014KT P6SM -RASN OVC040 FM211500 31012G20KT P6SM OVC030 FM211600 30012G20KT P6SM BKN040 FM220000 28009KT P6SM BKN060 FM220600 23005KT P6SM BKN070<br><br>
<br><br>
KBUF 211354Z 33009KT 10SM BKN043 02/M03 A3016 RMK AO2 SLP222 T00221033<br><br>
KBUF 211254Z 32011G17KT 10SM BKN043 BKN050 02/M04 A3015 RMK AO2 SLP215 T00171044<br><br>
KBUF 211120Z 2112/2212 33013G18KT P6SM BKN040 BKN050 FM211400 31012G20KT P6SM OVC045 FM211900 28012G20KT P6SM BKN060 FM220000 28009KT P6SM BKN060 FM220600 24004KT P6SM BKN060<br><br>
<br><br>
CYYZ 211300Z 31005KT 15SM BKN040 02/M03 A3015 RMK SC7 SLP216<br><br>
TAF CYYZ 211138Z 2112/2218 33010G20KT P6SM BKN040 TEMPO 2112/2114 P6SM -SHSN BKN020 FM211500 33010G20KT P6SM BKN040 FM212100 29010G20KT P6SM BKN040 TEMPO 2121/2124 P6SM -SHRA FM220300 24008KT P6SM BKN030 TEMPO 2204/2208 P6SM -SHSN FM220800 24010KT P6SM FEW030 BKN080 FM221200 24008KT P6SM FEW030 SCT080 FM221500 26008KT P6SM BKN040 RMK NXT FCST BY 211500Z<br><br>
<br><br>
CYOO 211300Z AUTO 32006KT 9SM CLR 01/M06 A3013 RMK SLP210<br><br>
CYOO has no TAF <br><br>
<br><br>
CYTR 211300Z 34009G16KT 15SM BKN042 02/M08 A3009 RMK SC5 SLP195<br><br>
TAF CYTR 211130Z 2112/2212 33010KT P6SM BKN040 BECMG 2114/2116 31012G22KT BECMG 2121/2123 28005KT RMK NXT FCST BY 211800Z<br><br>
<br><br>
