RETRIEVED AT : Jun 07 2018 16:05 Local <br>
  RETRIEVED AT: Jun 07 2018 20:05 UTC<br><br>
TAF CYSN 071938Z 0720/0801 20012KT P6SM FEW070 SCT240 RMK NXT FCST WILL BE ISSUED AT 081245Z<br><br>
<br><br>
CYHM 071900Z 23010KT 15SM FEW048 BKN056 BKN080 23/11 A3003 RMK CU1SC4AC1 SLP171 DENSITY ALT 1800FT<br><br>
TAF CYHM 071738Z 0718/0818 23015KT P6SM BKN060 FM080000 22008KT P6SM FEW040 BECMG 0803/0805 34008KT FM080800 VRB03KT P6SM SKC FM081400 06008KT P6SM SCT240 RMK NXT FCST BY 080000Z<br><br>
<br><br>
KIAG 071734Z 0718/0818 21014KT P6SM SCT090 FM072300 23008KT P6SM SCT070 FM080200 23004KT P6SM FEW035 FM080500 VRB03KT P6SM SCT035 FM081400 06007KT P6SM SCT250<br><br>
<br><br>
KBUF 071734Z 0718/0818 22014KT P6SM FEW040 SCT090 FM080100 23006KT P6SM FEW070 FM080500 VRB03KT P6SM SCT035 FM081400 05004KT P6SM SCT250<br><br>
<br><br>
TAF CYYZ 071738Z 0718/0824 16010KT P6SM BKN060 FM072100 21010KT P6SM BKN060 BECMG 0800/0802 34008KT FM081500 09008KT P6SM FEW200 FM082000 15008KT P6SM SCT240 RMK NXT FCST BY 072100Z<br><br>
<br><br>
CYOO has no TAF <br><br>
<br><br>
CYTR 071900Z 20010KT 15SM FEW048 SCT081 BKN240 18/12 A3003 RMK SC2AC2CI2 SLP172<br><br>
TAF CYTR 071730Z 0718/0818 21012KT P6SM FEW030 SCT060 OVC100 FM072200 23010KT P6SM SCT030 BECMG 0723/0801 24005KT BECMG 0808/0810 02005KT RMK NXT FCST BY 080000Z<br><br>
<br><br>
