RETRIEVED AT : Aug 31 2017 16:33 Local <br>
  RETRIEVED AT: Aug 31 2017 20:33 UTC<br><br>
CYSN 312000Z 33008KT 310V020 15SM FEW040 BKN050 BKN250 19/09 A3009 RMK SC2SC4CI1 CI TR CU ASOCTD SLP192 DENSITY ALT 700FT<br><br>
CYSN 311900Z 01007KT 330V050 15SM FEW040 BKN050 BKN250 20/10 A3009 RMK CU1SC4CI1 SLP192 DENSITY ALT 800FT<br><br>
TAF CYSN 311938Z 3120/0101 01008KT P6SM BKN050 BKN250 BECMG 3120/3122 FEW050 SCT250 RMK NXT FCST WILL BE ISSUED AT 011245Z<br><br>
<br><br>
CYHM 312000Z 35008KT 15SM BKN048 BKN240 18/09 A3012 RMK SC6CI1 SLP200 DENSITY ALT 1100FT<br><br>
CYHM 311900Z 35006KT 310V020 15SM FEW040 BKN045 BKN240 18/09 A3011 RMK CU2SC4CI1 SLP199 DENSITY ALT 1100FT<br><br>
TAF CYHM 311738Z 3118/0118 01015KT P6SM BKN030 BKN230 FM312200 01010KT P6SM FEW040 SCT250 RMK NXT FCST BY 010000Z<br><br>
<br><br>
KIAG 311953Z 36011G20KT 10SM FEW045 19/07 A3010 RMK AO2 SLP191 T01890067<br><br>
KIAG 311853Z 36009KT 10SM FEW037 18/07 A3010 RMK AO2 SLP191 T01830072<br><br>
KIAG 311732Z 3118/0118 36010KT P6SM BKN040 FM312000 35010KT P6SM SCT040 FM010400 02006KT P6SM SCT035 FM011400 03008KT P6SM SKC<br><br>
<br><br>
KBUF 311954Z 34013KT 10SM FEW040 SCT250 SCT350 18/07 A3009 RMK AO2 SLP188 T01830072<br><br>
KBUF 311854Z 36008KT 10SM FEW035 SCT050 SCT250 19/09 A3008 RMK AO2 SLP185 T01890089<br><br>
KBUF 311732Z 3118/0118 35010KT P6SM BKN040 FM312100 35008KT P6SM SCT040 FM010400 02005KT P6SM SCT035 FM011400 02008KT P6SM SKC<br><br>
<br><br>
CYYZ 312000Z 33022KT 15SM SCT045 SCT240 18/07 A3010 RMK SC3CI1 SLP196 DENSITY ALT 900FT<br><br>
CYYZ 311900Z 36016G22KT 15SM SCT042 19/07 A3010 RMK SC3 SLP196 DENSITY ALT 1000FT<br><br>
TAF CYYZ 311738Z 3118/0124 35012G22KT P6SM SCT040 BECMG 3123/0101 36010KT SKC RMK NXT FCST BY 312100Z<br><br>
<br><br>
CYOO 312000Z AUTO 32014G24KT 9SM CLR 18/06 A3009 RMK SLP191 DENSITY ALT 700FT<br><br>
CYOO 311900Z AUTO 32014G22KT 300V360 9SM CLR 18/07 A3009 RMK SLP191 DENSITY ALT 700FT<br><br>
CYOO has no TAF <br><br>
<br><br>
CYTR 312000Z 03010G15KT 15SM FEW054 18/08 A3004 RMK CU2 SLP175<br><br>
CYTR 311900Z 01011KT 15SM FEW052 20/08 A3005 RMK CU2 SLP176<br><br>
TAF CYTR 311730Z 3118/0118 34010KT P6SM FEW040 TEMPO 3120/0102 BKN040 BECMG 0103/0105 34005KT RMK NXT FCST BY 010000Z<br><br>
<br><br>
