RETRIEVED AT : Jul 19 2019 07:15 Local <br>
  RETRIEVED AT: Jul 19 2019 11:15 UTC<br><br>
CYSN 191100Z 24010KT 15SM FEW020 FEW120 26/25 A2980 RMK SC1AC1 SC TR SLP090 DENSITY ALT 1800FT<br><br>
CYSN has no TAF <br><br>
<br><br>
CYHM 191100Z 22008KT 15SM FEW030 FEW240 24/23 A2982 RMK CU1CI1 CU TR CI TR SLP095 DENSITY ALT 2100FT<br><br>
CYHM 191000Z 22008KT 15SM FEW070 FEW250 23/23 A2981 RMK AC1CI1 AC TR CI TR SLP093 DENSITY ALT 2000FT<br><br>
TAF CYHM 190538Z 1906/2006 20010G20KT P6SM SCT250 FM190900 24012G22KT P6SM BKN050 TEMPO 1910/1915 5SM -SHRA VCTS BR BKN020 OVC030CB FM191700 24012G22KT P6SM BKN030 TEMPO 1917/2002 5SM -SHRA BR OVC020 PROB30 1917/2002 VRB15G25KT 1SM TSRA BR BKN015 OVC030CB FM200200 25012KT P6SM BKN050 FM200500 24015KT 6SM BR BKN020 RMK NXT FCST BY 191200Z<br><br>
<br><br>
KIAG 191053Z 24012KT 10SM CLR 24/22 A2982 RMK AO2 SLP091 T02440217<br><br>
KIAG 190953Z AUTO 23011KT 10SM CLR 24/22 A2981 RMK AO2 SLP087 T02440217<br><br>
KIAG 190859Z 1909/2006 23010KT P6SM SCT250 FM191400 23013G20KT P6SM BKN080 FM191800 23015G25KT P6SM SCT100 FM192300 24013G21KT P6SM VCTS BKN050CB FM200200 23010KT P6SM SCT050<br><br>
<br><br>
KBUF 191054Z 24012KT 10SM FEW300 26/22 A2984 RMK AO2 SLP099 T02560217<br><br>
KBUF 190954Z 23012G19KT 10SM CLR 26/22 A2982 RMK AO2 SLP094 T02560217<br><br>
KBUF 190859Z 1909/2006 23012KT P6SM SCT250 FM191400 23013G20KT P6SM BKN080 FM191800 23015G25KT P6SM SCT100 FM192300 24013G21KT P6SM VCTS BKN050CB FM200200 23010KT P6SM SCT050<br><br>
<br><br>
CYYZ 191100Z 19007KT 15SM FEW035 FEW090 FEW250 24/22 A2980 RMK SC1AC1CI1 SC TR AC TR SLP091 DENSITY ALT 1900FT<br><br>
CYYZ 191000Z 19007KT 15SM FEW040 FEW090 SCT250 23/21 A2979 RMK SC2AC1CI2 AC TR SLP088 DENSITY ALT 1800FT<br><br>
TAF CYYZ 190838Z 1909/2012 21007KT P6SM FEW040 FM191100 24010G20KT P6SM BKN040 FM192000 27015G25KT P6SM -SHRA OVC040 PROB30 1920/2002 VRB15G25KT 1SM TSRA BR BKN015 OVC030CB FM200200 24010KT P6SM BKN020 BECMG 2004/2006 24007KT RMK NXT FCST BY 191200Z<br><br>
<br><br>
CYOO 191109Z AUTO 00000KT 6SM BR CLR 22/22 A2979 RMK SLP087 DENSITY ALT 1400FT<br><br>
CYOO 191100Z AUTO 01003KT 5SM BR CLR 21/21 A2979 RMK SLP087 DENSITY ALT 1400FT<br><br>
CYOO 191058Z AUTO 01003KT 5SM BR CLR 21/21 A2979 RMK SLP087 DENSITY ALT 1400FT<br><br>
CYOO 191053Z AUTO VRB02KT 6SM BR CLR 21/21 A2979 RMK SLP086 DENSITY ALT 1400FT<br><br>
CYOO 191040Z AUTO 00000KT 5SM BR CLR 21/21 A2978 RMK SLP085 DENSITY ALT 1300FT<br><br>
CYOO 191019Z AUTO 00000KT 6SM BR CLR 20/20 A2978 RMK SLP084 DENSITY ALT 1200FT<br><br>
CYOO 191011Z AUTO 02003KT 5SM BR CLR 20/20 A2978 RMK SLP085 DENSITY ALT 1200FT<br><br>
CYOO 191000Z AUTO VRB02KT 6SM BR CLR 20/19 A2978 RMK SLP084 DENSITY ALT 1200FT<br><br>
CYOO 190951Z AUTO 00000KT 6SM BR CLR 20/19 A2978 RMK SLP083 DENSITY ALT 1200FT<br><br>
CYOO 190942Z AUTO 00000KT 5SM BR CLR 20/20 A2978 RMK SLP083 DENSITY ALT 1200FT<br><br>
CYOO 190930Z AUTO 00000KT 6SM BR CLR 21/21 A2978 RMK SLP083 DENSITY ALT 1300FT<br><br>
CYOO 190927Z AUTO 00000KT 3SM BR CLR 21/21 A2978 RMK SLP083 DENSITY ALT 1300FT<br><br>
TAF AMD CYOO 190919Z 1909/1920 VRB03KT P6SM SKC TEMPO 1909/1912 1SM BR FM191200 24007KT P6SM BKN040 TEMPO 1912/1914 P6SM -SHRA FM191700 24012KT P6SM BKN040 RMK FCST BASED ON AUTO OBS. NXT FCST BY 191400Z<br><br>
<br><br>
CYTR 191100Z 23008KT 12SM FEW250 23/21 A2977 RMK CI1 SLP082<br><br>
CYTR 191000Z 22007KT 12SM FEW250 23/21 A2977 RMK CI2 SLP080<br><br>
TAF CYTR 190530Z 1906/2006 21005KT P6SM FEW250 FM191000 23005KT P6SM SCT040 FM191400 24010KT P6SM SCT030 TEMPO 1915/2003 P6SM -SHRA BKN030 PROB30 1917/2002 VRB15G25KT 2SM TSRA BR BKN020 OVC030CB RMK NXT FCST BY 191200Z<br><br>
<br><br>
