RETRIEVED AT : Nov 12 2017 06:10 Local <br>
  RETRIEVED AT: Nov 12 2017 11:10 UTC<br><br>
CYSN has no TAF <br><br>
<br><br>
CYHM 121100Z 00000KT 15SM OVC047 00/M04 A3033 RMK SC8 SLP285<br><br>
CYHM 121000Z 00000KT 15SM OVC048 M00/M05 A3032 RMK SC8 SLP282<br><br>
TAF CYHM 120538Z 1206/1306 06005KT P6SM BKN080 OVC120 FM121700 23005KT P6SM BKN040 OVC060 FM121900 23005KT P6SM -RA OVC040 TEMPO 1219/1222 5SM -RASN FM122200 05005KT 3SM -RASN BR BKN012 OVC030 PROB30 1223/1301 2SM -SNRA OVC008 FM130100 04005KT 2SM -SNRA BR OVC006 PROB30 1301/1304 OVC004 FM130400 03005KT 2SM -SNRA BR OVC003 RMK NXT FCST BY 121200Z<br><br>
<br><br>
KIAG 121053Z AUTO 00000KT 10SM OVC060 01/M08 A3035 RMK AO2 SLP293 T00111083 $<br><br>
KIAG 120953Z AUTO 14004KT 10SM OVC075 01/M09 A3034 RMK AO2 SLP290 T00111089 $<br><br>
KIAG 120909Z 1209/1306 10003KT P6SM OVC100 FM121400 18004KT P6SM OVC045 FM130400 00000KT P6SM OVC030 FM130500 00000KT 4SM -SHSN OVC030<br><br>
<br><br>
KBUF 121054Z 16005KT 10SM OVC075 M01/M09 A3035 RMK AO2 SLP288 T10061089<br><br>
KBUF 120954Z 14006KT 10SM BKN080 BKN110 M01/M09 A3035 RMK AO2 SLP286 T10111089<br><br>
KBUF 120909Z 1209/1306 14005KT P6SM SCT090 BKN110 FM121100 18004KT P6SM OVC060 FM121600 VRB03KT P6SM OVC045 FM130400 00000KT 4SM -RASN OVC045<br><br>
<br><br>
CYYZ 121100Z 26002KT 15SM BKN044 OVC080 01/M05 A3034 RMK SC6AC2 SLP284<br><br>
CYYZ 121000Z 28003KT 15SM BKN048 OVC060 01/M05 A3034 RMK SC5SC3 SLP282<br><br>
TAF CYYZ 120838Z 1209/1312 VRB03KT P6SM OVC050 TEMPO 1209/1212 P6SM -SN FM121600 15005KT P6SM OVC040 TEMPO 1220/1222 P6SM -RASN FM122200 17005KT 6SM -RASN OVC030 FM130100 22007KT 4SM -SNRA OVC025 PROB40 1301/1304 2SM -SN OVC015 FM130400 VRB03KT 2SM -SN BR FEW008 OVC015 FM131000 29005KT P6SM BKN010 OVC050 RMK NXT FCST BY 121200Z<br><br>
<br><br>
CYOO 121100Z AUTO 05002KT 9SM OVC050 00/M04 A3034 RMK SLP283<br><br>
CYOO 121000Z AUTO 10003KT 9SM OVC055 00/M04 A3033 RMK SLP280<br><br>
CYOO has no TAF <br><br>
<br><br>
CYTR 121100Z 03003KT 15SM OVC063 M01/M06 A3037 RMK SC8 SLP291<br><br>
CYTR 121000Z 02002KT 15SM OVC073 M01/M06 A3037 RMK AC8 SLP289<br><br>
TAF CYTR 120530Z 1206/1306 05006KT P6SM OVC120 FM121200 11005KT P6SM BKN060 OVC100 FM122000 17005KT P6SM BKN030 OVC060 BECMG 1223/1301 06006KT FM130500 06006KT P6SM -RASN SCT020 OVC030 RMK NXT FCST BY 121200Z<br><br>
<br><br>
