RETRIEVED AT : Jul 02 2018 19:52 Local <br>
  RETRIEVED AT: Jul 02 2018 23:52 UTC<br><br>
CYSN 022340Z 21009KT 12SM SCT040TCU BKN073 OVC220 27/25 A2999 RMK TCU3AC3CI2 VIS LWR SE SLP155 DENSITY ALT 1700FT<br><br>
CYSN 022304Z 23013G18KT 12SM -SHRA BKN040TCU OVC220 28/23 A2998 RMK TCU6CI2 CB EMBD SW-W VIS 3 SW SLP153 DENSITY ALT 1900FT<br><br>
CYSN 022300Z 22013G18KT 15SM VCSH BKN038TCU BKN220 28/23 A2998 RMK TCU5CI2 CB SW-W MOVG E VIS 4 SHRA SW SLP152 DENSITY ALT 1900FT<br><br>
CYSN 022200Z 20011KT 12SM SCT040TCU BKN170 BKN240 30/24 A2996 RMK TCU3AC2CI2 SLP145 DENSITY ALT 2100FT<br><br>
TAF AMD CYSN 022227Z 0222/0301 20010KT P6SM BKN050 BECMG 0223/0301 VRB03KT FEW050 RMK NXT FCST WILL BE ISSUED AT 031245Z<br><br>
<br><br>
CYHM 022300Z 21006KT 15SM FEW030TCU FEW052 SCT180 BKN230 29/24 A3002 RMK TCU1SC1AC1CI3 SLP161 DENSITY ALT 2400FT<br><br>
CYHM 022228Z 24007KT 15SM FEW030CB SCT060 SCT180 BKN230 28/23 A3000 RMK CB2SC1AC1CI2 SLP156 DENSITY ALT 2400FT<br><br>
CYHM 022200Z 24006KT 15SM TS FEW030CB SCT060 BKN180 BKN250 28/23 A3000 RMK CB2SC2AC2CI1 TS SE MOVG E SLP155 DENSITY ALT 2400FT<br><br>
TAF AMD CYHM 022211Z 0222/0318 25008KT P6SM FEW030 TEMPO 0222/0223 P6SM VCTS BKN030CB FM022300 30010KT P6SM BKN060 FM030000 31005KT P6SM SCT060 FM030200 VRB03KT P6SM SKC BECMG 0313/0315 08006KT RMK NXT FCST BY 030000Z<br><br>
<br><br>
KIAG 022253Z 20013G18KT 10SM CLR 29/22 A3001 RMK AO2 LTG DSNT W SLP153 T02890217<br><br>
KIAG 022153Z 22013KT 10SM CLR 29/22 A2999 RMK AO2 SLP146 T02940222<br><br>
KIAG 022121Z 0221/0318 20014G21KT P6SM SCT250 FM030200 19004KT P6SM VCSH BKN035 FM030600 VRB04KT P6SM BKN250 FM031400 05006KT P6SM FEW250<br><br>
<br><br>
KBUF 022254Z 23010KT 10SM FEW045 SCT190 SCT260 BKN300 28/22 A3003 RMK AO2 LTG DSNT NW SLP163 CB DSNT NW AND DSNT N MOV NE T02780217<br><br>
KBUF 022154Z 22011KT 10SM FEW045 FEW190 BKN260 BKN300 28/21 A3001 RMK AO2 SLP156 CB DSNT NW-N MOV E SHRA DSNT SE T02830206<br><br>
KBUF 022121Z 0221/0318 18014KT P6SM FEW040 BKN250 FM022300 23012KT P6SM SCT040 FM030200 25004KT P6SM BKN035 FM030600 VRB04KT P6SM BKN250 FM031000 05004KT P6SM SCT250<br><br>
<br><br>
TAF CYYZ 022039Z 0221/0324 27012G22KT P6SM SCT060 FM022300 29010KT P6SM FEW050 FM030200 VRB03KT P6SM SKC BECMG 0313/0315 13006KT BECMG 0322/0324 VRB03KT RMK NXT FCST BY 030000Z<br><br>
<br><br>
CYOO 022300Z AUTO 34009KT 9SM BKN039 28/21 A2998 RMK SLP151 DENSITY ALT 2000FT<br><br>
CYOO 022200Z AUTO 02008KT 9SM SCT048 28/23 A2996 RMK LTNG DIST E SLP144 DENSITY ALT 2000FT<br><br>
CYOO 022153Z AUTO 02008KT 9SM VCTS BKN048 28/23 A2996 RMK LTNG DIST E SLP145 DENSITY ALT 1900FT<br><br>
CYOO has no TAF <br><br>
<br><br>
CYTR 022300Z 29008KT 15SM FEW043 BKN082 BKN250 28/21 A2996 RMK SC2AC4CI1 SLP143<br><br>
CYTR 022219Z CCA 21008KT 15SM FEW030 BKN120 BKN250 29/23 A2993 RMK CU1AC5CI2 CB LN N MOVG NW SLP136<br><br>
CYTR 022200Z 22009KT 12SM TS FEW030 FEW120 BKN240 30/23 A2993 RMK CU1AC2CI3 CB LN SW-NE MOVG NE SLP134<br><br>
TAF AMD CYTR 022137Z 0221/0318 22010G20KT P6SM FEW030 SCT080 TEMPO 0221/0224 P6SM -SHRA VCTS BKN030 OVC080 PROB30 0222/0224 VRB15G30KT 1SM TSRA BR BKN010 OVC030CB FM030000 24012KT P6SM FEW030 BECMG 0301/0303 31006KT BECMG 0316/0318 21008KT RMK NXT FCST BY 030000Z<br><br>
<br><br>
