RETRIEVED AT : May 05 2018 17:05 Local <br>
  RETRIEVED AT: May 05 2018 21:05 UTC<br><br>
CYSN 052000Z 22020KT 15SM SCT110 BKN250 23/07 A2997 RMK AC4CI1 SLP150 DENSITY ALT 1300FT<br><br>
TAF CYSN 051938Z 0520/0601 23015G25KT P6SM FEW050 SCT240 FM052200 24012G22KT P6SM FEW040 BKN080 TEMPO 0522/0601 P6SM -SHRA BECMG 0522/0524 26012KT RMK NXT FCST WILL BE ISSUED AT 061245Z<br><br>
<br><br>
CYHM 052000Z 24017G24KT 15SM FEW060 BKN097 BKN250 23/09 A2999 RMK CU1AC4CI2 SLP156 DENSITY ALT 1800FT<br><br>
TAF CYHM 051738Z 0518/0618 24015G25KT P6SM FEW060 BKN220 TEMPO 0519/0524 P6SM -SHRA BKN060 PROB30 0520/0524 3SM TSRA BR BKN030 OVC060CB FM060000 23012KT P6SM SCT040 BKN080 BECMG 0606/0608 VRB03KT FM060900 22005KT P6SM FEW050 SCT100 FM061600 24008KT P6SM -SHRA SCT030 OVC100 RMK NXT FCST BY 060000Z<br><br>
<br><br>
KIAG 052053Z 23013G21KT 10SM FEW100 24/05 A2998 RMK AO2 PK WND 23027/1959 SLP153 T02390050 58007<br><br>
KIAG 051953Z 23019G26KT 10SM CLR 24/06 A3000 RMK AO2 PK WND 23027/1903 SLP158 T02390056<br><br>
KIAG 052030Z 0521/0618 23018G27KT P6SM VCSH SCT100 FM052300 22009KT P6SM BKN100 FM060200 21005KT P6SM BKN100 FM060900 VRB03KT P6SM BKN090 FM061600 04005KT P6SM BKN080<br><br>
<br><br>
KBUF 052054Z 22012KT 10SM FEW070 SCT230 19/07 A3001 RMK AO2 SLP164 T01890072 58003<br><br>
KBUF 051954Z 23015G20KT 10SM FEW070 SCT230 20/07 A3002 RMK AO2 SLP166 T02000072<br><br>
KBUF 052038Z 0521/0618 23018G25KT P6SM FEW100 SCT200 FM052300 22009KT P6SM BKN250 FM060200 20005KT P6SM BKN250 FM060900 VRB03KT P6SM BKN090 FM061600 06005KT P6SM BKN090<br><br>
<br><br>
CYYZ 052000Z 27017KT 15SM SCT070 BKN110 22/09 A2995 RMK CU4AC3 SLP145 DENSITY ALT 1600FT<br><br>
TAF CYYZ 052038Z 0521/0624 27015G25KT P6SM SCT070 BKN110 TEMPO 0521/0524 P6SM -SHRA BKN070 BECMG 0522/0524 25015KT FM060500 33006KT P6SM FEW060 SCT120 FM061200 01005KT P6SM SCT040 BECMG 0613/0615 09008KT FM061900 10010KT P6SM -SHRA SCT050 BKN080 FM062200 34012G22KT P6SM -SHRA SCT015 OVC040 RMK NXT FCST BY 060000Z<br><br>
<br><br>
CYOO 052000Z AUTO 22012G21KT 9SM BKN090 BKN110 20/09 A2994 RMK SLP140 DENSITY ALT 1100FT<br><br>
CYOO has no TAF <br><br>
<br><br>
CYTR 052000Z 21011G17KT 15SM FEW091 SCT250 18/10 A2994 RMK AC2CI2 SLP142<br><br>
TAF CYTR 051730Z 0518/0618 23015G25KT P6SM SCT060 SCT250 FM051900 23015G25KT P6SM BKN060 BKN250 BECMG 0521/0523 20008KT FM060200 20005KT P6SM FEW060 BKN250 FM061200 04008KT P6SM FEW050 SCT250 RMK NXT FCST BY 060000Z<br><br>
<br><br>
