RETRIEVED AT : Apr 06 2020 06:05 Local <br>
  RETRIEVED AT: Apr 06 2020 10:05 UTC<br><br>
CYSN has no TAF <br><br>
<br><br>
CYHM 060900Z 04005KT 15SM FEW250 00/M03 A3013 RMK CI1 CI TR SLP212<br><br>
TAF CYHM 060538Z 0606/0706 VRB03KT P6SM SKC BECMG 0617/0619 25008KT FM062100 25008KT P6SM BKN100 OVC200 BECMG 0702/0704 VRB03KT RMK NXT FCST BY 061200Z<br><br>
<br><br>
KIAG 060953Z AUTO 00000KT 10SM CLR M01/M03 A3014 RMK AO2 SLP217 T10111028<br><br>
KIAG 060853Z AUTO 00000KT 10SM CLR M01/M02 A3013 RMK AO2 SLP215 T10111022 50000<br><br>
KIAG 060900Z 0609/0706 22004KT P6SM FEW250 FM061600 26004KT P6SM FEW250 FM062200 23006KT P6SM BKN200 FM070200 20005KT P6SM BKN100<br><br>
<br><br>
KBUF 060954Z 17003KT 1/4SM R23/1200V1600FT FG VV001 00/M01 A3014 RMK AO2 SLP213 I1000 T00001011<br><br>
KBUF 060932Z 00000KT 1/4SM R23/1200V1400FT FG VV001 00/M01 A3014 RMK AO2 T00001011<br><br>
KBUF 060912Z 00000KT 1SM R23/1400V2000FT BR VV001 01/00 A3014 RMK AO2 VIS 1/2V5 T00060000<br><br>
KBUF 060905Z 00000KT 3/4SM R23/1800V2800FT BR VV001 02/00 A3014 RMK AO2 T00170000<br><br>
KBUF 060901Z 00000KT 2SM R23/2000V6000FT BR BKN001 01/M01 A3014 RMK AO2 T00111006<br><br>
KBUF 060854Z 00000KT 9SM R23/2000VP6000FT SCT001 01/M01 A3014 RMK AO2 SLP211 T00111006 51002<br><br>
KBUF 060959Z 0610/0706 VRB03KT 1/4SM FG VV001 TEMPO 0610/0612 6SM BR BKN002 FM061200 24005KT 6SM BR BKN004 FM061300 24005KT P6SM FEW250 FM062200 23007KT P6SM BKN200 FM070100 21005KT P6SM BKN100<br><br>
<br><br>
CYYZ 060900Z 04004KT 15SM SKC 01/M02 A3013 RMK SLP211<br><br>
TAF CYYZ 060838Z 0609/0712 VRB03KT P6SM SKC PROB30 0609/0613 2SM BR FM061300 32006KT P6SM SKC FM061600 15006G16KT P6SM SCT150 FM062100 18006G16KT P6SM BKN100 OVC200 BECMG 0623/0701 VRB03KT BECMG 0701/0703 34009KT FM070500 04007KT P6SM BKN100 RMK NXT FCST BY 061200Z<br><br>
<br><br>
CYOO 060900Z AUTO 35007KT 9SM CLR 00/M01 A3013 RMK SLP208<br><br>
TAF CYOO 060738Z 0608/0620 35008KT P6SM SKC BECMG 0616/0618 21010KT FM061900 21010KT P6SM BKN080 RMK FCST BASED ON AUTO OBS. NXT FCST BY 061400Z<br><br>
<br><br>
CYTR 060900Z 33005KT 15SM SKC 01/M01 A3013 RMK SLP205<br><br>
TAF CYTR 060530Z 0606/0706 33008KT P6SM SKC BECMG 0609/0611 VRB03KT BECMG 0616/0618 21012KT FM062000 21012KT P6SM FEW120 BKN200 FM070000 24005KT P6SM BKN080 BECMG 0701/0703 28005KT RMK NXT FCST BY 061200Z<br><br>
<br><br>
