RETRIEVED AT : Oct 27 2018 02:05 Local <br>
  RETRIEVED AT: Oct 27 2018 06:05 UTC<br><br>
CYSN has no TAF <br><br>
<br><br>
CYHM 270544Z 08012KT 15SM -RA OVC024 05/01 A2987 RMK SC8 SLP122<br><br>
CYHM 270500Z 07014G19KT 15SM OVC039 05/01 A2987 RMK SC8 SLP121<br><br>
TAF CYHM 270538Z 2706/2806 06012G22KT P6SM OVC030 TEMPO 2706/2711 P6SM -RA OVC015 FM271100 06015G25KT P6SM -RA BKN008 OVC015 TEMPO 2711/2717 2SM -RA BR OVC003 FM271700 06015G25KT 4SM -RA BR OVC006 BECMG 2722/2724 04012G22KT FM280200 04012G22KT 2SM -RA BR OVC004 RMK NXT FCST BY 271200Z<br><br>
<br><br>
KIAG 270553Z AUTO 08011KT 9SM -RA SCT045 OVC050 03/00 A2989 RMK AO2 SLP131 P0004 60005 T00330000 10061 20033 56009<br><br>
KIAG 270453Z AUTO 08011KT 8SM -RA OVC043 04/00 A2990 RMK AO2 RAB17 SLP134 P0001 T00390000 400890017<br><br>
KIAG 270535Z 2706/2806 08011G17KT P6SM -RA OVC040 TEMPO 2706/2710 BKN015 FM271200 07012G22KT P6SM -RA OVC025 FM271600 06014G24KT 6SM -RA OVC015 FM280500 02009KT 6SM -RA OVC012<br><br>
<br><br>
KBUF 270554Z 06013KT 10SM -RA SCT045 OVC055 03/01 A2988 RMK AO2 SLP123 P0001 60001 T00330011 10067 20033 58012<br><br>
KBUF 270454Z 07013KT 10SM -RA BKN049 OVC065 04/01 A2990 RMK AO2 RAB24 SLP130 P0000 T00440006 400890017<br><br>
KBUF 270535Z 2706/2806 08010KT P6SM -RA OVC035 TEMPO 2706/2710 BKN015 FM271300 07012G21KT 6SM -RA OVC015 FM271800 07014G24KT 6SM -RA OVC007 FM280100 03013G19KT 6SM -RA OVC007 FM280500 01007KT 6SM -RA OVC007<br><br>
<br><br>
CYYZ 270554Z 08013G19KT 15SM FEW015 FEW050 OVC095 05/01 A2991 RMK SF1SC1AS7 SF TR SLP135<br><br>
CYYZ 270500Z 08013G22KT 15SM -RA OVC030 05/00 A2992 RMK SC8 SLP139<br><br>
TAF CYYZ 270538Z 2706/2812 08012G22KT P6SM OVC030 TEMPO 2706/2710 P6SM -SHRA BKN030 OVC090 FM271000 06012G22KT P6SM -RA SCT006 OVC012 TEMPO 2710/2715 5SM -RA BR OVC006 FM271700 06015G25KT P6SM -RA SCT009 OVC015 FM272200 04010G20KT 4SM -RASN BR OVC008 FM280600 02010KT P6SM -SNRA SCT008 OVC015 BECMG 2806/2808 35008KT RMK NXT FCST BY 270900Z<br><br>
<br><br>
CYOO 270550Z AUTO 07013G18KT 9SM -RA BKN043 OVC050 05/M00 A2995 RMK SLP148<br><br>
CYOO 270500Z AUTO 07008G15KT 9SM BKN090 OVC130 05/M00 A2996 RMK SLP152<br><br>
CYOO has no TAF <br><br>
<br><br>
CYTR 270500Z 05008KT 15SM BKN075 OVC110 04/M03 A3003 RMK AC5AC3 SLP175<br><br>
TAF CYTR 270530Z 2706/2806 05008KT P6SM BKN080 TEMPO 2708/2720 5SM -SHRA BR BKN010 OVC040 BECMG 2712/2714 05012G22KT FM272000 05015G25KT 4SM -RA BR OVC020 TEMPO 2720/2806 2SM -RASN BR OVC008 BECMG 2802/2804 03010KT RMK NXT FCST BY 271200Z<br><br>
<br><br>
