RETRIEVED AT : Jul 04 2020 16:05 Local <br>
  RETRIEVED AT: Jul 04 2020 20:05 UTC<br><br>
CYSN 041900Z 03006KT 360V080 15SM SCT250 30/10 A2997 RMK CI4 SLP150 DENSITY ALT 2100FT<br><br>
TAF CYSN 041938Z 0420/0501 03006KT P6SM SCT250 BECMG 0422/0424 VRB03KT RMK NXT FCST WILL BE ISSUED AT 051245Z<br><br>
<br><br>
CYHM 041900Z 03008KT 15SM BKN250 29/12 A3001 RMK CI5 SLP159 DENSITY ALT 2500FT<br><br>
TAF CYHM 041738Z 0418/0518 02008KT P6SM FEW050 SCT250 BECMG 0422/0424 VRB03KT BECMG 0513/0515 25007KT RMK NXT FCST BY 050000Z<br><br>
<br><br>
KIAG 041953Z 35007KT 10SM CLR 29/10 A3000 RMK AO2 SLP151 T02940100<br><br>
KIAG 041853Z 04009KT 10SM CLR 29/12 A2999 RMK AO2 SLP148 T02940117<br><br>
KIAG 041908Z 0419/0518 03008KT P6SM FEW060 FEW250 FM042300 VRB03KT P6SM FEW060 FEW250 FM051500 25007KT P6SM FEW060 FEW150<br><br>
<br><br>
KBUF 041954Z VRB04KT 10SM BKN250 31/12 A2999 RMK AO2 SLP150 T03110122<br><br>
KBUF 041854Z 04007KT 10SM FEW065 SCT250 31/13 A2999 RMK AO2 SLP148 T03110128<br><br>
KBUF 041734Z 0418/0518 02010KT P6SM FEW060 FEW250 FM050000 VRB04KT P6SM FEW250 FM051500 24008KT P6SM FEW045 FEW100<br><br>
<br><br>
CYYZ 041900Z 17009KT 130V220 15SM FEW250 31/11 A2999 RMK CI2 SLP153 DENSITY ALT 2400FT<br><br>
TAF CYYZ 041738Z 0418/0524 17008KT P6SM FEW250 BECMG 0423/0501 02008KT BECMG 0513/0515 28008KT RMK NXT FCST BY 042100Z<br><br>
<br><br>
CYOO 041900Z AUTO 17009KT 130V220 9SM CLR 29/11 A2997 RMK SLP150 DENSITY ALT 2100FT<br><br>
TAF CYOO 041938Z 0420/0508 17008KT P6SM FEW250 BECMG 0423/0501 35005KT RMK FCST BASED ON AUTO OBS. NXT FCST BY 050200Z<br><br>
<br><br>
CYTR 041900Z 23008KT 15SM FEW250 29/16 A2995 RMK CI1 SLP140<br><br>
TAF CYTR 041732Z 0418/0518 03005KT P6SM FEW250 BECMG 0418/0420 21008KT FM050200 35005KT P6SM SCT080 BECMG 0515/0517 25008KT RMK NXT FCST BY 050000Z<br><br>
<br><br>
