RETRIEVED AT : Jun 01 2018 23:41 Local <br>
  RETRIEVED AT: Jun 02 2018 03:41 UTC<br><br>
CYSN has no TAF <br><br>
<br><br>
CYHM 020300Z 02007KT 15SM FEW050 20/16 A2987 RMK SC1 SC TR SLP114 DENSITY ALT 1600FT<br><br>
CYHM 020200Z 02014G19KT 15SM FEW058 21/16 A2986 RMK SC1 SC TR SLP110 DENSITY ALT 1800FT<br><br>
TAF CYHM 012338Z 0200/0224 32010KT P6SM SCT040 SCT120 BKN260 TEMPO 0204/0206 BKN020 FM020600 02012KT P6SM BKN020 TEMPO 0206/0212 SCT020 FM021400 05015KT P6SM BKN030 TEMPO 0214/0218 BKN020 FM022300 05010KT P6SM FEW030 RMK NXT FCST BY 020600Z<br><br>
<br><br>
KIAG 020253Z 35009KT 10SM FEW050 22/16 A2985 RMK AO2 SLP103 T02170161 53015<br><br>
KIAG 020153Z 35006KT 10SM CLR 23/17 A2984 RMK AO2 SLP098 T02280172<br><br>
KIAG 020303Z 0203/0224 34009KT P6SM BKN025 FM020600 02009KT P6SM BKN020 FM021400 04011KT P6SM SCT030 FM021900 04011KT P6SM FEW250<br><br>
<br><br>
KBUF 020303Z 0203/0224 34009KT P6SM BKN025 FM020500 03010KT P6SM BKN020 FM021400 04011KT P6SM SCT025 FM021800 05012KT P6SM SCT250<br><br>
<br><br>
CYYZ 020300Z 35015KT 15SM FEW250 18/13 A2987 RMK CI1 SLP115 DENSITY ALT 1200FT<br><br>
CYYZ 020200Z 34019KT 15SM FEW030 FEW250 20/14 A2986 RMK SC1CI1 SC TR SLP111 DENSITY ALT 1400FT<br><br>
TAF CYYZ 020238Z 0203/0306 35015G25KT P6SM SKC FM020500 36012G22KT P6SM BKN030 TEMPO 0205/0214 BKN020 BECMG 0216/0218 06010KT FM022000 09007KT P6SM SCT050 BECMG 0223/0301 14007KT BECMG 0304/0306 08007KT RMK NXT FCST BY 020600Z<br><br>
<br><br>
CYOO 020300Z AUTO 35013KT 9SM CLR 21/16 A2984 RMK SLP106 DENSITY ALT 1200FT<br><br>
CYOO 020200Z AUTO 34008KT 9SM SCT024 21/17 A2984 RMK SLP104 DENSITY ALT 1300FT<br><br>
CYOO has no TAF <br><br>
<br><br>
CYTR 020300Z 36010G18KT 15SM SCT019 BKN070 20/17 A2982 RMK SC4AC2 SLP098<br><br>
CYTR 020200Z 01008KT 10SM FEW011 BKN035 OVC250 21/19 A2981 RMK SF2SC5CI2 SLP093<br><br>
TAF AMD CYTR 020209Z 0202/0224 02010G20KT P6SM FEW010 BKN030 PROB30 0202/0203 02015G25KT 3SM TSRA BR OVC010CB FM021500 03012KT P6SM SCT030 FM022000 04012KT P6SM SKC RMK NXT FCST BY 020600Z<br><br>
<br><br>
