RETRIEVED AT : Sep 01 2018 10:05 Local <br>
  RETRIEVED AT: Sep 01 2018 14:05 UTC<br><br>
CYSN 011300Z 19010KT 10SM BKN250 24/21 A3014 RMK CI6 SLP208 DENSITY ALT 1200FT<br><br>
TAF CYSN 011238Z 0113/0201 VRB03KT P6SM SKC BECMG 0114/0116 20010G20KT FEW030 FM012300 VRB03KT P6SM SKC RMK NXT FCST BY 012000Z<br><br>
<br><br>
CYHM 011327Z 19005KT 150V210 4SM R12/4500VP6000FT/U BR BKN004 21/21 A3017 RMK SF6 SLP218 DENSITY ALT 1400FT<br><br>
CYHM 011320Z 18004KT 2SM R12/2600V6000FT/U BR BKN004 21/21 A3017 RMK FG1SF6 SLP216 DENSITY ALT 1400FT<br><br>
CYHM 011310Z 19003KT 1SM R12/1400V2400FT/U BR BKN003 20/20 A3016 RMK FG3SF4 SLP216 DENSITY ALT 1300FT<br><br>
CYHM 011300Z 17003KT 1/8SM R12/1200FT/N FG VV002 20/20 A3016 RMK FG8 SLP215 DENSITY ALT 1300FT<br><br>
CYHM 011214Z 10004KT 1/8SM R12/P6000FT/N FG VV002 17/17 A3016 RMK FG8 SLP215 DENSITY ALT 1000FT<br><br>
CYHM 011208Z 09003KT 1SM R12/P6000FT/N BR BKN002 17/17 A3016 RMK FG2SF4 SLP216 DENSITY ALT 900FT<br><br>
TAF AMD CYHM 011238Z 0112/0212 05005KT 1/8SM FG OVC002 TEMPO 0112/0114 P6SM NSW FEW002 FM011400 20012KT P6SM FEW030 FM020400 20010KT P6SM -SHRA BKN050 PROB30 0206/0212 2SM +TSRA BR BKN020 BKN050CB RMK NXT FCST BY 011800Z<br><br>
<br><br>
KIAG 011353Z 20012KT 10SM CLR 24/20 A3018 RMK AO2 SLP216 T02440200<br><br>
KIAG 011253Z 19008KT 10SM CLR 22/20 A3017 RMK AO2 SLP212 T02220200<br><br>
KIAG 011120Z 0112/0212 VRB03KT P6SM SCT040 FM011400 21010KT P6SM SCT040 FM012200 19008KT P6SM SCT250 FM020400 21008KT P6SM BKN040<br><br>
<br><br>
KBUF 011354Z 19013KT 10SM FEW045 SCT200 25/19 A3018 RMK AO2 SLP218 T02500194<br><br>
KBUF 011254Z 18011KT 10SM FEW200 23/19 A3018 RMK AO2 SLP217 T02330194<br><br>
KBUF 011120Z 0112/0212 18005KT P6SM SCT035 FM011500 20010KT P6SM SCT040 FM012200 19008KT P6SM SCT250 FM020400 20008KT P6SM BKN040<br><br>
<br><br>
CYYZ 011312Z 14003KT 6SM BR SCT003 OVC008 20/19 A3016 RMK SF3ST5 SLP216 DENSITY ALT 1000FT<br><br>
CYYZ 011300Z 13005KT 100V170 5SM BR SCT003 BKN010 BKN200 20/19 A3016 RMK SF4ST2CI1 CI TR SLP216 DENSITY ALT 1000FT<br><br>
CYYZ 011242Z 10003KT 3SM BR OVC003 19/18 A3016 RMK FG2ST6 SLP213 DENSITY ALT 900FT<br><br>
CYYZ 011235Z 11004KT 3/4SM R15L/P6000FT/N R24R/P6000FT/U R23/P6000FT/N BR OVC002 19/18 A3015 RMK FG2ST6 SLP212 DENSITY ALT 900FT<br><br>
CYYZ 011215Z 10003KT 050V120 1/2SM R15L/P6000FT/N R24R/4500VP6000FT/U R23/P6000FT/N FG VV002 19/17 A3016 RMK FG8 SLP214 DENSITY ALT 900FT<br><br>
CYYZ 011211Z 08002KT 3/4SM R15L/P6000FT/N R24R/4500VP6000FT/U R23/P6000FT/N BR OVC002 19/17 A3016 RMK FG4ST4 SLP214 DENSITY ALT 900FT<br><br>
TAF AMD CYYZ 011206Z 0112/0218 VRB03KT 5SM BR BKN003 BKN012 TEMPO 0112/0114 P6SM NSW SCT004 BKN025 FM011400 21008KT P6SM BKN015 TEMPO 0114/0116 SCT030 FM011600 20012KT P6SM SCT030 BECMG 0116/0117 18012G22KT FM011700 18012G22KT P6SM SCT030 TEMPO 0117/0122 BKN030 BECMG 0201/0203 21008KT FM020500 22008KT P6SM -SHRA BKN040 PROB30 0205/0211 2SM +TSRA BR BKN040CB FM021700 23015G25KT P6SM -SHRA BKN030 PROB30 0217/0218 VRB15G25KT 1SM +TSRA BR BKN015 OVC030CB RMK NXT FCST BY 011500Z<br><br>
<br><br>
CYOO 011342Z AUTO VRB02KT 9SM SCT008 BKN015 22/21 A3017 RMK SLP216 DENSITY ALT 1100FT<br><br>
CYOO 011300Z AUTO 18004KT 9SM OVC006 20/20 A3017 RMK SLP216 DENSITY ALT 900FT<br><br>
CYOO 011230Z AUTO VRB02KT 6SM BR BKN004 20/20 A3016 RMK SLP215 DENSITY ALT 800FT<br><br>
CYOO has no TAF <br><br>
<br><br>
CYTR 011314Z 19007KT 12SM FEW010 SCT021 BKN033 23/21 A3018 RMK SF1SC3SC3 SLP221<br><br>
CYTR 011300Z 19007KT 10SM FEW010 BKN021 23/21 A3018 RMK SF2SC6 SLP221<br><br>
TAF AMD CYTR 011330Z 0113/0212 19008KT P6SM FEW010 SCT020 BKN030 TEMPO 0113/0115 FEW010 BKN020 FM011500 20010KT P6SM FEW025 BECMG 0122/0124 20005KT FM020900 20005KT P6SM -SHRA BKN025 OVC080 RMK NXT FCST BY 011800Z<br><br>
<br><br>
