RETRIEVED AT : Jul 14 2019 07:06 Local <br>
  RETRIEVED AT: Jul 14 2019 11:06 UTC<br><br>
CYSN has no TAF <br><br>
<br><br>
CYHM 141000Z 29007KT 15SM FEW050 FEW250 15/11 A3003 RMK SC1CI1 SC TR SLP167 DENSITY ALT 900FT<br><br>
TAF CYHM 140540Z 1406/1506 31008KT P6SM SKC BECMG 1504/1506 02005KT RMK NXT FCST BY 141200Z<br><br>
<br><br>
KIAG 141053Z 25004KT 10SM CLR 17/12 A3002 RMK AO2 SLP163 T01670122<br><br>
KIAG 140953Z AUTO 30007KT 10SM CLR 16/11 A3000 RMK AO2 SLP155 T01610106<br><br>
KIAG 140858Z 1409/1506 29006KT P6SM SCT180 FM141300 31007KT P6SM SKC FM150100 VRB03KT P6SM SKC<br><br>
<br><br>
KBUF 141054Z 28005KT 10SM FEW050 18/10 A3002 RMK AO2 SLP163 T01830100<br><br>
KBUF 140954Z 27005KT 10SM FEW050 18/09 A3001 RMK AO2 SLP158 T01780089<br><br>
KBUF 140858Z 1409/1506 32004KT P6SM SCT150 FM141300 30006KT P6SM SKC FM142300 27007KT P6SM SKC FM150200 25004KT P6SM SKC<br><br>
<br><br>
CYYZ 141000Z 34009G19KT 15SM FEW100 17/13 A3000 RMK AC1 AC TR SLP157 DENSITY ALT 900FT<br><br>
TAF CYYZ 140838Z 1409/1512 31008KT P6SM SKC FM141000 34010KT P6SM FEW010 FM141500 33010G20KT P6SM SCT030 FM141800 33010KT P6SM FEW040 BECMG 1422/1424 01010KT BECMG 1504/1506 34008KT RMK NXT FCST BY 141200Z<br><br>
<br><br>
CYOO 141000Z AUTO 34008KT 9SM CLR 17/14 A2997 RMK SLP151 DENSITY ALT 700FT<br><br>
TAF CYOO 140739Z 1408/1420 31006KT P6SM SKC BECMG 1413/1415 32012KT RMK FCST BASED ON AUTO OBS. NXT FCST BY 141400Z<br><br>
<br><br>
CYTR 141000Z 34008KT 15SM FEW060 FEW250 17/15 A2994 RMK SC1CI1 SLP138<br><br>
TAF CYTR 140530Z 1406/1506 29005KT P6SM FEW060 FM141500 31008KT P6SM SCT030 RMK NXT FCST BY 141200Z<br><br>
<br><br>
