RETRIEVED AT : Jun 09 2018 19:38 Local <br>
  RETRIEVED AT: Jun 09 2018 23:38 UTC<br><br>
TAF CYSN 091938Z 0920/1001 33005KT P6SM OVC150 FM100000 04005KT P6SM SCT150 BKN250 RMK NXT FCST WILL BE ISSUED AT 101245Z<br><br>
<br><br>
CYHM 092300Z 06006KT 15SM BKN170 20/12 A3008 RMK AC7 SLP188 DENSITY ALT 1400FT<br><br>
CYHM 092200Z 05006KT 15SM BKN160 BKN210 OVC240 21/11 A3009 WS RWY06 RMK AC5CC2CI1 WND ESTD SLP192 DENSITY ALT 1500FT<br><br>
TAF CYHM 091738Z 0918/1018 07008KT P6SM BKN120 BECMG 0923/1001 SCT100 BECMG 1015/1016 06015KT RMK NXT FCST BY 100000Z<br><br>
<br><br>
KIAG 092253Z 03006KT 10SM CLR 23/13 A3008 RMK AO2 SLP183 T02280128<br><br>
KIAG 092153Z 01006KT 10SM CLR 23/13 A3009 RMK AO2 SLP190 T02280133<br><br>
KIAG 092100Z 0921/1018 01005KT P6SM BKN110 FM100400 08004KT P6SM SCT140 FM101000 08008KT P6SM SCT150 FM101400 08014G20KT P6SM SCT150<br><br>
<br><br>
KBUF 092254Z 09006KT 10SM BKN130 OVC200 22/11 A3007 RMK AO2 SLP183 T02220111<br><br>
KBUF 092154Z 07004KT 10SM BKN130 OVC200 23/11 A3009 RMK AO2 SLP190 T02280106<br><br>
KBUF 092100Z 0921/1018 06005KT P6SM BKN120 FM100100 05004KT P6SM SCT150 FM101400 08014G22KT P6SM BKN070 FM101700 07015KT P6SM SCT070<br><br>
<br><br>
CYYZ 092300Z 16004KT 15SM FEW140 BKN170 22/09 A3008 RMK AC2AC5 SLP187 DENSITY ALT 1300FT<br><br>
CYYZ 092200Z 16006KT 130V200 15SM FEW060 BKN140 BKN230 22/10 A3008 RMK CU1AC5CC2 CU TR SLP189 DENSITY ALT 1400FT<br><br>
TAF CYYZ 092038Z 0921/1024 18005KT P6SM BKN150 BKN250 FM100000 04008KT P6SM SCT150 FM101200 09010KT P6SM SCT050 BKN180 FM101500 09012G22KT P6SM FEW050 BKN180 FM102200 09010KT P6SM SKC RMK NXT FCST BY 100000Z<br><br>
<br><br>
CYOO 092300Z AUTO 22004KT 9SM CLR 23/06 A3008 RMK SLP186 DENSITY ALT 1200FT<br><br>
CYOO 092200Z AUTO 18005KT 9SM FEW180 SCT210 SCT230 23/06 A3009 RMK SLP190 DENSITY ALT 1200FT<br><br>
CYOO has no TAF <br><br>
<br><br>
CYTR 092300Z 22006KT 15SM FEW060 FEW120 OVC220 21/10 A3006 RMK SC2AC1CS6 HALO SLP180<br><br>
CYTR 092200Z 23008KT 15SM FEW035 FEW080 OVC250 21/10 A3008 RMK SC1AC2CS6 HALO SLP185<br><br>
TAF CYTR 091730Z 0918/1018 VRB03KT P6SM FEW040 OVC090 BECMG 1000/1002 FEW200 FM101200 03008KT P6SM BKN200 RMK NXT FCST BY 100000Z<br><br>
<br><br>
