RETRIEVED AT : May 19 2018 19:55 Local <br>
  RETRIEVED AT: May 19 2018 23:55 UTC<br><br>
CYSN 192300Z 01003KT 320V040 15SM OVC040 13/11 A2984 RMK SC8 SLP105<br><br>
CYSN 192200Z 34005KT 15SM BKN032 BKN120 16/12 A2985 RMK SC5AC2 SLP109 DENSITY ALT 600FT<br><br>
TAF CYSN 191938Z 1920/2001 VRB03KT P6SM OVC030 TEMPO 1920/2001 4SM -SHRA BR OVC020 RMK NXT FCST WILL BE ISSUED AT 201245Z<br><br>
<br><br>
TAF CYHM 191738Z 1918/2018 05006KT 11/2SM BR OVC015 TEMPO 1918/2001 6SM BR OVC025 PROB30 1921/2001 OVC006 FM200100 21012KT 3SM -SHRA BR OVC010 TEMPO 2001/2004 11/2SM SHRA BR OVC006 BECMG 2005/2007 30010KT FM200800 33010KT P6SM BKN010 OVC030 BECMG 2012/2014 02008KT FM201700 02008KT P6SM BKN030 RMK NXT FCST BY 200000Z<br><br>
<br><br>
KIAG 192353Z 24004KT 10SM SCT043 22/17 A2983 RMK AO2 LTG DSNT SW SLP098 60002 T02220167 10239 20183 58012<br><br>
KIAG 192253Z 21007KT 10SM OVC035 23/16 A2984 RMK AO2 SLP104 T02330161<br><br>
KIAG 192101Z 1921/2018 19008KT P6SM BKN035 TEMPO 1923/2001 4SM -SHRA BKN025 FM200200 20010G18KT P6SM OVC025 FM200300 20012G22KT 6SM BR VCSH OVC020 FM200500 23012G22KT 4SM BR VCSH OVC007 FM200800 29010G18KT 3SM BR BKN012 FM201000 30010G18KT P6SM BKN012 FM201700 30006KT P6SM SCT035<br><br>
<br><br>
KBUF 192254Z 22008KT 10SM SCT046 BKN110 26/17 A2985 RMK AO2 SLP105 T02610167<br><br>
KBUF 192101Z 1921/2018 19012KT P6SM BKN035 FM192200 19009KT P6SM BKN025 TEMPO 1923/2001 4SM -SHRA OVC025 FM200300 19012G22KT 6SM BR VCSH OVC035 FM200400 20012G22KT 4SM BR VCSH OVC020 FM200800 28010G18KT 2SM BR OVC007 FM201000 29009KT P6SM OVC007 FM201700 27006KT P6SM BKN020<br><br>
<br><br>
CYYZ 192339Z 15006KT 15SM FEW005 SCT041 BKN110 14/12 A2983 RMK SF2SC2AC3 SLP104 DENSITY ALT 700FT<br><br>
CYYZ 192300Z 13007KT 15SM BKN031 BKN110 BKN250 14/12 A2983 RMK SC5AC1CI1 SLP105 DENSITY ALT 800FT<br><br>
CYYZ 192200Z 16006KT 15SM FEW005 FEW025 BKN110 BKN270 16/14 A2985 RMK SF1SC1AC5CI1 SF TR SLP110 DENSITY ALT 900FT<br><br>
TAF CYYZ 192038Z 1921/2024 13006KT P6SM BKN025 TEMPO 1921/2003 5SM BR BKN006 PROB40 1921/2003 2SM BR OVC003 FM200300 VRB03KT 2SM -SHRA BR OVC006 TEMPO 2003/2006 6SM BR OVC010 PROB30 2003/2005 VRB12KT 1SM SHRA BR BKN002 OVC005 FM200600 27006KT 6SM -SHRA BR OVC012 FM200800 33013KT P6SM BKN012 BECMG 2010/2012 35013G23KT BECMG 2013/2015 35010G20KT FM201600 35012KT P6SM SKC RMK NXT FCST BY 200000Z<br><br>
<br><br>
CYOO 192300Z AUTO 12004KT 9SM SCT022 OVC027 16/13 A2984 RMK SLP108 DENSITY ALT 700FT<br><br>
CYOO 192232Z AUTO 12006KT 9SM BKN025 16/13 A2985 RMK SLP110 DENSITY ALT 700FT<br><br>
CYOO 192227Z AUTO 13006KT 9SM BKN023 BKN028 16/13 A2985 RMK SLP110 DENSITY ALT 700FT<br><br>
CYOO 192220Z AUTO 11008KT 9SM BKN025 16/13 A2984 RMK SLP108 DENSITY ALT 700FT<br><br>
CYOO 192200Z AUTO 09006KT 9SM OVC021 16/13 A2985 RMK SLP111 DENSITY ALT 700FT<br><br>
CYOO has no TAF <br><br>
<br><br>
CYTR 192300Z 13004KT 15SM OVC021 15/12 A2986 RMK SC8 SLP113<br><br>
CYTR 192200Z 14006KT 15SM FEW013 OVC021 15/12 A2989 RMK SF1SC8 SLP123<br><br>
TAF AMD CYTR 192040Z 1920/2018 13005KT P6SM SCT012 OVC025 TEMPO 1920/2003 5SM -DZ BR BKN012 FM200300 20005KT P6SM -SHRA SCT010 OVC025 PROB30 2004/2012 VRB15G25KT 1SM TSRA BR OVC012CB FM201200 35010G20KT P6SM SCT020 BKN030 BECMG 2016/2018 35008KT SCT040 RMK NXT FCST BY 200000Z<br><br>
<br><br>
