RETRIEVED AT : Sep 02 2017 06:10 Local <br>
  RETRIEVED AT: Sep 02 2017 10:10 UTC<br><br>
CYSN has no TAF <br><br>
<br><br>
CYHM 021000Z 07008KT 15SM FEW250 06/05 A3015 RMK CI2 SLP215<br><br>
CYHM 020900Z 05006KT 15SM FEW250 06/06 A3016 RMK CI2 SLP216<br><br>
TAF CYHM 020538Z 0206/0306 06007KT P6SM BKN240 BECMG 0217/0219 10015KT FM022000 12015KT P6SM -SHRA BKN025 OVC140 FM022300 12010KT 6SM -RA BR OVC012 RMK NXT FCST BY 021200Z<br><br>
<br><br>
KIAG 020953Z AUTO 09004KT 10SM CLR 07/03 A3017 RMK AO2 SLP221 T00720033<br><br>
KIAG 020853Z AUTO 10005KT 10SM CLR 08/04 A3018 RMK AO2 SLP224 T00780044 56012<br><br>
KIAG 020914Z 0209/0306 00000KT P6SM SCT250 FM021300 11008KT P6SM SCT250 FM022100 14011KT P6SM OVC070 FM022300 13008KT P6SM OVC045 FM030200 13006KT P6SM -RA OVC035 FM030400 14006KT 4SM RA OVC030<br><br>
<br><br>
KBUF 020954Z 11006KT 10SM FEW150 BKN200 BKN250 07/04 A3017 RMK AO2 SLP218 T00720039<br><br>
KBUF 020854Z 11005KT 10SM FEW150 BKN200 BKN250 07/04 A3018 RMK AO2 SLP221 T00720044 57009<br><br>
KBUF 020914Z 0209/0306 11008KT P6SM BKN250 FM021800 13008KT P6SM BKN140 FM022100 15011G17KT P6SM OVC060 FM030100 12006KT P6SM -RA OVC035 FM030400 VRB03KT 4SM RA OVC035<br><br>
<br><br>
CYYZ 021000Z 02004KT 15SM SCT250 09/06 A3017 RMK CI4 SLP219<br><br>
CYYZ 020900Z 02003KT 15SM SCT250 09/06 A3017 RMK CI3 SLP219<br><br>
TAF CYYZ 020838Z 0209/0312 34005KT P6SM SCT250 BECMG 0213/0215 12015KT FM022300 16010KT P6SM -SHRA OVC025 FM030500 14008KT 3SM -SHRA BR OVC007 FM031100 28010KT P6SM -SHRA OVC010 RMK NXT FCST BY 021200Z<br><br>
<br><br>
CYOO 021000Z AUTO 06008KT 9SM CLR 11/06 A3017 RMK SLP221<br><br>
CYOO 020900Z AUTO 07008KT 9SM CLR 11/05 A3017 RMK SLP221<br><br>
CYOO has no TAF <br><br>
<br><br>
CYTR 021000Z 04005KT 15SM FEW250 05/05 A3020 RMK CI2 SLP229<br><br>
CYTR 020900Z 05005KT 15SM SKC 06/05 A3021 RMK SLP231<br><br>
TAF CYTR 020530Z 0206/0306 VRB03KT P6SM SCT250 BECMG 0216/0218 14008KT FM022200 14008KT P6SM BKN120 BECMG 0300/0302 BKN030 FM030400 16008KT 6SM -SHRA BR SCT015 OVC030 RMK NXT FCST BY 021200Z<br><br>
<br><br>
