RETRIEVED AT : Feb 23 2020 16:05 Local <br>
  RETRIEVED AT: Feb 23 2020 21:05 UTC<br><br>
CYSN 232000Z 23018G23KT 15SM SCT190 08/M07 A2996 RMK CI3 SLP150<br><br>
TAF CYSN 231942Z 2320/2402 22015G25KT P6SM SCT240 RMK NXT FCST WILL BE ISSUED AT 241345Z<br><br>
<br><br>
CYHM 232000Z 21015G22KT 15SM FEW250 08/M04 A2993 RMK CI1 CI TR SLP145<br><br>
TAF CYHM 231742Z 2318/2418 22012G22KT P6SM FEW240 BECMG 2401/2403 23012KT FM241100 23008KT P6SM BKN015 RMK NXT FCST BY 240000Z<br><br>
<br><br>
KIAG 232053Z 23015KT 10SM CLR 08/M08 A2995 RMK AO2 SLP152 T00781078 58022<br><br>
KIAG 231953Z 22017KT 10SM CLR 08/M07 A2997 RMK AO2 SLP159 T00781067<br><br>
KIAG 231720Z 2318/2418 22016G24KT P6SM SCT250 FM232200 20012KT P6SM SCT050 FM240300 21016G24KT P6SM SCT200 FM241400 24012KT P6SM BKN025<br><br>
<br><br>
KBUF 232054Z 21010KT 10SM FEW065 FEW250 08/M08 A2997 RMK AO2 SLP153 T00781078 56019<br><br>
KBUF 231954Z 22012KT 10SM FEW170 SCT220 SCT260 08/M08 A2998 RMK AO2 SLP158 T00831078<br><br>
KBUF 231720Z 2318/2418 22016G24KT P6SM SCT250 FM232200 21010KT P6SM SCT050 FM240300 22014G22KT P6SM SCT200 FM241400 24012KT P6SM BKN025<br><br>
<br><br>
CYYZ 232000Z 20016G24KT 15SM FEW220 09/M05 A2992 RMK CI1 CI TR SLP137<br><br>
TAF CYYZ 232039Z 2321/2424 20012G25KT P6SM SCT240 BECMG 2401/2403 23012KT FM241000 22008KT P6SM BKN020 FM241800 27008KT P6SM SCT030 RMK NXT FCST BY 240000Z<br><br>
<br><br>
CYOO 232000Z AUTO 19012G19KT 9SM CLR 06/M03 A2994 RMK SLP147<br><br>
TAF CYOO 231942Z 2320/2408 20010G20KT P6SM FEW240 BECMG 2400/2402 22008KT RMK FCST BASED ON AUTO OBS. NXT FCST BY 240200Z<br><br>
<br><br>
CYTR 232000Z 21008KT 15SM FEW180 SCT250 05/M02 A2998 RMK AC1CI3 SLP156<br><br>
TAF CYTR 231735Z 2318/2418 23012G22KT P6SM OVC220 FM240000 22006KT P6SM FEW040 BECMG 2405/2407 23010KT FEW020 FM241100 25008KT P6SM BKN020 BECMG 2415/2417 26010G20KT RMK NXT FCST BY 240000Z<br><br>
<br><br>
