RETRIEVED AT : Oct 21 2018 06:06 Local <br>
  RETRIEVED AT: Oct 21 2018 10:06 UTC<br><br>
CYSN has no TAF <br><br>
<br><br>
CYHM 210900Z 32008KT 15SM -SN OVC032 02/M03 A3005 RMK SC8 SLP183<br><br>
TAF AMD CYHM 210613Z 2106/2206 35012G22KT P6SM BKN020 BKN040 TEMPO 2106/2107 FEW025 SCT040 FM210700 32010G20KT P6SM BKN040 TEMPO 2107/2116 BKN020 FM211600 29010G20KT P6SM BKN040 TEMPO 2120/2124 P6SM -SHRA BECMG 2122/2124 27010KT FM220000 27010KT P6SM BKN030 BKN120 BECMG 2202/2204 23010KT RMK NXT FCST BY 211200Z<br><br>
<br><br>
KIAG 210953Z AUTO 33014KT 10SM UP OVC039 02/M04 A3004 RMK AO2 UPB50 SLP185 P0000 T00171044<br><br>
KIAG 210853Z AUTO 35016G21KT 10SM OVC042 02/M05 A3001 RMK AO2 SLP173 60000 T00221050 53041<br><br>
KIAG 210909Z 2109/2206 35016G21KT P6SM OVC040 FM211400 31011G20KT P6SM BKN035 FM211900 29013G19KT P6SM BKN050 FM220000 28009KT P6SM BKN045<br><br>
<br><br>
KBUF 210954Z 33013G18KT 10SM BKN038 BKN048 02/M04 A3004 RMK AO2 PK WND 33026/0907 SLP177 T00171039<br><br>
KBUF 210854Z 33017G25KT 10SM BKN039 BKN049 02/M04 A3000 RMK AO2 PK WND 33030/0814 SLP167 T00221044 53041<br><br>
KBUF 210909Z 2109/2206 33017G25KT P6SM BKN040 FM211800 28013G20KT P6SM BKN035 FM212100 28012G20KT P6SM BKN050 FM220000 28009KT P6SM BKN070<br><br>
<br><br>
CYYZ 210949Z 34014G20KT 15SM -SN SCT025 OVC040 01/M05 A3006 RMK SC4SC4 SLP185<br><br>
CYYZ 210900Z 33010G15KT 15SM FEW035 BKN050 01/M03 A3003 RMK SC2SC3 SLP174<br><br>
CYYZ 210831Z 34011KT 15SM FEW018 BKN045 00/M03 A3002 RMK SC2SC5 SLP171<br><br>
TAF CYYZ 210839Z 2109/2212 34010G20KT P6SM BKN040 TEMPO 2109/2114 P6SM -SHSN BKN020 FM211500 33010G20KT P6SM BKN030 FM211700 32010G20KT P6SM BKN040 FM212200 29010G20KT P6SM BKN030 TEMPO 2122/2124 P6SM -SHRA FM220300 25008KT P6SM BKN030 RMK NXT FCST BY 211200Z<br><br>
<br><br>
CYOO 210900Z AUTO 34011G17KT 9SM OVC038 01/M06 A3000 RMK SLP166<br><br>
CYOO has no TAF <br><br>
<br><br>
CYTR 210900Z 33009KT 15SM OVC036 02/M06 A2995 RMK SC8 SLP146<br><br>
TAF CYTR 210530Z 2106/2206 36005KT P6SM SCT040 FM210700 34008KT P6SM BKN040 FM211400 31010KT P6SM SCT040 BECMG 2114/2116 31012G22KT BECMG 2121/2123 28005KT FM220300 VRB03KT P6SM BKN030 OVC120 RMK NXT FCST BY 211200Z<br><br>
<br><br>
