RETRIEVED AT : May 23 2020 17:05 Local <br>
  RETRIEVED AT: May 23 2020 21:05 UTC<br><br>
CYSN 232000Z 03007KT 15SM FEW030 BKN230 24/17 A3002 RMK SC2CI5 SLP165 DENSITY ALT 1400FT<br><br>
TAF CYSN 231942Z 2320/2401 02007KT P6SM SCT030 BKN250 RMK NXT FCST WILL BE ISSUED AT 241245Z<br><br>
<br><br>
CYHM 232000Z 08009G15KT 15SM SCT030 BKN250 24/18 A3003 RMK CU4CI3 SLP169 DENSITY ALT 1900FT<br><br>
TAF CYHM 231742Z 2318/2418 10008KT P6SM SCT040 BKN080 TEMPO 2319/2324 P6SM -SHRA BKN040 PROB30 2321/2323 4SM TSRA BKN030CB FM240000 05005KT P6SM FEW040 SCT240 FM240600 06005KT 6SM BR OVC012 PROB40 2407/2413 3/4SM BR OVC005 FM241400 20012KT P6SM OVC015 FM241700 20015KT P6SM -SHRA SCT015 OVC025 RMK NXT FCST BY 240000Z<br><br>
<br><br>
KIAG 232053Z 03006KT 10SM SCT031 SCT038 BKN080 24/16 A3002 RMK AO2 SLP163 T02390161 56015<br><br>
KIAG 231953Z 13006KT 10SM BKN035 BKN043 24/16 A3003 RMK AO2 SLP166 T02440161<br><br>
KIAG 231741Z 2318/2418 03006KT P6SM SCT050 TEMPO 2318/2321 BKN050 FM232300 08006KT P6SM SCT100 FM240800 13006KT P6SM SCT050 FM241400 18010KT P6SM SCT100<br><br>
<br><br>
KBUF 232054Z 21005KT 10SM FEW037 SCT055 SCT070 BKN260 23/17 A3002 RMK AO2 SLP164 T02280172 58017<br><br>
KBUF 231954Z 22007KT 10SM FEW050 BKN250 23/17 A3004 RMK AO2 SLP169 T02280172<br><br>
KBUF 231936Z 2320/2418 19003KT P6SM FEW050 BKN250 FM240000 08006KT P6SM FEW050 BKN250 FM240800 13006KT P6SM FEW050 FM241400 18010KT P6SM SCT100<br><br>
<br><br>
CYYZ 232000Z 14008KT 15SM FEW060 BKN250 24/13 A3003 RMK CU1CI5 CU TR SLP171 DENSITY ALT 1700FT<br><br>
TAF CYYZ 232038Z 2321/2424 15008KT P6SM FEW060 BKN250 FM240000 15008KT P6SM BKN060 FM240500 13008KT P6SM FEW008 OVC020 TEMPO 2405/2409 4SM -SHRA BR BKN008 OVC020 FM240900 11008KT 11/2SM BR BKN006 FM241300 15012KT P6SM SCT006 OVC012 FM241800 17015KT P6SM -SHRA SCT020 OVC030 PROB30 2421/2424 2SM TSRA BR BKN020CB RMK NXT FCST BY 240000Z<br><br>
<br><br>
CYOO 232000Z AUTO 15008KT 120V190 9SM CLR 24/15 A3004 RMK SLP173 DENSITY ALT 1400FT<br><br>
TAF CYOO 231942Z 2320/2408 15005KT P6SM SCT240 FM240000 08005KT P6SM BKN060 FM240600 08005KT P6SM FEW012 OVC025 TEMPO 2407/2408 5SM -SHRA BR OVC012 RMK FCST BASED ON AUTO OBS. NXT FCST BY 240200Z<br><br>
<br><br>
CYTR 232000Z 22007KT 15SM FEW030 SCT220 24/14 A3004 RMK CU1CI2 SLP174<br><br>
TAF CYTR 231734Z 2318/2418 13005KT P6SM FEW030 BECMG 2318/2319 20010KT BECMG 2402/2404 05005KT FM241000 09005KT P6SM FEW020 SCT080 BKN150 FM241600 12008KT P6SM BKN025 OVC080 RMK NXT FCST BY 240000Z<br><br>
<br><br>
