RETRIEVED AT : Mar 01 2020 09:05 Local <br>
  RETRIEVED AT: Mar 01 2020 14:05 UTC<br><br>
CYSN 011300Z 22007KT 15SM FEW040 M07/M10 A3014 RMK SC1 SC TR SLP215<br><br>
TAF CYSN 011338Z 0114/0202 22007KT P6SM FEW040 FM011800 22010KT P6SM FEW050 BKN160 FM012100 20010G20KT P6SM SCT070 BKN100 RMK NXT FCST BY 012000Z<br><br>
<br><br>
CYHM 011300Z 23005KT 15SM FEW100 M10/M12 A3012 RMK AC1 AC TR SLP217<br><br>
TAF CYHM 011138Z 0112/0212 25006KT P6SM SKC FM011500 23008KT P6SM SCT090 FM011800 20012KT P6SM BKN100 BKN170 BECMG 0118/0120 19012G22KT FM020000 19010KT P6SM BKN120 BKN200 FM020900 22012KT P6SM OVC015 RMK NXT FCST BY 011800Z<br><br>
<br><br>
KIAG 011353Z 00000KT 10SM CLR M07/M07 A3013 RMK AO2 SLP225 T10721072 $<br><br>
KIAG 011253Z 22005KT 10SM CLR M11/M11 A3014 RMK AO2 SLP227 T11111111 /<br><br>
KIAG 011138Z 0112/0212 25005KT P6SM SCT150 FM011800 21012KT P6SM SCT100 FM020000 17009KT P6SM OVC070 FM020600 21013KT P6SM OVC040 WS020/23040KT FM021000 22015KT 6SM -SHRA OVC020 WS020/23040KT<br><br>
<br><br>
KBUF 011354Z 18003KT 10SM FEW050 M05/M09 A3013 RMK AO2 SLP217 T10501089 $<br><br>
KBUF 011254Z 23003KT 10SM FEW030 M08/M11 A3013 RMK AO2 SLP216 T10781106 $<br><br>
KBUF 011138Z 0112/0212 25006KT P6SM FEW030 SCT150 FM011800 21013KT P6SM SCT100 FM020000 16009KT P6SM OVC070 FM020600 21013KT P6SM OVC040 WS020/23040KT FM021000 22014KT 6SM -SHRA OVC020 WS020/23040KT<br><br>
<br><br>
CYYZ 011300Z VRB06KT 15SM FEW260 M08/M12 A3011 RMK CI1 CI TR SLP210<br><br>
TAF CYYZ 011138Z 0112/0218 23005KT P6SM SKC FM011500 22008KT P6SM FEW090 BECMG 0116/0118 18010KT FM012000 17010G20KT P6SM BKN090 BECMG 0123/0201 16008KT FM020500 17008KT P6SM FEW040 BKN200 FM021000 20010KT P6SM OVC015 FM021500 21015G25KT P6SM -RA -DZ OVC012 RMK NXT FCST BY 011500Z<br><br>
<br><br>
CYOO 011300Z AUTO 00000KT 9SM CLR M13/M15 A3011 RMK SLP211<br><br>
TAF CYOO 011338Z 0114/0202 VRB03KT P6SM SKC BECMG 0116/0118 21008KT FM012000 21008KT P6SM SCT080 BKN170 FM012200 17008KT P6SM BKN080 BECMG 0122/0124 14008KT RMK FCST BASED ON AUTO OBS. NXT FCST BY 012000Z<br><br>
<br><br>
CYTR 011300Z 03002KT 15SM FEW050 M14/M18 A3014 RMK SC1 SLP214<br><br>
TAF CYTR 011130Z 0112/0212 VRB03KT P6SM FEW040 BECMG 0118/0120 23008KT FM012100 23008KT P6SM SCT060 BKN140 BECMG 0123/0201 16007KT FM020300 14007KT P6SM BKN060 FM021100 20010KT P6SM BKN025 RMK NXT FCST BY 011800Z<br><br>
<br><br>
