RETRIEVED AT : Oct 16 2017 14:10 Local <br>
  RETRIEVED AT: Oct 16 2017 18:10 UTC<br><br>
CYSN 161800Z 34010G18KT 290V360 15SM BKN048 10/01 A3023 RMK SC7 SLP239<br><br>
CYSN 161700Z 34011G17KT 15SM BKN035 09/01 A3023 RMK SC7 SLP239<br><br>
TAF CYSN 161238Z 1613/1701 34007KT P6SM BKN020 TEMPO 1613/1618 SCT025 FM161800 32007G19KT P6SM FEW030 FM170000 31011KT P6SM SKC RMK NXT FCST BY 162000Z<br><br>
<br><br>
CYHM 161800Z 32010KT 250V360 15SM FEW040 SCT045 10/00 A3022 RMK CU1SC2 SLP239<br><br>
CYHM 161700Z 32010KT 270V010 15SM FEW040 BKN051 BKN240 09/M01 A3022 RMK CU2SC3CI1 CI TR SLP242<br><br>
TAF CYHM 161738Z 1618/1718 32010KT P6SM BKN050 BKN240 TEMPO 1618/1624 SCT050 SCT240 FM170000 30008KT P6SM FEW030 FM170300 VRB03KT P6SM SKC BECMG 1708/1710 23008KT FM171200 22008G18KT P6SM SKC BECMG 1713/1715 23015G25KT RMK NXT FCST BY 170000Z<br><br>
<br><br>
KIAG 161753Z 30010KT 10SM BKN038 10/M01 A3021 RMK AO2 SLP235 T01001011 10100 20083 50003 $<br><br>
KIAG 161653Z 32013KT 10SM BKN036 09/00 A3022 RMK AO2 SLP241 T00890000 $<br><br>
KIAG 161727Z 1618/1718 32013KT P6SM BKN035 FM162200 31010KT P6SM SCT050 FM170000 VRB03KT P6SM FEW250 FM170500 18004KT P6SM FEW250 FM171400 22011G20KT P6SM SCT250<br><br>
<br><br>
KBUF 161754Z 32010KT 10SM FEW033 BKN047 09/01 A3020 RMK AO2 SLP231 SHRA DSNT NE-E T00940011 10094 20067 50003<br><br>
KBUF 161654Z 33012KT 10SM SCT030 BKN047 08/02 A3021 RMK AO2 SLP234 SHRA DSNT NE-E T00780022<br><br>
KBUF 161727Z 1618/1718 33012KT P6SM SCT030 BKN045 FM162100 31010KT P6SM SCT050 FM170000 VRB03KT P6SM FEW250 FM171200 19008KT P6SM SCT030 FM171600 22015G24KT P6SM SCT030<br><br>
<br><br>
CYYZ 161800Z 32008KT 300V020 15SM SCT035 BKN045 09/01 A3021 RMK CU3SC3 SLP237<br><br>
CYYZ 161700Z 33013KT 320V030 15SM SCT030 BKN040 08/M00 A3022 RMK CU3SC3 SLP238<br><br>
CYYZ 161617Z 34009KT 15SM FEW025 SCT030 BKN048 07/01 A3023 RMK CU2SC2SC3 SLP244<br><br>
TAF CYYZ 161738Z 1618/1724 34008G18KT P6SM SCT030 BKN040 TEMPO 1618/1622 SCT040 SCT240 FM162200 32010G20KT P6SM FEW040 BECMG 1623/1624 32010KT BECMG 1701/1703 VRB03KT FM170500 25008KT P6SM FEW030 BECMG 1712/1714 24010G20KT FM171800 24017G27KT P6SM FEW040 SCT210 BECMG 1722/1724 25009G19KT RMK NXT FCST BY 162100Z<br><br>
<br><br>
CYOO 161800Z AUTO 30013G21KT 270V340 9SM BKN043 08/M02 A3021 RMK SLP234<br><br>
CYOO 161700Z AUTO 34010G16KT 290V360 9SM OVC041 07/M01 A3021 RMK SLP235<br><br>
CYOO 161621Z AUTO 32016G21KT 9SM BKN035 OVC045 07/M03 A3022 RMK SLP238<br><br>
CYOO has no TAF <br><br>
<br><br>
CYTR 161800Z 32011KT 15SM OVC032 07/M01 A3018 RMK SC8 SLP221<br><br>
CYTR 161700Z 35006KT 15SM BKN029 BKN045 08/01 A3018 RMK SC6SC2 SLP224<br><br>
TAF CYTR 161730Z 1618/1718 33010KT P6SM SCT020 BKN030 FM170000 30005KT P6SM SCT050 BECMG 1702/1704 VRB03KT FM170900 VRB03KT P6SM BKN020 OVC040 BECMG 1710/1712 23010KT FM171500 23010G20KT P6SM SCT040 BECMG 1716/1718 23018G28KT RMK NXT FCST BY 170000Z<br><br>
<br><br>
