RETRIEVED AT : May 31 2020 18:05 Local <br>
  RETRIEVED AT: May 31 2020 22:05 UTC<br><br>
CYSN 312100Z VRB03KT 15SM FEW060 15/02 A3021 RMK SC2 SLP234<br><br>
TAF AMD CYSN 312119Z 3121/0101 VRB03KT P6SM FEW060 TEMPO 3121/0101 BKN060 RMK NXT FCST WILL BE ISSUED AT 011245Z<br><br>
<br><br>
CYHM 312100Z 33006G16KT 15SM SCT060 16/02 A3022 RMK CU4 SLP238<br><br>
TAF CYHM 311738Z 3118/0118 32012KT P6SM BKN050 TEMPO 3118/0103 SCT050 FM010300 24007KT P6SM SCT060 BECMG 0113/0115 25015KT RMK NXT FCST BY 010000Z<br><br>
<br><br>
KIAG 312153Z 29006KT 10SM FEW060 BKN080 14/02 A3021 RMK AO2 SLP237 T01390017<br><br>
KIAG 312053Z 31009KT 10SM CLR 14/01 A3022 RMK AO2 SLP239 T01440011 58009<br><br>
KIAG 312029Z 3120/0118 30010KT P6SM SCT050 FM312200 25007KT P6SM BKN070 FM010800 28006KT P6SM SCT100 FM011600 24012G20KT P6SM BKN150<br><br>
<br><br>
KBUF 312154Z 24014KT 10SM FEW055 SCT150 SCT200 12/04 A3022 RMK AO2 SLP238 T01170044 $<br><br>
KBUF 312054Z 23013G20KT 10SM FEW040 SCT050 SCT060 SCT200 11/05 A3023 RMK AO2 SLP241 T01110050 56006 $<br><br>
KBUF 312029Z 3120/0118 32013G20KT P6SM SCT050 FM312200 25007KT P6SM BKN070 FM010800 28005KT P6SM SCT100 FM011600 25014G22KT P6SM BKN150<br><br>
<br><br>
CYYZ 312100Z 31011G19KT 250V320 15SM FEW060 BKN072 BKN095 15/M01 A3020 RMK CF1AC5AC1 SLP232<br><br>
TAF CYYZ 312038Z 3121/0124 29010G20KT P6SM SCT060 TEMPO 3121/0104 BKN060 FM010400 VRB03KT P6SM SCT060 BECMG 0104/0106 22008KT FM011500 27015G25KT P6SM SCT070 RMK NXT FCST BY 010000Z<br><br>
<br><br>
CYOO 312100Z AUTO 32013G22KT 290V350 9SM BKN090 14/00 A3020 RMK SLP232<br><br>
TAF CYOO 311938Z 3120/0108 32015G25KT P6SM SCT060 TEMPO 3120/3122 BKN060 FM312200 32015G25KT P6SM BKN060 TEMPO 3122/0104 P6SM -SHRA FM010400 29006KT P6SM SCT040 RMK FCST BASED ON AUTO OBS. NXT FCST BY 010200Z<br><br>
<br><br>
CYTR 312100Z 31015KT 15SM SCT060 BKN130 16/01 A3016 RMK SC4AC1 SLP215<br><br>
TAF CYTR 311731Z 3118/0118 30010G20KT P6SM BKN060 TEMPO 3118/0101 SCT060 FM010200 29007KT P6SM FEW100 BECMG 0108/0110 24005KT FM011300 24005KT P6SM BKN080 BECMG 0114/0116 24010G20KT RMK NXT FCST BY 010000Z<br><br>
<br><br>
