RETRIEVED AT : Jun 09 2019 13:05 Local <br>
  RETRIEVED AT: Jun 09 2019 17:05 UTC<br><br>
CYSN 091600Z 16010KT 15SM OVC250 26/12 A3016 RMK CI8 SLP214 DENSITY ALT 1500FT<br><br>
TAF CYSN 091238Z 0913/1001 VRB03KT P6SM BKN250 BECMG 0913/0915 14012KT RMK NXT FCST BY 092000Z<br><br>
<br><br>
CYHM 091600Z 04008KT 15SM FEW220 BKN280 20/13 A3018 RMK CC1CS6 SLP221 DENSITY ALT 1300FT<br><br>
TAF CYHM 091138Z 0912/1012 04007KT P6SM BKN240 FM091400 09010G20KT P6SM BKN180 BECMG 1001/1003 13010KT FM100500 13010KT P6SM SCT070 BKN150 FM100800 14012KT P6SM -SHRA OVC040 FM101100 13010G20KT 4SM -SHRA BR OVC020 RMK NXT FCST BY 091800Z<br><br>
<br><br>
KIAG 091653Z 13009KT 10SM CLR 25/11 A3017 RMK AO2 SLP214 T02500106<br><br>
KIAG 091553Z 14011KT 10SM CLR 26/11 A3018 RMK AO2 SLP217 T02560111<br><br>
KIAG 091253Z 0913/1012 13006KT P6SM BKN250 FM091500 12010G16KT P6SM OVC250 FM092200 12008KT P6SM BKN060 FM100600 14008KT P6SM VCSH OVC050 WS020/17040KT<br><br>
<br><br>
KBUF 091654Z 12008KT 10SM SCT150 BKN200 BKN250 26/11 A3018 RMK AO2 SLP216 T02560106<br><br>
KBUF 091554Z 12011KT 10SM FEW120 SCT160 BKN210 BKN270 25/11 A3019 RMK AO2 SLP219 T02500106<br><br>
KBUF 091120Z 0912/1012 12006KT P6SM SCT250 FM091500 13010G16KT P6SM BKN250 FM092200 14008KT P6SM BKN060 FM100600 15008KT P6SM VCSH OVC050 WS020/17040KT<br><br>
<br><br>
CYYZ 091600Z 12007G15KT 090V160 15SM FEW180 BKN260 23/12 A3019 RMK AC1CI6 SLP223 DENSITY ALT 1400FT<br><br>
TAF CYYZ 091438Z 0915/1018 10010G20KT P6SM FEW180 BKN250 FM100200 09007KT P6SM SCT070 BKN150 FM100800 10008KT P6SM BKN100 FM101100 11010KT 6SM -SHRA BR OVC025 FM101400 11010G20KT 5SM -SHRA BR SCT010 OVC020 RMK NXT FCST BY 091800Z<br><br>
<br><br>
CYOO 091600Z AUTO 12008KT 090V160 9SM FEW180 24/11 A3020 RMK SLP228 DENSITY ALT 1300FT<br><br>
TAF CYOO 091338Z 0914/1002 09008KT P6SM BKN250 BECMG 0914/0916 10010G20KT BECMG 0923/1001 09008KT RMK FCST BASED ON AUTO OBS. NXT FCST BY 092000Z<br><br>
<br><br>
CYTR 091600Z 17006KT 15SM OVC250 25/13 A3024 RMK CI8 SLP240<br><br>
TAF CYTR 091130Z 0912/1012 05005KT P6SM BKN250 BECMG 0915/0917 16008KT BECMG 1005/1007 FEW020 SCT040 FM101000 15008KT P6SM SCT020 OVC040 TEMPO 1010/1012 P6SM -RA BKN020 OVC040 RMK NXT FCST BY 091800Z<br><br>
<br><br>
