RETRIEVED AT : Feb 28 2020 07:05 Local <br>
  RETRIEVED AT: Feb 28 2020 12:05 UTC<br><br>
CYSN has no TAF <br><br>
<br><br>
CYHM 281100Z 25021G30KT 15SM -SN DRSN OVC035 M08/M12 A2971 RMK SC8 SLP076<br><br>
TAF CYHM 281138Z 2812/2912 25020G30KT P6SM -SHSN OVC030 TEMPO 2812/2815 5SM -SHSN BKN020 FM281500 25018G28KT 5SM -SHSN BLSN BKN020 TEMPO 2815/2818 P6SM NSW OVC030 FM281800 25018G28KT 3SM -SHSN BLSN BKN025 BKN070 FM290000 25018G28KT 11/2SM -SHSN BLSN OVC020 PROB30 2900/2903 3/4SM -SHSN BLSN FM290300 30012KT 21/2SM -SHSN SCT020 BKN030 FM290900 32007KT P6SM BKN040 RMK NXT FCST BY 281800Z<br><br>
<br><br>
KIAG 281153Z 25022G31KT 10SM OVC039 M07/M12 A2971 RMK AO2 PK WND 24031/1102 SLP081 T10671122 11067 21072 53002<br><br>
KIAG 281053Z AUTO 25021G32KT 10SM BKN045 M07/M12 A2971 RMK AO2 PK WND 24032/1049 SLP082 T10721122<br><br>
KIAG 281143Z 2812/2912 24022G32KT P6SM OVC040 FM281800 25022G32KT 2SM -SN OVC025 FM290200 27018KT 2SM -SN OVC007 FM291100 29010KT 1SM -SN OVC035<br><br>
<br><br>
KBUF 281154Z 25024G32KT 10SM OVC035 M06/M13 A2972 RMK AO2 PK WND 26039/1100 SLP075 4/003 70001 T10611128 11050 21061 50004<br><br>
KBUF 281054Z 25026G35KT 10SM OVC035 M06/M13 A2972 RMK AO2 PK WND 26038/1003 SLP076 T10611128<br><br>
KBUF 281143Z 2812/2912 25025G37KT P6SM OVC040 FM281700 25022G30KT P6SM VCSH BKN030 FM281900 25022G30KT 2SM -SN SCT007 OVC020 FM290000 25021G29KT 1SM -SN BLSN OVC025 FM290500 27013KT 1 1/2SM -SN OVC035<br><br>
<br><br>
CYYZ 281100Z 25017G25KT 15SM FEW045 BKN180 M06/M11 A2964 RMK SC2AC4 SLP049<br><br>
TAF CYYZ 281138Z 2812/2918 26020G30KT P6SM BKN040 TEMPO 2812/2817 3SM -SHSN BLSN BKN020 BKN040 FM281700 26018G28KT P6SM -SHSN OVC030 TEMPO 2817/2901 11/2SM -SHSN BLSN OVC020 PROB30 2820/2901 1/2SM SHSN BLSN VV005 FM290100 30010G20KT 4SM -SHSN BKN030 OVC060 FM290400 30012KT P6SM SCT030 BKN060 FM290800 31008KT P6SM BKN070 FM291100 02008KT P6SM BKN100 FM291700 31010G20KT P6SM BKN040 RMK NXT FCST BY 281500Z<br><br>
<br><br>
CYOO 281136Z AUTO 26016G25KT 9SM BKN036 BKN170 M06/M11 A2961 RMK SLP035<br><br>
CYOO 281117Z AUTO 26014G29KT 9SM -SN FEW034 BKN180 M06/M10 A2961 RMK SLP035<br><br>
CYOO 281100Z AUTO 26017G26KT 9SM FEW032 BKN190 M06/M11 A2961 RMK SLP034<br><br>
CYOO 281044Z AUTO 25017G23KT 9SM FEW030 SCT190 M06/M11 A2960 RMK SLP033<br><br>
CYOO 281021Z AUTO 26018G24KT 9SM -SN FEW060 M06/M10 A2960 RMK SLP032<br><br>
CYOO 281010Z AUTO 25016G27KT 9SM FEW034 M06/M10 A2960 RMK SLP032<br><br>
TAF CYOO 280738Z 2808/2820 26017G27KT 6SM -SHSN OVC030 TEMPO 2808/2816 11/2SM -SHSN BLSN OVC020 PROB30 2808/2810 3/4SM -SHSN BLSN VV006 FM281600 25018G28KT P6SM -SHSN OVC030 TEMPO 2816/2818 11/2SM -SHSN BLSN OVC020 PROB30 2816/2818 1/2SM SHSN BLSN VV005 FM281800 25020G30KT 11/2SM -SHSN BLSN OVC020 PROB40 2818/2820 1/2SM SHSN BLSN VV005 RMK FCST BASED ON AUTO OBS. NXT FCST BY 281400Z<br><br>
<br><br>
CYTR 281100Z 29008KT 3SM -SHSN OVC015 M08/M11 A2961 RMK SC8 VIS VRB 2 1/4-4 SLP031<br><br>
TAF CYTR 281130Z 2812/2912 28015G25KT 6SM -SHSN SCT015 BKN030 TEMPO 2812/2816 2SM -SHSN OVC015 PROB30 2814/2816 11/2SM -SHSN FM281600 24015G25KT 3/4SM -SHSN VV008 TEMPO 2816/2822 3SM -SN OVC020 PROB30 2816/2822 1/4SM +SHSN BLSN VV002 FM282200 29010KT P6SM -SHSN BKN030 OVC080 FM290000 29008KT P6SM SCT030 BKN080 RMK NXT FCST BY 281800Z<br><br>
<br><br>
