RETRIEVED AT : Jun 02 2018 23:42 Local <br>
  RETRIEVED AT: Jun 03 2018 03:42 UTC<br><br>
CYSN has no TAF <br><br>
<br><br>
CYHM 030300Z 03005KT 15SM SKC 13/11 A2995 RMK SLP144<br><br>
CYHM 030200Z 05006KT 15SM FEW040 FEW250 14/11 A2994 RMK SC1CI1 SC TR CI TR SLP143 DENSITY ALT 900FT<br><br>
TAF CYHM 022338Z 0300/0324 08008KT P6SM FEW050 FM031200 05008KT 6SM BR BKN010 FM031500 07012KT P6SM SCT015 BKN030 FM031700 07010KT P6SM -SHRA BKN025 PROB30 0317/0320 VRB15G25KT 2SM TSRA BR BKN025CB FM032000 18015G25KT 3SM -SHRA BR BKN008 OVC010 PROB30 0320/0324 VRB15G25KT 2SM TSRA BR BKN007 OVC025CB RMK NXT FCST BY 030600Z<br><br>
<br><br>
KIAG 030253Z 09003KT 10SM CLR 17/12 A2993 RMK AO2 SLP135 T01720122 50001<br><br>
KIAG 030153Z 10003KT 10SM CLR 18/13 A2994 RMK AO2 SLP137 T01830128<br><br>
KIAG 030247Z 0303/0324 08008KT P6SM SCT060 FM030800 08005KT P6SM SCT035 FM031200 12008KT P6SM BKN040 FM031600 16011G18KT P6SM OVC040 FM032000 15012G20KT 6SM -SHRA OVC040<br><br>
<br><br>
KBUF 030254Z 07004KT 10SM FEW025 16/13 A2994 RMK AO2 SLP137 T01610128 58001<br><br>
KBUF 030154Z 10005KT 10SM SCT025 17/13 A2994 RMK AO2 SLP139 T01720128<br><br>
KBUF 030247Z 0303/0324 08008KT P6SM SCT060 FM030700 06005KT P6SM SCT035 FM031200 12008KT P6SM BKN040 FM031800 16012G20KT P6SM VCSH OVC040 FM032100 15015G25KT 6SM -SHRA OVC040<br><br>
<br><br>
CYYZ 030300Z 04004KT 15SM SKC 17/11 A2995 RMK SLP145 DENSITY ALT 900FT<br><br>
CYYZ 030200Z 04003KT 15SM FEW240 17/11 A2995 RMK CI1 CI TR SLP143 DENSITY ALT 1000FT<br><br>
TAF CYYZ 030238Z 0303/0406 16007KT P6SM FEW030 FM030600 05005KT P6SM SKC FM031200 08008KT P6SM BKN025 FM031700 09010KT 5SM -SHRA BR OVC020 PROB30 0317/0322 VRB15G25KT 2SM TSRA BR BKN025CB FM032200 14010KT 3SM -SHRA BR BKN005 OVC012 BECMG 0323/0401 20010KT FM040200 25012G22KT P6SM FEW040 RMK NXT FCST BY 030600Z<br><br>
<br><br>
CYOO 030300Z AUTO 36002KT 9SM CLR 15/11 A2996 RMK SLP146<br><br>
CYOO 030200Z AUTO 32003KT 9SM CLR 15/11 A2996 RMK SLP147 DENSITY ALT 500FT<br><br>
CYOO has no TAF <br><br>
<br><br>
TAF CYTR 022330Z 0300/0324 VRB03KT P6SM SKC BECMG 0300/0302 04005KT FM030900 07010KT P6SM SCT040 FM031200 09012KT P6SM SCT030 BKN060 FM031500 12012G22KT P6SM -SHRA SCT015 OVC025 TEMPO 0315/0324 5SM -SHRA BR BKN012 OVC020 BECMG 0316/0318 14018G28KT RMK NXT FCST BY 030600Z<br><br>
<br><br>
