RETRIEVED AT : May 10 2020 07:06 Local <br>
  RETRIEVED AT: May 10 2020 11:06 UTC<br><br>
CYSN has no TAF <br><br>
<br><br>
CYHM 101000Z 25004KT 15SM FEW090 M01/M03 A3000 RMK AC2 SLP167<br><br>
TAF CYHM 100538Z 1006/1106 23005KT P6SM BKN070 FM101400 24010KT P6SM -SHRA BKN040 OVC080 FM102100 23008KT 5SM -SHRA BR OVC020 FM110000 VRB03KT P6SM -SHRA FEW030 OVC060 FM110300 VRB03KT 3SM RA BR OVC010 FM110500 03012KT 11/2SM -RA BR OVC005 PROB30 1105/1106 1/2SM -RA FG VV001 RMK NXT FCST BY 101200Z<br><br>
<br><br>
KIAG 101053Z 27006KT 10SM CLR 01/M03 A3000 RMK AO2 SLP171 T00111028 $<br><br>
KIAG 100953Z AUTO 24003KT 10SM CLR 01/M03 A2999 RMK AO2 SLP169 T00111033 $<br><br>
KIAG 100924Z 1009/1106 25007KT P6SM FEW150 FM101200 25007KT P6SM BKN100 FM101600 24010G17KT P6SM OVC045 FM101800 25009KT P6SM VCSH OVC040 FM102300 21004KT 6SM -SHRA OVC040 FM110200 00000KT 6SM -SHRA OVC030<br><br>
<br><br>
KBUF 101054Z 26010KT 10SM FEW100 FEW150 06/02 A3000 RMK AO2 SLP164 T00560017 $<br><br>
KBUF 100954Z 25004KT 10SM FEW100 04/M02 A2999 RMK AO2 SLP162 T00391022 $<br><br>
KBUF 100924Z 1009/1106 23007KT P6SM FEW150 FM101200 23007KT P6SM BKN100 FM101400 24010G17KT P6SM OVC060 FM101800 25012G21KT P6SM VCSH OVC035 FM110500 20004KT 6SM -SHRA OVC035<br><br>
<br><br>
CYYZ 101000Z 28006KT 15SM FEW080 M00/M05 A2999 RMK AC1 SLP163<br><br>
TAF CYYZ 100838Z 1009/1112 26010KT P6SM SCT080 BKN100 FM101300 24012KT P6SM BKN080 FM101400 24012KT P6SM -SHRA BKN030 OVC080 FM102100 VRB03KT 3SM -SHRA BR SCT008 OVC012 FM110000 09008KT 11/2SM -SHRA BR OVC006 PROB30 1100/1106 1/2SM RA FG OVC003 FM110600 03010G20KT 21/2SM -RA BR OVC008 FM110900 02012G22KT 6SM -RASN BR SCT008 OVC012 PROB30 1109/1112 3/4SM -SN VV008 RMK NXT FCST BY 101200Z<br><br>
<br><br>
CYOO 101000Z AUTO 25004KT 9SM CLR 00/M04 A2998 RMK SLP158<br><br>
TAF CYOO 100739Z 1008/1020 26010KT P6SM SCT080 BKN100 FM101300 28008G18KT P6SM BKN080 FM101500 27010G20KT P6SM -SHRA BKN030 OVC080 RMK FCST BASED ON AUTO OBS. NXT FCST BY 101400Z<br><br>
<br><br>
CYTR 101000Z 25007KT 15SM FEW070 FEW200 00/M05 A2997 RMK AC1CI2 SLP153<br><br>
TAF CYTR 100530Z 1006/1106 26008KT P6SM OVC040 FM100900 28008KT P6SM FEW025 SCT080 FM101500 29010G20KT P6SM FEW030 BKN150 BECMG 1016/1018 23012G22KT FM101800 23012G22KT P6SM BKN030 OVC120 FM110200 23008KT P6SM -RA FEW010 OVC020 RMK NXT FCST BY 101200Z<br><br>
<br><br>
