RETRIEVED AT : Nov 11 2018 13:05 Local <br>
  RETRIEVED AT: Nov 11 2018 18:05 UTC<br><br>
CYSN 111700Z 23011KT 15SM BKN036 OVC120 04/M04 A3032 RMK SC7AC1 SLP272<br><br>
TAF CYSN 111338Z 1114/1202 23005KT P6SM FEW025 SCT050 BKN250 BECMG 1115/1117 26010KT FM111800 26010KT P6SM SCT030 BKN080 TEMPO 1118/1122 5SM -SHSN BKN020 OVC030 RMK NXT FCST BY 112000Z<br><br>
<br><br>
CYHM 111700Z 26010KT 15SM FEW028 FEW062 BKN075 BKN250 02/M04 A3029 RMK SC1SC1AC5CI1 SC TR SLP268<br><br>
TAF CYHM 111740Z 1118/1218 25010KT P6SM BKN030 OVC080 TEMPO 1118/1202 3SM -SHSN BKN015 OVC040 PROB30 1118/1121 11/2SM -SHSN OVC010 FM120200 23005KT P6SM SCT030 BKN060 FM121000 VRB03KT P6SM BKN050 BKN200 FM121600 24005KT P6SM BKN030 BKN140 RMK NXT FCST BY 120000Z<br><br>
<br><br>
KIAG 111753Z 25009KT 10SM BKN034 OVC047 03/M04 A3030 RMK AO2 SLP274 T00281039 10028 21028 58010<br><br>
KIAG 111653Z 28009KT 10SM BKN037 BKN050 BKN090 03/M05 A3031 RMK AO2 SLP279 T00281050<br><br>
KIAG 111731Z 1118/1218 26009KT P6SM BKN035 FM112100 24008KT P6SM OVC025 FM112300 24007KT P6SM OVC035 FM120300 23004KT 6SM -DZ BR OVC025 FM120700 VRB03KT 5SM -DZ BR OVC025 FM121300 19005KT P6SM OVC035 FM121600 20007KT P6SM OVC060<br><br>
<br><br>
KBUF 111754Z 19009KT 9SM -SN FEW013 SCT018 OVC034 01/M01 A3030 RMK AO2 SNB32 SLP270 P0000 60000 T00111011 10022 21011 58011<br><br>
KBUF 111654Z 23007KT 10SM FEW025 BKN034 BKN050 02/M04 A3032 RMK AO2 SLP275 T00221044<br><br>
KBUF 111731Z 1118/1218 23008KT P6SM OVC035 FM111900 23008KT 6SM -SHSN OVC025 FM112100 23008KT P6SM OVC035 FM120400 20005KT 6SM -DZ BR OVC025 FM120800 21005KT 4SM -DZ BR OVC015 FM121400 20005KT P6SM OVC045 FM121700 21009KT P6SM OVC080<br><br>
<br><br>
CYYZ 111700Z 26006KT 15SM FEW028 SCT060 BKN085 03/M04 A3029 RMK CU1SC2AC4 SLP266<br><br>
TAF CYYZ 111740Z 1118/1224 24012KT P6SM FEW030 BKN080 FM112000 23010KT P6SM BKN030 OVC080 TEMPO 1120/1124 P6SM -SHSN FM120300 26006KT P6SM BKN050 FM120900 24005KT P6SM SCT050 BKN200 FM121600 24010KT P6SM SCT040 BKN140 FM122000 21008KT P6SM BKN030 BKN120 RMK NXT FCST BY 112100Z<br><br>
<br><br>
CYOO 111700Z AUTO 27006KT 9SM FEW038 BKN084 BKN110 03/M04 A3029 RMK SLP265<br><br>
CYOO has no TAF <br><br>
<br><br>
CYTR 111700Z 30003KT 15SM FEW044 OVC160 01/M06 A3033 RMK SC1AS7 SUN DIMLY VISBL SLP275<br><br>
TAF CYTR 111730Z 1118/1218 VRB03KT P6SM SCT040 BKN150 TEMPO 1118/1123 6SM -SHSN BKN040 BECMG 1118/1120 24005KT FM112300 24005KT P6SM SCT015 OVC030 TEMPO 1123/1207 5SM -SHRASN OVC015 FM120700 27005KT P6SM SCT020 BKN040 FM121400 24005KT P6SM -SHRA BKN020 OVC040 BECMG 1216/1218 22012KT RMK NXT FCST BY 120000Z<br><br>
<br><br>
