RETRIEVED AT : Jun 27 2020 10:05 Local <br>
  RETRIEVED AT: Jun 27 2020 14:05 UTC<br><br>
CYSN 271300Z 24007KT 220V280 15SM FEW010 SCT050 BKN120 OVC250 22/20 A2969 RMK SC1SC2AC2CI3 SLP053 DENSITY ALT 1500FT<br><br>
TAF CYSN 271240Z 2713/2801 25008KT P6SM FEW010 BKN030 TEMPO 2713/2715 BKN008 OVC020 PROB30 2713/2714 BKN006 FM271500 26012KT P6SM BKN040 FM271800 26010G20KT P6SM BKN030 TEMPO 2718/2720 P6SM -SHRA PROB30 2720/2724 VRB15G25KT 2SM TSRA BR BKN020 OVC030CB FM280000 24010G20KT P6SM BKN050 RMK NXT FCST BY 272000Z<br><br>
<br><br>
CYHM 271300Z 27010KT 15SM BKN010 BKN017 21/20 A2972 RMK SC6SC1 SLP063 DENSITY ALT 2000FT<br><br>
TAF CYHM 271142Z 2712/2812 25008KT P6SM FEW010 BKN030 TEMPO 2712/2715 BKN007 OVC020 PROB30 2712/2715 BKN005 FM271500 27012KT P6SM BKN025 TEMPO 2715/2718 BKN020 FM271800 26012G22KT P6SM BKN030 TEMPO 2718/2720 P6SM -SHRA PROB30 2720/2724 VRB15G25KT 2SM TSRA BR BKN020 OVC030CB FM280000 24010G20KT P6SM BKN050 BECMG 2801/2803 25008KT FM280800 26006KT P6SM SCT070 FM281100 30006KT P6SM SKC RMK NXT FCST BY 271800Z<br><br>
<br><br>
KIAG 271353Z 27010KT 10SM OVC013 22/19 A2971 RMK AO2 SLP058 T02170189<br><br>
KIAG 271338Z 26010G14KT 10SM BKN014 22/19 A2971 RMK AO2 T02170189<br><br>
KIAG 271253Z 24008KT 10SM BKN009 OVC024 20/19 A2970 RMK AO2 CIG 006V012 SLP056 T02000189<br><br>
KIAG 271120Z 2712/2812 VRB05KT 5SM BR VCSH OVC008 FM271500 26010KT P6SM BKN025 FM271800 23014G22KT P6SM VCSH BKN040 FM272300 23010KT P6SM VCSH BKN040 FM280600 26006KT P6SM BKN025<br><br>
<br><br>
KBUF 271354Z 25005KT 10SM BKN007 BKN035 BKN200 21/19 A2972 RMK AO2 RAE48 SLP061 P0001 T02060189<br><br>
KBUF 271254Z 23008KT 10SM -RA BKN006 BKN012 BKN050 19/19 A2971 RMK AO2 SLP058 P0001 T01890189<br><br>
KBUF 271234Z 21007KT 10SM -RA BKN006 OVC016 19/19 A2971 RMK AO2 P0001 T01890189<br><br>
KBUF 271120Z 2712/2812 VRB05KT 5SM BR VCSH OVC008 FM271500 25010KT P6SM BKN025 FM271800 24016G24KT P6SM BKN040 FM280000 24010KT P6SM VCSH BKN040 FM280700 26006KT P6SM BKN015<br><br>
<br><br>
CYYZ 271300Z 29009KT 15SM SCT014 BKN042 BKN095 23/19 A2969 RMK CF4SC2AC1 SLP052 DENSITY ALT 1900FT<br><br>
TAF CYYZ 271142Z 2712/2818 22010KT P6SM BKN030 TEMPO 2712/2715 BKN020 PROB30 2712/2713 BKN008 OVC015 FM271500 25010G20KT P6SM BKN030 FM271700 28010G20KT P6SM BKN040 TEMPO 2717/2720 P6SM -SHRA FM272000 30012G22KT P6SM SCT050 TEMPO 2720/2801 P6SM -SHRA VCTS BKN050CB FM280200 VRB03KT P6SM SCT050 FM280500 30010KT P6SM FEW070 BECMG 2810/2812 34010KT FM281700 33010KT P6SM BKN050 RMK NXT FCST BY 271500Z<br><br>
<br><br>
CYOO 271300Z AUTO VRB02KT 9SM OVC039 19/18 A2968 RMK SLP051 DENSITY ALT 1300FT<br><br>
CYOO 271255Z AUTO 00000KT 6SM BR OVC039 19/19 A2968 RMK SLP051 DENSITY ALT 1300FT<br><br>
CYOO 271245Z AUTO 00000KT 1/8SM FG BKN039 OVC050 19/18 A2969 RMK SLP053 DENSITY ALT 1200FT<br><br>
CYOO 271240Z AUTO 00000KT 9SM BKN037 BKN045 OVC050 19/18 A2969 RMK SLP053 DENSITY ALT 1200FT<br><br>
CYOO 271230Z AUTO 10002KT 5SM BR SCT037 OVC050 18/18 A2969 RMK SLP054 DENSITY ALT 1200FT<br><br>
CYOO 271228Z AUTO VRB02KT 9SM BKN037 OVC050 18/18 A2969 RMK SLP054 DENSITY ALT 1100FT<br><br>
CYOO 271209Z AUTO 00000KT 8SM -RA SCT014 OVC036 18/18 A2969 RMK SLP055 DENSITY ALT 1100FT<br><br>
TAF CYOO 271338Z 2714/2802 VRB03KT P6SM FEW008 OVC020 TEMPO 2714/2715 SCT020 BKN040 PROB30 2714/2715 2SM BR BKN006 OVC015 FM271500 23008KT P6SM OVC040 TEMPO 2715/2717 OVC020 FM271700 24008KT P6SM -SHRA SCT015 BKN030 PROB30 2717/2724 VRB20G35KT 1SM TSRA BR OVC020CB RMK FCST BASED ON AUTO OBS. NXT FCST BY 272000Z<br><br>
<br><br>
CYTR 271342Z 21003KT 6SM -SHRA BR SCT008 OVC040 19/19 A2969 RMK SF3SC5 SLP053<br><br>
CYTR 271300Z 20004KT 10SM -SHRA FEW010 BKN040 OVC095 19/18 A2970 RMK CF2SC4AC2 SLP057<br><br>
CYTR 271233Z 20005KT 15SM -SHRA FEW010 SCT040 OVC095 19/17 A2970 RMK CF1SC2AC5 SLP056<br><br>
TAF CYTR 271130Z 2712/2812 20005KT P6SM FEW090 BKN140 FM271600 23008KT P6SM FEW008 SCT015 BKN060 TEMPO 2716/2720 4SM -SHRA BR SCT008 BKN015 OVC060 FM272000 22012KT P6SM FEW015 OVC060 TEMPO 2720/2724 P6SM -SHRA PROB30 2720/2724 VRB15G25KT 2SM TSRA BR OVC015CB FM280000 22008KT P6SM SCT050 PROB30 2808/2812 1SM BR OVC005 RMK NXT FCST BY 271800Z<br><br>
<br><br>
