RETRIEVED AT : Jun 28 2020 20:05 Local <br>
  RETRIEVED AT: Jun 29 2020 00:05 UTC<br><br>
CYSN 282300Z 29003KT 250V020 15SM FEW040 27/16 A2977 RMK SC1 SLP082 DENSITY ALT 2000FT<br><br>
TAF CYSN 281938Z 2820/2901 30006KT P6SM SCT050 BECMG 2823/2901 VRB03KT RMK NXT FCST WILL BE ISSUED AT 291245Z<br><br>
<br><br>
CYHM 282300Z 33010KT 15SM SCT052 26/15 A2980 RMK CU3 SLP092 DENSITY ALT 2400FT<br><br>
TAF CYHM 282338Z 2900/2924 33008KT P6SM SCT050 FM290200 02006KT P6SM FEW040 BECMG 2907/2909 VRB03KT FM291500 05007KT P6SM SCT050 RMK NXT FCST BY 290600Z<br><br>
<br><br>
KIAG 282353Z 04004KT 10SM CLR 27/16 A2979 RMK AO2 SLP085 T02670156 10278 20256 53002<br><br>
KIAG 282253Z 36006KT 10SM CLR 27/15 A2978 RMK AO2 SLP081 T02720150<br><br>
KIAG 282324Z 2900/2924 33006KT P6SM SCT250 FM290400 VRB03KT P6SM SKC FM291500 35008KT P6SM SCT250<br><br>
<br><br>
KBUF 282354Z 22011KT 10SM FEW050 FEW200 21/18 A2982 RMK AO2 SLP094 T02060178 10244 20206 53006 $<br><br>
KBUF 282254Z 22012KT 10SM FEW050 FEW200 22/18 A2980 RMK AO2 SLP089 T02220178 $<br><br>
KBUF 282324Z 2900/2924 23010KT P6SM SCT250 FM290300 27005KT P6SM SKC FM290800 VRB04KT P6SM SKC FM291500 33007KT P6SM FEW250<br><br>
<br><br>
CYYZ 282300Z 36013KT 15SM FEW055 FEW080 28/15 A2979 RMK CU1AC1 AC TR SLP086 DENSITY ALT 2300FT<br><br>
TAF CYYZ 282338Z 2900/3006 35012KT P6SM FEW050 BECMG 2901/2902 01008KT FM291700 15010KT P6SM SCT050 BECMG 3000/3002 08007KT RMK NXT FCST BY 290300Z<br><br>
<br><br>
CYOO 282300Z AUTO 32011G17KT 9SM FEW049 BKN100 27/17 A2977 RMK SLP083 DENSITY ALT 2000FT<br><br>
TAF CYOO 281938Z 2820/2908 33010KT P6SM SCT050 TEMPO 2820/2901 BKN050 BECMG 2822/2824 02005KT RMK FCST BASED ON AUTO OBS. NXT FCST BY 290200Z<br><br>
<br><br>
CYTR 282300Z 01009KT 15SM FEW040 SCT110 27/15 A2975 RMK CU2AC2 TCU DIST E SLP073<br><br>
TAF CYTR 282330Z 2900/2924 01010KT P6SM FEW040 SCT110 FM290200 VRB03KT P6SM FEW040 PROB30 2908/2911 2SM BR BECMG 2915/2917 22008KT FM291700 22008KT P6SM -SHRA BKN040 PROB30 2919/2924 VRB15G25KT 2SM TSRA BR OVC040CB RMK NXT FCST BY 290600Z<br><br>
<br><br>
