RETRIEVED AT : Apr 28 2018 07:05 Local <br>
  RETRIEVED AT: Apr 28 2018 11:05 UTC<br><br>
CYSN has no TAF <br><br>
<br><br>
CYHM 281047Z 31003KT 280V050 6SM -SHRA BR BKN006 BKN018 OVC080 07/06 A2971 RMK SF6CU1AC1 PCPN VRY LGT PRESRR SLP065<br><br>
CYHM 281030Z 04004KT 350V050 4SM -SHRA BR FEW007 FEW018 SCT036 OVC082 07/06 A2969 RMK CF1CU1SC3AC4 CF TR SLP060<br><br>
CYHM 281016Z 35004KT 5SM -SHRA BR FEW019 BKN036 OVC052 07/06 A2970 RMK CU2SC4SC2 SLP061<br><br>
CYHM 281000Z 32004KT 6SM BR FEW005 OVC026 07/06 A2970 RMK SF1SC8 SF TR SLP061<br><br>
TAF AMD CYHM 281020Z 2810/2906 32010KT P6SM OVC030 TEMPO 2810/2815 5SM -SHRA BR BKN020 FM281500 32012KT P6SM OVC030 BECMG 2817/2819 32015KT RMK NXT FCST BY 281200Z<br><br>
<br><br>
KIAG 281053Z 00000KT 8SM OVC028 08/04 A2972 RMK AO2 SLP067 T00830039<br><br>
KIAG 281043Z AUTO 00000KT 9SM FEW024 BKN029 OVC042 08/04 A2972 RMK AO2 T00830039<br><br>
KIAG 280953Z AUTO 00000KT 10SM OVC041 08/03 A2970 RMK AO2 SLP060 T00830033<br><br>
KIAG 280903Z 2809/2906 20004KT P6SM OVC050 FM281200 25005KT P6SM OVC020 TEMPO 2814/2816 4SM -SHRA OVC007 FM281600 25009KT P6SM VCSH OVC012 FM281900 27011KT P6SM OVC020 FM282200 29012G18KT P6SM OVC020<br><br>
<br><br>
KBUF 281054Z 22005KT 9SM SCT034 BKN048 OVC065 07/06 A2973 RMK AO2 SLP067 T00720056<br><br>
KBUF 280954Z 19005KT 10SM BKN048 06/04 A2970 RMK AO2 SLP058 T00610044<br><br>
KBUF 280903Z 2809/2906 19005KT P6SM FEW050 BKN070 FM281200 24005KT P6SM OVC020 TEMPO 2814/2817 4SM -SHRA OVC007 FM281700 24010G16KT P6SM VCSH OVC012 FM282200 27010G17KT P6SM BKN020<br><br>
<br><br>
CYYZ 281000Z 36010KT 15SM FEW008 BKN046 BKN078 06/05 A2969 RMK SF1SC4AC2 SLP059<br><br>
CYYZ 280924Z 33011KT 15SM SCT007 BKN044 06/05 A2969 RMK SF3SC4 SLP058<br><br>
TAF CYYZ 280838Z 2809/2912 VRB03KT P6SM BKN040 TEMPO 2809/2812 OVC020 PROB40 2809/2810 BKN004 FM281200 33015KT P6SM OVC015 FM282100 33015G25KT P6SM BKN025 RMK NXT FCST BY 281200Z<br><br>
<br><br>
CYOO 281000Z AUTO 33007KT 9SM BKN042 OVC080 06/04 A2969 RMK SLP058<br><br>
CYOO has no TAF <br><br>
<br><br>
CYTR 281000Z 23004KT 15SM BKN070 OVC095 08/04 A2968 RMK AC7AC1 SLP052<br><br>
TAF CYTR 280530Z 2806/2906 32005KT P6SM OVC050 TEMPO 2806/2809 6SM -RA BR OVC030 FM281000 VRB03KT P6SM FEW040 SCT200 PROB30 2810/2813 1SM BR OVC008 FM281300 22012KT P6SM BKN025 BKN120 FM282200 24012KT 4SM -SHRA BR OVC020 FM290000 35010G20KT 2SM -SHRA BR OVC008 RMK NXT FCST BY 281200Z<br><br>
<br><br>
