RETRIEVED AT : Apr 05 2020 10:05 Local <br>
  RETRIEVED AT: Apr 05 2020 14:05 UTC<br><br>
CYSN 051300Z 33005KT 15SM BKN016 06/05 A3007 RMK SC7 SLP186<br><br>
TAF CYSN 051241Z 0513/0601 35008KT P6SM OVC020 TEMPO 0513/0517 BKN025 OVC150 FM051700 32008KT P6SM FEW020 SCT120 BECMG 0522/0524 01006KT RMK NXT FCST BY 052000Z<br><br>
<br><br>
CYHM 051300Z 32009KT 15SM FEW030 BKN220 07/03 A3007 RMK SC1CI5 SLP190<br><br>
TAF CYHM 051138Z 0512/0612 32010KT P6SM BKN010 OVC030 TEMPO 0512/0514 SCT010 BKN030 FM051400 33010KT P6SM SCT015 BKN140 TEMPO 0514/0518 BKN015 BKN140 FM051800 36005KT P6SM FEW025 SCT120 BECMG 0519/0521 06008KT FM060400 02005KT P6SM SKC BECMG 0610/0612 VRB03KT RMK NXT FCST BY 051800Z<br><br>
<br><br>
KIAG 051353Z 33008KT 10SM OVC017 07/04 A3007 RMK AO2 SLP191 T00670039<br><br>
KIAG 051304Z 36007KT 10SM BKN013 OVC019 07/04 A3006 RMK AO2 T00670044<br><br>
KIAG 051253Z 35006KT 10SM FEW010 BKN017 OVC024 07/04 A3006 RMK AO2 RAB12E31 SLP188 P0000 T00670044<br><br>
KIAG 051120Z 0512/0612 31005KT P6SM OVC035 FM051300 32006KT P6SM VCSH BKN025 FM051600 34007KT P6SM BKN015 FM051900 31008KT P6SM SCT020 BKN150 FM052300 30005KT P6SM FEW250<br><br>
<br><br>
KBUF 051354Z 33007KT 10SM BKN012 OVC030 08/04 A3007 RMK AO2 SLP186 T00780044<br><br>
KBUF 051254Z 30006KT 10SM BKN011 OVC032 08/05 A3006 RMK AO2 SLP182 T00830050<br><br>
KBUF 051120Z 0512/0612 23004KT P6SM OVC040 FM051400 32006KT P6SM VCSH BKN020 FM051600 33006KT P6SM BKN015 FM051900 30008KT P6SM SCT020 BKN150 FM052300 26004KT P6SM FEW250<br><br>
<br><br>
CYYZ 051300Z 34009G19KT 15SM FEW035 SCT250 07/02 A3006 RMK SC1CI2 SLP187<br><br>
TAF CYYZ 051138Z 0512/0618 36010KT P6SM SCT012 OVC040 TEMPO 0512/0515 BKN012 OVC050 PROB30 0512/0513 OVC008 FM051500 35015KT P6SM SCT015 BKN180 FM052100 36008KT P6SM SKC BECMG 0609/0611 33008KT FM061600 15010KT P6SM SCT150 RMK NXT FCST BY 051500Z<br><br>
<br><br>
CYOO 051351Z AUTO 33012G17KT 9SM BKN014 06/04 A3006 RMK SLP184<br><br>
CYOO 051300Z AUTO 32008G15KT 9SM FEW041 06/04 A3005 RMK SLP180<br><br>
TAF CYOO 051338Z 0514/0602 32012KT P6SM SCT012 OVC040 TEMPO 0514/0516 BKN012 OVC040 PROB30 0514/0515 OVC008 FM051600 32012KT P6SM FEW015 SCT180 TEMPO 0516/0518 BKN015 BECMG 0600/0602 34008KT RMK FCST BASED ON AUTO OBS. NXT FCST BY 052000Z<br><br>
<br><br>
CYTR 051300Z 24004KT 10SM OVC030 07/06 A3003 RMK SC8 SLP171<br><br>
TAF CYTR 051130Z 0512/0612 VRB03KT P6SM FEW010 OVC030 TEMPO 0512/0513 3SM -RA -DZ BR OVC010 PROB30 0512/0513 2SM -DZ BR OVC008 FM051300 31005KT P6SM OVC012 TEMPO 0513/0517 SCT012 OVC025 FM051700 32010KT P6SM BKN025 TEMPO 0517/0520 BKN020 FM052000 32010KT P6SM SCT025 FM060000 31008KT P6SM SKC BECMG 0608/0610 VRB03KT RMK NXT FCST BY 051800Z<br><br>
<br><br>
