RETRIEVED AT : Sep 02 2018 07:05 Local <br>
  RETRIEVED AT: Sep 02 2018 11:05 UTC<br><br>
CYSN has no TAF <br><br>
<br><br>
CYHM 021000Z 22008KT 15SM SCT012 BKN190 22/21 A3010 RMK SC3AC4 SLP190 DENSITY ALT 1600FT<br><br>
TAF CYHM 020539Z 0206/0306 20006KT P6SM BKN140 BKN240 FM021100 21010KT P6SM SCT030 BKN130 TEMPO 0211/0215 BKN020 BKN130 FM021500 22010G20KT P6SM SCT030 SCT140 PROB30 0217/0221 VRB15G25KT 1SM +TSRA BR BKN015 OVC030CB FM030000 22008KT P6SM FEW040 RMK NXT FCST BY 021200Z<br><br>
<br><br>
KIAG 021053Z 21012KT 10SM CLR 23/21 A3011 RMK AO2 SLP191 T02280206<br><br>
KIAG 020953Z AUTO 19006KT 10SM CLR 22/21 A3010 RMK AO2 SLP187 T02220206<br><br>
KIAG 020843Z 0209/0306 20010KT P6SM BKN150 FM021300 23014G22KT P6SM VCSH BKN040 FM021700 23016G24KT P6SM SCT200 FM030000 22010KT P6SM SCT200<br><br>
<br><br>
KBUF 021054Z 21009KT 10SM FEW065 FEW150 FEW290 23/21 A3014 RMK AO2 SLP199 T02280206<br><br>
KBUF 020954Z 19009KT 10SM FEW150 FEW200 SCT280 23/21 A3012 RMK AO2 SLP193 T02280206<br><br>
KBUF 020843Z 0209/0306 19010KT P6SM BKN150 FM021300 22012G20KT P6SM VCSH BKN040 FM021700 24016G24KT P6SM SCT200 FM030000 23010KT P6SM SCT200<br><br>
<br><br>
CYYZ 021048Z 24008KT 15SM FEW013 SCT085 BKN190 OVC240 23/21 A3009 RMK SC2AC2AC2CI2 SLP188 DENSITY ALT 1500FT<br><br>
CYYZ 021034Z 24007KT 15SM BKN013 OVC085 23/21 A3008 RMK SC6AC2 SLP187 DENSITY ALT 1400FT<br><br>
CYYZ 021000Z CCA 22006KT 15SM SCT150 BKN190 23/21 A3007 RMK AC3AC4 SLP183 DENSITY ALT 1500FT<br><br>
TAF CYYZ 020838Z 0209/0312 17005KT P6SM FEW040 BKN140 BKN240 FM021100 21008KT P6SM SCT030 BKN130 TEMPO 0211/0215 BKN020 BKN130 FM021500 23010G20KT P6SM SCT030 SCT140 PROB30 0217/0221 VRB15G25KT 1SM +TSRA BR BKN015 OVC030CB FM030000 23010KT P6SM SCT040 FM030600 24008KT P6SM FEW050 RMK NXT FCST BY 021200Z<br><br>
<br><br>
CYOO 021000Z AUTO 19004KT 160V240 9SM SCT140 OVC200 23/22 A3008 RMK SLP185 DENSITY ALT 1200FT<br><br>
CYOO has no TAF <br><br>
<br><br>
CYTR 021000Z 18006KT 15SM BKN140 BKN200 23/21 A3008 RMK AC6CI1 SLP185<br><br>
TAF CYTR 020530Z 0206/0306 17008KT P6SM BKN120 FM020800 18005KT P6SM BKN030 OVC080 TEMPO 0208/0213 5SM -SHRA BR BKN012 OVC030 PROB30 0209/0213 2SM TSRA BR BKN008 OVC020CB FM021300 18005KT P6SM BKN030 OVC080 TEMPO 0213/0219 5SM -SHRA BR BKN012 OVC030 BECMG 0214/0216 22010G20KT FM021900 24010G20KT P6SM SCT020 OVC030 TEMPO 0219/0224 P6SM -SHRA OVC020 FM030000 23008KT P6SM SCT030 OVC060 TEMPO 0300/0306 P6SM -SHRA BKN030 OVC060 RMK NXT FCST BY 021200Z<br><br>
<br><br>
