RETRIEVED AT : Nov 11 2018 19:05 Local <br>
  RETRIEVED AT: Nov 12 2018 00:05 UTC<br><br>
CYSN 112300Z 23005KT 15SM BKN035 OVC078 03/M02 A3028 RMK SC6AC2 SLP258<br><br>
TAF CYSN 111939Z 1120/1202 26010KT P6SM SCT030 BKN080 TEMPO 1120/1124 5SM -SHSN BKN020 OVC030 BECMG 1122/1124 24005KT RMK NXT FCST WILL BE ISSUED AT 121345Z<br><br>
<br><br>
CYHM 112300Z 21006KT 15SM OVC065 02/M03 A3026 RMK SC8 SLP257<br><br>
TAF CYHM 112338Z 1200/1224 20010KT P6SM SCT030 BKN080 BECMG 1201/1203 23005KT FM121000 VRB03KT P6SM BKN050 BKN200 FM121600 24005KT P6SM BKN030 BKN140 FM122100 21008KT P6SM -SHRA BKN025 OVC120 RMK NXT FCST BY 120600Z<br><br>
<br><br>
KIAG 112353Z 19004KT 10SM SCT031 BKN036 OVC075 02/M01 A3028 RMK AO2 SLP270 T00171011 10028 20017 53003<br><br>
KIAG 112253Z 14005KT 10SM FEW044 OVC080 02/M02 A3027 RMK AO2 SLP265 T00171017<br><br>
KIAG 112339Z 1200/1224 16005KT P6SM OVC070 FM120400 24006KT 6SM -DZ BKN025 FM120500 24006KT 4SM -DZ BKN020 FM121100 21004KT 6SM -DZ BKN025 FM121500 21007KT P6SM BKN035 FM121900 22007KT P6SM BKN060<br><br>
<br><br>
KBUF 112354Z 14006KT 10SM SCT045 OVC075 01/00 A3028 RMK AO2 SLP262 60001 T00110000 10017 20006 55000<br><br>
KBUF 112254Z 13003KT 10SM FEW037 BKN075 BKN090 01/00 A3027 RMK AO2 SLP260 T00110000<br><br>
KBUF 112339Z 1200/1224 15004KT P6SM OVC070 FM120300 22007KT 6SM -DZ BKN025 FM120500 22006KT 4SM -DZ BKN020 FM121200 19005KT 6SM -DZ BKN025 FM121500 20006KT P6SM BKN035 FM121700 21007KT P6SM BKN100 FM122000 22006KT P6SM BKN060<br><br>
<br><br>
CYYZ 112300Z 21004KT 15SM SCT040 OVC072 03/M04 A3026 RMK SC4AC4 SLP255<br><br>
TAF CYYZ 112338Z 1200/1306 24008KT P6SM SCT040 BKN080 FM120900 24005KT P6SM SCT050 BKN200 FM121600 24010KT P6SM SCT040 BKN140 FM122000 21008KT P6SM BKN030 BKN120 FM130200 22005KT 6SM -RA BR BKN012 OVC025 RMK NXT FCST BY 120300Z<br><br>
<br><br>
CYOO 112300Z AUTO 09003KT 9SM OVC080 01/M01 A3026 RMK SLP257<br><br>
CYOO has no TAF <br><br>
<br><br>
CYTR 112328Z 00000KT 15SM SCT038 OVC120 00/M01 A3031 RMK SC3AC5 SLP268<br><br>
CYTR 112300Z 15002KT 5SM -SHSN FEW017 BKN038 OVC090 01/M01 A3030 RMK SC2SC5AC2 SLP267<br><br>
CYTR 112228Z 19003KT 6SM -SHSN FEW017 BKN038 OVC120 01/M02 A3030 RMK SC2SC5AC2 SLP267<br><br>
TAF CYTR 112330Z 1200/1224 22005KT P6SM SCT012 BKN030 OVC120 TEMPO 1200/1207 3SM -SHSNRA BKN012 OVC030 BECMG 1203/1205 27005KT FM120700 VRB03KT P6SM SCT020 BKN040 FM121400 24005KT P6SM BKN030 BKN120 TEMPO 1214/1224 P6SM -SHRA BKN020 BECMG 1216/1218 22012KT RMK NXT FCST BY 120600Z<br><br>
<br><br>
