RETRIEVED AT : Oct 10 2017 12:10 Local <br>
  RETRIEVED AT: Oct 10 2017 16:10 UTC<br><br>
CYSN 101600Z 33003KT 220V340 15SM FEW110 SCT250 22/16 A3012 RMK AC1CI3 SLP200 DENSITY ALT 1000FT<br><br>
CYSN 101500Z 26003KT 140V270 15SM FEW160 SCT250 20/14 A3012 RMK AC2CI2 SLP200 DENSITY ALT 800FT<br><br>
TAF CYSN 101238Z 1013/1101 23005KT P6SM FEW007 SCT140 TEMPO 1013/1015 4SM BR FM101500 28007KT P6SM FEW030 BECMG 1018/1020 36008KT RMK NXT FCST BY 102000Z<br><br>
<br><br>
CYHM 101600Z 25003KT 140V270 12SM FEW150 FEW250 19/16 A3014 RMK AC1CI1 SLP207 DENSITY ALT 1200FT<br><br>
CYHM 101500Z 28005KT 230V300 5SM BR FEW004 SCT100 BKN250 16/16 A3014 RMK SF2AC1CI3 SLP210 DENSITY ALT 800FT<br><br>
CYHM 101439Z 27004KT 250V310 3SM R12/4000VP6000FT/U BR BKN002 15/15 A3014 RMK SF7 VIS SW 1 1/2 SLP208 DENSITY ALT 800FT<br><br>
CYHM 101429Z 26005KT 1SM R12/2800V4500FT/N BR BKN002 15/15 A3014 RMK FG4SF3 SLP209 DENSITY ALT 800FT<br><br>
TAF AMD CYHM 101406Z 1014/1112 24005KT 1/2SM FG SCT002 TEMPO 1014/1015 2SM BR FM101500 28005KT P6SM SKC TEMPO 1015/1016 11/2SM BR FEW004 FM101600 33007KT P6SM SCT040 BKN150 TEMPO 1016/1017 4SM BR FM110900 03008KT P6SM -SHRA SCT020 OVC080 RMK NXT FCST BY 101800Z<br><br>
<br><br>
KIAG 101553Z 22003KT 10SM CLR 22/13 A3013 RMK AO2 SLP202 T02170133<br><br>
KIAG 101453Z 22004KT 10SM CLR 19/14 A3013 RMK AO2 SLP202 T01940144 50003<br><br>
KIAG 101505Z 1015/1112 23005KT P6SM SCT250 FM101800 25006KT P6SM SCT200 FM102000 32004KT P6SM FEW200 FM110200 36004KT P6SM SCT200<br><br>
<br><br>
KBUF 101554Z 23008KT 10SM FEW026 FEW160 FEW250 22/14 A3014 RMK AO2 SLP206 T02170144<br><br>
KBUF 101454Z 24007KT 10SM FEW024 SCT160 SCT250 21/14 A3014 RMK AO2 SLP204 T02060139 51011<br><br>
KBUF 101505Z 1015/1112 24007KT P6SM SCT250 FM102000 29005KT P6SM FEW200 FM102300 VRB03KT P6SM SCT200<br><br>
<br><br>
CYYZ 101600Z 34003KT 260V030 15SM FEW120 BKN230 22/13 A3012 RMK AC2CI3 SLP201 DENSITY ALT 1300FT<br><br>
CYYZ 101500Z 32003KT 290V350 15SM FEW110 BKN230 20/12 A3012 RMK AC1CI4 SLP202 DENSITY ALT 1100FT<br><br>
TAF CYYZ 101438Z 1015/1118 33005KT P6SM FEW080 SCT230 BECMG 1015/1017 35008KT FM102300 36015KT P6SM SCT040 BKN150 FM111000 03008KT P6SM -SHRA BKN030 OVC080 RMK NXT FCST BY 101800Z<br><br>
<br><br>
CYOO 101600Z AUTO 25004KT 200V330 9SM CLR 22/14 A3011 RMK SLP200 DENSITY ALT 1100FT<br><br>
CYOO 101500Z AUTO VRB02KT 9SM CLR 20/15 A3011 RMK SLP200 DENSITY ALT 900FT<br><br>
CYOO has no TAF <br><br>
<br><br>
CYTR 101600Z 29005KT 15SM FEW005 FEW180 FEW230 20/15 A3011 RMK SF1AC1CI2 SLP196<br><br>
CYTR 101500Z 31005KT 15SM FEW005 FEW230 17/15 A3010 RMK SF1CI2 SLP195<br><br>
CYTR 101434Z 31004KT 15SM FEW005 SCT230 17/15 A3011 RMK SF2CI2 SLP196<br><br>
TAF AMD CYTR 101453Z 1014/1112 31005KT P6SM SCT008 FM101700 27005KT P6SM SCT020 TEMPO 1017/1019 BKN020 BECMG 1017/1019 24008KT FM101900 24008KT P6SM BKN030 FM102300 32010KT P6SM FEW030 FM110300 34008KT P6SM FEW030 BKN250 FM110900 02008KT P6SM FEW030 BKN140 RMK NXT FCST BY 101800Z<br><br>
<br><br>
