RETRIEVED AT : Jun 08 2019 14:05 Local <br>
  RETRIEVED AT: Jun 08 2019 18:05 UTC<br><br>
CYSN 081700Z 04010KT 15SM FEW250 23/14 A3015 RMK CI2 SLP213 DENSITY ALT 1200FT<br><br>
TAF CYSN 081238Z 0813/0901 05006KT P6SM FEW250 BECMG 0815/0817 06015KT BECMG 0823/0901 09008KT RMK NXT FCST BY 082000Z<br><br>
<br><br>
CYHM 081700Z 03013KT 15SM SCT250 19/10 A3019 RMK CI3 SLP224 DENSITY ALT 1200FT<br><br>
TAF CYHM 081738Z 0818/0918 03010G20KT P6SM SCT250 BECMG 0819/0821 05012G22KT FM090300 04010KT P6SM BKN250 FM091500 09010G20KT P6SM SCT180 BKN250 RMK NXT FCST BY 090000Z<br><br>
<br><br>
KIAG 081753Z 11008KT 10SM CLR 26/11 A3016 RMK AO2 SLP211 T02560106 10256 20167 58005<br><br>
KIAG 081653Z 08012KT 10SM CLR 25/10 A3017 RMK AO2 SLP213 T02500100<br><br>
KIAG 081724Z 0818/0918 07012G18KT P6SM SKC FM082200 07012KT P6SM SKC FM090400 10006KT P6SM FEW250 FM091000 13006KT P6SM SCT250<br><br>
<br><br>
KBUF 081754Z 06012KT 10SM SCT250 26/09 A3016 RMK AO2 SLP212 T02560089 10261 20172 58004<br><br>
KBUF 081654Z 09012KT 10SM FEW250 26/09 A3017 RMK AO2 SLP214 T02560094<br><br>
KBUF 081724Z 0818/0918 07012G18KT P6SM SCT250 FM082100 07012KT P6SM SKC FM090400 10006KT P6SM FEW250 FM091000 13006KT P6SM SCT250 FM091500 13010G16KT P6SM SCT250<br><br>
<br><br>
CYYZ 081700Z 08019G24KT 15SM FEW100 22/04 A3020 RMK AC1 SLP228 DENSITY ALT 1300FT<br><br>
TAF CYYZ 081738Z 0818/0924 09012G22KT P6SM FEW250 BECMG 0900/0902 08008KT FM090900 06005KT P6SM BKN250 BECMG 0914/0916 11010G20KT BECMG 0920/0922 09010KT RMK NXT FCST BY 082100Z<br><br>
<br><br>
CYOO 081700Z AUTO 13010G19KT 090V150 9SM CLR 23/01 A3021 RMK SLP233 DENSITY ALT 1100FT<br><br>
TAF CYOO 081338Z 0814/0902 09012G22KT P6SM SKC FM081700 10010G20KT P6SM SKC BECMG 0822/0824 07008KT RMK FCST BASED ON AUTO OBS. NXT FCST BY 082000Z<br><br>
<br><br>
CYTR 081700Z 11007KT 15SM FEW220 23/04 A3022 RMK CI1 SLP233<br><br>
TAF CYTR 081730Z 0818/0918 11008KT P6SM FEW220 BECMG 0818/0819 21010KT BECMG 0900/0901 08005KT FM091400 16005KT P6SM FEW280 RMK NXT FCST BY 090000Z<br><br>
<br><br>
