RETRIEVED AT : Mar 22 2020 05:05 Local <br>
  RETRIEVED AT: Mar 22 2020 09:05 UTC<br><br>
CYSN has no TAF <br><br>
<br><br>
CYHM 220800Z 05007KT 15SM SKC M08/M12 A3057 RMK SLP366<br><br>
TAF CYHM 220538Z 2206/2306 03008KT P6SM SKC FM221200 06010KT P6SM FEW025 BECMG 2214/2216 06012G22KT FM222300 05012G22KT P6SM BKN120 BKN200 FM230300 05012KT P6SM OVC070 RMK NXT FCST BY 221200Z<br><br>
<br><br>
KIAG 220853Z AUTO 00000KT 10SM CLR M07/M10 A3059 RMK AO2 SLP377 T10671100 50000<br><br>
KIAG 220753Z AUTO 00000KT 10SM CLR M07/M10 A3059 RMK AO2 SLP378 T10671100<br><br>
KIAG 220534Z 2206/2306 02003KT P6SM SKC FM222000 08012G18KT P6SM FEW250 FM230000 08012KT P6SM BKN200 FM230200 11010KT P6SM BKN090 FM230400 13009KT 2SM -SN OVC045<br><br>
<br><br>
KBUF 220854Z 11006KT 10SM CLR M05/M12 A3058 RMK AO2 SLP368 T10501117 55000<br><br>
KBUF 220754Z 00000KT 10SM CLR M04/M12 A3058 RMK AO2 SLP365 T10441117<br><br>
KBUF 220534Z 2206/2306 02003KT P6SM SKC FM221200 08009KT P6SM FEW250 FM230000 10010KT P6SM BKN200 FM230200 12009KT P6SM BKN100 FM230400 15009KT 2SM -SNRA OVC045<br><br>
<br><br>
CYYZ 220800Z 05008KT 15SM SKC M07/M11 A3060 RMK SLP374<br><br>
TAF CYYZ 220838Z 2209/2312 04010KT P6SM SKC FM221400 08012KT P6SM SCT020 TEMPO 2214/2216 BKN020 FM221600 10012G22KT P6SM BKN025 FM222000 09012G22KT P6SM FEW030 BKN220 FM230000 09012KT P6SM BKN120 BKN200 FM230400 09010KT P6SM OVC070 FM230800 09010KT 11/2SM -SN OVC010 FM231000 09010KT 3/4SM -SNRA BR VV005 RMK NXT FCST BY 221200Z<br><br>
<br><br>
CYOO 220800Z AUTO 06007KT 9SM CLR M05/M13 A3062 RMK SLP378<br><br>
TAF CYOO 220738Z 2208/2220 36008KT P6SM FEW200 FM221200 07008KT P6SM SKC BECMG 2214/2216 09012G22KT RMK FCST BASED ON AUTO OBS. NXT FCST BY 221400Z<br><br>
<br><br>
CYTR 220800Z 05008KT 15SM FEW200 M07/M14 A3066 RMK CI2 SLP388<br><br>
TAF CYTR 220530Z 2206/2306 05005KT P6SM SKC BECMG 2213/2215 08010KT FM222300 08005KT P6SM FEW120 SCT250 FM230500 06005KT P6SM FEW050 OVC100 RMK NXT FCST BY 221200Z<br><br>
<br><br>
