RETRIEVED AT : Apr 03 2020 15:05 Local <br>
  RETRIEVED AT: Apr 03 2020 19:05 UTC<br><br>
CYSN 031800Z 30004KT 240V330 15SM OVC026 08/02 A2999 RMK SC8 SLP161<br><br>
TAF CYSN 031238Z 0313/0401 33010G20KT P6SM FEW250 FM031400 34010G20KT P6SM SCT020 BKN070 TEMPO 0314/0315 BKN020 BKN070 FM031500 34010G20KT P6SM BKN025 BKN070 TEMPO 0315/0318 BKN020 OVC070 FM031800 34008KT P6SM OVC025 TEMPO 0318/0401 P6SM -RA OVC020 RMK NXT FCST BY 032000Z<br><br>
<br><br>
CYHM 031800Z 03008KT 360V060 15SM BKN032 11/03 A2998 RMK SC7 SLP159<br><br>
TAF CYHM 031738Z 0318/0418 03008KT P6SM BKN030 FM040100 05005KT P6SM BKN030 BKN060 TEMPO 0401/0404 6SM -SHRA BR BKN012 OVC030 PROB30 0402/0404 5SM -SHRA BR OVC008 FM040400 03005KT P6SM BKN012 OVC030 PROB30 0404/0409 5SM -DZ BR BKN008 OVC030 FM040900 VRB03KT 6SM BR FEW002 BKN008 OVC030 PROB30 0409/0414 03005KT 1SM -DZ BR BKN002 OVC008 FM041400 VRB03KT P6SM BKN012 BKN030 FM041700 VRB03KT P6SM BKN025 RMK NXT FCST BY 040000Z<br><br>
<br><br>
KIAG 031853Z 32010KT 10SM OVC021 08/02 A2998 RMK AO2 SLP163 T00780022<br><br>
KIAG 031753Z 30008KT 10SM OVC015 06/02 A2999 RMK AO2 SLP166 T00610022 10061 20028 50000<br><br>
KIAG 031739Z 0318/0418 33010KT P6SM VCSH OVC015 FM032300 VRB03KT 5SM -DZ BR OVC007 FM040400 00000KT 2SM BR OVC003 FM041400 VRB03KT P6SM BKN008 FM041600 VRB05KT P6SM BKN025<br><br>
<br><br>
KBUF 031854Z 32008KT 10SM -DZ BKN013 OVC020 07/03 A2999 RMK AO2 SLP159 PCPN VRY LGT P0000 T00670033<br><br>
KBUF 031754Z 32009KT 10SM -DZ FEW008 BKN014 OVC020 06/02 A2999 RMK AO2 DZB09 SLP160 PCPN VRY LGT P0000 60000 T00610022 10067 20039 50000<br><br>
KBUF 031739Z 0318/0418 33010KT P6SM VCSH OVC015 FM032300 VRB03KT 5SM -DZ BR OVC007 FM040400 00000KT 2SM BR OVC003 FM041400 VRB03KT P6SM BKN008 FM041700 25005KT P6SM BKN025<br><br>
<br><br>
CYYZ 031800Z 04010KT 330V050 15SM FEW035 BKN048 BKN250 09/03 A2999 RMK CU1SC6CI1 CI TR SLP161<br><br>
TAF CYYZ 031738Z 0318/0424 01010KT P6SM BKN040 BKN250 FM032200 02010KT P6SM BKN030 OVC070 TEMPO 0322/0403 P6SM -SHRA FM040300 01008KT P6SM BKN030 TEMPO 0403/0415 BKN020 PROB30 0403/0415 5SM -DZ BR BKN008 OVC020 FM041500 11008KT P6SM BKN010 OVC040 FM042000 14008KT P6SM BKN020 FM042300 13008KT P6SM BKN030 BKN080 RMK NXT FCST BY 032100Z<br><br>
<br><br>
CYOO 031800Z AUTO 33012G17KT 9SM OVC029 10/04 A2997 RMK SLP154<br><br>
TAF CYOO 031338Z 0314/0402 35012G22KT P6SM SCT030 BKN070 TEMPO 0314/0317 BKN020 BKN070 FM031700 35010KT P6SM BKN030 BKN070 TEMPO 0317/0401 P6SM -RA OVC020 FM040100 35005KT P6SM SCT012 BKN030 TEMPO 0401/0402 5SM -DZ BR BKN012 OVC030 RMK FCST BASED ON AUTO OBS. NXT FCST BY 032000Z<br><br>
<br><br>
CYTR 031800Z 36010KT 7SM -RA OVC018 09/06 A2996 RMK SC8 SLP147<br><br>
TAF CYTR 031730Z 0318/0418 01012KT P6SM -RA SCT012 OVC020 TEMPO 0318/0322 5SM -RA BR OVC012 FM032200 02008KT P6SM -RA OVC012 TEMPO 0322/0403 5SM -RA BR OVC015 FM040300 02005KT P6SM SCT008 BKN012 OVC020 TEMPO 0403/0415 5SM -RA BR FM041500 VRB03KT P6SM BKN015 OVC025 RMK NXT FCST BY 040000Z<br><br>
<br><br>
