RETRIEVED AT : Jul 04 2020 18:05 Local <br>
  RETRIEVED AT: Jul 04 2020 22:05 UTC<br><br>
CYSN 042100Z 36004KT 290V080 15SM SCT230 30/12 A2997 RMK CI4 SLP150 DENSITY ALT 2100FT<br><br>
TAF CYSN 041938Z 0420/0501 03006KT P6SM SCT250 BECMG 0422/0424 VRB03KT RMK NXT FCST WILL BE ISSUED AT 051245Z<br><br>
<br><br>
CYHM 042100Z 26005KT 220V320 15SM FEW250 30/09 A3000 RMK CI2 SLP156 DENSITY ALT 2700FT<br><br>
TAF CYHM 041738Z 0418/0518 02008KT P6SM FEW050 SCT250 BECMG 0422/0424 VRB03KT BECMG 0513/0515 25007KT RMK NXT FCST BY 050000Z<br><br>
<br><br>
KIAG 042153Z VRB04KT 10SM CLR 29/09 A2996 RMK AO2 SLP140 T02940089<br><br>
KIAG 042053Z 32006KT 10SM CLR 29/09 A2999 RMK AO2 SLP149 T02940094 50001<br><br>
KIAG 042135Z 0422/0518 32006KT P6SM FEW060 FEW250 FM050100 VRB03KT P6SM FEW060 FEW250 FM051500 25008KT P6SM FEW060 FEW150<br><br>
<br><br>
KBUF 042154Z 32008KT 10SM FEW260 31/11 A2998 RMK AO2 SLP145 T03110106<br><br>
KBUF 042054Z 02008KT 10SM SCT260 31/13 A2999 RMK AO2 SLP149 T03110128 50001<br><br>
KBUF 042135Z 0422/0518 02008KT P6SM FEW060 FEW250 FM050100 VRB04KT P6SM FEW250 FM051500 24008KT P6SM FEW045 FEW100<br><br>
<br><br>
CYYZ 042100Z 07004KT 15SM SCT250 32/09 A2998 RMK CI3 SLP150 DENSITY ALT 2600FT<br><br>
TAF CYYZ 042038Z 0421/0524 17008KT P6SM FEW250 BECMG 0423/0501 02008KT BECMG 0513/0515 28008KT RMK NXT FCST BY 050000Z<br><br>
<br><br>
CYOO 042100Z AUTO 18007KT 150V220 9SM CLR 29/10 A2997 RMK SLP148 DENSITY ALT 2000FT<br><br>
TAF CYOO 041938Z 0420/0508 17008KT P6SM FEW250 BECMG 0423/0501 35005KT RMK FCST BASED ON AUTO OBS. NXT FCST BY 050200Z<br><br>
<br><br>
CYTR 042100Z 21009KT 15SM SCT250 29/15 A2994 RMK CI3 SLP139<br><br>
TAF CYTR 041732Z 0418/0518 03005KT P6SM FEW250 BECMG 0418/0420 21008KT FM050200 35005KT P6SM SCT080 BECMG 0515/0517 25008KT RMK NXT FCST BY 050000Z<br><br>
<br><br>
