RETRIEVED AT : Mar 22 2020 02:05 Local <br>
  RETRIEVED AT: Mar 22 2020 06:05 UTC<br><br>
CYSN has no TAF <br><br>
<br><br>
CYHM 220500Z 02007KT 15SM SKC M06/M12 A3057 RMK SLP368<br><br>
TAF CYHM 220538Z 2206/2306 03008KT P6SM SKC FM221200 06010KT P6SM FEW025 BECMG 2214/2216 06012G22KT FM222300 05012G22KT P6SM BKN120 BKN200 FM230300 05012KT P6SM OVC070 RMK NXT FCST BY 221200Z<br><br>
<br><br>
KIAG 220553Z AUTO 00000KT 10SM CLR M06/M11 A3059 RMK AO2 SLP377 T10611106 11033 21067 53006<br><br>
KIAG 220453Z AUTO 00000KT 10SM CLR M06/M11 A3058 RMK AO2 SLP373 T10561106 410061061<br><br>
KIAG 220534Z 2206/2306 02003KT P6SM SKC FM222000 08012G18KT P6SM FEW250 FM230000 08012KT P6SM BKN200 FM230200 11010KT P6SM BKN090 FM230400 13009KT 2SM -SN OVC045<br><br>
<br><br>
KBUF 220554Z 06003KT 10SM CLR M04/M12 A3058 RMK AO2 SLP367 T10441117 11017 21044 53007<br><br>
KBUF 220454Z 01003KT 10SM CLR M04/M12 A3057 RMK AO2 SLP364 T10391117 400111044<br><br>
KBUF 220534Z 2206/2306 02003KT P6SM SKC FM221200 08009KT P6SM FEW250 FM230000 10010KT P6SM BKN200 FM230200 12009KT P6SM BKN100 FM230400 15009KT 2SM -SNRA OVC045<br><br>
<br><br>
CYYZ 220500Z 04009KT 15SM SKC M06/M11 A3059 RMK SLP372<br><br>
TAF CYYZ 220538Z 2206/2312 03010KT P6SM SKC FM221400 08012KT P6SM SCT020 TEMPO 2214/2216 BKN020 FM221600 10012G22KT P6SM BKN025 FM222000 09012G22KT P6SM FEW030 BKN220 FM230000 09012KT P6SM BKN120 BKN200 FM230400 09010KT P6SM OVC070 FM230800 09010KT 11/2SM -SN OVC010 FM231000 09010KT 3/4SM -SNRA BR VV005 RMK NXT FCST BY 220900Z<br><br>
<br><br>
CYOO 220500Z AUTO 35008KT 9SM CLR M06/M10 A3059 RMK SLP370<br><br>
TAF CYOO 220138Z 2202/2214 36006KT P6SM FEW200 FM220800 04008KT P6SM SKC BECMG 2213/2214 08010KT RMK FCST BASED ON AUTO OBS. NXT FCST BY 220800Z<br><br>
<br><br>
CYTR 220500Z 05007KT 15SM SKC M06/M14 A3063 RMK SLP378<br><br>
TAF CYTR 220530Z 2206/2306 05005KT P6SM SKC BECMG 2213/2215 08010KT FM222300 08005KT P6SM FEW120 SCT250 FM230500 06005KT P6SM FEW050 OVC100 RMK NXT FCST BY 221200Z<br><br>
<br><br>
