RETRIEVED AT : Mar 21 2020 19:05 Local <br>
  RETRIEVED AT: Mar 21 2020 23:05 UTC<br><br>
CYSN 212200Z 04007KT 15SM FEW210 M01/M13 A3054 RMK CI1 SLP349<br><br>
TAF CYSN 211939Z 2120/2201 01006KT P6SM SKC RMK NXT FCST WILL BE ISSUED AT 221245Z<br><br>
<br><br>
CYHM 212200Z 02007KT 350V070 15SM FEW050 FEW220 00/M12 A3050 RMK CF1CI1 CF TR SLP343<br><br>
TAF CYHM 211741Z 2118/2218 05008KT P6SM SKC BECMG 2210/2212 06012KT BECMG 2214/2216 09010G20KT RMK NXT FCST BY 220000Z<br><br>
<br><br>
KIAG 212253Z 04009KT 10SM CLR M02/M13 A3053 RMK AO2 SLP354 T10171133<br><br>
KIAG 212153Z 02008KT 10SM CLR M01/M16 A3052 RMK AO2 SLP352 T10111161<br><br>
KIAG 212106Z 2121/2218 34006KT P6SM SKC FM220000 03003KT P6SM SCT200 FM221000 08006KT P6SM SKC<br><br>
<br><br>
KBUF 212254Z 01007KT 10SM FEW200 M01/M12 A3051 RMK AO2 SLP343 T10061122<br><br>
KBUF 212154Z 36010KT 10SM FEW200 01/M11 A3050 RMK AO2 SLP338 T00061106<br><br>
KBUF 212106Z 2121/2218 35007KT P6SM FEW040 FEW200 FM220000 05003KT P6SM SCT200 FM221000 08006KT P6SM SKC<br><br>
<br><br>
CYYZ 212200Z 06014KT 15SM SCT190 M00/M19 A3053 RMK AC4 SLP348<br><br>
TAF CYYZ 212038Z 2121/2224 04008G18KT P6SM SKC FM220000 01010KT P6SM SCT170 BECMG 2211/2213 06010KT SKC FM221400 08012KT P6SM SCT020 BECMG 2215/2217 09015G25KT RMK NXT FCST BY 220000Z<br><br>
<br><br>
CYOO 212200Z AUTO 35006KT 9SM CLR M00/M12 A3053 RMK SLP347<br><br>
TAF CYOO 211939Z 2120/2208 35008KT P6SM SKC FM220000 36008KT P6SM SCT170 BECMG 2205/2207 04008KT RMK FCST BASED ON AUTO OBS. NXT FCST BY 220200Z<br><br>
<br><br>
CYTR 212200Z 25002KT 15SM FEW180 BKN220 01/M14 A3053 RMK AC2CI6 SLP344<br><br>
TAF CYTR 211730Z 2118/2218 01008KT P6SM FEW200 BECMG 2203/2205 03005KT FM221300 07010KT P6SM SKC RMK NXT FCST BY 220000Z<br><br>
<br><br>
