RETRIEVED AT : May 30 2020 11:05 Local <br>
  RETRIEVED AT: May 30 2020 15:05 UTC<br><br>
CYSN 301431Z 22012KT 8SM OVC014 16/16 A2994 RMK SC8 SLP139 DENSITY ALT 500FT<br><br>
CYSN 301400Z 21011KT 4SM -SHRA SCT012 OVC018 15/15 A2995 RMK SC3SC5 CVCTV CLD EMBD SLP142 DENSITY ALT 400FT<br><br>
CYSN 301322Z 20007KT 10SM -SHRA BKN012 OVC023 15/15 A2995 RMK CU5SC3 CVCTV CLD EMBD SLP145 DENSITY ALT 400FT<br><br>
TAF AMD CYSN 301405Z 3014/3101 21010KT P6SM SCT020 BKN090 TEMPO 3014/3017 4SM -SHRA BR BKN020 BECMG 3015/3017 30015G25KT FM301700 30015G25KT P6SM SCT040 TEMPO 3017/3101 BKN040 RMK NXT FCST BY 302000Z<br><br>
<br><br>
CYHM 301442Z 29011G17KT 15SM BKN017 BKN081 17/14 A2994 RMK SC5AC2 SLP142 DENSITY ALT 1200FT<br><br>
CYHM 301421Z 27011KT 240V310 15SM BKN013 BKN080 16/13 A2995 RMK SC6AC1 SLP145 DENSITY ALT 1100FT<br><br>
CYHM 301400Z 25009KT 8SM SCT007 BKN030 BKN080 15/14 A2996 RMK SC3SC2AC2 SLP149 DENSITY ALT 1000FT<br><br>
TAF AMD CYHM 301150Z 3012/3112 20005KT P6SM SCT004 BKN040 TEMPO 3012/3014 BKN005 BKN020 BECMG 3012/3014 28012KT FM301400 30012G22KT P6SM BKN030 TEMPO 3014/3017 BKN020 FM301700 30015G25KT P6SM BKN040 FM310100 32010KT P6SM FEW040 RMK NXT FCST BY 301800Z<br><br>
<br><br>
KIAG 301453Z 23011KT 3SM -RA BR BKN009 BKN013 OVC024 14/13 A2994 RMK AO2 RAB1359 SLP141 P0016 60016 T01440133 56009<br><br>
KIAG 301443Z 23008KT 3SM R28R/4500VP6000FT -RA BR FEW007 BKN013 OVC036 14/13 A2994 RMK AO2 RAB1359 P0016 T01440133<br><br>
KIAG 301440Z 22008KT 1 1/4SM R28R/3000VP6000FT RA BR FEW007 BKN013 OVC034 14/13 A2994 RMK AO2 RAB1359 P0015 T01390128<br><br>
KIAG 301437Z 22010KT 1 1/4SM R28R/3000VP6000FT +RA BR BKN011 BKN016 OVC034 14/13 A2994 RMK AO2 RAB1359 P0015 T01390128<br><br>
KIAG 301431Z 22009KT 1 1/2SM R28R/5500VP6000FT +RA BR SCT011 BKN016 OVC034 14/13 A2995 RMK AO2 RAB1359 P0012 T01440128<br><br>
KIAG 301427Z 22010KT 3SM -RA BR SCT012 BKN016 OVC038 14/13 A2995 RMK AO2 RAB1359 P0008 T01440133<br><br>
KIAG 301353Z 20008KT 10SM BKN011 BKN024 OVC031 15/13 A2995 RMK AO2 RAB32E41 SLP143 P0000 T01500128<br><br>
KIAG 301338Z 19011KT 10SM -RA FEW009 BKN026 OVC060 15/12 A2995 RMK AO2 RAB32 P0000 T01500122<br><br>
KIAG 301313Z 18011KT 10SM SCT009 BKN043 BKN085 15/12 A2996 RMK AO2 T01500122<br><br>
KIAG 301410Z 3014/3112 21012KT P6SM VCSH OVC060 TEMPO 3014/3018 5SM -SHRA OVC025 FM301800 27016G24KT P6SM BKN050 FM310000 31012KT P6SM SCT060 FM310400 33005KT P6SM SCT060<br><br>
<br><br>
KBUF 301454Z 22011KT 10SM BKN017 OVC021 14/12 A2995 RMK AO2 RAB28E51 SLP141 P0000 60000 T01440122 $<br><br>
KBUF 301409Z 19011KT 10SM FEW017 BKN027 OVC036 16/13 A2995 RMK AO2 T01560128 $<br><br>
KBUF 301354Z 19011KT 10SM FEW017 SCT029 BKN036 16/13 A2995 RMK AO2 SLP143 T01560128 $<br><br>
KBUF 301410Z 3014/3112 23012KT P6SM VCSH OVC040 TEMPO 3014/3018 5SM -SHRA OVC025 FM301900 25015G23KT P6SM BKN050 FM310000 30012KT P6SM SCT060 FM310400 32005KT P6SM SCT060<br><br>
<br><br>
CYYZ 301447Z 25005KT 15SM VCSH FEW035 SCT045 BKN091 16/13 A2993 RMK CU2SC2AC2 SLP136 DENSITY ALT 900FT<br><br>
CYYZ 301418Z 19007KT 180V250 15SM -SHRA SCT032 BKN044 BKN090 16/10 A2993 RMK CU3SC3AC1 SLP138 DENSITY ALT 900FT<br><br>
CYYZ 301400Z 21006KT 190V250 15SM SCT030 BKN041 BKN090 17/11 A2994 RMK CU3SC3AC1 SLP141 DENSITY ALT 1000FT<br><br>
TAF CYYZ 301438Z 3015/3118 21007KT P6SM BKN040 BKN090 TEMPO 3015/3016 P6SM -SHRA BKN020 BECMG 3016/3017 29015G25KT FM301700 29015G25KT P6SM BKN050 FM310200 34012KT P6SM SCT040 BECMG 3102/3104 34006KT FM311100 35012KT P6SM SKC RMK NXT FCST BY 301800Z<br><br>
<br><br>
CYOO 301400Z AUTO 19006KT 120V270 9SM SCT016 SCT110 17/12 A2994 RMK SLP139 DENSITY ALT 700FT<br><br>
TAF CYOO 301338Z 3014/3102 25010KT P6SM SCT015 BKN060 TEMPO 3014/3017 BKN015 FM301700 28012G22KT P6SM BKN030 BECMG 3018/3020 31015G25KT RMK FCST BASED ON AUTO OBS. NXT FCST BY 302000Z<br><br>
<br><br>
CYTR 301400Z 19007KT 15SM FEW023 BKN110 17/12 A2994 RMK SC2AC3 SLP139<br><br>
TAF CYTR 301130Z 3012/3112 29005KT P6SM FEW012 SCT100 BECMG 3014/3016 22010KT FM301600 22010KT P6SM SCT020 BKN040 TEMPO 3016/3021 5SM -SHRA BR BKN020 OVC040 BECMG 3016/3018 26012G22KT FM302100 26012G22KT P6SM SCT025 BKN040 BECMG 3100/3102 34010KT FEW040 FM310700 34005KT P6SM FEW025 RMK NXT FCST BY 301800Z<br><br>
<br><br>
