RETRIEVED AT : Sep 07 2019 21:05 Local <br>
  RETRIEVED AT: Sep 08 2019 01:05 UTC<br><br>
CYSN 080012Z 29012G18KT 15SM -SHRA SCT047 BKN090 20/15 A2990 RMK CU4AC3 SLP125 DENSITY ALT 1100FT<br><br>
CYSN 080000Z 28010KT 15SM SCT068 BKN089 20/14 A2989 RMK AC4AC3 SLP122 DENSITY ALT 1100FT<br><br>
TAF CYSN 071938Z 0720/0801 29010KT P6SM SCT040 BKN080 TEMPO 0720/0723 BKN040 RMK NXT FCST WILL BE ISSUED AT 081245Z<br><br>
<br><br>
CYHM 080000Z 28008KT 15SM SCT058 BKN260 18/12 A2993 RMK SC3CS4 SLP139 DENSITY ALT 1300FT<br><br>
TAF CYHM 072338Z 0800/0824 29008KT P6SM SCT040 BKN080 FM080500 30007KT 6SM BR FEW015 SCT240 PROB30 0808/0813 1SM BR FM081300 04006KT P6SM SCT030 FM081600 04006KT P6SM BKN040 FM082300 06006KT P6SM FEW040 BKN160 RMK NXT FCST BY 080600Z<br><br>
<br><br>
KIAG 080053Z 33012KT 7SM -RA BKN037 OVC046 17/13 A2993 RMK AO2 RAB26 SLP135 P0002 T01720133<br><br>
KIAG 072353Z 24006KT 10SM SCT055 BKN080 OVC100 19/13 A2989 RMK AO2 SLP124 T01890133 10217 20189 53006<br><br>
KIAG 080101Z 0801/0824 33012KT P6SM BKN080 TEMPO 0801/0802 P6SM -SHRA BKN040 BKN080 FM080200 31008KT P6SM SCT080 FM081000 36005KT P6SM BKN025 FM081400 02006KT P6SM BKN050 FM081800 01006KT P6SM BKN080<br><br>
<br><br>
KBUF 080054Z 28010KT 10SM OVC085 20/13 A2992 RMK AO2 SLP131 T02000128<br><br>
KBUF 072354Z 25013KT 10SM FEW027 SCT075 BKN090 20/14 A2990 RMK AO2 SLP125 60000 T02000144 10211 20183 53006<br><br>
KBUF 080101Z 0801/0824 28010KT P6SM BKN080 TEMPO 0801/0802 P6SM -SHRA BKN040 BKN080 FM080200 28007KT P6SM SCT080 FM081100 VRB04KT P6SM BKN025 FM081600 VRB04KT P6SM BKN035 FM081900 01005KT P6SM BKN060<br><br>
<br><br>
CYYZ 080000Z CCA 31014KT 15SM FEW060 BKN075 19/11 A2991 RMK SC2AC5 SLP131 DENSITY ALT 1200FT<br><br>
CYYZ 072332Z 33012G21KT 15SM BKN065 20/12 A2991 RMK SC7 SLP130 DENSITY ALT 1300FT<br><br>
CYYZ 072309Z 31014G19KT 15SM -SHRA BKN065 21/11 A2990 RMK SC7 CVCTV CLD EMBD SLP126 DENSITY ALT 1400FT<br><br>
TAF CYYZ 072338Z 0800/0906 31012G22KT P6SM BKN050 TEMPO 0800/0801 P6SM -SHRA BKN030 FM080200 31010KT P6SM SCT040 BECMG 0803/0805 34008KT FM080700 34007KT P6SM SCT015 TEMPO 0807/0813 4SM BR BKN010 FM081300 35010KT P6SM SCT300 FM082100 36008KT P6SM FEW050 BKN200 RMK NXT FCST BY 080300Z<br><br>
<br><br>
CYOO 080000Z AUTO 30008KT 9SM SCT080 OVC100 18/13 A2990 RMK SLP126 DENSITY ALT 800FT<br><br>
CYOO 072353Z AUTO 29008G15KT 9SM SCT080 OVC099 18/13 A2990 RMK SLP126 DENSITY ALT 800FT<br><br>
CYOO 072321Z AUTO 31010G17KT 9SM -RA SCT080 OVC095 19/13 A2989 RMK SLP123 DENSITY ALT 1000FT<br><br>
TAF CYOO 071938Z 0720/0808 26010G20KT P6SM BKN030 OVC050 TEMPO 0720/0721 P6SM -SHRA BKN020 OVC050 FM072100 28010G20KT P6SM BKN040 TEMPO 0721/0803 SCT040 BECMG 0723/0801 30007KT FM080300 30006KT P6SM SCT025 RMK FCST BASED ON AUTO OBS. NXT FCST BY 080200Z<br><br>
<br><br>
CYTR 080000Z 00000KT 15SM SCT040 SCT074 16/16 A2986 RMK SC3AC1 MDT CU EMBD NE SLP112<br><br>
TAF AMD CYTR 080003Z 0800/0824 VRB03KT P6SM SCT030 SCT080 TEMPO 0800/0802 P6SM -SHRA BKN030 OVC080 FM080200 VRB03KT P6SM SCT030 FM080300 VRB03KT P6SM SCT015 TEMPO 0803/0813 BKN015 PROB30 0808/0812 2SM BR FM081300 33005KT P6SM SCT025 BECMG 0818/0820 27008KT BECMG 0822/0824 VRB03KT RMK NXT FCST BY 080600Z<br><br>
<br><br>
