RETRIEVED AT : Sep 09 2018 07:05 Local <br>
  RETRIEVED AT: Sep 09 2018 11:05 UTC<br><br>
CYSN has no TAF <br><br>
<br><br>
CYHM 091000Z 09010KT 15SM FEW035 OVC250 11/07 A3020 RMK SC1CI7 SLP231<br><br>
TAF CYHM 090539Z 0906/1006 08010KT P6SM FEW020 BKN250 BECMG 0911/0913 08015G25KT FM091600 08018G28KT P6SM FEW030 OVC200 FM092300 09018G28KT P6SM -RA BKN040 OVC100 FM100200 07015G25KT P6SM -RA BKN020 OVC060 FM100400 07015G25KT 5SM -RA BR BKN008 OVC015 RMK NXT FCST BY 091200Z<br><br>
<br><br>
KIAG 091053Z 08010KT 10SM CLR 11/05 A3020 RMK AO2 SLP232 T01060050<br><br>
KIAG 090953Z AUTO 09006KT 10SM CLR 10/05 A3021 RMK AO2 SLP234 T01000050<br><br>
KIAG 090859Z 0909/1006 08010KT P6SM OVC250 FM091400 07014G21KT P6SM OVC200 FM100200 08014G21KT P6SM -RA OVC090 FM100500 10015G22KT 6SM -RA OVC025<br><br>
<br><br>
KBUF 091054Z 07008KT 10SM FEW040 FEW140 BKN240 OVC280 11/05 A3020 RMK AO2 SLP229 T01110050<br><br>
KBUF 090954Z 08008KT 10SM FEW040 FEW110 OVC240 11/05 A3021 RMK AO2 SLP231 T01110050<br><br>
KBUF 090859Z 0909/1006 08010KT P6SM OVC250 FM091400 08014G21KT P6SM OVC200 FM100100 09014G21KT P6SM -RA OVC090 FM100400 11015G22KT 6SM -RA OVC025<br><br>
<br><br>
CYYZ 091000Z 05009KT 15SM FEW030 FEW100 BKN240 11/04 A3024 RMK SC1AC1CI4 SLP242<br><br>
TAF CYYZ 090838Z 0909/1012 06010G20KT P6SM FEW030 BKN250 TEMPO 0910/0915 BKN020 BECMG 0913/0915 09015G25KT FM091500 09015G25KT P6SM BKN030 OVC200 TEMPO 0915/0916 BKN020 FM091900 08015G25KT P6SM SCT030 OVC200 BECMG 0922/0924 08015KT FM100600 10012G22KT P6SM -RA BKN020 OVC070 FM100800 10015G25KT 5SM -RA BR BKN008 OVC012 PROB30 1008/1012 2SM -RA BR BKN003 OVC008 RMK NXT FCST BY 091200Z<br><br>
<br><br>
CYOO 091000Z AUTO 05009G15KT 9SM CLR 10/05 A3026 RMK SLP249<br><br>
CYOO has no TAF <br><br>
<br><br>
CYTR 091000Z 05006KT 15SM FEW120 BKN240 06/05 A3028 RMK AC2CI4 SLP258<br><br>
TAF CYTR 090530Z 0906/1006 04006KT P6SM BKN240 BECMG 0913/0915 07012G22KT BECMG 0922/0924 06010KT FM100400 12010KT P6SM FEW040 OVC150 RMK NXT FCST BY 091200Z<br><br>
<br><br>
