RETRIEVED AT : Oct 10 2017 06:10 Local <br>
  RETRIEVED AT: Oct 10 2017 10:10 UTC<br><br>
CYSN has no TAF <br><br>
<br><br>
CYHM 101000Z 26005KT 1/4SM R12/1400V2200FT/U FG SKC 14/14 A3008 RMK FG6 SLP186<br><br>
CYHM 100900Z 25006KT 1/4SM R12/1400FT/N FG SKC 14/14 A3006 RMK FG6 SLP182<br><br>
TAF CYHM 100538Z 1006/1106 25005KT 1/4SM FG SCT002 TEMPO 1006/1013 1/8SM FG BKN002 FM101300 VRB03KT 3SM BR FEW004 FM101600 33007KT P6SM SCT040 BKN150 RMK NXT FCST BY 101200Z<br><br>
<br><br>
KIAG 101005Z AUTO 00000KT 1/4SM R28R/1000VP6000FT FG VV002 15/13 A3007 RMK AO2 T01500128<br><br>
KIAG 100953Z AUTO 00000KT 1/4SM R28R/1000V1800FT FG VV002 13/12 A3007 RMK AO2 SLP182 T01330117<br><br>
KIAG 100949Z AUTO 00000KT 1/4SM R28R/1200V1800FT FG VV002 13/12 A3007 RMK AO2<br><br>
KIAG 100943Z AUTO 00000KT 1/4SM R28R/1400VP6000FT FG VV003 14/12 A3006 RMK AO2 T01390122<br><br>
KIAG 100940Z AUTO 00000KT 3/4SM R28R/1800VP6000FT BR VV003 14/13 A3006 RMK AO2 T01440128<br><br>
KIAG 100932Z AUTO 30003KT 1 1/2SM BR CLR 14/12 A3006 RMK AO2 T01390122<br><br>
KIAG 100926Z AUTO 32003KT 1SM R28R/P6000FT BR VV002 14/12 A3007 RMK AO2 T01390122<br><br>
KIAG 100913Z AUTO 00000KT 3/4SM R28R/2600VP6000FT BR VV001 14/13 A3006 RMK AO2 T01440128<br><br>
KIAG 100910Z AUTO 30004KT 1/4SM R28R/1200VP6000FT FG VV002 14/12 A3006 RMK AO2 T01440122<br><br>
KIAG 100853Z AUTO 00000KT 1/4SM R28R/0800V1200FT FG VV002 14/12 A3005 RMK AO2 SLP177 T01390122 51005<br><br>
KIAG 100846Z AUTO 27003KT 1/4SM R28R/0800V1600FT FG VV002 14/12 A3005 RMK AO2 T01390122<br><br>
KIAG 100838Z AUTO 27004KT 1/4SM R28R/1200VP6000FT FG VV003 14/12 A3005 RMK AO2 T01390122<br><br>
KIAG 100836Z AUTO 28004KT 1/2SM R28R/2400VP6000FT FG VV004 14/13 A3005 RMK AO2 T01440128<br><br>
KIAG 100834Z AUTO 28004KT 1SM R28R/P6000FT BR VV004 14/13 A3005 RMK AO2 T01440128<br><br>
KIAG 100829Z AUTO 29005KT 1 1/2SM BR FEW004 15/13 A3005 RMK AO2 T01500128<br><br>
KIAG 100827Z AUTO 29005KT 1SM R28R/P6000FT BR VV004 14/13 A3005 RMK AO2 T01440128<br><br>
KIAG 100941Z 1010/1106 30003KT 1SM BR SKC FM101100 VRB03KT 2SM BR SCT002 FM101300 VRB03KT 6SM BR FEW250 FM101400 21004KT P6SM FEW250 FM101800 25006KT P6SM SCT200 FM110200 36004KT P6SM SCT200<br><br>
<br><br>
KBUF 100954Z 25005KT 6SM BR CLR 16/15 A3008 RMK AO2 SLP184 T01560150 $<br><br>
KBUF 100854Z 26005KT 7SM CLR 16/15 A3006 RMK AO2 SLP178 T01560150 53004 $<br><br>
KBUF 100903Z 1009/1106 26005KT 6SM BR SCT010 FM101200 23005KT P6SM FEW250 FM102000 29005KT P6SM SCT200 FM102300 VRB03KT P6SM SCT200<br><br>
<br><br>
CYYZ 101000Z 26002KT 15SM FEW064 13/12 A3007 RMK SC2 SLP185<br><br>
CYYZ 100900Z 31003KT 15SM FEW035 12/11 A3006 RMK SC1 SLP180<br><br>
TAF CYYZ 100840Z 1009/1112 31005KT P6SM FEW040 PROB30 1010/1012 1SM BR BECMG 1014/1016 35010KT FM102300 36015KT P6SM SCT040 BKN150 FM111000 03008KT P6SM -SHRA BKN030 OVC080 RMK NXT FCST BY 101200Z<br><br>
<br><br>
CYOO 101000Z AUTO 36003KT 9SM CLR 11/10 A3006 RMK SLP180<br><br>
CYOO 100900Z AUTO 01003KT 9SM CLR 11/11 A3005 RMK SLP177<br><br>
CYOO has no TAF <br><br>
<br><br>
CYTR 101000Z 31002KT 8SM SKC 12/12 A3004 RMK SLP173<br><br>
CYTR 100900Z 31004KT 15SM SKC 13/13 A3003 RMK SLP169<br><br>
CYTR 100833Z 31003KT 15SM SKC 12/12 A3002 RMK SLP167<br><br>
TAF AMD CYTR 100555Z 1006/1106 VRB03KT 1SM BR SKC TEMPO 1006/1013 6SM BR FM101300 VRB03KT 2SM BR BKN008 BECMG 1013/1015 P6SM NSW BKN030 FM101700 24010KT P6SM BKN030 FM110000 32008KT P6SM SCT030 RMK NXT FCST BY 101200Z<br><br>
<br><br>
