RETRIEVED AT : Jul 05 2020 02:05 Local <br>
  RETRIEVED AT: Jul 05 2020 06:05 UTC<br><br>
CYSN has no TAF <br><br>
<br><br>
CYHM 050500Z 03004KT 15SM SCT250 20/08 A3000 RMK CI4 SLP157 DENSITY ALT 1500FT<br><br>
TAF CYHM 050538Z 0506/0606 VRB03KT P6SM SKC BECMG 0514/0516 24007KT BECMG 0517/0519 30007KT FM060000 36007KT P6SM FEW080 FM060300 VRB03KT P6SM SKC RMK NXT FCST BY 051200Z<br><br>
<br><br>
KIAG 050553Z AUTO 00000KT 7SM CLR 19/13 A2998 RMK AO2 SLP148 T01890133 10283 20183 50002<br><br>
KIAG 050453Z AUTO 00000KT 6SM HZ CLR 19/13 A2998 RMK AO2 SLP148 T01940133 403000194<br><br>
KIAG 050520Z 0506/0606 00000KT 6SM HZ SCT250 FM050800 00000KT P6SM SCT250 FM051300 23005KT P6SM SCT250 FM051700 26008KT P6SM SCT250 FM052300 22005KT P6SM SCT250<br><br>
<br><br>
KBUF 050554Z 18004KT 5SM HZ SCT270 21/14 A2999 RMK AO2 SLP150 T02060144 10294 20206 58003<br><br>
KBUF 050454Z 17004KT 3SM HZ FEW270 22/16 A2999 RMK AO2 SLP152 T02170156 403220217<br><br>
KBUF 050520Z 0506/0606 19004KT 4SM HZ SCT250 FM050800 20004KT P6SM SCT250 FM051300 23006KT P6SM SCT250 FM051700 25010KT P6SM SCT250 FM052300 22005KT P6SM SCT250<br><br>
<br><br>
CYYZ 050500Z 34005KT 15SM FEW260 22/08 A2999 RMK CI1 SLP153 DENSITY ALT 1400FT<br><br>
TAF CYYZ 050538Z 0506/0612 34005KT P6SM FEW240 BECMG 0511/0513 24007KT BECMG 0515/0517 16010KT FM060100 36005KT P6SM SKC BECMG 0609/0611 07005KT RMK NXT FCST BY 050900Z<br><br>
<br><br>
CYOO 050500Z AUTO 01003KT 300V050 9SM CLR 21/10 A2997 RMK SLP148 DENSITY ALT 1200FT<br><br>
TAF CYOO 050139Z 0502/0514 34007KT P6SM SKC RMK FCST BASED ON AUTO OBS. NXT FCST BY 050800Z<br><br>
<br><br>
CYTR 050500Z AUTO 03003KT 9SM CLR 16/14 A2996 RMK SLP145<br><br>
TAF CYTR 050530Z 0506/0606 VRB03KT P6SM FEW100 FM050900 VRB03KT P6SM BKN080 BECMG 0515/0517 23010KT FM052000 28010G20KT P6SM BKN030 BKN200 FM060300 33008KT P6SM SCT150 BKN250 RMK FCST BASED ON AUTO OBS 050600-051000Z. NXT FCST BY 051200Z<br><br>
<br><br>
