RETRIEVED AT : Oct 01 2017 17:10 Local <br>
  RETRIEVED AT: Oct 01 2017 21:10 UTC<br><br>
CYSN 012100Z 02007KT 15SM BKN250 17/07 A3029 RMK CI7 SLP262<br><br>
CYSN 012000Z 35008KT 15SM BKN250 18/07 A3032 RMK CI5 SLP270<br><br>
TAF CYSN 011939Z 0120/0201 VRB03KT P6SM FEW030 RMK NXT FCST WILL BE ISSUED AT 021245Z<br><br>
<br><br>
CYHM 012100Z 06008KT 15SM BKN250 17/07 A3029 RMK CI6 SLP263 DENSITY ALT 800FT<br><br>
CYHM 012000Z 07005KT 050V120 15SM BKN250 17/06 A3031 RMK CI5 CONTRAILS SLP269 DENSITY ALT 800FT<br><br>
TAF CYHM 011740Z 0118/0218 VRB03KT P6SM FEW030 BECMG 0215/0217 14010KT RMK NXT FCST BY 020000Z<br><br>
<br><br>
KIAG 012053Z VRB04KT 10SM CLR 19/04 A3030 RMK AO2 SLP266 T01940039 56020<br><br>
KIAG 011953Z 04004KT 10SM CLR 19/04 A3032 RMK AO2 SLP273 T01890039<br><br>
KIAG 012109Z 0121/0218 VRB04KT P6SM SCT200 FM020000 VRB03KT P6SM SKC FM021300 14004KT P6SM SCT200<br><br>
<br><br>
KBUF 012054Z 04004KT 10SM BKN200 BKN250 18/04 A3030 RMK AO2 SLP264 T01780039 56020 $<br><br>
KBUF 011954Z 10007KT 10SM FEW200 SCT250 SCT290 17/03 A3032 RMK AO2 SLP270 T01720028 $<br><br>
KBUF 012109Z 0121/0218 04004KT P6SM SCT200 FM020000 VRB03KT P6SM SKC FM021300 14004KT P6SM SCT200<br><br>
<br><br>
CYYZ 012100Z 15007KT 130V200 15SM SCT260 17/04 A3030 RMK CI4 SLP264<br><br>
CYYZ 012000Z VRB02KT 15SM BKN260 17/05 A3031 RMK CI5 SLP270<br><br>
TAF CYYZ 012038Z 0121/0224 VRB03KT P6SM FEW040 FM021600 12010KT P6SM SCT180 RMK NXT FCST BY 020000Z<br><br>
<br><br>
CYOO 012100Z AUTO 18005KT 130V220 9SM CLR 16/06 A3031 RMK SLP268<br><br>
CYOO 012000Z AUTO 18004KT 100V250 9SM CLR 16/06 A3032 RMK SLP273<br><br>
CYOO has no TAF <br><br>
<br><br>
CYTR 012100Z 20008KT 15SM BKN250 16/09 A3030 RMK CI5 SLP265<br><br>
CYTR 012000Z 20010KT 15SM SCT250 16/09 A3032 RMK CI3 SLP270<br><br>
TAF CYTR 011730Z 0118/0218 28005KT P6SM FEW050 FEW250 BECMG 0118/0120 22008KT BECMG 0123/0201 VRB03KT FM020800 03005KT P6SM SKC TEMPO 0208/0212 4SM BR PROB30 0208/0212 1/2SM FG FM021600 13006KT P6SM SKC RMK NXT FCST BY 020000Z<br><br>
<br><br>
