RETRIEVED AT : Dec 09 2017 20:10 Local <br>
  RETRIEVED AT: Dec 10 2017 01:10 UTC<br><br>
CYSN 100100Z 26007KT 15SM OVC049 M00/M06 A2978 RMK SC8 SLP090<br><br>
CYSN 100000Z 26010KT 15SM OVC053 00/M07 A2978 RMK SC8 SLP088<br><br>
TAF AMD CYSN 100026Z 1000/1002 26010KT P6SM OVC050 TEMPO 1000/1002 6SM -SN BKN020 OVC050 RMK NXT FCST WILL BE ISSUED AT 101345Z<br><br>
<br><br>
CYHM 100100Z 23005KT 8SM -SN FEW009 SCT018 BKN061 M03/M04 A2976 RMK CF2SC2SC3 SLP090<br><br>
CYHM 100051Z 22005KT 8SM -SN FEW009 SCT019 BKN061 M03/M04 A2976 RMK CF1SC3SC3 SLP089<br><br>
CYHM 100000Z 23006KT 5SM -SN BKN035 BKN090 M03/M04 A2976 RMK SC6AC1 SLP089<br><br>
TAF CYHM 092338Z 1000/1024 26005KT P6SM -SN OVC030 TEMPO 1000/1009 3SM -SN BKN015 OVC030 FM100900 26012KT P6SM BKN030 FM101500 26015G25KT 6SM -SN BKN030 RMK NXT FCST BY 100600Z<br><br>
<br><br>
KIAG 100053Z 27008KT 10SM OVC060 00/M08 A2977 RMK AO2 SLP095 T00001078<br><br>
KIAG 092353Z 28004KT 10SM OVC060 M01/M08 A2976 RMK AO2 SLP094 T10061078 10017 21011 51007<br><br>
KIAG 092320Z 1000/1024 VRB03KT P6SM OVC090 FM100200 26004KT P6SM VCSH BKN080 FM100600 26007KT P6SM VCSH OVC045 FM101200 28011G19KT P6SM BKN040 FM101500 26015G26KT P6SM OVC050<br><br>
<br><br>
KBUF 100054Z 28008KT 10SM SCT034 BKN045 OVC060 M01/M07 A2976 RMK AO2 SLP089 T10061072<br><br>
KBUF 092354Z 00000KT 10SM FEW070 OVC100 M01/M08 A2976 RMK AO2 SLP088 4/001 T10111083 10006 21017 53005<br><br>
KBUF 092320Z 1000/1024 21009KT P6SM BKN120 FM100200 VRB03KT P6SM VCSH OVC050 FM100500 26006KT 1SM -SN OVC015 FM100800 26008KT P6SM VCSH OVC040 FM101200 28011G19KT P6SM BKN025 FM101500 26015G27KT P6SM OVC035<br><br>
<br><br>
TAF CYYZ 092338Z 1000/1106 26004KT P6SM SCT025 OVC040 TEMPO 1000/1002 P6SM -SN FM100900 30012KT P6SM BKN040 FM101800 25015G25KT P6SM -SN BKN030 FM110400 30010KT P6SM BKN040 RMK NXT FCST BY 100300Z<br><br>
<br><br>
CYOO 100100Z AUTO 28004KT 9SM BKN055 OVC070 M02/M05 A2976 RMK SLP085<br><br>
CYOO 100049Z AUTO 28004KT 9SM OVC048 M02/M04 A2976 RMK SLP086<br><br>
CYOO 100000Z AUTO 29003KT 8SM -SN OVC048 M01/M04 A2976 RMK SLP087<br><br>
CYOO 092312Z AUTO 30004KT 9SM -SN OVC044 M01/M05 A2976 RMK SLP087<br><br>
CYOO has no TAF <br><br>
<br><br>
CYTR 100100Z 30002KT 15SM OVC078 M01/M05 A2976 RMK AC8 SLP082<br><br>
CYTR 100000Z 27004KT 15SM BKN034 M01/M06 A2976 RMK SC6 SLP084<br><br>
TAF CYTR 092330Z 1000/1024 VRB03KT P6SM SCT030 BKN070 TEMPO 1000/1006 P6SM -SHSN BKN030 OVC070 FM100600 30005KT P6SM SCT070 BKN140 BECMG 1009/1011 30010KT FM101800 25015G25KT P6SM SCT020 BKN070 TEMPO 1018/1022 5SM -SHSN BKN020 FM102200 26015G25KT 6SM -SHSN FEW012 BKN030 PROB40 1022/1024 2SM -SHSN BKN012 OVC030 BECMG 1023/1024 30012G22KT RMK NXT FCST BY 100600Z<br><br>
<br><br>
