RETRIEVED AT : Jul 02 2018 21:05 Local <br>
  RETRIEVED AT: Jul 03 2018 01:05 UTC<br><br>
TAF AMD CYSN 022227Z 0222/0301 20010KT P6SM BKN050 BECMG 0223/0301 VRB03KT FEW050 RMK NXT FCST WILL BE ISSUED AT 031245Z<br><br>
<br><br>
CYHM 030000Z 29009KT 230V290 15SM FEW032TCU BKN040 OVC230 28/22 A3003 RMK TCU1SC6CI1 SLP167 DENSITY ALT 2300FT<br><br>
TAF CYHM 022338Z 0300/0324 21005KT P6SM SCT060 FM030200 VRB03KT P6SM SKC BECMG 0313/0315 08006KT BECMG 0322/0324 VRB03KT RMK NXT FCST BY 030600Z<br><br>
<br><br>
KIAG 030053Z 22009KT 10SM BKN075 BKN095 28/22 A3004 RMK AO2 RAE2359 SLP165 P0000 T02780217<br><br>
KIAG 022353Z 22011KT 9SM -RA FEW028 SCT080 BKN110 28/22 A3002 RMK AO2 RAB49 SLP157 P0000 60000 T02780217 10333 20278 52015<br><br>
KIAG 022338Z 0300/0324 20013G18KT P6SM BKN250 FM030200 16009KT P6SM SCT045 FM030300 15006KT P6SM BKN040 FM030400 VRB03KT P6SM SCT250 FM031400 05008KT P6SM FEW250<br><br>
<br><br>
KBUF 022338Z 0300/0324 23010KT P6SM FEW045 BKN250 FM030200 24006KT P6SM BKN045 FM030500 VRB03KT P6SM SCT035 FM030600 VRB03KT P6SM SCT250 FM031300 05008KT P6SM FEW250<br><br>
<br><br>
CYYZ 030000Z 30012G17KT 15SM FEW048 SCT260 29/20 A3001 RMK CU2CI2 TCU DIST E PRESRR SLP162 DENSITY ALT 2300FT<br><br>
TAF CYYZ 022338Z 0300/0406 32010KT P6SM SCT050 FM030200 VRB03KT P6SM SKC BECMG 0313/0315 13006KT BECMG 0322/0324 VRB03KT RMK NXT FCST BY 030300Z<br><br>
<br><br>
CYOO 030000Z AUTO 35008KT 9SM SCT045 27/19 A3001 RMK PRESRR SLP162 DENSITY ALT 1800FT<br><br>
CYOO has no TAF <br><br>
<br><br>
TAF CYTR 022330Z 0300/0324 29008KT P6SM FEW040 BKN080 FM030400 30005KT P6SM SKC BECMG 0316/0318 21008KT RMK NXT FCST BY 030600Z<br><br>
<br><br>
