RETRIEVED AT : Oct 07 2017 20:10 Local <br>
  RETRIEVED AT: Oct 08 2017 00:10 UTC<br><br>
CYSN 080000Z 18009KT 15SM FEW240 23/16 A2974 RMK CI2 SLP073 DENSITY ALT 1500FT<br><br>
CYSN 072300Z 19009KT 15SM SCT170 23/16 A2975 RMK AC3 SLP075 DENSITY ALT 1600FT<br><br>
TAF CYSN 071938Z 0720/0801 22018G28KT P6SM SCT160 BECMG 0723/0801 18015KT RMK NXT FCST WILL BE ISSUED AT 081245Z<br><br>
<br><br>
CYHM 080000Z 19014KT 15SM FEW190 22/16 A2974 RMK AC1 AC TR SLP071 DENSITY ALT 2000FT<br><br>
CYHM 072300Z 20014KT 15SM FEW190 23/16 A2975 RMK AC1 SLP074 DENSITY ALT 2100FT<br><br>
TAF CYHM 072338Z 0800/0824 20015KT P6SM FEW190 FM080200 19012KT WS005/19040KT P6SM BKN080 FM080500 20015KT WS005/20040KT P6SM -SHRA BKN050 TEMPO 0805/0809 4SM SHRA BR BKN020 OVC040 PROB30 0805/0808 VRB25G40KT 2SM +TSRA BKN008 OVC020CB FM080900 23015G30KT P6SM BKN025 FM081600 24015KT P6SM SKC BECMG 0821/0823 20007KT RMK NXT FCST BY 080600Z<br><br>
<br><br>
KIAG 072353Z 19009KT 10SM CLR 24/15 A2977 RMK AO2 SLP079 T02440150 10278 20239 56005<br><br>
KIAG 072253Z 20009KT 10SM CLR 24/15 A2977 RMK AO2 SLP078 T02440150<br><br>
KIAG 072333Z 0800/0824 20010KT P6SM FEW250 FM080500 19017G29KT 6SM SHRA VCTS OVC035CB FM080900 21022G43KT 6SM -SHRA OVC020 FM081000 22023G43KT P6SM BKN020 FM081200 24018G36KT P6SM SCT025 FM082000 23011KT P6SM SKC<br><br>
<br><br>
KBUF 072354Z 18011KT 10SM FEW150 FEW250 23/15 A2980 RMK AO2 SLP087 T02330150 10272 20233 56004<br><br>
KBUF 072254Z 19012KT 10SM FEW060 FEW150 FEW250 24/14 A2980 RMK AO2 SLP086 T02440144<br><br>
KBUF 072333Z 0800/0824 19012KT P6SM FEW250 FM080500 19016G30KT 4SM SHRA VCTS OVC035CB FM080900 21022G43KT 5SM -SHRA OVC015 FM081100 25018G33KT P6SM SCT020 FM081400 25017G29KT P6SM SCT020 FM081900 24011KT P6SM FEW250<br><br>
<br><br>
CYYZ 080000Z 18007KT 15SM FEW250 24/15 A2973 RMK CI2 SLP066 DENSITY ALT 2000FT<br><br>
CYYZ 072300Z 19012G21KT 15SM FEW150 FEW200 SCT260 25/15 A2973 RMK AC1CC2CI2 AC TR SLP066 DENSITY ALT 2100FT<br><br>
TAF CYYZ 072338Z 0800/0906 19012G22KT P6SM FEW050 FEW200 BECMG 0800/0802 18015KT FM080300 18010KT WS005/19030KT P6SM FEW200 FM080500 18010KT WS005/18040KT P6SM -SHRA BKN050 TEMPO 0805/0809 4SM SHRA BR SCT020 BKN040 PROB30 0805/0809 VRB30G40KT 2SM +TSRA BKN008 OVC020CB FM080900 24025G40KT P6SM BKN025 BECMG 0810/0812 24015G30KT FM081600 25015G25KT P6SM SKC BECMG 0816/0818 24015KT BECMG 0821/0823 20008KT FM090200 VRB03KT P6SM SCT220 RMK NXT FCST BY 080300Z<br><br>
<br><br>
CYOO 080000Z AUTO 17007KT 9SM CLR 21/16 A2975 RMK SLP074 DENSITY ALT 1400FT<br><br>
CYOO 072300Z AUTO 18007KT 9SM FEW210 21/16 A2975 RMK SLP075 DENSITY ALT 1400FT<br><br>
CYOO has no TAF <br><br>
<br><br>
CYTR 080000Z 23003KT 15SM FEW067 BKN160 21/18 A2977 RMK AC1AC7 SLP082<br><br>
CYTR 072300Z 00000KT 15SM BKN160 BKN250 21/18 A2978 RMK AC5CI2 SLP087<br><br>
TAF CYTR 072330Z 0800/0824 19004KT P6SM FEW080 BKN160 OVC250 FM080300 20012KT WS005/18037KT P6SM FEW020 BKN080 OVC160 TEMPO 0806/0808 5SM -SHRA BR BKN020 OVC080 PROB30 0806/0808 VRB20G35KT 1SM TSRA BR BKN006 OVC020CB FM080800 20015G25KT 3SM -SHRA BR BKN010 OVC025 TEMPO 0808/0811 6SM -SHRA BR SCT010 BKN025 PROB30 0808/0811 VRB20G40KT 1SM TSRA BR BKN008 OVC025CB FM081100 24020G35KT P6SM FEW015 OVC030 TEMPO 0811/0814 5SM -SHRA BR BKN015 OVC030 FM081800 26012G22KT P6SM SCT030 BECMG 0821/0823 24010KT RMK NXT FCST BY 080600Z<br><br>
<br><br>
