RETRIEVED AT : Jun 19 2020 20:05 Local <br>
  RETRIEVED AT: Jun 20 2020 00:05 UTC<br><br>
TAF CYSN 191938Z 1920/2001 20008KT P6SM SCT060 RMK NXT FCST WILL BE ISSUED AT 201245Z<br><br>
<br><br>
TAF CYHM 192338Z 2000/2024 30008KT P6SM SCT050 TEMPO 2000/2001 P6SM -SHRA BKN050 PROB30 2000/2001 21/2SM TSRA BR BKN050CB FM200200 25005KT P6SM SCT060 FM200500 VRB03KT P6SM FEW050 PROB30 2007/2012 1SM BR FM201600 22008KT P6SM SCT060 RMK NXT FCST BY 200600Z<br><br>
<br><br>
KIAG 192352Z 2000/2024 21009KT P6SM FEW070 FM200300 20004KT P6SM FEW250 FM201300 VRB03KT P6SM FEW200 FM201500 25004KT P6SM SCT060<br><br>
<br><br>
KBUF 192352Z 2000/2024 18006KT P6SM BKN060 BKN120 BKN250 FM200300 VRB03KT P6SM FEW150 FM201300 22004KT P6SM FEW100 FM201500 25004KT P6SM SCT060<br><br>
<br><br>
TAF CYYZ 192338Z 2000/2106 16005KT P6SM FEW080 SCT120 BECMG 2000/2002 30006KT FM200500 VRB03KT P6SM SKC PROB30 2009/2012 2SM BR FM201500 16012KT P6SM SCT060 BECMG 2100/2102 12006KT RMK NXT FCST BY 200300Z<br><br>
<br><br>
TAF CYOO 191938Z 1920/2008 20008KT P6SM FEW060 BECMG 1923/2001 VRB03KT RMK FCST BASED ON AUTO OBS. NXT FCST BY 200200Z<br><br>
<br><br>
TAF CYTR 192330Z 2000/2024 VRB03KT P6SM FEW060 FEW250 BECMG 2015/2017 20010KT RMK NXT FCST BY 200600Z<br><br>
<br><br>
