RETRIEVED AT : Dec 11 2017 16:10 Local <br>
  RETRIEVED AT: Dec 11 2017 21:10 UTC<br><br>
CYSN 112100Z 13006KT 3SM -SN OVC036 M04/M05 A2993 RMK SN2SC6 VIS VRB 2-4 SLP142<br><br>
CYSN 112000Z 13008KT 3SM -SN OVC017 M03/M06 A2994 RMK SC8 SLP145<br><br>
TAF AMD CYSN 111957Z 1120/1202 10008KT P6SM -SN OVC025 TEMPO 1120/1202 2SM -SHSN OVC020 RMK NXT FCST WILL BE ISSUED AT 121345Z<br><br>
<br><br>
CYHM 112100Z 20004KT 1 1/2SM -SN OVC032 M05/M07 A2990 RMK SN2SC6 SLP138<br><br>
CYHM 112047Z 19005KT 1 1/2SM -SN OVC032 M04/M07 A2990 RMK SN2SC6 SLP138<br><br>
CYHM 112000Z 19004KT 6SM -SN OVC034 M04/M08 A2990 RMK SC8 SLP138<br><br>
CYHM 111950Z 23003KT 2 1/2SM -SN OVC036 M04/M08 A2990 RMK SC8 VSBY VRBL 13/4-4SM SLP139<br><br>
CYHM 111911Z 22005KT 15SM -SN OVC029 M04/M09 A2992 RMK SC8 SLP144<br><br>
TAF AMD CYHM 112105Z 1121/1218 VRB03KT 6SM -SN OVC030 TEMPO 1121/1123 11/2SM -SHSN OVC015 FM112300 VRB03KT 6SM -SN OVC040 TEMPO 1123/1202 2SM -SHSN OVC015 FM120200 06008KT 1SM -SN BR OVC006 FM120800 05010KT 1/4SM -SN FG VV001 BECMG 1212/1214 29010G20KT FM121400 29018G28KT 3SM -SN BLSN OVC015 PROB30 1214/1218 1SM -SHSN BLSN VV008 RMK NXT FCST BY 120000Z<br><br>
<br><br>
KIAG 112106Z 10005KT 2 1/2SM -SN OVC030 M03/M07 A2993 RMK AO2 P0000 T10331067<br><br>
KIAG 112053Z 12004KT 3SM -SN OVC028 M03/M07 A2993 RMK AO2 SLP151 P0001 60001 T10331067 56013<br><br>
KIAG 111953Z 10008KT 8SM -SN FEW008 SCT018 OVC027 M03/M07 A2994 RMK AO2 SLP154 P0000 T10331067<br><br>
KIAG 111919Z 10007KT 4SM -SN FEW008 OVC024 M03/M07 A2995 RMK AO2 P0000 T10331072<br><br>
KIAG 111729Z 1118/1218 22004KT P6SM -SN SCT015 OVC020 FM112000 VRB03KT P6SM BKN020 FM120000 09007KT 2SM -SN OVC012 FM120200 15007KT 2SM -SN OVC007 FM121200 25005KT 2SM -SN OVC007 FM121400 28011G19KT 2SM -SN OVC007<br><br>
<br><br>
KBUF 112054Z 10006KT 5SM -SN FEW015 OVC025 M03/M06 A2992 RMK AO2 SLP141 P0000 60000 T10331061 58014<br><br>
KBUF 112017Z 07005KT 10SM -SN FEW017 OVC029 M03/M06 A2993 RMK AO2 PCPN VRY LGT P0000 T10331061<br><br>
KBUF 111954Z 08006KT 10SM -SN FEW017 OVC031 M04/M06 A2993 RMK AO2 SLP147 PCPN VRY LGT P0000 T10391061<br><br>
KBUF 111939Z 06005KT 10SM -SN SCT017 OVC031 M04/M06 A2994 RMK AO2 PCPN VRY LGT P0000 T10391061<br><br>
KBUF 111729Z 1118/1218 23004KT P6SM -SN SCT015 OVC020 FM112000 VRB03KT P6SM BKN020 FM120000 12005KT 2SM -SN OVC012 FM120200 16007KT 2SM -SN OVC012 FM120900 16006KT 2SM -SN OVC007 FM121400 26010G17KT 2SM -SN OVC007<br><br>
<br><br>
CYYZ 112100Z 12008KT 1 1/2SM -SN FEW009 BKN012 OVC022 M04/M07 A2991 RMK SN1SF1SF5SF2 SF TR SLP140<br><br>
CYYZ 112040Z 13006KT 2 1/2SM -SN FEW009 BKN013 OVC016 M04/M07 A2991 RMK SN1SF1SF5SF1 SLP140<br><br>
CYYZ 112000Z 14007KT 9SM -SN SCT013 OVC031 M04/M08 A2991 RMK CF4SC4 SLP141<br><br>
CYYZ 111922Z 14007KT 110V170 9SM -SN FEW018 OVC025 M04/M09 A2993 RMK CF1SC7 SLP146<br><br>
TAF CYYZ 112038Z 1121/1224 12008KT 6SM -SN SCT012 OVC030 TEMPO 1121/1202 2SM -SHSN OVC012 FM120200 10010KT 1SM -SN BKN008 OVC012 FM120400 10008KT 3/4SM -SN OVC008 FM121200 04012KT 11/2SM -SN OVC012 FM121400 34010G20KT 2SM -SHSN BLSN BKN030 OVC060 FM122100 30012G22KT 6SM -SHSN BLSN BKN030 OVC060 RMK NXT FCST BY 120000Z<br><br>
<br><br>
CYOO 112100Z AUTO 13007KT 9SM -SN OVC034 M05/M10 A2994 RMK SLP149<br><br>
CYOO 112020Z AUTO 15006KT 110V170 9SM -SN OVC036 M05/M11 A2994 RMK SLP150<br><br>
CYOO 112000Z AUTO 15007KT 9SM OVC036 M05/M12 A2995 RMK SLP152<br><br>
CYOO has no TAF <br><br>
<br><br>
CYTR 112100Z 12004KT 15SM SCT041 OVC170 M06/M14 A3000 RMK SC3AS5 SLP164<br><br>
CYTR 112000Z 03002KT 15SM FEW037 OVC170 M06/M15 A3000 RMK SC1AS7 SLP165<br><br>
TAF CYTR 111730Z 1118/1218 02005KT P6SM BKN200 FM112100 07005KT P6SM OVC100 FM112300 07008KT P6SM -SN SCT020 OVC080 TEMPO 1201/1203 2SM -SN BKN020 OVC060 FM120300 07010KT 11/2SM -SN OVC012 FM120500 07012KT 3/4SM -SN VV008 FM121100 07012KT 11/2SM -SN OVC010 FM121600 05012KT 3SM -SN BKN012 OVC030 RMK NXT FCST BY 120000Z<br><br>
<br><br>
