RETRIEVED AT : May 26 2018 08:05 Local <br>
  RETRIEVED AT: May 26 2018 12:05 UTC<br><br>
CYSN has no TAF <br><br>
<br><br>
CYHM 261100Z 24004KT 60SM BKN180 BKN210 15/12 A2979 RMK AC5CI2 SLP086 DENSITY ALT 1200FT<br><br>
TAF CYHM 261138Z 2612/2712 25005KT P6SM BKN200 FM261500 22008KT P6SM SCT080 BKN160 FM261900 21012KT P6SM BKN070 PROB30 2620/2624 VRB15G25KT 1SM +TSRA BKN020 OVC060CB FM270000 23010KT P6SM FEW070 BECMG 2702/2704 VRB03KT FM270700 05003KT 4SM BR FEW006 SCT060 FM270900 05005KT 11/2SM BR OVC004 RMK NXT FCST BY 261800Z<br><br>
<br><br>
KIAG 261153Z 22008KT 10SM BKN070 19/11 A2980 RMK AO2 SLP086 T01890111 10189 20161 53011<br><br>
KIAG 261053Z 22004KT 10SM CLR 17/11 A2979 RMK AO2 SLP082 T01670106<br><br>
KIAG 261120Z 2612/2712 22007KT P6SM BKN200 FM261400 23012KT P6SM BKN130 FM261700 22013G19KT P6SM BKN120 FM270000 VRB03KT P6SM SCT120<br><br>
<br><br>
KBUF 261154Z 22007KT 10SM SCT150 BKN210 BKN260 19/12 A2981 RMK AO2 SLP093 T01940122 10194 20161 53013<br><br>
KBUF 261054Z 20005KT 10SM SCT180 BKN230 BKN270 17/12 A2980 RMK AO2 SLP088 T01670117<br><br>
KBUF 261120Z 2612/2712 20007KT P6SM BKN200 FM261400 23012KT P6SM BKN130 FM261700 23013G19KT P6SM BKN120 FM270000 VRB03KT P6SM SCT120<br><br>
<br><br>
CYYZ 261100Z 32007KT 15SM FEW120 BKN180 OVC210 21/12 A2977 RMK AC1AS6CI2 AC TR SLP080 DENSITY ALT 1600FT<br><br>
TAF CYYZ 261138Z 2612/2718 31005KT P6SM SCT180 BKN260 FM261500 09006KT P6SM SCT080 BKN160 BECMG 2615/2617 20012KT FM262000 18015KT P6SM BKN080 PROB30 2620/2702 VRB15G25KT 1SM +TSRA BKN020 OVC060CB FM270300 05006KT P6SM FEW060 BKN100 FM270600 07006KT 6SM BR FEW006 SCT012 FM270800 09006KT 11/2SM BR OVC004 FM271500 08005KT P6SM SCT012 BKN030 BECMG 2715/2717 16008KT SCT050 RMK NXT FCST BY 261500Z<br><br>
<br><br>
CYOO 261100Z AUTO 01003KT 9SM FEW160 SCT180 BKN230 17/12 A2977 RMK SLP080 DENSITY ALT 900FT<br><br>
CYOO has no TAF <br><br>
<br><br>
CYTR 261100Z 22006KT 15SM BKN080 OVC250 19/11 A2974 RMK AC5CI3 SLP071<br><br>
TAF CYTR 261130Z 2612/2712 22008KT P6SM SCT080 BKN200 TEMPO 2612/2619 BKN080 BKN200 FM261900 23010KT P6SM BKN080 PROB40 2619/2624 VRB15G25KT 1SM +TSRA BR BKN030 BKN060CB FM270200 06008KT P6SM FEW020 SCT080 RMK NXT FCST BY 261800Z<br><br>
<br><br>
