RETRIEVED AT : Oct 08 2017 19:10 Local <br>
  RETRIEVED AT: Oct 08 2017 23:10 UTC<br><br>
CYSN 082300Z 20006KT 15SM BKN250 18/15 A2989 RMK CI7 SLP123 DENSITY ALT 900FT<br><br>
CYSN 082200Z 20011KT 15SM OVC240 20/15 A2989 RMK CI8 SLP123 DENSITY ALT 1100FT<br><br>
TAF CYSN 081938Z 0820/0901 23010G20KT P6SM FEW030 BECMG 0820/0822 21010KT BECMG 0900/0901 18005KT RMK NXT FCST WILL BE ISSUED AT 091245Z<br><br>
<br><br>
CYHM 082300Z 20005KT 15SM BKN250 17/14 A2990 RMK CI7 SLP125 DENSITY ALT 1300FT<br><br>
CYHM 082200Z 19008KT 15SM BKN250 19/14 A2990 RMK CI7 SLP125 DENSITY ALT 1500FT<br><br>
TAF CYHM 081739Z 0818/0918 25013G23KT P6SM BKN030 BECMG 0819/0821 21010KT FM090000 22010KT P6SM SKC BECMG 0900/0902 13005KT FM090300 14007KT P6SM BKN050 OVC160 FM090500 05012KT 4SM -RA BR BKN006 OVC020 FM090700 05012KT 3/4SM RA BR VV002 FM091400 04012G22KT 2SM -RA BR OVC008 FM091700 03010KT 6SM BR OVC010 RMK NXT FCST BY 090000Z<br><br>
<br><br>
KIAG 082253Z 21007KT 10SM CLR 19/14 A2991 RMK AO2 SLP127 T01940144<br><br>
KIAG 082153Z 21010KT 10SM CLR 21/14 A2991 RMK AO2 SLP126 T02060139<br><br>
KIAG 082127Z 0821/0918 25013KT P6SM SCT025 BKN035 FM082200 23007KT P6SM SCT250 FM090400 VRB03KT 5SM RA OVC040 FM090600 09005KT 3SM +RA OVC025 FM090900 08010KT 3SM +RA OVC003 FM091600 34009KT P6SM SCT003 OVC012<br><br>
<br><br>
KBUF 082254Z 23004KT 10SM BKN200 BKN250 18/15 A2992 RMK AO2 SLP129 T01830150<br><br>
KBUF 082154Z 24009KT 10SM FEW018 FEW040 FEW150 BKN200 BKN250 19/16 A2992 RMK AO2 SLP130 T01890156<br><br>
KBUF 082127Z 0821/0918 24010KT P6SM SCT200 FM090300 10004KT 5SM RA OVC040 FM090600 08006KT 3SM +RA OVC020 FM091100 10006KT 3SM +RA OVC003 FM091700 34008KT P6SM SCT003 OVC012<br><br>
<br><br>
CYYZ 082300Z 19008KT 15SM BKN260 20/14 A2988 RMK CI6 SLP120 DENSITY ALT 1400FT<br><br>
CYYZ 082200Z 18009KT 15SM BKN260 22/13 A2987 RMK CI7 SLP114 DENSITY ALT 1600FT<br><br>
TAF CYYZ 082038Z 0821/0924 22010KT P6SM SCT030 BECMG 0900/0902 23005KT FM090500 10008KT 6SM -RA BR SCT008 OVC025 FM090700 09010KT 2SM RA BR OVC006 PROB30 0909/0914 3/4SM -RA BR OVC003 FM091400 04012KT 5SM -RA BR BKN008 OVC020 FM091700 04008KT P6SM OVC012 FM092000 33010KT P6SM BKN030 FM092300 VRB03KT P6SM FEW030 RMK NXT FCST BY 090000Z<br><br>
<br><br>
CYOO 082300Z AUTO 22006KT 9SM CLR 19/14 A2989 RMK SLP123 DENSITY ALT 1000FT<br><br>
CYOO 082200Z AUTO 23006KT 180V240 9SM CLR 20/14 A2988 RMK SLP118 DENSITY ALT 1200FT<br><br>
CYOO has no TAF <br><br>
<br><br>
CYTR 082300Z 23006KT 15SM OVC250 19/15 A2989 RMK CI8 SLP122<br><br>
CYTR 082200Z 24008KT 15SM BKN250 20/14 A2988 RMK CI7 SLP118<br><br>
TAF AMD CYTR 081818Z 0818/0918 24012G22KT P6SM SCT025 TEMPO 0818/0820 BKN020 BECMG 0818/0820 24012KT FM082000 24012KT P6SM SCT025 BECMG 0823/0901 VRB03KT FM090200 24005KT P6SM SCT020 BKN220 FM090800 04008KT 3SM -SHRA BR SCT008 BKN020 OVC160 TEMPO 0908/0916 2SM -SHRA BR BKN008 OVC020 FM091600 01012KT P6SM SCT010 OVC020 TEMPO 0916/0918 5SM -SHRA BR OVC010 RMK NXT FCST BY 090000Z<br><br>
<br><br>
