RETRIEVED AT : Jan 20 2019 16:05 Local <br>
  RETRIEVED AT: Jan 20 2019 21:05 UTC<br><br>
CYSN 202000Z 32016G27KT 8SM -SN DRSN BKN021 M12/M15 A2992 RMK SC7 SLP142<br><br>
TAF CYSN 201938Z 2020/2102 33015G25KT P6SM BKN030 TEMPO 2020/2024 21/2SM -SN RMK NXT FCST WILL BE ISSUED AT 211345Z<br><br>
<br><br>
CYHM 202000Z 31015G27KT 15SM FEW030 M14/M22 A2993 RMK CU1 CU TR SLP158<br><br>
TAF CYHM 201738Z 2018/2118 33015G25KT P6SM SCT050 BECMG 2023/2101 32012KT RMK NXT FCST BY 210000Z<br><br>
<br><br>
KIAG 202053Z 33019G24KT 1/4SM R28R/2600V4000FT FZFG VV008 M13/M16 A2993 RMK AO2 SLP162 60000 T11331156 51020 $<br><br>
KIAG 202051Z 33017G24KT 1/4SM R28R/2400V4000FT FZFG VV007 M13/M16 A2993 RMK AO2 $<br><br>
KIAG 202039Z 32020G25KT 1/4SM R28R/1800V2600FT FZFG VV006 M13/M16 A2992 RMK AO2 T11331156 $<br><br>
KIAG 201953Z 33019KT 1/4SM R28R/2000V4000FT HZ VV008 M13/M16 A2989 RMK AO2 PK WND 33027/1938 SNEMM SLP148 P0000 T11281156 $<br><br>
KIAG 201941Z 32019G27KT 1/4SM R28R/1800VP6000FT +SN BKN008 OVC015 M13/M16 A2988 RMK AO2 PK WND 33027/1938 P0000 T11281161 $<br><br>
KIAG 201932Z 32016G23KT 1/4SM R28R/1800V2200FT +SN FZFG VV007 M13/M15 A2988 RMK AO2 P0000 T11281150 $<br><br>
KIAG 201949Z 2020/2118 33014G24KT 2SM -SN SCT015 OVC025 TEMPO 2020/2024 1SM -SN FM210000 32014G22KT 4SM -SN BKN025 FM210300 33014G24KT 2SM -SN BLSN BKN015 FM211200 33014G24KT P6SM VCSH BKN025<br><br>
<br><br>
KBUF 202054Z 32012KT 1SM R23/P6000FT -SN BLSN BKN014 OVC022 M13/M17 A2991 RMK AO2 SLP144 P0000 60000 T11331167 53024<br><br>
KBUF 202030Z 34013KT 3/4SM R23/4000VP6000FT -SN BLSN BKN012 BKN023 OVC027 M13/M16 A2990 RMK AO2 P0000 T11331161<br><br>
KBUF 202024Z 33013KT 2SM R23/3000VP6000FT -SN BLSN BKN012 OVC027 M13/M16 A2989 RMK AO2 P0000 T11281161<br><br>
KBUF 202002Z 34010KT 1/2SM R23/3000VP6000FT SN BKN012 OVC025 M13/M16 A2988 RMK AO2 P0000 T11331161<br><br>
KBUF 201954Z 32009KT 1SM R23/5000VP6000FT -SN FEW014 OVC024 M13/M16 A2988 RMK AO2 SLP133 P0000 T11331161<br><br>
KBUF 201944Z 33009KT 1 1/2SM R23/4000VP6000FT -SN OVC024 M13/M17 A2987 RMK AO2 P0000 T11331167<br><br>
KBUF 201739Z 2018/2118 32014G20KT 4SM -SN BKN025 TEMPO 2018/2021 2SM -SN BKN025 FM210000 32012G20KT 6SM -SHSN SCT025 BKN040 FM210400 31012G18KT P6SM VCSH BKN025 FM211500 31012G18KT P6SM SCT025 BKN040<br><br>
<br><br>
TAF CYYZ 202038Z 2021/2124 34020G35KT P6SM SCT020 TEMPO 2021/2023 BKN020 FM210400 34020G30KT P6SM SKC BECMG 2116/2118 32015G25KT RMK NXT FCST BY 210000Z<br><br>
<br><br>
CYOO 202059Z AUTO 32024G32KT 5SM HZ CLR M17/M24 A2993 RMK SLP151<br><br>
CYOO 202043Z AUTO 32017G27KT 7SM CLR M17/M23 A2993 RMK SLP148<br><br>
CYOO 202039Z AUTO 33019G34KT 3SM HZ CLR M17/M24 A2992 RMK SLP146<br><br>
CYOO 202030Z AUTO 34025G31KT 2 1/2SM BLSN CLR M17/M23 A2991 RMK VIS VRB 1-3 SLP144<br><br>
CYOO 202021Z AUTO 34024G33KT 4SM HZ CLR M17/M23 A2991 RMK SLP143<br><br>
CYOO 202019Z AUTO 34020G27KT 6SM HZ CLR M17/M23 A2991 RMK SLP142<br><br>
CYOO 202003Z AUTO 33023G30KT 4SM HZ CLR M17/M23 A2990 RMK SLP138<br><br>
CYOO 202001Z AUTO 32020G29KT 6SM HZ CLR M16/M23 A2990 RMK SLP138<br><br>
CYOO 202000Z AUTO 32019G31KT 5SM HZ CLR M16/M23 A2990 RMK SLP139<br><br>
CYOO 201935Z AUTO 33019G30KT 3SM HZ CLR M16/M23 A2988 RMK PRESRR SLP133<br><br>
CYOO 201928Z AUTO 32022G30KT 2 1/4SM BLSN CLR M16/M22 A2987 RMK VIS VRB 1 1/4-3 SLP131<br><br>
CYOO 201924Z AUTO 33021G29KT 3SM BLSN CLR M16/M23 A2987 RMK SLP130<br><br>
CYOO 201913Z AUTO 33022G33KT 2 1/4SM BLSN CLR M16/M22 A2987 RMK VIS VRB 1 1/4-3 SLP128<br><br>
CYOO 201910Z AUTO 33017G33KT 3SM HZ CLR M16/M22 A2987 RMK SLP128<br><br>
TAF CYOO 201938Z 2020/2108 32015G30KT P6SM SKC RMK FCST BASED ON AUTO OBS. AUTO OBS REP NON-REPRESENTATIVE VIS. NXT FCST BY 210200Z<br><br>
<br><br>
CYTR 202000Z 35010KT 12SM SCT027 BKN080 M15/M22 A2984 RMK SC3AC4 SLP114<br><br>
TAF CYTR 201730Z 2018/2118 33015G25KT P6SM SCT025 BKN250 TEMPO 2018/2112 3SM -SHSN BLSN BKN025 BECMG 2104/2106 33012G22KT FM211200 33012G22KT P6SM SKC RMK NXT FCST BY 210000Z<br><br>
<br><br>
