RETRIEVED AT : Oct 09 2017 20:10 Local <br>
  RETRIEVED AT: Oct 10 2017 00:10 UTC<br><br>
CYSN 100000Z 21007KT 15SM FEW060 18/17 A2993 RMK SC2 SLP137 DENSITY ALT 800FT<br><br>
CYSN 092300Z 19006KT 15SM BKN040 BKN061 19/16 A2992 RMK SC5SC2 SLP133 DENSITY ALT 900FT<br><br>
TAF CYSN 091938Z 0920/1001 04005KT P6SM BKN012 BECMG 0920/0922 21008KT BKN030 FM100000 21007KT P6SM SCT040 RMK NXT FCST WILL BE ISSUED AT 101245Z<br><br>
<br><br>
CYHM 100000Z 22005KT 15SM SCT034 BKN052 17/16 A2996 RMK SC4SC1 SLP146 DENSITY ALT 1200FT<br><br>
CYHM 092300Z 20006KT 15SM FEW041 BKN052 18/17 A2993 RMK SC2SC4 SLP137 DENSITY ALT 1400FT<br><br>
TAF CYHM 092338Z 1000/1024 20005KT P6SM BKN050 FM100100 VRB03KT P6SM FEW030 FM101600 33007KT P6SM SCT040 SCT150 RMK NXT FCST BY 100600Z<br><br>
<br><br>
KIAG 092353Z 20007KT 9SM FEW040 BKN060 19/16 A2995 RMK AO2 SLP141 T01940161 10200 20178 51019<br><br>
KIAG 092327Z 19006KT 9SM FEW026 OVC040 20/16 A2994 RMK AO2 T02000161<br><br>
KIAG 092253Z 00000KT 10SM OVC018 19/16 A2994 RMK AO2 SLP138 T01940161<br><br>
KIAG 092320Z 1000/1024 VRB03KT P6SM OVC015 FM100200 22005KT P6SM BKN060 FM100400 23004KT P6SM SCT110 FM100700 VRB03KT P6SM FEW250 FM101500 30004KT P6SM FEW250 FM102300 35005KT P6SM SCT200<br><br>
<br><br>
KBUF 092354Z 23006KT 4SM -DZ BR FEW004 OVC010 18/17 A2996 RMK AO2 DZB22 SLP146 P0000 60000 T01830172 10200 20178 51026 $<br><br>
KBUF 092254Z 26004KT 10SM FEW005 OVC012 18/17 A2995 RMK AO2 SLP141 T01830167 $<br><br>
KBUF 092229Z 28004KT 10SM SCT005 OVC010 18/17 A2994 RMK AO2 T01830167 $<br><br>
KBUF 092320Z 1000/1024 25005KT P6SM OVC012 FM100400 23005KT P6SM SCT012 FM100800 VRB03KT P6SM FEW250 FM101500 28004KT P6SM FEW250 FM102300 36004KT P6SM SCT200<br><br>
<br><br>
CYYZ 100000Z 16003KT 15SM FEW040 18/15 A2993 RMK SC1 SLP138 DENSITY ALT 1000FT<br><br>
CYYZ 092300Z 14005KT 15SM FEW045 19/15 A2992 RMK SC1 SLP132 DENSITY ALT 1200FT<br><br>
TAF CYYZ 092338Z 1000/1106 VRB03KT P6SM FEW040 BECMG 1003/1005 30005KT FM101600 35010KT P6SM FEW040 FM102300 36015KT P6SM SCT040 SCT150 RMK NXT FCST BY 100300Z<br><br>
<br><br>
CYOO 100000Z AUTO 00000KT 9SM CLR 17/14 A2994 RMK SLP139 DENSITY ALT 700FT<br><br>
CYOO 092300Z AUTO 21004KT 9SM CLR 18/14 A2991 RMK SLP132 DENSITY ALT 900FT<br><br>
CYOO has no TAF <br><br>
<br><br>
CYTR 100000Z 20003KT 15SM FEW030 17/16 A2992 RMK SC1 SLP134<br><br>
CYTR 092300Z 27003KT 15SM FEW030 19/15 A2990 RMK SC1 SLP125<br><br>
TAF CYTR 092330Z 1000/1024 VRB03KT P6SM SCT030 PROB30 1006/1013 2SM BR BKN008 FM101500 VRB03KT P6SM SCT030 BKN250 BECMG 1016/1018 22010KT RMK NXT FCST BY 100600Z<br><br>
<br><br>
