RETRIEVED AT : Oct 02 2017 13:10 Local <br>
  RETRIEVED AT: Oct 02 2017 17:10 UTC<br><br>
CYSN 021700Z 15004KT 15SM BKN250 21/07 A3038 RMK CI5 SLP290 DENSITY ALT 600FT<br><br>
CYSN 021600Z 08004KT 060V160 15SM BKN250 20/07 A3039 RMK CI6 SLP293 DENSITY ALT 500FT<br><br>
TAF CYSN 021240Z 0213/0301 11005KT P6SM SCT190 BECMG 0215/0217 06008KT RMK NXT FCST BY 022000Z<br><br>
<br><br>
CYHM 021700Z 06008KT 020V080 15SM FEW045 SCT250 19/08 A3038 RMK CU1CI3 CU TR CONTRAILS SLP293 DENSITY ALT 1000FT<br><br>
CYHM 021600Z 05007KT 020V110 15SM SCT240 18/08 A3040 RMK CI3 SLP298 DENSITY ALT 900FT<br><br>
TAF CYHM 021138Z 0212/0312 VRB03KT P6SM FEW240 BECMG 0215/0217 06007KT BECMG 0304/0306 14006KT RMK NXT FCST BY 021800Z<br><br>
<br><br>
KIAG 021653Z 00000KT 10SM CLR 21/05 A3040 RMK AO2 SLP296 T02110050<br><br>
KIAG 021553Z 00000KT 10SM CLR 20/06 A3040 RMK AO2 SLP297 T02000061<br><br>
KIAG 021515Z 0215/0312 14005KT P6SM FEW250 FM022000 08006KT P6SM FEW200 FM030200 12004KT P6SM FEW200 FM030600 17005KT P6SM SKC<br><br>
<br><br>
KBUF 021654Z VRB03KT 10SM FEW170 FEW270 SCT320 21/04 A3040 RMK AO2 SLP293 T02060039<br><br>
KBUF 021554Z 00000KT 10SM FEW270 SCT320 19/04 A3040 RMK AO2 SLP297 T01890044<br><br>
KBUF 021515Z 0215/0312 10005KT P6SM FEW250 FM022000 08005KT P6SM FEW200 FM030200 12005KT P6SM FEW200 FM030600 16006KT P6SM SKC<br><br>
<br><br>
CYYZ 021700Z 14011KT 080V160 15SM FEW180 FEW250 19/06 A3039 RMK AC1CI1 SLP296 DENSITY ALT 700FT<br><br>
CYYZ 021600Z 14009KT 080V150 15SM FEW180 SCT240 18/07 A3041 RMK AC1CI3 CONTRAILS SLP301<br><br>
TAF CYYZ 021438Z 0215/0318 12012KT P6SM FEW180 BECMG 0300/0302 VRB03KT RMK NXT FCST BY 021800Z<br><br>
<br><br>
