RETRIEVED AT : Jul 06 2018 23:42 Local <br>
  RETRIEVED AT: Jul 07 2018 03:42 UTC<br><br>
CYSN has no TAF <br><br>
<br><br>
CYHM 070300Z 35005KT 15SM SKC 15/08 A3033 RMK SLP273<br><br>
CYHM 070200Z 35006KT 15SM SKC 16/08 A3032 RMK FU N SLP268<br><br>
TAF CYHM 062338Z 0700/0724 03010KT P6SM FEW050 FM070700 VRB03KT P6SM SKC BECMG 0714/0716 05005KT RMK NXT FCST BY 070600Z<br><br>
<br><br>
KIAG 070253Z 34006KT 10SM CLR 19/09 A3031 RMK AO2 SLP262 T01940094 51021<br><br>
KIAG 070153Z 35005KT 10SM CLR 20/10 A3030 RMK AO2 SLP257 T02000100<br><br>
KIAG 070254Z 0703/0724 35006KT P6SM SKC FM070800 03004KT P6SM SKC FM071200 VRB04KT P6SM SKC FM071800 02008KT P6SM SKC<br><br>
<br><br>
KBUF 070254Z 34006KT 10SM CLR 18/11 A3032 RMK AO2 SLP265 T01780106 53021<br><br>
KBUF 070154Z 33005KT 10SM FEW045 18/09 A3030 RMK AO2 SLP258 T01830094<br><br>
KBUF 070253Z 0703/0724 35006KT P6SM SKC FM070800 04004KT P6SM SKC FM071200 10004KT P6SM SKC FM071800 32008KT P6SM SKC<br><br>
<br><br>
TAF CYYZ 070238Z 0703/0806 35010KT P6SM SKC BECMG 0714/0716 17010KT BECMG 0801/0803 VRB03KT RMK NXT FCST BY 070600Z<br><br>
<br><br>
CYOO has no TAF <br><br>
<br><br>
CYTR 070300Z 02002KT 15SM SKC 15/09 A3029 RMK SLP259<br><br>
CYTR 070200Z 03003KT 15SM FEW250 17/08 A3027 RMK CI1 SLP251<br><br>
TAF CYTR 062330Z 0700/0724 36008KT P6SM FEW040 BECMG 0704/0706 VRB03KT BECMG 0716/0718 22010KT RMK NXT FCST BY 070600Z<br><br>
<br><br>
