RETRIEVED AT : Jul 01 2018 08:40 Local <br>
  RETRIEVED AT: Jul 01 2018 12:40 UTC<br><br>
CYSN 011200Z 21009KT 8SM SCT250 26/22 A3001 RMK CI3 SLP161 DENSITY ALT 1600FT<br><br>
CYSN 011100Z 20007KT 8SM SCT240 24/22 A3000 RMK CI3 SLP157 DENSITY ALT 1400FT<br><br>
CYSN has no TAF <br><br>
<br><br>
CYHM 011200Z 22008KT 8SM FEW250 24/22 A3004 RMK CI1 CI TR SLP170 DENSITY ALT 1900FT<br><br>
CYHM 011100Z 21006KT 7SM FEW250 22/21 A3003 RMK CI1 SLP167 DENSITY ALT 1700FT<br><br>
TAF CYHM 011142Z 0112/0212 22008KT P6SM FEW240 BECMG 0114/0116 22015KT BECMG 0200/0202 19008KT RMK NXT FCST BY 011800Z<br><br>
<br><br>
KIAG 011120Z 0112/0212 21007KT 6SM BR SCT250 FM011400 22011KT P6SM SCT250 FM020100 20005KT P6SM SCT250<br><br>
<br><br>
KBUF 011154Z 21008KT 10SM FEW300 26/21 A3005 RMK AO2 SLP171 T02560211 10256 20222 53003<br><br>
KBUF 011054Z 21007KT 10SM FEW300 23/21 A3004 RMK AO2 SLP167 T02330206<br><br>
KBUF 011120Z 0112/0212 20006KT P6SM SCT250 FM011400 23010KT P6SM SCT250 FM020100 20006KT P6SM SCT250<br><br>
<br><br>
TAF CYYZ 011142Z 0112/0218 20008KT P6SM FEW240 BECMG 0114/0116 21015KT BECMG 0200/0202 22008KT FM021700 24012KT P6SM BKN050 PROB30 0217/0218 1SM +TSRA BR BKN020 OVC050CB RMK NXT FCST BY 011500Z<br><br>
<br><br>
CYOO has no TAF <br><br>
<br><br>
CYTR 011200Z 18005KT 10SM SCT250 25/21 A2999 RMK CI3 HAZY SLP156<br><br>
CYTR 011100Z 21003KT 10SM SCT250 24/21 A2998 RMK CI3 HAZY SLP153<br><br>
TAF CYTR 011130Z 0112/0212 21006KT P6SM SCT240 FM011600 22012KT P6SM FEW040 BECMG 0123/0201 22008KT FM020100 22008KT P6SM SKC PROB30 0206/0210 1SM BR RMK NXT FCST BY 011800Z<br><br>
<br><br>
