RETRIEVED AT : May 22 2020 11:05 Local <br>
  RETRIEVED AT: May 22 2020 15:05 UTC<br><br>
CYSN 221400Z 01005KT 330V030 15SM SCT250 17/08 A3012 RMK CI3 SLP202 DENSITY ALT 500FT<br><br>
TAF CYSN 221238Z 2213/2301 VRB03KT P6SM FEW250 FM221800 35008KT P6SM SCT080 BKN150 FM222000 02008KT P6SM SCT050 BKN080 TEMPO 2220/2301 P6SM -SHRA OVC050 RMK NXT FCST BY 222000Z<br><br>
<br><br>
CYHM 221400Z VRB02KT 15SM FEW120 SCT250 20/12 A3011 RMK AC1CI3 AC TR SLP199 DENSITY ALT 1400FT<br><br>
TAF CYHM 221152Z 2212/2312 VRB03KT P6SM FEW250 FM221800 18008KT P6SM FEW050 SCT070 BKN120 FM222000 22010KT P6SM FEW020 BKN050 OVC070 TEMPO 2220/2224 P6SM -SHRA SCT020 OVC050 FM230000 20008KT P6SM -SHRA FEW008 SCT015 OVC030 TEMPO 2300/2309 4SM -SHRA BR BKN015 OVC030 FM230900 28005KT P6SM SCT030 BKN070 RMK NXT FCST BY 221800Z<br><br>
<br><br>
KIAG 221453Z 29004KT 10SM CLR 21/12 A3009 RMK AO2 SLP192 T02110117 58007<br><br>
KIAG 221353Z 29003KT 10SM CLR 20/12 A3011 RMK AO2 SLP198 T02000117<br><br>
KIAG 221459Z 2215/2312 29004KT P6SM SKC FM222000 07006KT P6SM BKN040 FM230200 VRB03KT P6SM VCSH OVC035 FM230600 VRB03KT P6SM VCSH OVC015<br><br>
<br><br>
KBUF 221454Z 00000KT 10SM CLR 23/12 A3010 RMK AO2 SLP191 T02330117 58008<br><br>
KBUF 221354Z VRB04KT 10SM FEW150 FEW200 FEW250 22/12 A3012 RMK AO2 SLP197 T02220117<br><br>
KBUF 221459Z 2215/2312 00000KT P6SM SKC FM222000 23007KT P6SM BKN040 FM230100 VRB03KT 6SM -SHRA OVC025 FM230700 VRB03KT 5SM BR VCSH OVC008<br><br>
<br><br>
CYYZ 221400Z 31003KT 290V030 15SM FEW260 20/09 A3011 RMK CI1 CI TR SLP198 DENSITY ALT 1100FT<br><br>
TAF CYYZ 221441Z 2215/2318 VRB03KT P6SM FEW250 FM221800 15010KT P6SM FEW100 SCT150 FM222000 15010KT P6SM SCT070 BKN090 BKN200 TEMPO 2220/2306 BKN070 OVC090 FM230600 11005KT P6SM FEW008 SCT090 BKN180 BECMG 2308/2310 02008KT FM231000 02008KT P6SM FEW030 FEW080 SCT200 FM231500 10008KT P6SM SKC BECMG 2316/2318 15010KT RMK NXT FCST BY 221800Z<br><br>
<br><br>
CYOO 221400Z AUTO 27003KT 160V310 9SM CLR 21/06 A3011 RMK SLP199 DENSITY ALT 900FT<br><br>
TAF CYOO 221348Z 2214/2302 21007KT P6SM SKC FM221800 18008KT P6SM SCT150 BECMG 2223/2301 VRB03KT RMK FCST BASED ON AUTO OBS. NXT FCST BY 222000Z<br><br>
<br><br>
CYTR 221400Z 19005KT 15SM FEW240 20/00 A3012 RMK CI1 SLP200<br><br>
TAF CYTR 221130Z 2212/2312 VRB03KT P6SM FEW240 BECMG 2215/2217 22010KT BECMG 2222/2224 VRB03KT FM230000 VRB03KT P6SM BKN250 RMK NXT FCST BY 221800Z<br><br>
<br><br>
