RETRIEVED AT : Jun 07 2018 03:15 Local <br>
  RETRIEVED AT: Jun 07 2018 07:15 UTC<br><br>
CYSN has no TAF <br><br>
<br><br>
CYHM 070700Z 23004KT 15SM SCT120 SCT160 09/08 A2999 RMK AC3AC1 AC TR SLP160<br><br>
CYHM 070600Z 23005KT 15SM FEW130 BKN180 10/08 A3000 RMK AC2AC5 SLP162<br><br>
TAF CYHM 070538Z 0706/0806 21006KT P6SM SCT080 BKN170 TEMPO 0706/0709 BKN080 FM070900 20005KT P6SM BKN080 BECMG 0713/0715 24015KT FM071500 24015KT P6SM BKN040 BECMG 0800/0802 30006KT FEW040 RMK NXT FCST BY 071200Z<br><br>
<br><br>
