RETRIEVED AT : Mar 21 2020 23:05 Local <br>
  RETRIEVED AT: Mar 22 2020 03:05 UTC<br><br>
CYSN has no TAF <br><br>
<br><br>
CYHM 220200Z 05005KT 15SM SKC M04/M11 A3055 RMK SLP360<br><br>
TAF CYHM 212338Z 2200/2224 06006KT P6SM FEW040 BECMG 2210/2212 06012KT BECMG 2214/2216 09010G20KT RMK NXT FCST BY 220600Z<br><br>
<br><br>
KIAG 220253Z 01004KT 10SM CLR M04/M12 A3057 RMK AO2 SLP371 T10441122 51013<br><br>
KIAG 220153Z 01004KT 10SM CLR M04/M13 A3056 RMK AO2 SLP369 T10391133<br><br>
KIAG 220245Z 2203/2224 01004KT P6SM SCT250 FM220800 07004KT P6SM SKC FM221600 08010G16KT P6SM FEW250 FM222300 07011KT P6SM SCT200<br><br>
<br><br>
KBUF 220254Z 06004KT 10SM CLR M03/M14 A3056 RMK AO2 SLP361 T10281139 51014<br><br>
KBUF 220154Z 04005KT 10SM CLR M03/M15 A3056 RMK AO2 SLP360 T10281150<br><br>
KBUF 220245Z 2203/2224 04005KT P6SM SCT250 FM220900 07004KT P6SM SKC FM222000 09010KT P6SM FEW250 FM222300 08010KT P6SM SCT200<br><br>
<br><br>
CYYZ 220200Z 04011KT 15SM SKC M04/M11 A3058 RMK SLP367<br><br>
TAF CYYZ 220238Z 2203/2306 03008KT P6SM FEW200 FM221400 08012KT P6SM SCT020 BECMG 2215/2217 09015G25KT FM230000 09010KT P6SM BKN120 RMK NXT FCST BY 220600Z<br><br>
<br><br>
CYOO 220200Z AUTO 34008KT 9SM CLR M04/M12 A3058 RMK SLP365<br><br>
TAF CYOO 220138Z 2202/2214 36006KT P6SM FEW200 FM220800 04008KT P6SM SKC BECMG 2213/2214 08010KT RMK FCST BASED ON AUTO OBS. NXT FCST BY 220800Z<br><br>
<br><br>
CYTR 220200Z 00000KT 15SM FEW180 M04/M09 A3058 RMK AC2 SLP363<br><br>
TAF CYTR 212330Z 2200/2224 VRB03KT P6SM SCT200 BECMG 2203/2205 03005KT FM220900 03005KT P6SM SKC BECMG 2213/2215 08010KT FM222300 08005KT P6SM FEW120 SCT250 RMK NXT FCST BY 220600Z<br><br>
<br><br>
