RETRIEVED AT : May 22 2020 22:05 Local <br>
  RETRIEVED AT: May 23 2020 02:05 UTC<br><br>
CYSN 230100Z 36003KT 15SM BKN055 OVC070 16/12 A2998 RMK SC6AC2 LAST STFD OBS/NEXT 231100Z SLP154 DENSITY ALT 500FT<br><br>
CYSN has no TAF <br><br>
<br><br>
CYHM 230147Z 22005KT 2 1/2SM -RA BR FEW008 SCT023 OVC072 16/16 A3002 RMK SF1SC3AS5 SF TR VIS W HIER SLP166 DENSITY ALT 1100FT<br><br>
CYHM 230100Z 24005KT 15SM -RA FEW035 OVC047 17/16 A3001 RMK SF1SC8 SF TR PCPN VRY LGT SLP163 DENSITY ALT 1100FT<br><br>
TAF AMD CYHM 230149Z 2301/2324 20008KT P6SM SCT020 OVC060 TEMPO 2301/2308 21/2SM -SHRA BR BKN020 OVC040 FM230800 28005KT P6SM SCT015 BKN030 TEMPO 2308/2312 BKN015 BECMG 2312/2314 FEW040 FM231600 06010KT P6SM SCT040 TEMPO 2320/2323 P6SM -SHRA BKN040 RMK NXT FCST BY 230600Z<br><br>
<br><br>
KIAG 230153Z 25007KT 10SM OVC049 19/15 A3000 RMK AO2 SLP158 T01890150<br><br>
KIAG 230053Z 23004KT 10SM OVC050 19/13 A2999 RMK AO2 SLP154 T01940133<br><br>
KIAG 222320Z 2300/2324 02005KT P6SM OVC060 FM230500 VRB03KT P6SM -SHRA OVC040 FM231100 VRB03KT P6SM VCSH BKN025 FM231600 05006KT P6SM BKN035 FM232000 07009KT P6SM SCT040<br><br>
<br><br>
KBUF 230154Z 23007KT 5SM -RA BR FEW010 OVC048 17/16 A3002 RMK AO2 RAB26 SLP163 P0001 T01720156<br><br>
KBUF 230054Z 23007KT 10SM FEW011 OVC049 18/15 A3000 RMK AO2 SLP158 T01780150<br><br>
KBUF 222320Z 2300/2324 24007KT P6SM VCSH OVC050 FM230200 VRB03KT 6SM -RA OVC035 FM230500 VRB03KT 4SM -RA BR OVC020 FM230800 VRB03KT 4SM -SHRA BR OVC007 FM231100 VRB03KT P6SM VCSH BKN015 FM231600 03006KT P6SM BKN035 FM232100 06009KT P6SM SCT040<br><br>
<br><br>
CYYZ 230100Z 15005KT 15SM BKN060 19/10 A2999 RMK SC7 SLP157 DENSITY ALT 1100FT<br><br>
TAF AMD CYYZ 230023Z 2300/2406 15007KT P6SM BKN060 BKN220 BECMG 2303/2305 10005KT FM231100 02008KT P6SM SKC FM231600 12012KT P6SM FEW050 FM240400 09008KT P6SM SCT025 RMK NXT FCST BY 230300Z<br><br>
<br><br>
CYOO 230100Z AUTO 00000KT 9SM FEW250 19/09 A2998 RMK SLP155 DENSITY ALT 900FT<br><br>
TAF CYOO 230142Z 2302/2314 VRB03KT P6SM FEW250 BECMG 2312/2314 15006KT RMK FCST BASED ON AUTO OBS. NXT FCST BY 230800Z<br><br>
<br><br>
CYTR 230100Z 00000KT 15SM FEW130 SCT180 19/09 A2998 RMK AC1AC3 SLP153<br><br>
TAF CYTR 222330Z 2300/2324 22005KT P6SM SCT180 BECMG 2300/2302 VRB03KT FM231200 VRB03KT P6SM SKC BECMG 2315/2317 20010KT RMK NXT FCST BY 230600Z<br><br>
<br><br>
