RETRIEVED AT : Jul 07 2018 07:06 Local <br>
  RETRIEVED AT: Jul 07 2018 11:06 UTC<br><br>
CYSN has no TAF <br><br>
<br><br>
CYHM 071000Z 34005KT 15SM SKC 12/07 A3036 RMK SLP283<br><br>
TAF CYHM 070542Z 0706/0806 35005KT P6SM SKC BECMG 0706/0708 VRB03KT BECMG 0714/0716 05007KT FM072200 VRB03KT P6SM SKC RMK NXT FCST BY 071200Z<br><br>
<br><br>
KIAG 071053Z 00000KT 10SM CLR 16/12 A3036 RMK AO2 SLP279 T01560122<br><br>
KIAG 070953Z AUTO 00000KT 10SM CLR 14/11 A3035 RMK AO2 SLP276 T01440111<br><br>
KIAG 070902Z 0709/0806 02005KT P6SM SKC FM071400 12004KT P6SM SKC FM072300 02004KT P6SM SKC FM080500 14005KT P6SM SKC<br><br>
<br><br>
KBUF 071054Z 00000KT 10SM CLR 14/11 A3037 RMK AO2 SLP281 T01440111<br><br>
KBUF 070954Z 14003KT 10SM FEW150 13/11 A3035 RMK AO2 SLP277 T01280106<br><br>
KBUF 070902Z 0709/0806 00000KT P6SM SKC FM071300 12004KT P6SM SKC FM072300 05004KT P6SM SKC FM080500 14005KT P6SM SKC<br><br>
<br><br>
CYYZ 071000Z 34005KT 15SM SKC 15/07 A3036 RMK SLP281<br><br>
TAF CYYZ 070844Z 0709/0812 35007KT P6SM SKC BECMG 0714/0716 17010KT BECMG 0801/0803 VRB03KT RMK NXT FCST BY 071200Z<br><br>
<br><br>
CYOO has no TAF <br><br>
<br><br>
CYTR 071000Z 00000KT 15SM FEW140 12/07 A3034 RMK AC1 SLP275<br><br>
TAF CYTR 070530Z 0706/0806 VRB03KT P6SM SKC BECMG 0716/0718 22010KT BECMG 0802/0804 VRB03KT RMK NXT FCST BY 071200Z<br><br>
<br><br>
