RETRIEVED AT : May 23 2020 14:05 Local <br>
  RETRIEVED AT: May 23 2020 18:05 UTC<br><br>
CYSN 231700Z VRB02KT 15SM FEW020 FEW080 SCT250 21/17 A3006 RMK CU1AC2CI2 CU TR SLP182 DENSITY ALT 1000FT<br><br>
TAF AMD CYSN 231626Z 2316/2401 VRB03KT 5SM BR FEW010 BKN040 BECMG 2316/2317 P6SM NSW FM231700 05008KT P6SM BKN040 BECMG 2322/2324 VRB03KT RMK NXT FCST BY 232000Z<br><br>
<br><br>
CYHM 231700Z 11004KT 050V140 15SM FEW042 BKN078 BKN250 23/15 A3006 RMK SC2AC4CI1 SLP181 DENSITY ALT 1800FT<br><br>
TAF CYHM 231742Z 2318/2418 10008KT P6SM SCT040 BKN080 TEMPO 2319/2324 P6SM -SHRA BKN040 PROB30 2321/2323 4SM TSRA BKN030CB FM240000 05005KT P6SM FEW040 SCT240 FM240600 06005KT 6SM BR OVC012 PROB40 2407/2413 3/4SM BR OVC005 FM241400 20012KT P6SM OVC015 FM241700 20015KT P6SM -SHRA SCT015 OVC025 RMK NXT FCST BY 240000Z<br><br>
<br><br>
KIAG 231753Z 05004KT 10SM FEW021 22/17 A3006 RMK AO2 SLP179 60001 T02220167 10222 20167 50001<br><br>
KIAG 231653Z 00000KT 9SM SCT015 20/17 A3007 RMK AO2 RAE00 SLP182 P0000 T02000167<br><br>
KIAG 231741Z 2318/2418 03006KT P6SM SCT050 TEMPO 2318/2321 BKN050 FM232300 08006KT P6SM SCT100 FM240800 13006KT P6SM SCT050 FM241400 18010KT P6SM SCT100<br><br>
<br><br>
KBUF 231754Z 19004KT 10SM FEW006 BKN055 BKN200 20/17 A3007 RMK AO2 SLP181 60002 T02000167 10200 20161 56009<br><br>
KBUF 231737Z 19004KT 10SM SCT006 BKN055 BKN200 19/17 A3007 RMK AO2 T01890167<br><br>
KBUF 231654Z 20004KT 10SM BKN004 BKN015 BKN055 17/16 A3008 RMK AO2 RAB06E46 SLP186 P0002 T01720161<br><br>
KBUF 231624Z 21006KT 4SM -RA BR SCT006 BKN015 OVC037 16/15 A3010 RMK AO2 RAB06 P0001 T01610150<br><br>
KBUF 231741Z 2318/2418 22006KT P6SM SCT007 BKN050 TEMPO 2318/2320 BKN015 FM232100 VRB04KT P6SM SCT050 FM232300 08006KT P6SM SCT050 SCT100 FM240800 13006KT P6SM SCT050 FM241400 18010KT P6SM SCT100<br><br>
<br><br>
CYYZ 231700Z 17008KT 15SM FEW150 SCT260 24/12 A3006 RMK AC1CI3 AC TR SLP181 DENSITY ALT 1600FT<br><br>
TAF CYYZ 231742Z 2318/2424 15008KT P6SM FEW140 FM240000 15008KT P6SM OVC030 FM240400 13008KT P6SM -SHRA FEW008 OVC020 TEMPO 2404/2409 4SM -SHRA BR BKN008 OVC020 FM240900 11008KT 11/2SM BR BKN006 FM241300 15012KT P6SM SCT006 OVC012 FM241800 17015KT P6SM -SHRA SCT020 OVC030 PROB30 2421/2424 2SM TSRA BR BKN020CB RMK NXT FCST BY 232100Z<br><br>
<br><br>
TAF CYOO 231349Z 2314/2402 VRB03KT P6SM SKC FM231700 15007KT P6SM SCT040 RMK FCST BASED ON AUTO OBS. NXT FCST BY 232000Z<br><br>
<br><br>
CYTR 231700Z 13005KT 15SM FEW030 FEW220 26/13 A3007 RMK CF1CI2 CUFRA TR SLP182<br><br>
TAF CYTR 231734Z 2318/2418 13005KT P6SM FEW030 BECMG 2318/2319 20010KT BECMG 2402/2404 05005KT FM241000 09005KT P6SM FEW020 SCT080 BKN150 FM241600 12008KT P6SM BKN025 OVC080 RMK NXT FCST BY 240000Z<br><br>
<br><br>
