RETRIEVED AT : Oct 29 2017 12:10 Local <br>
  RETRIEVED AT: Oct 29 2017 16:10 UTC<br><br>
CYSN 291600Z 12005KT 15SM FEW020 OVC026 07/05 A2978 RMK CF2SC6 SLP087<br><br>
CYSN 291500Z 11005KT 15SM BKN027 OVC048 06/05 A2978 RMK SC5SC3 PRESRR SLP088<br><br>
CYSN 291438Z 07009KT 15SM FEW022 SCT048 OVC130 06/04 A2975 RMK SF1SC3AC4 PRESFR SLP080<br><br>
TAF CYSN 291238Z 2913/3001 13005KT P6SM SCT020 OVC050 TEMPO 2913/2924 P6SM -SHRA OVC020 BECMG 2916/2918 04010KT FM300000 01012G22KT P6SM OVC025 TEMPO 3000/3001 5SM -SHRA BR OVC010 RMK NXT FCST BY 292000Z<br><br>
<br><br>
CYHM 291600Z VRB02KT 15SM FEW017 SCT045 OVC066 06/02 A2977 RMK CU1SC3AC4 SLP088<br><br>
CYHM 291500Z 35003KT 310V020 15SM FEW030 SCT045 BKN064 BKN086 06/02 A2977 RMK CU1SC2SC2AC2 SLP091<br><br>
TAF CYHM 291138Z 2912/3012 VRB03KT P6SM OVC040 PROB30 2912/2914 1SM BR BKN004 FM291400 VRB03KT P6SM BKN030 TEMPO 2914/2918 BKN020 FM291800 35008KT P6SM BKN030 BECMG 3006/3008 31015KT RMK NXT FCST BY 291800Z<br><br>
<br><br>
KIAG 291553Z 05005KT 10SM FEW019 OVC040 07/04 A2977 RMK AO2 RAE18 SLP090 P0000 T00720039<br><br>
KIAG 291453Z 07011KT 10SM -RA BKN041 OVC060 07/03 A2976 RMK AO2 SLP085 P0003 60005 T00670033 58020<br><br>
KIAG 291416Z 2914/3012 04006KT 6SM -SHRA OVC040 FM291700 01008KT 6SM -SHRA OVC025 FM292100 35010KT 5SM -RA OVC007 FM300200 34014G22KT P6SM OVC007 FM301100 29025G35KT P6SM BKN025<br><br>
<br><br>
KBUF 291554Z 34005KT 10SM -RA BKN013 BKN022 OVC036 06/04 A2977 RMK AO2 SLP085 P0001 T00560044<br><br>
KBUF 291527Z 36005KT 9SM -RA SCT009 OVC033 06/04 A2976 RMK AO2 P0001 T00560044<br><br>
KBUF 291454Z 02007KT 5SM -RA BR BKN007 BKN027 OVC036 06/04 A2976 RMK AO2 SLP081 P0004 60008 T00560044 58019<br><br>
KBUF 291441Z 01006KT 5SM -RA BR BKN007 OVC040 05/04 A2977 RMK AO2 P0002 T00500044<br><br>
KBUF 291425Z 02008KT 7SM -RA FEW008 BKN041 OVC075 05/04 A2977 RMK AO2 P0001 T00500044<br><br>
KBUF 291415Z 02007KT 6SM -RA BR SCT018 BKN041 OVC070 05/04 A2978 RMK AO2 P0001 T00500044<br><br>
KBUF 291416Z 2914/3012 02006KT 6SM -RA OVC025 FM291800 35008KT 6SM -RA OVC015 FM292100 34010G18KT 5SM -RA OVC007 FM300500 33014G22KT P6SM OVC007 FM301100 29020G35KT P6SM BKN025<br><br>
<br><br>
CYYZ 291600Z 07005KT 15SM FEW045 BKN070 07/02 A2978 RMK SC1AC6 SLP089<br><br>
CYYZ 291500Z 03004KT 15SM SCT045 BKN080 07/02 A2978 RMK SC4AC3 SLP091<br><br>
TAF CYYZ 291438Z 2915/3018 02008KT P6SM OVC050 TEMPO 2915/2922 P6SM -SHRA FM292200 01008KT P6SM FEW020 BKN060 BECMG 3003/3005 30015G25KT BECMG 3012/3014 30020G35KT RMK NXT FCST BY 291800Z<br><br>
<br><br>
CYOO 291600Z AUTO VRB02KT 9SM SCT055 BKN075 OVC095 06/03 A2977 RMK SLP086<br><br>
CYOO 291500Z AUTO 03003KT 010V070 9SM BKN100 BKN120 BKN140 05/03 A2979 RMK SLP095<br><br>
CYOO has no TAF <br><br>
<br><br>
CYTR 291600Z 03007KT 10SM -SHRA FEW008 BKN020 OVC040 06/06 A2975 RMK SF2SC5SC2 SLP078<br><br>
CYTR 291500Z 35003KT 10SM -SHRA OVC029 06/06 A2981 RMK SC8 SLP097<br><br>
TAF AMD CYTR 291520Z 2915/3012 VRB03KT P6SM -SHRA OVC030 TEMPO 2915/2924 4SM -SHRA BR OVC020 BECMG 2915/2917 02010KT FM300000 34012G22KT 6SM -SHRA BR OVC020 TEMPO 3000/3006 3SM -SHRA BR OVC010 FM300600 33018KT 6SM -SHRA BR SCT008 OVC012 RMK NXT FCST BY 291800Z<br><br>
<br><br>
