RETRIEVED AT : Apr 03 2020 12:05 Local <br>
  RETRIEVED AT: Apr 03 2020 16:05 UTC<br><br>
CYSN 031500Z 32011KT 15SM OVC024 05/01 A3000 RMK SC8 SLP164<br><br>
TAF CYSN 031238Z 0313/0401 33010G20KT P6SM FEW250 FM031400 34010G20KT P6SM SCT020 BKN070 TEMPO 0314/0315 BKN020 BKN070 FM031500 34010G20KT P6SM BKN025 BKN070 TEMPO 0315/0318 BKN020 OVC070 FM031800 34008KT P6SM OVC025 TEMPO 0318/0401 P6SM -RA OVC020 RMK NXT FCST BY 032000Z<br><br>
<br><br>
CYHM 031500Z 34011G18KT 15SM FEW030 FEW250 07/M00 A3000 RMK CF1CI1 CF TR SLP165<br><br>
TAF CYHM 031138Z 0312/0412 32008KT P6SM SKC FM031500 36008KT P6SM FEW025 FM031800 04008KT P6SM BKN030 FM040600 VRB03KT P6SM BKN020 BKN040 RMK NXT FCST BY 031800Z<br><br>
<br><br>
KIAG 031553Z 33008KT 10SM OVC018 05/01 A3000 RMK AO2 SLP168 T00500011<br><br>
KIAG 031453Z 32013G16KT 10SM OVC021 04/M01 A2999 RMK AO2 SLP166 T00441006 53009<br><br>
KIAG 031447Z 0315/0412 33012KT P6SM OVC025 FM031700 34009KT P6SM VCSH OVC012 FM040000 32004KT 4SM BR OVC007<br><br>
<br><br>
KBUF 031554Z 32008KT 10SM -DZ FEW009 BKN016 OVC022 05/01 A2999 RMK AO2 DZB49 SLP161 PCPN VRY LGT P0000 T00500011<br><br>
KBUF 031454Z 33007KT 290V350 10SM FEW009 BKN022 BKN250 05/00 A2999 RMK AO2 SLP160 CIG HYR S-W T00500000 53007<br><br>
KBUF 031447Z 35006KT 10SM FEW009 BKN022 BKN250 05/00 A2998 RMK AO2 CIG HYR S-W T00500000<br><br>
KBUF 031447Z 0315/0412 31012KT P6SM OVC025 FM031600 32012KT P6SM VCSH OVC012 FM032300 VRB03KT 4SM BR OVC007 FM040300 VRB03KT 1SM BR OVC004<br><br>
<br><br>
CYYZ 031500Z 36009G17KT 15SM BKN024 BKN042 06/00 A3000 RMK SC5SC2 SLP166<br><br>
TAF CYYZ 031438Z 0315/0418 36012KT P6SM FEW020 SCT070 TEMPO 0315/0317 BKN020 BKN070 FM031700 36012KT P6SM BKN030 BKN070 TEMPO 0322/0403 P6SM -RA FM040300 36010KT P6SM SCT015 OVC040 TEMPO 0403/0408 BKN015 OVC040 PROB30 0406/0408 6SM -DZ BR BKN008 OVC020 FM040800 36008KT P6SM SCT006 BKN012 OVC030 PROB30 0408/0413 4SM -DZ BR OVC006 FM041500 08008KT P6SM BKN015 OVC030 BECMG 0417/0418 13008KT RMK NXT FCST BY 031800Z<br><br>
<br><br>
CYOO 031500Z AUTO 34014G19KT 9SM OVC047 08/02 A2997 RMK SLP155<br><br>
TAF CYOO 031338Z 0314/0402 35012G22KT P6SM SCT030 BKN070 TEMPO 0314/0317 BKN020 BKN070 FM031700 35010KT P6SM BKN030 BKN070 TEMPO 0317/0401 P6SM -RA OVC020 FM040100 35005KT P6SM SCT012 BKN030 TEMPO 0401/0402 5SM -DZ BR BKN012 OVC030 RMK FCST BASED ON AUTO OBS. NXT FCST BY 032000Z<br><br>
<br><br>
CYTR 031500Z 36012G20KT 15SM -RA BKN022 OVC050 08/04 A2995 RMK SC7SC1 SLP145<br><br>
TAF CYTR 031130Z 0312/0412 35008KT P6SM SCT015 OVC030 TEMPO 0312/0314 BKN015 OVC030 FM031400 01010KT P6SM -RA SCT012 OVC025 TEMPO 0314/0322 OVC012 FM032200 02008KT P6SM -RA OVC012 FM040300 02005KT P6SM BKN008 OVC020 TEMPO 0403/0412 5SM -RA BR RMK NXT FCST BY 031800Z<br><br>
<br><br>
