RETRIEVED AT : Sep 25 2017 10:10 Local <br>
  RETRIEVED AT: Sep 25 2017 14:10 UTC<br><br>
CYSN 251400Z VRB02KT 10SM OVC250 27/21 A3009 RMK CI8 SLP189 DENSITY ALT 1600FT<br><br>
CYSN 251300Z 00000KT 10SM OVC250 24/21 A3009 RMK CI8 SLP189 DENSITY ALT 1300FT<br><br>
TAF CYSN 251238Z 2513/2601 VRB03KT P6SM BKN250 BECMG 2517/2519 35008KT BECMG 2522/2524 VRB03KT RMK NXT FCST BY 252000Z<br><br>
<br><br>
CYHM 251400Z 15004KT 120V190 12SM BKN240 25/20 A3012 RMK CI5 SLP196 DENSITY ALT 2000FT<br><br>
CYHM 251300Z 10003KT 15SM BKN240 23/20 A3011 RMK CS6 HALO SLP194 DENSITY ALT 1700FT<br><br>
TAF CYHM 251138Z 2512/2612 VRB03KT P6SM SKC PROB30 2609/2612 2SM BR RMK NXT FCST BY 251800Z<br><br>
<br><br>
KIAG 251353Z 14003KT 8SM CLR 26/19 A3011 RMK AO2 SLP192 T02610194 $<br><br>
KIAG 251253Z 00000KT 10SM CLR 23/19 A3011 RMK AO2 SLP193 T02330189 $<br><br>
KIAG 251230Z 00000KT 10SM CLR 22/18 A3011 RMK AO2 T02170183 $<br><br>
KIAG 251202Z 2512/2612 00000KT 6SM BR SCT250 FM251300 15004KT P6SM SCT250 FM251900 05007KT P6SM SCT250 FM260100 VRB03KT P6SM SCT250 FM260700 VRB03KT 4SM BR SCT250 FM260900 VRB03KT 2SM BR SCT250<br><br>
<br><br>
KBUF 251354Z 14004KT 10SM BKN260 25/19 A3012 RMK AO2 SLP194 T02500194<br><br>
KBUF 251254Z 19003KT 8SM BKN260 21/18 A3012 RMK AO2 SLP195 T02110183<br><br>
KBUF 251120Z 2512/2612 14004KT P6SM SCT250 FM251900 08006KT P6SM SCT250 FM260200 VRB03KT P6SM SCT250 FM260400 13004KT P6SM SCT250 FM260700 16004KT 6SM BR SCT250<br><br>
<br><br>
CYYZ 251400Z 15004KT 110V220 15SM BKN250 28/19 A3010 RMK CS6 CONTRAILS SLP192 DENSITY ALT 2000FT<br><br>
CYYZ 251300Z 03002KT 15SM BKN250 25/19 A3010 RMK CS5 CONTRAILS SLP190 DENSITY ALT 1700FT<br><br>
TAF CYYZ 251138Z 2512/2618 VRB03KT P6SM SKC FM251700 15008KT P6SM SCT240 BECMG 2600/2602 VRB03KT BECMG 2614/2616 17007KT RMK NXT FCST BY 251500Z<br><br>
<br><br>
CYOO 251400Z AUTO 15004KT 100V160 9SM CLR 26/17 A3010 RMK SLP194 DENSITY ALT 1600FT<br><br>
CYOO 251300Z AUTO 02002KT 9SM CLR 23/19 A3010 RMK SLP192 DENSITY ALT 1200FT<br><br>
CYOO 251255Z AUTO 03002KT 7SM CLR 23/18 A3010 RMK SLP192 DENSITY ALT 1200FT<br><br>
CYOO 251252Z AUTO 02002KT 5SM HZ CLR 23/18 A3010 RMK SLP192 DENSITY ALT 1200FT<br><br>
CYOO 251236Z AUTO 01002KT 6SM HZ CLR 22/18 A3010 RMK SLP192 DENSITY ALT 1100FT<br><br>
CYOO 251235Z AUTO 01002KT 5SM HZ CLR 22/18 A3010 RMK SLP192 DENSITY ALT 1100FT<br><br>
CYOO has no TAF <br><br>
<br><br>
CYTR 251400Z 07002KT 15SM SCT250 26/21 A3010 RMK CI4 SLP192<br><br>
CYTR 251300Z 00000KT 15SM FEW250 23/21 A3010 RMK CI2 SLP192<br><br>
TAF CYTR 251130Z 2512/2612 VRB03KT P6SM SKC TEMPO 2512/2513 4SM BR FM251600 20009KT P6SM SCT250 BECMG 2522/2524 VRB03KT FM260300 VRB03KT 6SM BR BKN250 TEMPO 2603/2612 3SM BR RMK NXT FCST BY 251800Z<br><br>
<br><br>
