RETRIEVED AT : Jun 26 2020 12:05 Local <br>
  RETRIEVED AT: Jun 26 2020 16:05 UTC<br><br>
CYSN 261500Z 27007KT 230V310 15SM FEW040 FEW100 FEW250 26/11 A2994 RMK CU1AC1CI1 CU TR AC TR CI TR SLP138 DENSITY ALT 1700FT<br><br>
TAF CYSN 261238Z 2613/2701 24008KT P6SM FEW100 FM261800 29010KT P6SM SCT070 BECMG 2620/2622 23010G20KT RMK NXT FCST BY 262000Z<br><br>
<br><br>
CYHM 261500Z 29008KT 15SM BKN093 BKN250 24/14 A2996 RMK AC5CI1 SLP146 DENSITY ALT 2000FT<br><br>
TAF CYHM 261139Z 2612/2712 25006KT P6SM FEW070 FM261700 22012KT P6SM SCT070 FM270800 24010G20KT 6SM BR OVC007 FM270900 24010G20KT 6SM -SHRA BR OVC007 FM271000 24010G20KT 4SM -SHRA BR OVC007 PROB30 2710/2712 VRB15G30KT 1SM +TSRA BR BKN005 OVC015CB RMK NXT FCST BY 261800Z<br><br>
<br><br>
KIAG 261553Z VRB06G16KT 10SM CLR 26/13 A2994 RMK AO2 SLP134 T02610133<br><br>
KIAG 261453Z 21009KT 10SM CLR 24/14 A2995 RMK AO2 SLP140 T02440144 58003<br><br>
KIAG 261453Z 2615/2712 23008KT P6SM SKC FM270000 20008KT P6SM BKN150 FM270800 21008KT 4SM SHRA VCTS OVC015CB<br><br>
<br><br>
KBUF 261554Z 23012KT 10SM FEW026 FEW100 FEW250 22/15 A2996 RMK AO2 SLP144 T02170150 $<br><br>
KBUF 261454Z 24011KT 10SM FEW022 FEW110 FEW250 21/16 A2997 RMK AO2 SLP147 T02110156 58002 $<br><br>
KBUF 261453Z 2615/2712 23014KT P6SM FEW050 FM270000 20008KT P6SM BKN150 FM270800 21008KT 4SM SHRA VCTS OVC015CB<br><br>
<br><br>
CYYZ 261500Z 27016G22KT 15SM FEW100 FEW150 FEW250 26/11 A2992 RMK AC1AC1CI1 AC TR SLP133 DENSITY ALT 2100FT<br><br>
TAF CYYZ 261438Z 2615/2718 27010G20KT P6SM FEW110 FM261700 25010G20KT P6SM SCT070 FM270900 22010G20KT P6SM -RA SCT015 BKN070 OVC120 FM271100 22010G20KT P6SM -SHRA SCT015 BKN030 OVC060 FM271400 25010G20KT 5SM -SHRA BR OVC015 PROB30 2716/2718 VRB15G25KT 1SM +TSRA BR BKN007 OVC020CB RMK NXT FCST BY 261800Z<br><br>
<br><br>
CYOO 261500Z AUTO 16005KT 130V190 9SM FEW170 24/13 A2991 RMK SLP131 DENSITY ALT 1600FT<br><br>
TAF CYOO 261338Z 2614/2702 27005KT P6SM SCT090 FM261800 22010KT P6SM BKN070 BECMG 2620/2622 22010G20KT FM270000 23010G20KT P6SM SCT070 RMK FCST BASED ON AUTO OBS. NXT FCST BY 262000Z<br><br>
<br><br>
CYTR 261500Z 21011KT 15SM FEW070 SCT220 23/15 A2990 RMK AC1CI3 SLP126<br><br>
TAF CYTR 261130Z 2612/2712 22005KT P6SM FEW080 SCT220 FM261500 24010KT P6SM SCT060 FM270200 23005KT P6SM FEW080 SCT120 FM271000 23012KT P6SM BKN012 OVC080 RMK NXT FCST BY 261800Z<br><br>
<br><br>
