RETRIEVED AT : Dec 11 2017 15:10 Local <br>
  RETRIEVED AT: Dec 11 2017 20:10 UTC<br><br>
CYSN 112000Z 13008KT 3SM -SN OVC017 M03/M06 A2994 RMK SC8 SLP145<br><br>
CYSN 111900Z 10008KT 12SM -SN OVC026 M04/M07 A2996 RMK SC8 SLP150<br><br>
TAF AMD CYSN 111957Z 1120/1202 10008KT P6SM -SN OVC025 TEMPO 1120/1202 2SM -SHSN OVC020 RMK NXT FCST WILL BE ISSUED AT 121345Z<br><br>
<br><br>
CYHM 112000Z 19004KT 6SM -SN OVC034 M04/M08 A2990 RMK SC8 SLP138<br><br>
CYHM 111950Z 23003KT 2 1/2SM -SN OVC036 M04/M08 A2990 RMK SC8 VSBY VRBL 13/4-4SM SLP139<br><br>
CYHM 111911Z 22005KT 15SM -SN OVC029 M04/M09 A2992 RMK SC8 SLP144<br><br>
CYHM 111900Z 25005KT 15SM FEW020 SCT025 OVC030 M04/M09 A2992 RMK CU1SC3SC5 CU TR SLP145<br><br>
TAF CYHM 111739Z 1118/1218 VRB03KT P6SM BKN030 OVC040 FM112000 VRB03KT 6SM -SN OVC040 TEMPO 1120/1202 2SM -SHSN OVC015 PROB30 1120/1123 11/2SM -SHSN VV008 FM120200 06008KT 1SM -SN BR OVC006 FM120800 05010KT 1/4SM -SN FG VV001 BECMG 1212/1214 29010G20KT FM121400 29018G28KT 3SM -SN BLSN OVC015 PROB30 1214/1218 1SM -SHSN BLSN VV008 RMK NXT FCST BY 120000Z<br><br>
<br><br>
KIAG 111953Z 10008KT 8SM -SN FEW008 SCT018 OVC027 M03/M07 A2994 RMK AO2 SLP154 P0000 T10331067<br><br>
KIAG 111919Z 10007KT 4SM -SN FEW008 OVC024 M03/M07 A2995 RMK AO2 P0000 T10331072<br><br>
KIAG 111853Z 08007KT 6SM -SN OVC024 M03/M07 A2995 RMK AO2 SLP159 P0000 T10331072<br><br>
KIAG 111729Z 1118/1218 22004KT P6SM -SN SCT015 OVC020 FM112000 VRB03KT P6SM BKN020 FM120000 09007KT 2SM -SN OVC012 FM120200 15007KT 2SM -SN OVC007 FM121200 25005KT 2SM -SN OVC007 FM121400 28011G19KT 2SM -SN OVC007<br><br>
<br><br>
KBUF 111954Z 08006KT 10SM -SN FEW017 OVC031 M04/M06 A2993 RMK AO2 SLP147 PCPN VRY LGT P0000 T10391061<br><br>
KBUF 111939Z 06005KT 10SM -SN SCT017 OVC031 M04/M06 A2994 RMK AO2 PCPN VRY LGT P0000 T10391061<br><br>
KBUF 111854Z 04005KT 9SM -SN BKN015 OVC022 M03/M06 A2995 RMK AO2 SLP151 P0000 T10331061<br><br>
KBUF 111729Z 1118/1218 23004KT P6SM -SN SCT015 OVC020 FM112000 VRB03KT P6SM BKN020 FM120000 12005KT 2SM -SN OVC012 FM120200 16007KT 2SM -SN OVC012 FM120900 16006KT 2SM -SN OVC007 FM121400 26010G17KT 2SM -SN OVC007<br><br>
<br><br>
CYYZ 112000Z 14007KT 9SM -SN SCT013 OVC031 M04/M08 A2991 RMK CF4SC4 SLP141<br><br>
CYYZ 111922Z 14007KT 110V170 9SM -SN FEW018 OVC025 M04/M09 A2993 RMK CF1SC7 SLP146<br><br>
CYYZ 111900Z 15006KT 110V190 15SM VCSH OVC025 M04/M10 A2993 RMK SC8 CVCTV CLD EMBD SLP148<br><br>
TAF CYYZ 111739Z 1118/1224 VRB03KT P6SM BKN040 OVC100 FM111900 07008KT 6SM -SN BKN025 OVC080 TEMPO 1119/1202 21/2SM -SHSN BKN008 OVC020 FM120200 10010KT 1SM -SN BKN008 OVC012 FM120400 10008KT 3/4SM -SN OVC008 FM121200 04012KT 11/2SM -SN OVC012 FM121400 34010G20KT 2SM -SHSN BLSN BKN030 OVC060 FM122100 30012G22KT 6SM -SHSN BLSN BKN030 OVC060 RMK NXT FCST BY 112100Z<br><br>
<br><br>
CYOO 112000Z AUTO 15007KT 9SM OVC036 M05/M12 A2995 RMK SLP152<br><br>
CYOO 111900Z AUTO 00000KT 9SM BKN042 M05/M13 A2996 RMK SLP156<br><br>
CYOO has no TAF <br><br>
<br><br>
CYTR 112000Z 03002KT 15SM FEW037 OVC170 M06/M15 A3000 RMK SC1AS7 SLP165<br><br>
CYTR 111900Z 02004KT 15SM FEW037 BKN170 BKN250 M07/M15 A3002 RMK SC2AS3CI2 SLP172<br><br>
TAF CYTR 111730Z 1118/1218 02005KT P6SM BKN200 FM112100 07005KT P6SM OVC100 FM112300 07008KT P6SM -SN SCT020 OVC080 TEMPO 1201/1203 2SM -SN BKN020 OVC060 FM120300 07010KT 11/2SM -SN OVC012 FM120500 07012KT 3/4SM -SN VV008 FM121100 07012KT 11/2SM -SN OVC010 FM121600 05012KT 3SM -SN BKN012 OVC030 RMK NXT FCST BY 120000Z<br><br>
<br><br>
