RETRIEVED AT : May 29 2020 20:05 Local <br>
  RETRIEVED AT: May 30 2020 00:05 UTC<br><br>
CYSN 292300Z 28010KT 10SM SCT027 BKN110 BKN160 17/16 A2980 RMK SC4AC2AC1 SLP093 DENSITY ALT 800FT<br><br>
TAF AMD CYSN 292017Z 2920/3001 22020G30KT P6SM FEW025 BKN090 BKN190 TEMPO 2920/2922 VRB20G30KT 5SM TSRA BR BKN020 BKN040CB FM292200 27015G25KT P6SM -SHRA BKN015 TEMPO 2922/3001 P6SM NSW SCT015 BKN025 BECMG 2922/2924 32012KT RMK NXT FCST BY 301245Z<br><br>
<br><br>
CYHM 292300Z 29008G15KT 15SM FEW015 BKN060 17/14 A2984 RMK CF1SC6 SLP106 DENSITY ALT 1300FT<br><br>
TAF CYHM 292354Z 3000/3024 29012KT P6SM FEW015 BKN050 TEMPO 3000/3003 BKN015 FM300300 29012KT P6SM FEW050 BECMG 3004/3006 29008KT FM300600 25005KT P6SM SKC FM300900 25006KT P6SM FEW010 SCT020 TEMPO 3009/3012 BKN010 FM301500 29015KT P6SM BKN020 BECMG 3015/3017 BKN030 FM301700 30018KT P6SM BKN040 FM302000 31020KT P6SM SCT050 TEMPO 3021/3024 BKN050 RMK NXT FCST BY 300600Z<br><br>
<br><br>
KIAG 292353Z 28010KT 10SM BKN020 BKN026 OVC031 17/14 A2983 RMK AO2 RAE2254 SLP098 P0000 60013 T01670144 10222 20167 51012 $<br><br>
KIAG 292256Z 29009KT 10SM FEW007 BKN021 OVC037 17/16 A2981 RMK AO2 RAE54 P0000 T01720156 $<br><br>
KIAG 292253Z 29011KT 10SM -RA BKN014 OVC021 17/16 A2981 RMK AO2 WSHFT 2232 RAE03B45 SLP094 P0000 T01720156 $<br><br>
KIAG 292239Z 29012KT 9SM SCT007 BKN014 OVC023 18/16 A2981 RMK AO2 RAE03 P0000 T01780161 $<br><br>
KIAG 292331Z 3000/3024 29009KT P6SM BKN020 OVC035 FM300200 27010KT P6SM BKN035 FM301100 23007KT P6SM BKN040 FM301500 26010G17KT P6SM VCSH BKN035 FM302300 30012G18KT P6SM SCT100<br><br>
<br><br>
KBUF 292354Z 23010G18KT 8SM OVC005 14/14 A2983 RMK AO2 SLP099 60054 T01440144 10217 20144 51021 $<br><br>
KBUF 292254Z 23018G23KT 8SM OVC007 16/16 A2982 RMK AO2 RAE08 CIG 006V012 SLP096 P0001 T01610156 $<br><br>
KBUF 292331Z 3000/3024 23018G23KT P6SM OVC006 FM300200 24012KT P6SM OVC020 FM300400 26011KT P6SM OVC035 FM300900 24007KT P6SM BKN080 FM301200 23008KT P6SM BKN025 FM301500 24012G19KT P6SM VCSH BKN035 FM302200 28011G18KT P6SM SCT050<br><br>
<br><br>
CYYZ 292300Z 33014KT 15SM SCT025 SCT110 BKN180 BKN250 17/13 A2980 RMK SC3AC1AC3CI1 CI TR SLP092 DENSITY ALT 1100FT<br><br>
CYYZ 292245Z 34013G22KT 15SM BKN025 BKN100 17/14 A2979 RMK SC6AC1 SLP089 DENSITY ALT 1100FT<br><br>
TAF CYYZ 292354Z 3000/3106 33015KT P6SM SCT025 SCT110 BKN180 TEMPO 3000/3002 BKN020 BECMG 3002/3004 31010KT FM300500 26005KT P6SM SKC FM300900 24005KT P6SM SCT020 TEMPO 3010/3013 BKN020 FM301400 29010G20KT P6SM SCT030 BECMG 3016/3018 29015G25KT BKN030 FM302000 32018KT P6SM BKN050 FM302300 34012KT P6SM BKN030 FM310300 33010KT P6SM SCT025 TEMPO 3103/3106 BKN025 RMK NXT FCST BY 300300Z<br><br>
<br><br>
CYOO 292300Z AUTO 31011KT 9SM SCT015 BKN120 17/14 A2976 RMK SLP080 DENSITY ALT 900FT<br><br>
CYOO 292252Z AUTO 30009G16KT 9SM SCT015 BKN110 17/15 A2976 RMK SLP079 DENSITY ALT 900FT<br><br>
CYOO 292250Z AUTO 31010G16KT 9SM BKN015 BKN100 BKN120 17/15 A2976 RMK SLP079 DENSITY ALT 900FT<br><br>
CYOO 292225Z AUTO 30012G17KT 9SM -RA BKN015 BKN060 BKN083 17/15 A2976 RMK SLP079 DENSITY ALT 900FT<br><br>
CYOO 292218Z AUTO 30009G17KT 9SM BKN013 BKN120 17/16 A2976 RMK SLP079 DENSITY ALT 900FT<br><br>
CYOO 292215Z AUTO 30010G15KT 9SM -RA BKN013 OVC120 17/16 A2976 RMK SLP079 DENSITY ALT 900FT<br><br>
TAF AMD CYOO 292249Z 2922/3008 31012G22KT P6SM -SHRA SCT015 BKN025 TEMPO 2922/3002 5SM -SHRA BR BKN015 BECMG 3002/3003 P6SM NSW FM300300 29010KT P6SM BKN040 FM300500 28008KT P6SM FEW060 RMK FCST BASED ON AUTO OBS. NXT FCST BY 300200Z<br><br>
<br><br>
CYTR 292300Z 22010G17KT 15SM -SHRA OVC030 18/17 A2974 RMK SC8 SLP070<br><br>
CYTR 292236Z 22011KT 2SM +SHRA OVC035CB 19/18 A2975 RMK CB8 CB OVRHD MOVG E SLP073<br><br>
CYTR 292221Z 21009KT 15SM -SHRA FEW035 BKN045 OVC090 19/18 A2974 RMK SC2SC3AC2 SLP072<br><br>
TAF CYTR 292330Z 3000/3024 28010KT P6SM SCT012 OVC030 TEMPO 3000/3004 P6SM -SHRA BKN012 OVC025 FM300400 29008KT P6SM BKN012 TEMPO 3004/3012 SCT012 FM301200 25008KT P6SM -SHRA FEW015 BKN040 FM301500 22010KT P6SM -SHRA BKN015 OVC040 FM302100 28012G22KT P6SM SCT015 BKN040 RMK NXT FCST BY 300600Z<br><br>
<br><br>
