RETRIEVED AT : Mar 14 2020 03:05 Local <br>
  RETRIEVED AT: Mar 14 2020 07:05 UTC<br><br>
CYSN has no TAF <br><br>
<br><br>
CYHM 140600Z 27010KT 15SM FEW030 01/M05 A3025 RMK SC1 SC TR SLP253<br><br>
TAF CYHM 140538Z 1406/1506 27010G20KT P6SM FEW040 FM141200 29010KT P6SM BKN025 BECMG 1422/1424 34008KT SCT030 BKN120 FM150300 03010KT P6SM BKN030 OVC120 RMK NXT FCST BY 141200Z<br><br>
<br><br>
KIAG 140653Z AUTO 27013KT 10SM CLR 01/M04 A3027 RMK AO2 SLP264 T00061044<br><br>
KIAG 140553Z AUTO 27012KT 10SM CLR 01/M04 A3025 RMK AO2 SLP254 T00111044 10039 20011 51021<br><br>
KIAG 140536Z 1406/1506 27014G22KT P6SM SCT040 FM140900 28012KT P6SM SCT040 FM141600 29012KT P6SM BKN040 FM142100 31006KT P6SM OVC150<br><br>
<br><br>
KBUF 140654Z 26012KT 10SM FEW040 02/M05 A3027 RMK AO2 SLP259 T00171050<br><br>
KBUF 140554Z 27011KT 10SM FEW040 02/M04 A3025 RMK AO2 SLP249 T00221044 10039 20022 51022<br><br>
KBUF 140536Z 1406/1506 27012G20KT P6SM SCT040 FM140900 26008KT P6SM SCT040 FM141600 25012KT P6SM BKN040 FM142100 25008KT P6SM BKN150 FM150100 36003KT P6SM OVC150<br><br>
<br><br>
CYYZ 140600Z 28012KT 15SM SKC 01/M05 A3022 RMK SLP242<br><br>
TAF CYYZ 140538Z 1406/1512 29012G22KT P6SM FEW060 FM141200 31012KT P6SM BKN025 FM141500 31012KT P6SM FEW030 FM142100 36008KT P6SM FEW030 BKN140 FM150000 36012KT P6SM BKN150 FM150800 02012KT P6SM SKC RMK NXT FCST BY 140900Z<br><br>
<br><br>
CYOO 140600Z AUTO 27011KT 9SM CLR 02/M05 A3018 RMK SLP226<br><br>
TAF CYOO 140138Z 1402/1414 27010G20KT P6SM BKN040 FM141000 29010KT P6SM BKN020 RMK FCST BASED ON AUTO OBS. NXT FCST BY 140800Z<br><br>
<br><br>
CYTR 140600Z 27018G24KT 15SM FEW046 03/M06 A3012 RMK SC1 SLP203<br><br>
TAF CYTR 140530Z 1406/1506 27020G35KT P6SM FEW050 BECMG 1408/1410 29015G25KT BECMG 1411/1413 29010KT FM150000 31010KT P6SM FEW040 SCT170 BECMG 1502/1504 02010KT RMK NXT FCST BY 141200Z<br><br>
<br><br>
