RETRIEVED AT : Feb 23 2020 12:05 Local <br>
  RETRIEVED AT: Feb 23 2020 17:05 UTC<br><br>
CYSN 231600Z 22017G25KT 15SM BKN240 07/M05 A3005 RMK CI5 SLP181<br><br>
TAF AMD CYSN 231703Z 2317/2402 22015G25KT P6SM SCT180 RMK NXT FCST BY 232000Z<br><br>
<br><br>
CYHM 231600Z 22018KT 15SM FEW140 BKN250 05/M05 A3002 RMK AC1CI4 SLP176<br><br>
TAF CYHM 231138Z 2312/2412 22010KT P6SM BKN210 FM231500 23010G20KT P6SM SCT030 BKN180 BECMG 2317/2319 22012G22KT FM232100 22012G22KT P6SM SCT030 BECMG 2402/2404 23012KT FM241100 23012KT P6SM SCT015 RMK NXT FCST BY 231800Z<br><br>
<br><br>
KIAG 231653Z 22015G24KT 10SM CLR 07/M06 A3005 RMK AO2 SLP186 T00671061<br><br>
KIAG 231553Z 22016G22KT 10SM CLR 06/M07 A3006 RMK AO2 SLP190 T00561072<br><br>
KIAG 231430Z 2315/2412 22014G22KT P6SM SCT250 FM232200 20012KT P6SM SCT050 FM240300 21016G24KT P6SM SCT200 FM241000 23014G22KT P6SM BKN060<br><br>
<br><br>
KBUF 231654Z 23017G26KT 10SM FEW120 SCT190 SCT230 SCT270 07/M08 A3005 RMK AO2 PK WND 23026/1651 SLP181 T00721083<br><br>
KBUF 231554Z 22018G23KT 10SM FEW120 FEW190 BKN230 07/M08 A3006 RMK AO2 SLP185 T00671083<br><br>
KBUF 231430Z 2315/2412 22014G22KT P6SM SCT250 FM232100 21010KT P6SM SCT050 FM240300 22014G22KT P6SM SCT200 FM241100 24014G22KT P6SM BKN060<br><br>
<br><br>
CYYZ 231600Z 19012G19KT 15SM SCT250 05/M03 A3002 RMK CI4 SLP173<br><br>
TAF CYYZ 231438Z 2315/2418 20010G20KT P6SM BKN180 FM232100 22012G22KT P6SM SCT180 FM240300 23012KT P6SM FEW020 FM241200 24008KT P6SM BKN020 RMK NXT FCST BY 231800Z<br><br>
<br><br>
CYOO 231600Z AUTO 21011G16KT 9SM SCT190 SCT210 04/M02 A3002 RMK SLP175<br><br>
TAF CYOO 231339Z 2314/2402 VRB03KT P6SM BKN180 BECMG 2314/2316 22007KT BECMG 2317/2319 22008G18KT FM232100 20010G20KT P6SM SCT180 RMK FCST BASED ON AUTO OBS. NXT FCST BY 232000Z<br><br>
<br><br>
CYTR 231600Z 23014G19KT 15SM OVC220 04/M03 A3005 RMK CS8 HALO SLP178<br><br>
TAF CYTR 231130Z 2312/2412 23008KT P6SM FEW220 BECMG 2315/2317 24010G20KT BKN220 FM240000 22006KT P6SM FEW040 BECMG 2405/2407 23010KT FEW020 RMK NXT FCST BY 231800Z<br><br>
<br><br>
