RETRIEVED AT : Nov 05 2017 02:10 Local <br>
  RETRIEVED AT: Nov 05 2017 07:10 UTC<br><br>
CYSN has no TAF <br><br>
<br><br>
CYHM 050700Z 05005KT 10SM -RA SCT006 OVC020 06/06 A2997 RMK SF3SC5 SLP155<br><br>
CYHM 050632Z 04006KT 15SM FEW008 OVC023 06/05 A2997 RMK SF2SC6 SLP157<br><br>
CYHM 050600Z 06005KT 15SM OVC026 06/05 A2998 RMK SC8 SLP158<br><br>
TAF CYHM 050540Z 0506/0606 06010KT P6SM SCT015 OVC030 TEMPO 0506/0508 4SM -SHRA BR BKN015 OVC030 PROB40 0506/0508 VRB15G25KT 2SM TSRA BR BKN008 OVC030CB FM050800 07005KT 6SM -DZ BR SCT008 OVC025 TEMPO 0508/0510 3SM -SHRA BR BKN008 OVC020 FM051000 18015KT 6SM -SHRA BR SCT005 OVC012 TEMPO 0510/0521 21/2SM -DZ BR OVC005 BECMG 0513/0515 20015G25KT FM052100 21012KT 3SM -SHRA BR BKN006 OVC015 PROB40 0521/0524 VRB20G35KT 1SM +TSRA BR BKN004 OVC020CB FM060000 23010KT 4SM -DZ BR OVC006 FM060400 30010KT 6SM BR SCT006 OVC010 RMK NXT FCST BY 051200Z<br><br>
<br><br>
KIAG 050653Z AUTO 17010KT 8SM -RA SCT033 BKN060 OVC080 09/06 A2998 RMK AO2 LTG DSNT S AND SW RAB15 SLP160 P0006 T00890061<br><br>
KIAG 050553Z AUTO 13007KT 10SM FEW047 BKN055 BKN100 07/04 A3000 RMK AO2 LTG DSNT SE-SW RAE29 SLP165 P0012 60031 T00720044 10078 20067 58008<br><br>
KIAG 050512Z AUTO 10006KT 4SM +RA BKN041 OVC080 07/03 A3001 RMK AO2 LTG DSNT S P0011 T00670033<br><br>
KIAG 050528Z 0506/0606 10006KT 5SM RA BKN040 OVC080 FM050800 17010KT 6SM -RA OVC040 FM051200 17014G21KT 6SM -RA OVC030 FM051700 19016G25KT P6SM VCSH OVC025 FM052300 18012G21KT 4SM RA OVC025<br><br>
<br><br>
KBUF 050704Z 16006KT 10SM -TSRA SCT027CB BKN040 OVC070 09/08 A3000 RMK AO2 LTG DSNT E-SW TSB04 OCNL LTGIC VC SW TS VC SW MOV NE P0001 T00940083 $<br><br>
KBUF 050654Z 18007KT 5SM -RA BR FEW031 BKN070 OVC090 09/08 A3000 RMK AO2 LTG DSNT E-SW SLP162 OCNL LTGIC DSNT SW CB DSNT SW MOV NE P0013 T00890083 $<br><br>
KBUF 050554Z 16010KT 8SM -RA FEW035 BKN055 OVC070 08/06 A3000 RMK AO2 LTG DSNT S AND W SLP161 TSB03E29 TS DSIPTD P0020 60022 T00780061 10078 20061 58009 $<br><br>
KBUF 050531Z 13006KT 8SM -RA FEW038 SCT060 OVC090 06/06 A3002 RMK AO2 LTG DSNT S AND SW OCNL LTGIC DSNT S-SW TSE29 TS DSIPTD CB DSNT S-SW MOV NE P0020 T00610056 $<br><br>
KBUF 050708Z 0507/0606 18007KT 5SM -RA VCTS SCT030CB OVC070 FM050800 17016G24KT 6SM -RA OVC030 FM051200 19018G26KT P6SM OVC025 FM051900 19018G26KT P6SM VCSH OVC025 FM052300 18014G22KT 4SM +RA OVC020<br><br>
<br><br>
CYYZ 050700Z 12006KT 080V140 10SM -SHRA FEW006 OVC024 07/06 A2998 RMK SF2SC6 CVCTV CLD EMBD SLP157<br><br>
CYYZ 050648Z 12004KT 10SM -SHRA FEW006 OVC025 07/06 A2998 RMK SF2SC6 SLP158<br><br>
CYYZ 050636Z 14004KT 030V160 5SM +SHRA BR SCT006 OVC026 07/06 A2999 RMK SF3SC5 CVCTV CLD EMBD SLP162<br><br>
CYYZ 050630Z VRB02KT 6SM -SHRA BR SCT006 OVC029 07/06 A2999 RMK SF3SC5 CVCTV CLD EMBD SLP161<br><br>
CYYZ 050612Z 12007KT 080V150 5SM +TSRA BR FEW004 SCT018 OVC039CB 07/05 A2999 RMK SF1SC3CB4 OCNL LTGIC SW SLP160<br><br>
CYYZ 050600Z 09006KT 6SM -TSRA FEW011 BKN026 OVC030CB 06/05 A2999 RMK SF1SC4CB3 OCNL LTGIC SW SLP161<br><br>
CYYZ 050539Z 10007KT 10SM -RA FEW011 OVC026 06/05 A3000 RMK SF1SC7 SLP166<br><br>
