RETRIEVED AT : Jun 15 2019 21:05 Local <br>
  RETRIEVED AT: Jun 16 2019 01:05 UTC<br><br>
CYSN 160036Z 24010G15KT 10SM BKN011 OVC037 17/17 A2983 RMK SC5SC3 SLP104 DENSITY ALT 800FT<br><br>
CYSN 160000Z 23012G18KT 10SM FEW014 OVC031 18/17 A2983 RMK SC2SC6 SLP102 DENSITY ALT 800FT<br><br>
TAF AMD CYSN 152318Z 1523/1601 23010G20KT P6SM OVC025 TEMPO 1523/1601 P6SM -SHRA OVC012 RMK NXT FCST WILL BE ISSUED AT 161245Z<br><br>
<br><br>
CYHM 160000Z 23009KT 15SM OVC009 17/16 A2984 RMK SC8 SLP106 DENSITY ALT 1400FT<br><br>
TAF CYHM 152338Z 1600/1624 23010G20KT P6SM OVC010 TEMPO 1600/1602 4SM -SHRA BR BKN007 OVC010 FM160200 02005KT 6SM -SHRA BR OVC010 TEMPO 1602/1605 11/2SM -SHRA BR OVC005 FM160500 04008KT 11/2SM -DZ BR OVC005 TEMPO 1605/1610 6SM -SHRA BR OVC010 PROB40 1605/1609 3/4SM -RA -DZ BR OVC003 FM161000 04012KT P6SM FEW005 OVC012 FM161600 04012KT P6SM BKN020 OVC050 FM162100 04010KT P6SM BKN030 OVC100 RMK NXT FCST BY 160600Z<br><br>
<br><br>
KIAG 160053Z 23008KT 6SM RA BR OVC007 16/15 A2985 RMK AO2 CIG 005V011 SLP107 P0002 T01560150<br><br>
KIAG 160032Z 23009KT 10SM -RA BKN009 BKN038 OVC065 16/15 A2985 RMK AO2 P0001 T01610150<br><br>
KIAG 160014Z 23011KT 8SM -RA SCT008 BKN039 OVC065 16/15 A2985 RMK AO2 P0001 T01610150<br><br>
KIAG 152353Z 23011KT 10SM -RA BKN008 BKN012 OVC039 16/15 A2985 RMK AO2 RAB11 CIG 006V011 SLP107 P0000 60000 T01610150 10200 20150 56005<br><br>
KIAG 152333Z 1600/1624 23014G22KT 6SM -SHRA BR OVC012 FM160100 24008KT 2SM -SHRA BR OVC007 FM160700 02005KT 2SM -RADZ BR OVC005 FM160800 04008KT P6SM OVC007 FM161400 04010G16KT P6SM OVC015 FM162200 04006KT P6SM BKN120<br><br>
<br><br>
KBUF 160054Z 24009KT 4SM -RA BR BKN004 OVC010 17/16 A2986 RMK AO2 SLP111 P0010 T01670156<br><br>
KBUF 160019Z 24010KT 2SM RA BR OVC004 17/16 A2986 RMK AO2 CIG 003V008 P0007 T01670156<br><br>
KBUF 152354Z 24009KT 2 1/2SM -RA BR BKN005 OVC009 17/16 A2987 RMK AO2 SLP113 P0033 60043 T01670156 10206 20156 55005<br><br>
KBUF 152332Z 24013G19KT 1 3/4SM +RA BR OVC005 17/16 A2987 RMK AO2 CIG 003V009 P0022 T01670156<br><br>
KBUF 152333Z 1600/1624 23013G21KT 3SM -SHRA BR OVC005 FM160200 23010G17KT 2SM SHRA BR OVC005 FM160600 24004KT 2SM -RADZ BR OVC003 FM161000 05006KT P6SM OVC003 FM161600 05008KT P6SM BKN035<br><br>
<br><br>
CYYZ 160000Z VRB02KT 15SM SCT018 OVC027 17/16 A2984 RMK CU3SC5 SLP105 DENSITY ALT 1100FT<br><br>
CYYZ 152335Z 19007KT 10SM FEW016 OVC031 17/16 A2983 RMK CU2SC6 SLP104 DENSITY ALT 1100FT<br><br>
CYYZ 152317Z 24005KT 10SM -RA SCT012 BKN021 OVC031 17/16 A2983 RMK SF3SC2SC3 SLP104 DENSITY ALT 1100FT<br><br>
TAF CYYZ 152338Z 1600/1706 24005KT P6SM FEW007 OVC025 TEMPO 1600/1602 4SM -RA -DZ BR BKN007 OVC015 FM160200 33008KT P6SM OVC015 TEMPO 1602/1604 2SM -SHRA BR BKN007 OVC012 FM160400 01006KT P6SM OVC030 TEMPO 1604/1606 2SM BR BKN007 OVC020 FM160800 02008KT P6SM OVC030 FM161400 08010KT P6SM BKN050 BKN250 FM170200 33006KT P6SM SCT100 RMK NXT FCST BY 160300Z<br><br>
<br><br>
CYOO 160054Z AUTO VRB02KT 9SM -RA OVC050 15/14 A2984 RMK SLP106 DENSITY ALT 600FT<br><br>
CYOO 160000Z AUTO 34005KT 290V350 9SM OVC046 15/14 A2984 RMK SLP106 DENSITY ALT 700FT<br><br>
CYOO 152327Z AUTO 36006KT 9SM FEW008 SCT014 OVC042 15/14 A2983 RMK SLP105 DENSITY ALT 600FT<br><br>
CYOO 152315Z AUTO 35009KT 9SM FEW008 BKN016 OVC022 16/15 A2984 RMK SLP106 DENSITY ALT 700FT<br><br>
CYOO 152306Z AUTO 31006KT 220V360 6SM -RA BR FEW008 BKN016 BKN022 OVC035 16/15 A2983 RMK PRESRR SLP105 DENSITY ALT 700FT<br><br>
TAF AMD CYOO 160006Z 1600/1608 34005KT P6SM OVC040 TEMPO 1600/1602 5SM -RA BR OVC020 FM160200 32005KT P6SM -RA OVC015 TEMPO 1602/1604 4SM -SHRA BR BKN007 OVC012 FM160400 35005KT P6SM OVC025 TEMPO 1604/1605 4SM -RA BR BKN007 OVC020 FM160700 01006KT P6SM OVC050 RMK FCST BASED ON AUTO OBS. NXT FCST BY 160200Z<br><br>
<br><br>
CYTR 160021Z 24008KT 15SM FEW012 BKN050 OVC150 16/14 A2983 RMK SF2SC5AC2 SLP105<br><br>
CYTR 160000Z 23008KT 7SM -SHRA SCT012 OVC030 16/14 A2983 RMK SF3SC5 SLP103<br><br>
CYTR 152341Z 23012G19KT 10SM -SHRA SCT012 OVC030 16/14 A2983 RMK SF3SC5 SLP103<br><br>
TAF CYTR 152330Z 1600/1624 23010G20KT P6SM SCT012 OVC050 TEMPO 1600/1602 5SM -SHRA BR OVC012 FM160200 VRB03KT P6SM BKN050 FM160400 VRB03KT P6SM SCT050 BKN240 PROB30 1604/1609 1SM BR FM161300 04010KT P6SM SCT240 BECMG 1618/1620 21010KT RMK NXT FCST BY 160600Z<br><br>
<br><br>
