RETRIEVED AT : Oct 02 2017 07:10 Local <br>
  RETRIEVED AT: Oct 02 2017 11:10 UTC<br><br>
CYSN 021100Z 14002KT 15SM BKN200 07/05 A3035 RMK CC6 SLP282<br><br>
CYSN has no TAF <br><br>
<br><br>
CYHM 021100Z 03006KT 8SM BCFG FEW180 06/06 A3035 RMK AC1 SLP284<br><br>
CYHM 021000Z 07005KT 15SM BKN190 BKN250 06/05 A3034 RMK AC6CI1 CI TR SLP278<br><br>
TAF CYHM 020538Z 0206/0306 VRB03KT P6SM FEW240 BECMG 0215/0217 06007KT BECMG 0304/0306 14006KT RMK NXT FCST BY 021200Z<br><br>
<br><br>
KIAG 021053Z 08004KT 9SM CLR 06/03 A3035 RMK AO2 SLP284 T00560033<br><br>
KIAG 020953Z AUTO 00000KT 10SM CLR 07/04 A3034 RMK AO2 SLP280 T00670044<br><br>
KIAG 020910Z 0209/0306 VRB03KT P6SM FEW250 FM021300 12004KT P6SM FEW200 FM022000 08006KT P6SM FEW200 FM030200 12004KT P6SM FEW200<br><br>
<br><br>
KBUF 021054Z 12007KT 10SM FEW200 07/04 A3036 RMK AO2 SLP283 T00720044 $<br><br>
KBUF 020954Z 10003KT 10SM CLR 07/04 A3035 RMK AO2 SLP280 T00720044 $<br><br>
KBUF 020910Z 0209/0306 VRB03KT P6SM FEW250 FM021300 12004KT P6SM FEW200 FM022000 08005KT P6SM FEW200 FM030200 12005KT P6SM FEW200<br><br>
<br><br>
CYYZ 021100Z 01004KT 15SM FEW190 08/05 A3037 RMK AC1 SLP288<br><br>
CYYZ 021000Z 01004KT 15SM SCT200 07/05 A3035 RMK CI3 SLP282<br><br>
TAF CYYZ 020838Z 0209/0312 VRB03KT P6SM FEW240 BECMG 0216/0218 12010KT BECMG 0300/0302 VRB03KT RMK NXT FCST BY 021200Z<br><br>
<br><br>
CYOO 021100Z AUTO 02006KT 9SM CLR 05/04 A3038 RMK SLP291<br><br>
CYOO 021000Z AUTO 36004KT 9SM CLR 04/04 A3036 RMK SLP285<br><br>
CYOO has no TAF <br><br>
<br><br>
CYTR 021100Z 02003KT 6SM BR FEW250 03/03 A3040 RMK CI1 SLP297<br><br>
CYTR 021035Z 01002KT 5SM BR FEW250 03/03 A3039 RMK CI2 SLP295<br><br>
CYTR 021000Z 01002KT 12SM FEW250 02/02 A3038 RMK CI2 SLP292<br><br>
TAF CYTR 020530Z 0206/0306 VRB03KT P6SM SKC TEMPO 0208/0212 4SM BR PROB30 0208/0212 1/2SM FG FM021600 14008KT P6SM SCT250 BECMG 0300/0302 VRB03KT RMK NXT FCST BY 021200Z<br><br>
<br><br>
