RETRIEVED AT : Oct 21 2018 01:05 Local <br>
  RETRIEVED AT: Oct 21 2018 05:05 UTC<br><br>
CYSN has no TAF <br><br>
<br><br>
CYHM 210400Z 32012KT 15SM SCT059 BKN150 03/00 A2985 RMK SC4AC2 SLP116<br><br>
TAF CYHM 202341Z 2100/2124 30005KT P6SM BKN030 BKN050 TEMPO 2100/2102 P6SM -SHRA BKN020 BKN050 FM210200 32012G22KT P6SM BKN030 TEMPO 2102/2106 BKN020 FM211100 30010G20KT P6SM SCT030 FM211600 29010G20KT P6SM BKN040 BECMG 2122/2124 27010KT RMK NXT FCST BY 210600Z<br><br>
<br><br>
KIAG 210453Z AUTO 34014G22KT 10SM BKN050 BKN060 04/M02 A2985 RMK AO2 SLP116 T00441022 401110044<br><br>
KIAG 210353Z AUTO 35012G18KT 10SM SCT031 BKN041 OVC060 06/00 A2981 RMK AO2 SLP103 T00560000<br><br>
KIAG 210250Z 2103/2124 34010G22KT P6SM VCSH OVC045 FM210900 33016G22KT P6SM -SHRASN OVC025 FM211600 31014KT P6SM -SHRASN OVC025 FM212200 28013KT P6SM BKN035 FM212300 28012KT P6SM BKN110<br><br>
<br><br>
KBUF 210454Z 34009KT 10SM FEW035 OVC048 04/01 A2984 RMK AO2 SLP110 T00440006 401280044<br><br>
KBUF 210354Z 34012KT 10SM FEW037 BKN048 OVC070 05/02 A2980 RMK AO2 SLP096 T00500017<br><br>
KBUF 210250Z 2103/2124 35015G22KT P6SM VCSH OVC025 FM210900 33015KT P6SM -SHRA OVC007 FM211100 32014G20KT P6SM -SHRASN OVC007 FM212000 29014G20KT P6SM BKN035 FM212300 28010G17KT P6SM BKN120<br><br>
<br><br>
CYYZ 210400Z 34013G20KT 15SM SCT042 BKN050 05/M05 A2984 RMK SC4SC3 SLP111<br><br>
TAF CYYZ 210240Z 2103/2206 35015G28KT P6SM BKN050 BKN120 TEMPO 2104/2105 P6SM -SHRA FM210500 35015G25KT P6SM BKN050 FM210800 34012KT P6SM BKN030 TEMPO 2109/2114 P6SM -SHSN FM211500 33010G20KT P6SM BKN030 FM211700 32012G22KT P6SM BKN040 BECMG 2119/2121 29010G20KT RMK NXT FCST BY 210600Z<br><br>
<br><br>
CYOO 210400Z AUTO 35015G23KT 9SM BKN046 BKN140 OVC160 04/M02 A2982 RMK SLP103<br><br>
CYOO has no TAF <br><br>
<br><br>
CYTR 210400Z 34005KT 15SM FEW060 03/M02 A2978 RMK SC1 SLP089<br><br>
TAF CYTR 202330Z 2100/2124 30006KT P6SM FEW040 BKN100 FM210400 34008KT P6SM BKN040 BKN100 FM211400 31010KT P6SM SCT040 SCT200 BECMG 2114/2116 31012G22KT BECMG 2121/2123 28005KT RMK NXT FCST BY 210600Z<br><br>
<br><br>
