RETRIEVED AT : Jun 16 2019 12:05 Local <br>
  RETRIEVED AT: Jun 16 2019 16:05 UTC<br><br>
CYSN 161500Z 02009KT 15SM OVC030 14/14 A2986 RMK SC8 SLP113<br><br>
TAF CYSN 161241Z 1613/1701 04008KT P6SM OVC020 TEMPO 1613/1618 BKN025 BKN060 FM161800 03008KT P6SM BKN025 BKN060 FM162000 03006KT P6SM BKN040 FM162300 01005KT P6SM FEW050 SCT180 RMK NXT FCST BY 162000Z<br><br>
<br><br>
CYHM 161500Z 05015KT 15SM FEW030 BKN077 BKN160 14/10 A2986 RMK SC1AC6AC1 SC TR SLP113 DENSITY ALT 900FT<br><br>
TAF CYHM 161138Z 1612/1712 05012KT P6SM SCT020 BKN060 TEMPO 1612/1616 BKN020 BKN060 FM161600 05012KT P6SM BKN030 TEMPO 1616/1618 BKN020 FM170300 04008KT P6SM FEW110 RMK NXT FCST BY 161800Z<br><br>
<br><br>
KIAG 161553Z 06008KT 10SM OVC022 15/12 A2985 RMK AO2 SLP111 T01500117<br><br>
KIAG 161453Z 06008KT 10SM OVC020 13/11 A2986 RMK AO2 SLP111 T01330111 53005<br><br>
KIAG 161406Z 1614/1712 05010KT P6SM OVC015 FM161600 05008KT P6SM BKN025 FM161800 05008KT P6SM BKN040 FM170200 VRB03KT P6SM BKN080<br><br>
<br><br>
KBUF 161554Z 07009KT 3SM -RA BR BKN005 BKN030 OVC039 13/12 A2985 RMK AO2 DZE1459RAB1459 SLP109 P0004 T01330117<br><br>
KBUF 161547Z 06010KT 2 1/2SM -RA BR BKN005 OVC025 13/12 A2986 RMK AO2 DZE1459RAB1459 P0004 T01330117<br><br>
KBUF 161530Z 04008KT 3SM -RA BR BKN005 OVC019 13/11 A2986 RMK AO2 DZE1459RAB1459 P0002 T01280111<br><br>
KBUF 161521Z 04009KT 2 1/2SM -RA BR BKN006 OVC019 13/12 A2986 RMK AO2 DZE1459RAB1459 P0002 T01280117<br><br>
KBUF 161513Z 04008KT 2SM -RA BR BKN004 BKN008 OVC020 13/12 A2986 RMK AO2 DZE1459RAB1459 P0001 T01280117<br><br>
KBUF 161503Z 04010KT 1 1/4SM RA BR BKN005 OVC021 13/11 A2985 RMK AO2 DZE1459RAB1459 P0000 T01280111<br><br>
KBUF 161454Z 04009KT 2 1/2SM R23/6000VP6000FT -DZ BR SCT006 OVC021 12/11 A2985 RMK AO2 SLP109 P0000 60001 T01220111 51011<br><br>
KBUF 161510Z 1615/1712 04010KT 2SM -DZ OVC015 FM161630 05008KT P6SM BKN015 FM161900 05007KT P6SM SCT025 BKN120 FM170200 VRB03KT P6SM BKN060<br><br>
<br><br>
CYYZ 161500Z 11004KT 060V140 15SM FEW030 SCT080 BKN180 BKN230 19/10 A2987 RMK CU1AC3AC3CI1 CU TR SLP117 DENSITY ALT 1200FT<br><br>
TAF CYYZ 161439Z 1615/1718 07012KT P6SM SCT080 BKN180 BECMG 1616/1618 11010KT FM162200 14005KT P6SM FEW050 SCT180 BECMG 1701/1703 32005KT BECMG 1712/1714 04005KT FM171700 15008KT P6SM FEW100 RMK NXT FCST BY 161800Z<br><br>
<br><br>
CYOO 161500Z AUTO 04005KT 340V100 9SM SCT180 19/10 A2987 RMK SLP118 DENSITY ALT 1000FT<br><br>
TAF CYOO 161338Z 1614/1702 06007KT P6SM FEW120 BECMG 1614/1616 09010KT BECMG 1618/1620 16008KT FM162300 20006KT P6SM FEW160 RMK FCST BASED ON AUTO OBS. NXT FCST BY 162000Z<br><br>
<br><br>
CYTR 161500Z 03007KT 15SM FEW030 FEW100 FEW220 BKN240 19/11 A2987 RMK CF1AC1CC1CI4 AC TR SLP115<br><br>
TAF CYTR 161130Z 1612/1712 VRB03KT P6SM FEW120 SCT250 BECMG 1612/1614 04005KT FM161800 21010KT P6SM SCT030 BKN240 BECMG 1623/1701 VRB03KT RMK NXT FCST BY 161800Z<br><br>
<br><br>
