RETRIEVED AT : Aug 31 2018 20:19 Local <br>
  RETRIEVED AT: Sep 01 2018 00:19 UTC<br><br>
CYSN 010000Z 05004KT 15SM FEW025 FEW250 19/17 A3017 RMK SC1CI2 SC TR SLP217 DENSITY ALT 700FT<br><br>
CYSN 312300Z 04007KT 15SM FEW025 FEW250 21/17 A3016 RMK SC1CI1 SLP215 DENSITY ALT 900FT<br><br>
TAF CYSN 311938Z 3120/0101 VRB03KT P6SM FEW030 BECMG 3122/3124 SKC RMK NXT FCST WILL BE ISSUED AT 011245Z<br><br>
<br><br>
CYHM 010000Z 08006KT 15SM FEW030 FEW250 17/15 A3018 RMK SC1CI1 SC TR CI TR SLP221 DENSITY ALT 1000FT<br><br>
CYHM 312300Z 04007KT 15SM FEW030 FEW250 20/15 A3018 RMK SC1CI1 SC TR CI TR SLP222 DENSITY ALT 1300FT<br><br>
TAF CYHM 312338Z 0100/0124 06005KT P6SM SKC PROB30 0106/0112 1/2SM FG VV002 FM011400 20012KT P6SM SCT020 FM011600 21012G22KT P6SM FEW040 RMK NXT FCST BY 010600Z<br><br>
<br><br>
KIAG 312353Z 03006KT 10SM OVC026 20/17 A3017 RMK AO2 SLP216 T02000167 10239 20200 55002<br><br>
KIAG 312323Z 03007KT 10SM BKN027 21/17 A3017 RMK AO2 T02060167<br><br>
KIAG 312253Z 04007KT 10SM CLR 22/17 A3017 RMK AO2 SLP214 T02170167<br><br>
KIAG 312329Z 0100/0124 VRB05KT P6SM FEW040 SCT250 FM010600 VRB04KT P6SM SCT040 FM011300 20010KT P6SM SCT040 FM012100 20009KT P6SM SCT250<br><br>
<br><br>
KBUF 312354Z 02005KT 10SM SCT030 SCT040 SCT290 22/17 A3017 RMK AO2 SLP213 T02170172 10256 20217 55003<br><br>
KBUF 312254Z 03007KT 10SM SCT031 SCT037 SCT280 23/18 A3016 RMK AO2 SLP211 T02280178<br><br>
KBUF 312329Z 0100/0124 VRB05KT P6SM FEW040 SCT250 FM010300 16004KT P6SM FEW250 FM010500 17005KT P6SM SCT040 FM011300 20010KT P6SM SCT040 FM012200 20008KT P6SM SCT250<br><br>
<br><br>
CYYZ 010000Z 14003KT 15SM FEW230 20/14 A3017 RMK CI2 SLP219 DENSITY ALT 1100FT<br><br>
CYYZ 312300Z 14005KT 130V190 15SM FEW045 FEW220 21/14 A3018 RMK SC1CI1 SC TR SLP220 DENSITY ALT 1100FT<br><br>
TAF CYYZ 312338Z 0100/0206 VRB03KT P6SM SKC PROB30 0109/0112 3/4SM BR FM011400 20007KT P6SM FEW020 FM011600 20010G20KT P6SM SCT030 BECMG 0116/0117 18010G20KT BECMG 0201/0203 22006KT FM020500 22005KT P6SM -SHRA BKN040 PROB30 0205/0206 2SM +TSRA BR BKN040CB RMK NXT FCST BY 010300Z<br><br>
<br><br>
CYOO 010000Z AUTO 11003KT 9SM CLR 19/16 A3018 RMK SLP222 DENSITY ALT 700FT<br><br>
CYOO 312300Z AUTO 13006KT 9SM CLR 21/15 A3018 RMK SLP222 DENSITY ALT 900FT<br><br>
CYOO has no TAF <br><br>
<br><br>
CYTR 010000Z 12002KT 15SM FEW027 SCT120 BKN250 20/17 A3018 RMK SC2AC2CI3 SLP221<br><br>
CYTR 312300Z 05002KT 15SM FEW031 BKN250 22/16 A3018 RMK SC2CI4 SLP221<br><br>
TAF CYTR 312330Z 0100/0124 VRB03KT P6SM FEW030 BKN250 FM010300 10005KT P6SM FEW015 BKN025 TEMPO 0104/0116 BKN015 OVC025 PROB30 0106/0112 2SM BR OVC008 FM011600 20008KT P6SM FEW025 RMK NXT FCST BY 010600Z<br><br>
<br><br>
