RETRIEVED AT : Jul 05 2020 22:05 Local <br>
  RETRIEVED AT: Jul 06 2020 02:05 UTC<br><br>
CYSN 060100Z 08004KT 15SM FEW160 SCT260 26/14 A2995 RMK AC2CI2 LAST STFD OBS / NEXT 061100 UTC SLP141 DENSITY ALT 1700FT<br><br>
CYSN has no TAF <br><br>
<br><br>
CYHM 060100Z 01006KT 15SM FEW200 SCT260 26/14 A2997 RMK CC1CI3 SLP147 DENSITY ALT 2200FT<br><br>
TAF CYHM 052341Z 0600/0624 VRB03KT P6SM BKN250 FM061400 04012KT P6SM SCT100 BKN250 RMK NXT FCST BY 060600Z<br><br>
<br><br>
KIAG 060153Z 09003KT 10SM CLR 24/13 A2998 RMK AO2 SLP146 T02440128<br><br>
KIAG 060053Z 04004KT 10SM CLR 26/13 A2997 RMK AO2 SLP142 T02610128<br><br>
KIAG 052338Z 0600/0624 34007KT P6SM SCT250 FM060100 18003KT P6SM SCT200 FM061500 05006KT P6SM SCT200 FM061700 06005KT P6SM FEW050<br><br>
<br><br>
KBUF 060154Z 10003KT 10SM SCT200 SCT250 28/14 A2999 RMK AO2 SLP151 T02830139<br><br>
KBUF 060054Z 07003KT 10SM SCT200 BKN250 29/13 A2998 RMK AO2 SLP147 T02940133<br><br>
KBUF 052338Z 0600/0624 23007KT P6SM SCT250 FM061500 06004KT P6SM SCT120 FM061900 03006KT P6SM SCT050<br><br>
<br><br>
CYYZ 060100Z 01007KT 15SM FEW190 SCT260 28/15 A2996 RMK AC2CI2 SLP144 DENSITY ALT 2200FT<br><br>
TAF CYYZ 052341Z 0600/0706 VRB03KT P6SM BKN250 FM061300 10010KT P6SM SCT090 FM070000 10008KT P6SM SKC RMK NXT FCST BY 060300Z<br><br>
<br><br>
CYOO 060100Z AUTO 34007KT 9SM BKN230 27/16 A2996 RMK SLP145 DENSITY ALT 1800FT<br><br>
TAF CYOO 060138Z 0602/0614 34007KT P6SM SCT240 BECMG 0605/0607 02007KT FM061200 10012KT P6SM FEW100 RMK FCST BASED ON AUTO OBS. NXT FCST BY 060800Z<br><br>
<br><br>
CYTR 060145Z 35002KT 15SM FEW070 BKN250 24/18 A2996 RMK AC2CI3 LAST STFD OBS/NEXT 061000 UTC SLP144<br><br>
CYTR 060100Z 32003KT 15SM SCT070 BKN250 26/18 A2994 RMK AC3CI3 SLP139<br><br>
TAF CYTR 052330Z 0600/0624 30008KT P6SM FEW060 BKN250 TEMPO 0600/0605 6SM -SHRA BR BKN030 OVC120 FM060500 VRB03KT P6SM SCT100 FM061600 21008KT P6SM SCT040 RMK FCST BASED ON AUTO OBS 060200-061000Z. NXT FCST BY 060600Z<br><br>
<br><br>
