RETRIEVED AT : Oct 16 2017 18:10 Local <br>
  RETRIEVED AT: Oct 16 2017 22:10 UTC<br><br>
CYSN 162200Z VRB02KT 15SM FEW035 09/02 A3024 RMK SC1 SLP244<br><br>
CYSN 162100Z 33003KT 250V350 15SM FEW035 10/01 A3024 RMK SC1 SLP244<br><br>
TAF CYSN 161939Z 1620/1701 31008G18KT P6SM BKN040 BECMG 1620/1622 SCT040 FM170000 31011KT P6SM SKC RMK NXT FCST WILL BE ISSUED AT 171245Z<br><br>
<br><br>
CYHM 162200Z 31006KT 15SM FEW050 09/M02 A3024 RMK CU1 CU TR SLP248<br><br>
CYHM 162100Z 31008G16KT 15SM FEW050 10/M02 A3023 RMK CU1 SLP244<br><br>
TAF AMD CYHM 162111Z 1621/1718 31008G18KT P6SM FEW050 FM170000 30008KT P6SM FEW030 FM170300 VRB03KT P6SM SKC BECMG 1708/1710 23008KT FM171200 22008G18KT P6SM SKC BECMG 1713/1715 23015G25KT RMK NXT FCST BY 170000Z<br><br>
<br><br>
KIAG 162153Z 31007KT 10SM BKN038 09/00 A3024 RMK AO2 SLP248 T00940000 $<br><br>
KIAG 162053Z 30008KT 10SM BKN038 10/M01 A3023 RMK AO2 SLP243 T01001006 52007 $<br><br>
KIAG 162117Z 1621/1718 32008KT P6SM BKN035 FM170000 VRB03KT P6SM FEW250 FM170500 18004KT P6SM FEW250 FM171400 22011G20KT P6SM SCT250<br><br>
<br><br>
KBUF 162154Z 32008KT 10SM FEW045 09/00 A3023 RMK AO2 SLP242 T00890000<br><br>
KBUF 162054Z 29007KT 10SM SCT047 09/00 A3023 RMK AO2 SLP239 T00890000 53008<br><br>
KBUF 162117Z 1621/1718 29007KT P6SM SCT050 FM170000 VRB03KT P6SM FEW250 FM171200 19008KT P6SM SCT030 FM171600 22015G24KT P6SM SCT030<br><br>
<br><br>
CYYZ 162200Z 36009KT 15SM FEW040 09/M02 A3024 RMK CU1 SLP245<br><br>
CYYZ 162100Z 36010G15KT 15SM FEW045 10/M02 A3022 RMK CU2 SLP240<br><br>
TAF CYYZ 162038Z 1621/1724 34010G20KT P6SM FEW040 BECMG 1623/1624 32010KT BECMG 1701/1703 VRB03KT FM170500 25008KT P6SM FEW030 BECMG 1712/1714 24010G20KT FM171800 24017G27KT P6SM FEW040 SCT210 BECMG 1722/1724 25009G19KT RMK NXT FCST BY 170000Z<br><br>
<br><br>
CYOO 162200Z AUTO 34004KT 9SM CLR 07/M02 A3024 RMK SLP245<br><br>
CYOO 162100Z AUTO 36010KT 300V020 9SM CLR 08/M02 A3022 RMK SLP240<br><br>
CYOO has no TAF <br><br>
<br><br>
CYTR 162200Z 30008KT 15SM SCT046 07/M02 A3023 RMK SC3 SLP240<br><br>
CYTR 162100Z 30008KT 15SM BKN048 09/M01 A3020 RMK SC6 SLP231<br><br>
TAF CYTR 161730Z 1618/1718 33010KT P6SM SCT020 BKN030 FM170000 30005KT P6SM SCT050 BECMG 1702/1704 VRB03KT FM170900 VRB03KT P6SM BKN020 OVC040 BECMG 1710/1712 23010KT FM171500 23010G20KT P6SM SCT040 BECMG 1716/1718 23018G28KT RMK NXT FCST BY 170000Z<br><br>
<br><br>
