RETRIEVED AT : May 05 2018 23:05 Local <br>
  RETRIEVED AT: May 06 2018 03:05 UTC<br><br>
CYSN has no TAF <br><br>
<br><br>
CYHM 060200Z 00000KT 15SM BKN120 BKN250 16/04 A3000 RMK AC5CI1 SLP161 DENSITY ALT 1100FT<br><br>
TAF CYHM 052339Z 0600/0624 23008KT P6SM SCT070 BKN120 BECMG 0606/0608 VRB03KT FM061800 04008KT P6SM SCT040 BKN070 TEMPO 0618/0623 P6SM -SHRA BKN040 OVC070 FM062300 04010KT 5SM -SHRA BR SCT006 OVC040 PROB30 0623/0624 2SM TSRA BR BKN006 OVC040CB RMK NXT FCST BY 060600Z<br><br>
<br><br>
KIAG 060253Z 20003KT 10SM BKN120 14/06 A3001 RMK AO2 SLP164 T01390061 51010<br><br>
KIAG 060153Z 17007KT 10SM CLR 15/06 A3001 RMK AO2 SLP163 T01500061<br><br>
KIAG 052340Z 0600/0624 22012KT P6SM BKN080 FM060200 21005KT P6SM BKN080 FM060900 VRB03KT P6SM BKN090 FM061700 35004KT P6SM BKN080 FM061800 03005KT P6SM VCSH SCT040 OVC080<br><br>
<br><br>
KBUF 060254Z 00000KT 10SM SCT090 BKN120 16/05 A3003 RMK AO2 SLP167 T01560050 53006<br><br>
KBUF 060154Z 21005KT 10SM SCT090 BKN120 14/06 A3002 RMK AO2 SLP164 T01440056<br><br>
KBUF 052340Z 0600/0624 22009KT P6SM SCT100 FM060400 VRB04KT P6SM BKN090 FM061700 06005KT P6SM BKN090 FM062100 02008KT P6SM BKN090 FM062300 04009KT P6SM VCSH SCT040 OVC090<br><br>
<br><br>
CYYZ 060229Z 08003KT 360V080 15SM -SHRA SCT045 BKN070 OVC100 16/10 A3000 RMK SC3AC4AC1 CVCTV CLD EMBD SLP160 DENSITY ALT 800FT<br><br>
CYYZ 060200Z 22003KT 200V330 15SM SCT050 OVC110 16/10 A3000 RMK SC4AC4 SLP160 DENSITY ALT 800FT<br><br>
CYYZ 060124Z 27012KT 10SM -SHRA BKN045TCU OVC075 17/10 A3001 RMK TCU7AC1 SLP165 DENSITY ALT 800FT<br><br>
CYYZ 060113Z 29009G15KT 9SM SHRA BKN045TCU OVC075 17/09 A3000 RMK TCU6AC2 PRESRR SLP163 DENSITY ALT 900FT<br><br>
CYYZ 060110Z 28009KT 250V320 10SM -SHRA BKN045TCU OVC070 17/09 A3000 RMK TCU6AC2 PRESRR SLP162 DENSITY ALT 900FT<br><br>
TAF CYYZ 060238Z 0603/0706 VRB03KT P6SM SCT050 BKN100 FM061200 01005KT P6SM SCT040 SCT070 BECMG 0613/0615 09008KT FM061800 09008KT P6SM BKN050 BKN080 TEMPO 0618/0621 P6SM -SHRA FM062100 34012G22KT 5SM -SHRA BR SCT015 OVC040 FM070200 02010G20KT 6SM -RA -DZ BR SCT010 OVC030 RMK NXT FCST BY 060600Z<br><br>
<br><br>
CYOO 060200Z AUTO 01006KT 9SM SCT120 OVC140 16/05 A3000 RMK SLP160 DENSITY ALT 500FT<br><br>
CYOO has no TAF <br><br>
<br><br>
CYTR 060200Z 18002KT 15SM BKN120 BKN250 12/08 A2999 RMK AC6CI2 SLP157<br><br>
TAF CYTR 052330Z 0600/0624 22008KT P6SM BKN120 BKN250 FM060200 20005KT P6SM FEW060 BKN250 FM061200 04008KT P6SM FEW050 SCT250 FM061800 04008KT P6SM BKN050 BKN250 RMK NXT FCST BY 060600Z<br><br>
<br><br>
