RETRIEVED AT : May 18 2020 05:05 Local <br>
  RETRIEVED AT: May 18 2020 09:05 UTC<br><br>
CYSN has no TAF <br><br>
<br><br>
CYHM 180800Z 06022G30KT 2SM -RA OVC002 08/08 A3005 RMK SF8 PRESFR SLP181<br><br>
TAF AMD CYHM 180719Z 1807/1906 05020G30KT 4SM -RA BR OVC003 TEMPO 1807/1815 P6SM NSW OVC006 FM181500 05020G30KT 4SM -RA BR OVC007 TEMPO 1815/1820 P6SM NSW OVC012 PROB30 1815/1818 OVC005 FM182000 05015G25KT P6SM SCT012 BKN030 OVC070 FM190000 05015KT P6SM BKN040 OVC100 FM190500 04015KT P6SM SCT050 BKN150 RMK NXT FCST BY 181200Z<br><br>
<br><br>
KIAG 180853Z AUTO 07012KT 10SM -RA OVC006 11/10 A3007 RMK AO2 RAB24 SLP186 P0000 60004 T01060100 55003 $<br><br>
KIAG 180801Z AUTO 08013KT 10SM OVC006 11/10 A3006 RMK AO2 T01060100 $<br><br>
KIAG 180753Z AUTO 07016KT 10SM OVC007 11/10 A3006 RMK AO2 RAE45 SLP183 P0001 T01060100 $<br><br>
KIAG 180852Z 1809/1906 07012KT 6SM -RA OVC007 FM181300 10014G22KT 5SM RA BR OVC015 FM182200 08014G24KT P6SM VCSH OVC025 FM190200 08012KT P6SM OVC040<br><br>
<br><br>
KBUF 180854Z 06013KT 10SM OVC007 12/11 A3006 RMK AO2 SLP181 60001 T01170106 55002 $<br><br>
KBUF 180754Z 06015KT 10SM OVC006 12/11 A3004 RMK AO2 RAB03E50 SLP174 P0001 T01220106 $<br><br>
KBUF 180852Z 1809/1906 05012KT 6SM -RA OVC007 FM181200 07014G20KT 4SM RA BR BKN015 FM181600 10014G22KT 6SM -SHRA OVC015 FM182100 08014G22KT P6SM VCSH OVC025 FM190100 07012KT P6SM OVC040<br><br>
<br><br>
CYYZ 180800Z 08011G21KT 10SM -RA BKN011 OVC018 11/10 A3010 RMK SF5SC3 SLP197<br><br>
CYYZ 180745Z 07011G19KT 10SM -RA SCT011 OVC022 11/10 A3010 RMK SF3SC5 SLP195<br><br>
CYYZ 180723Z 08011G16KT 10SM RA SCT009 OVC014 11/11 A3011 RMK SF3SC5 SLP198<br><br>
TAF CYYZ 180839Z 1809/1912 08015G25KT P6SM -RA SCT012 OVC025 TEMPO 1809/1812 5SM -RA BR BKN009 OVC020 FM181200 08018G28KT P6SM BKN040 OVC080 TEMPO 1812/1818 P6SM -RA BKN012 OVC040 FM181800 08018G28KT P6SM BKN040 OVC100 BECMG 1822/1824 08015KT RMK NXT FCST BY 181200Z<br><br>
<br><br>
CYOO 180800Z AUTO 06009G16KT 9SM -RA BKN031 OVC040 11/11 A3012 RMK SLP203<br><br>
TAF CYOO 180738Z 1808/1820 07012KT P6SM -RA OVC030 TEMPO 1808/1813 5SM -RA BR OVC020 FM181300 08012G22KT P6SM BKN040 OVC100 TEMPO 1813/1818 BKN020 OVC040 FM181800 08015G25KT P6SM FEW040 BKN100 RMK FCST BASED ON AUTO OBS. NXT FCST BY 181400Z<br><br>
<br><br>
CYTR 180836Z 05006KT 8SM -RA BKN033 OVC050 11/09 A3016 RMK SC5SC3 SLP216<br><br>
CYTR 180800Z 06007KT 7SM -RA BKN023 OVC050 11/08 A3016 RMK SC6SC2 SLP214<br><br>
TAF CYTR 180530Z 1806/1906 07005KT P6SM -RA SCT015 OVC060 TEMPO 1806/1812 5SM -RA BR BKN015 OVC060 FM181200 06008KT P6SM FEW015 BKN030 OVC060 BECMG 1814/1816 06012G22KT FM182000 06012G22KT P6SM SCT060 BKN180 BECMG 1900/1902 06010KT RMK NXT FCST BY 181200Z<br><br>
<br><br>
