RETRIEVED AT : May 23 2020 19:05 Local <br>
  RETRIEVED AT: May 23 2020 23:05 UTC<br><br>
CYSN 232200Z 02005KT 15SM FEW050 BKN230 21/15 A3003 RMK SC2CI5 SLP169 DENSITY ALT 1100FT<br><br>
TAF CYSN 231942Z 2320/2401 02007KT P6SM SCT030 BKN250 RMK NXT FCST WILL BE ISSUED AT 241245Z<br><br>
<br><br>
CYHM 232200Z 16007KT 15SM FEW025 FEW038 BKN250 22/17 A3004 RMK CU1SC1CI5 SLP173 DENSITY ALT 1700FT<br><br>
TAF AMD CYHM 232226Z 2322/2418 16007KT P6SM FEW040 BKN250 FM240200 05005KT P6SM FEW020 BKN040 FM240700 06005KT 6SM BR FEW005 OVC012 TEMPO 2408/2412 2SM BR OVC005 FM241400 18015KT P6SM BKN030 RMK NXT FCST BY 240000Z<br><br>
<br><br>
KIAG 232253Z 34005KT 10SM CLR 23/16 A3002 RMK AO2 SLP163 T02330156<br><br>
KIAG 232153Z 36004KT 10SM SCT037 23/16 A3003 RMK AO2 SLP168 T02280156<br><br>
KIAG 232108Z 2321/2418 03006KT P6SM SCT030 BKN080 BKN250 FM232300 08006KT P6SM BKN250 FM240800 13006KT P6SM SCT050 FM241400 18010KT P6SM SCT100<br><br>
<br><br>
KBUF 232254Z 32005KT 10SM FEW050 BKN250 24/17 A3002 RMK AO2 SLP165 T02440172<br><br>
KBUF 232154Z 27004KT 10SM FEW047 SCT100 BKN260 24/17 A3003 RMK AO2 SLP166 T02440167<br><br>
KBUF 232108Z 2321/2418 21005KT P6SM FEW035 BKN250 FM240000 08006KT P6SM FEW040 BKN250 FM240800 13006KT P6SM BKN250 FM241400 18010KT P6SM SCT100<br><br>
<br><br>
CYYZ 232200Z 16006KT 15SM FEW060 BKN240 23/14 A3004 RMK CU1CI7 CU TR SLP173 DENSITY ALT 1500FT<br><br>
TAF CYYZ 232038Z 2321/2424 15008KT P6SM FEW060 BKN250 FM240000 15008KT P6SM BKN060 FM240500 13008KT P6SM FEW008 OVC020 TEMPO 2405/2409 4SM -SHRA BR BKN008 OVC020 FM240900 11008KT 11/2SM BR BKN006 FM241300 15012KT P6SM SCT006 OVC012 FM241800 17015KT P6SM -SHRA SCT020 OVC030 PROB30 2421/2424 2SM TSRA BR BKN020CB RMK NXT FCST BY 240000Z<br><br>
<br><br>
CYOO 232200Z AUTO 19007KT 9SM CLR 24/14 A3003 RMK SLP171 DENSITY ALT 1400FT<br><br>
TAF CYOO 231942Z 2320/2408 15005KT P6SM SCT240 FM240000 08005KT P6SM BKN060 FM240600 08005KT P6SM FEW012 OVC025 TEMPO 2407/2408 5SM -SHRA BR OVC012 RMK FCST BASED ON AUTO OBS. NXT FCST BY 240200Z<br><br>
<br><br>
CYTR 232200Z 23005KT 15SM FEW030 BKN220 24/14 A3002 RMK CF1CI5 CUFRA TR SLP166<br><br>
TAF CYTR 231734Z 2318/2418 13005KT P6SM FEW030 BECMG 2318/2319 20010KT BECMG 2402/2404 05005KT FM241000 09005KT P6SM FEW020 SCT080 BKN150 FM241600 12008KT P6SM BKN025 OVC080 RMK NXT FCST BY 240000Z<br><br>
<br><br>
