RETRIEVED AT : Jul 04 2020 04:05 Local <br>
  RETRIEVED AT: Jul 04 2020 08:05 UTC<br><br>
CYSN has no TAF <br><br>
<br><br>
CYHM 040700Z 35005KT 15SM FEW025 21/16 A2998 RMK SC1 SC TR SLP148 DENSITY ALT 1600FT<br><br>
TAF CYHM 040540Z 0406/0506 35005KT P6SM SKC BECMG 0414/0416 04010KT BECMG 0422/0424 VRB03KT RMK NXT FCST BY 041200Z<br><br>
<br><br>
KIAG 040753Z AUTO 31006KT 10SM FEW065 22/17 A2995 RMK AO2 SLP134 T02170172<br><br>
KIAG 040653Z AUTO 29004KT 10SM CLR 21/17 A2994 RMK AO2 SLP132 T02060167<br><br>
KIAG 040532Z 0406/0506 32006KT P6SM SKC FM041300 01004KT P6SM FEW120 FM041500 04005KT P6SM FEW250 FM041800 01007KT P6SM FEW250 FM050400 00000KT P6SM FEW200<br><br>
<br><br>
KBUF 040754Z 26003KT 10SM FEW060 SCT100 SCT250 23/20 A2995 RMK AO2 SLP137 T02280200<br><br>
KBUF 040654Z 25003KT 10SM FEW250 23/20 A2995 RMK AO2 SLP135 T02280200<br><br>
KBUF 040532Z 0406/0506 24004KT P6SM SCT050 SCT290 FM041700 01004KT P6SM FEW250 FM042100 35007KT P6SM SCT250 FM042300 02004KT P6SM FEW250 FM050000 00000KT P6SM FEW250<br><br>
<br><br>
CYYZ 040700Z 34012KT 15SM SKC 22/17 A2996 RMK SLP144 DENSITY ALT 1500FT<br><br>
TAF CYYZ 040540Z 0406/0512 35012KT P6SM SKC FM041600 04008KT P6SM SKC BECMG 0417/0419 17010KT BECMG 0423/0501 36008KT RMK NXT FCST BY 040900Z<br><br>
<br><br>
CYOO 040700Z AUTO 36007KT 9SM SCT070 22/15 A2994 RMK SLP136 DENSITY ALT 1300FT<br><br>
TAF CYOO 040740Z 0408/0420 34008KT P6SM FEW070 BECMG 0415/0417 17010KT RMK FCST BASED ON AUTO OBS. NXT FCST BY 041400Z<br><br>
<br><br>
CYTR 040700Z AUTO 29002KT 9SM FEW084 22/20 A2992 RMK SLP133<br><br>
TAF CYTR 040530Z 0406/0506 VRB03KT P6SM FEW060 FM041500 04005KT P6SM SKC BECMG 0417/0419 20008KT RMK FCST BASED ON AUTO OBS 040600-041000Z. NXT FCST BY 041200Z<br><br>
<br><br>
