RETRIEVED AT : Sep 15 2019 07:06 Local <br>
  RETRIEVED AT: Sep 15 2019 11:06 UTC<br><br>
CYSN has no TAF <br><br>
<br><br>
CYHM 151023Z 21004KT 1/2SM FG BKN080 11/11 A3015 RMK FG6AC1 AC TR SLP212<br><br>
CYHM 151000Z 24003KT 1/8SM FG VV002 11/11 A3016 RMK FG8 SLP215<br><br>
TAF AMD CYHM 150827Z 1508/1606 23005KT 1/8SM FG VV001 TEMPO 1508/1512 1SM BR FM151200 21005KT 1SM BR FEW002 SCT250 BECMG 1512/1514 P6SM NSW FEW100 SCT250 FM151500 21005KT P6SM BKN100 BKN160 FM151700 19005KT P6SM BKN030 OVC070 TEMPO 1517/1521 P6SM -SHRA BKN020 OVC040 FM152100 15005KT P6SM BKN020 OVC040 FM160000 07005KT P6SM OVC015 FM160300 06005KT 5SM -DZ BR BKN004 OVC010 RMK NXT FCST BY 151200Z<br><br>
<br><br>
KIAG 151050Z 00000KT 7SM BKN005 OVC010 15/14 A3016 RMK AO2 SLP212 T01500144 $<br><br>
KIAG 151049Z 00000KT 6SM BR BKN005 OVC010 14/14 A3016 RMK AO2 $<br><br>
KIAG 151041Z AUTO 00000KT 2SM R28R/5500VP6000FT BR BKN006 OVC010 14/14 A3016 RMK AO2 VIS 1 1/4V5 T01440139 $<br><br>
KIAG 151038Z AUTO 00000KT 1 1/4SM R28R/5500VP6000FT BR BKN006 OVC010 14/13 A3015 RMK AO2 T01390133 $<br><br>
KIAG 151034Z AUTO 00000KT 3/4SM R28R/4000VP6000FT BR BKN006 OVC010 14/13 A3015 RMK AO2 T01390133 $<br><br>
KIAG 151016Z AUTO 00000KT 1/2SM R28R/2200VP6000FT FG VV007 14/13 A3015 RMK AO2 T01390128 $<br><br>
KIAG 151013Z AUTO 00000KT 1SM R28R/2200VP6000FT BR VV006 13/12 A3015 RMK AO2 T01330122 $<br><br>
KIAG 151009Z AUTO 00000KT 1 1/2SM R28R/2600VP6000FT BR BKN006 13/12 A3015 RMK AO2 T01330122 $<br><br>
KIAG 151005Z AUTO 00000KT 1SM R28R/2600VP6000FT BR VV006 14/13 A3015 RMK AO2 VIS 1/2V5 T01390133 $<br><br>
KIAG 150958Z AUTO 00000KT 1/2SM R28R/2600VP6000FT FG VV006 13/13 A3015 RMK AO2 T01330133 $<br><br>
KIAG 150953Z AUTO 00000KT 3/4SM R28R/P6000FT BR CLR 14/13 A3015 RMK AO2 SLP209 T01390133 $<br><br>
KIAG 150951Z AUTO 00000KT 1SM R28R/P6000FT BR CLR 14/13 A3015 RMK AO2 $<br><br>
KIAG 150949Z AUTO 00000KT 1 1/2SM BR CLR 14/13 A3015 RMK AO2 $<br><br>
KIAG 151044Z 1511/1606 VRB03KT 1SM BR BKN006 FM151200 VRB03KT P6SM FEW035 SCT250 FM151400 21004KT P6SM BKN120 FM151800 25008KT P6SM VCSH OVC060 FM152000 23008KT 6SM -SHRA OVC035 FM152300 21006KT P6SM VCSH BKN040 FM160300 VRB03KT P6SM VCSH BKN030<br><br>
<br><br>
KBUF 151054Z 16004KT 10SM FEW014 FEW045 FEW280 14/13 A3016 RMK AO2 SLP214 T01440128<br><br>
KBUF 150954Z 19004KT 10SM FEW040 14/13 A3016 RMK AO2 SLP213 T01390128<br><br>
KBUF 150904Z 1509/1606 21005KT P6SM FEW035 SCT250 FM151400 22007KT P6SM BKN100 FM151900 24008KT P6SM VCSH OVC060 FM152000 23007KT 6SM -SHRA BKN035 FM152300 21006KT P6SM VCSH BKN045<br><br>
<br><br>
CYYZ 151000Z 08008KT 15SM FEW250 12/10 A3015 RMK CI1 CI TR SLP210<br><br>
TAF CYYZ 150838Z 1509/1612 05006KT P6SM FEW050 FM151400 08006KT P6SM BKN100 BKN160 FM151700 10008KT P6SM OVC040 TEMPO 1517/1521 P6SM -SHRA BKN015 OVC030 FM152100 09008KT P6SM OVC015 FM160200 07006KT P6SM -DZ OVC007 FM160600 06006KT 4SM -DZ BR OVC003 RMK NXT FCST BY 151200Z<br><br>
<br><br>
CYOO 151000Z AUTO 36006KT 9SM CLR 11/10 A3014 RMK SLP210<br><br>
TAF CYOO 150738Z 1508/1520 VRB03KT P6SM SKC TEMPO 1508/1513 5SM BR PROB30 1509/1512 1SM BR FM151400 14005KT P6SM BKN100 BKN160 FM151700 10006KT P6SM OVC040 TEMPO 1517/1520 P6SM -SHRA BKN015 OVC030 RMK FCST BASED ON AUTO OBS. NXT FCST BY 151400Z<br><br>
<br><br>
CYTR 151000Z 00000KT 15SM FEW030 09/08 A3015 RMK SC1 SLP212<br><br>
TAF CYTR 150530Z 1506/1606 VRB03KT P6SM FEW240 PROB30 1507/1510 2SM BR FM151400 25005KT P6SM SCT070 BKN150 OVC220 FM151700 27010KT P6SM SCT020 BKN040 OVC070 TEMPO 1517/1520 P6SM -SHRA BKN020 OVC040 FM152000 28008KT P6SM -SHRA BKN010 OVC025 FM160000 VRB03KT 6SM BR BKN015 OVC040 RMK NXT FCST BY 151200Z<br><br>
<br><br>
