RETRIEVED AT : Feb 22 2020 06:05 Local <br>
  RETRIEVED AT: Feb 22 2020 11:05 UTC<br><br>
CYSN has no TAF <br><br>
<br><br>
CYHM 221000Z 24014G20KT 15SM FEW250 M03/M10 A3017 RMK CI1 CI TR SLP231<br><br>
TAF CYHM 220539Z 2206/2306 23017G27KT P6SM SKC FM221000 24015KT P6SM SCT020 TEMPO 2212/2215 BKN020 FM221700 24012G22KT P6SM SCT025 RMK NXT FCST BY 221200Z<br><br>
<br><br>
KIAG 221053Z AUTO 24015KT 10SM CLR M02/M08 A3020 RMK AO2 SLP244 T10171078<br><br>
KIAG 220953Z AUTO 24013G20KT 10SM CLR M02/M07 A3019 RMK AO2 SLP241 T10171072<br><br>
KIAG 220901Z 2209/2306 24019G25KT P6SM SKC FM221200 23015G27KT P6SM FEW250 FM230000 23014G25KT P6SM FEW200 FM230300 23013G23KT P6SM FEW200<br><br>
<br><br>
KBUF 221054Z 24015G23KT 10SM CLR 00/M06 A3021 RMK AO2 PK WND 25030/1012 SLP238 T00001061<br><br>
KBUF 220954Z 25018G24KT 10SM CLR 00/M07 A3020 RMK AO2 PK WND 23030/0914 SLP235 T00001067<br><br>
KBUF 220901Z 2209/2306 24020G30KT P6SM FEW030 FM221000 24018G24KT P6SM SKC FM230100 24015G22KT P6SM FEW120 FM230400 24015KT P6SM FEW200<br><br>
<br><br>
CYYZ 221000Z 22011G16KT 15SM SKC M04/M10 A3014 RMK SLP217<br><br>
TAF CYYZ 220838Z 2209/2312 24010KT P6SM SKC FM221200 24010G20KT P6SM SCT025 TEMPO 2212/2216 BKN025 FM221600 24012G22KT P6SM BKN025 FM222100 24010G20KT P6SM SCT030 FM230200 23010KT P6SM FEW015 FM230900 23008KT P6SM FEW015 BKN270 RMK NXT FCST BY 221200Z<br><br>
<br><br>
CYOO 221000Z AUTO 21004KT 9SM CLR M04/M10 A3014 RMK SLP215<br><br>
TAF CYOO 220741Z 2208/2220 24010KT P6SM SKC FM221200 25010G20KT P6SM SCT025 TEMPO 2212/2215 BKN025 FM221500 25012G22KT P6SM BKN025 RMK FCST BASED ON AUTO OBS. NXT FCST BY 221400Z<br><br>
<br><br>
CYTR 221000Z 25012G17KT 15SM FEW250 M02/M09 A3014 RMK CI2 SLP211<br><br>
TAF AMD CYTR 221010Z 2210/2306 25010G20KT P6SM FEW250 FM221200 26010G20KT P6SM SCT020 BECMG 2221/2223 25008KT RMK NXT FCST BY 221200Z<br><br>
<br><br>
