RETRIEVED AT : Sep 25 2017 00:10 Local <br>
  RETRIEVED AT: Sep 25 2017 04:10 UTC<br><br>
CYSN has no TAF <br><br>
<br><br>
CYHM 250400Z 27003KT 15SM SKC 21/18 A3011 RMK SLP195 DENSITY ALT 1500FT<br><br>
CYHM 250300Z 28003KT 15SM SKC 22/18 A3011 RMK SLP195 DENSITY ALT 1600FT<br><br>
TAF CYHM 242340Z 2500/2524 VRB03KT P6SM SKC RMK NXT FCST BY 250600Z<br><br>
<br><br>
KIAG 250353Z AUTO 00000KT 6SM HZ CLR 23/19 A3010 RMK AO2 SLP186 T02280189<br><br>
KIAG 250253Z 00000KT 8SM CLR 23/19 A3010 RMK AO2 SLP187 T02330189 51004<br><br>
KIAG 250241Z 2503/2524 VRB03KT P6SM SKC FM250800 00000KT 4SM BR SKC FM251200 VRB03KT P6SM FEW250 FM251700 14004KT P6SM FEW250 FM252000 09007KT P6SM FEW250<br><br>
<br><br>
