RETRIEVED AT : Jul 05 2020 09:05 Local <br>
  RETRIEVED AT: Jul 05 2020 13:05 UTC<br><br>
CYSN 051200Z 21004KT 15SM BKN220 23/15 A2999 RMK CI5 SLP156 DENSITY ALT 1200FT<br><br>
TAF CYSN 051238Z 0513/0601 21006KT P6SM SCT250 BECMG 0514/0516 30008KT BECMG 0523/0601 07006KT RMK NXT FCST BY 052000Z<br><br>
<br><br>
CYHM 051200Z 00000KT 15SM SCT250 21/10 A3002 RMK CI4 SLP162 DENSITY ALT 1600FT<br><br>
TAF CYHM 051139Z 0512/0612 24007KT P6SM SCT250 BECMG 0517/0519 30007KT FM060000 36007KT P6SM FEW080 FM060300 VRB03KT P6SM SKC BECMG 0608/0610 05005KT RMK NXT FCST BY 051800Z<br><br>
<br><br>
KIAG 051253Z 20005KT 10SM CLR 24/18 A3001 RMK AO2 SLP155 T02390178<br><br>
KIAG 051153Z 18004KT 10SM CLR 21/17 A3001 RMK AO2 SLP155 T02110167 10211 20156 51008<br><br>
KIAG 051120Z 0512/0612 00000KT 4SM HZ SKC FM051300 23005KT P6SM SCT250 FM051700 26008KT P6SM SCT250 FM052300 22005KT P6SM SCT250<br><br>
<br><br>
KBUF 051254Z VRB03KT 10SM FEW160 SCT220 BKN280 24/16 A3002 RMK AO2 SLP160 T02440161<br><br>
KBUF 051154Z 19003KT 10SM FEW130 FEW280 21/14 A3002 RMK AO2 SLP161 T02110144 10211 20172 52009<br><br>
KBUF 051120Z 0512/0612 19004KT P6SM SKC FM051400 23006KT P6SM SCT250 FM051700 25010KT P6SM SCT250 FM052300 22005KT P6SM SCT250<br><br>
<br><br>
CYYZ 051200Z 35004KT 15SM BKN250 23/08 A3000 RMK CI6 CONTRAILS SLP158 DENSITY ALT 1500FT<br><br>
TAF CYYZ 051139Z 0512/0618 32007KT P6SM SCT250 BECMG 0516/0518 16010KT FM060100 36005KT P6SM SKC BECMG 0609/0611 07005KT BECMG 0615/0617 14010KT RMK NXT FCST BY 051500Z<br><br>
<br><br>
CYOO 051200Z AUTO 00000KT 9SM CLR 23/13 A2999 RMK SLP154 DENSITY ALT 1400FT<br><br>
TAF CYOO 050738Z 0508/0520 34007KT P6SM SKC FM051700 17010KT P6SM FEW080 RMK FCST BASED ON AUTO OBS. NXT FCST BY 051400Z<br><br>
<br><br>
CYTR 051200Z 29003KT 15SM FEW015 SCT080 BKN250 21/15 A2996 RMK SC2AC2CI2 SLP145<br><br>
CYTR 051136Z 23003KT 10SM -SHRA SCT030 BKN120 21/15 A2997 RMK SC3AC2 SLP147<br><br>
TAF CYTR 051131Z 0512/0612 VRB03KT P6SM SCT030 BKN120 TEMPO 0512/0513 P6SM -SHRA FM051300 VRB03KT P6SM SCT200 BECMG 0515/0517 23010KT FM052000 28010G20KT P6SM SCT030 BKN200 FM060300 33008KT P6SM SCT060 BKN150 BECMG 0607/0609 VRB03KT RMK NXT FCST BY 051800Z<br><br>
<br><br>
