RETRIEVED AT : Sep 19 2017 03:10 Local <br>
  RETRIEVED AT: Sep 19 2017 07:10 UTC<br><br>
CYSN has no TAF <br><br>
<br><br>
CYHM 190700Z 32003KT 15SM FEW140 BKN190 18/18 A3003 RMK AC2AC5 SLP166 DENSITY ALT 1200FT<br><br>
CYHM 190600Z 06005KT 12SM MIFG FEW140 SCT180 18/18 A3003 RMK AC1AC3 SLP169 DENSITY ALT 1200FT<br><br>
TAF CYHM 190538Z 1906/2006 VRB03KT P6SM BKN180 TEMPO 1906/1908 2SM BR FM190800 VRB03KT 6SM BR SCT004 BKN012 TEMPO 1908/1913 3/4SM BR BKN004 PROB30 1908/1913 1/2SM FG BKN002 FM191300 08010KT P6SM BKN040 TEMPO 1913/1915 BKN012 FM191800 04007KT P6SM BKN050 PROB30 1918/1923 VRB15G25KT 2SM TSRA BR BKN020 OVC030CB FM200000 05012KT P6SM BKN140 RMK NXT FCST BY 191200Z<br><br>
<br><br>
KIAG 190653Z AUTO 00000KT 5SM HZ CLR 21/18 A3001 RMK AO2 SLP157 T02060178<br><br>
KIAG 190553Z AUTO 00000KT 8SM OVC110 21/18 A3003 RMK AO2 SLP163 T02110178 10239 20206 57004<br><br>
KIAG 190533Z 1906/2006 00000KT P6SM SCT130 FM190700 00000KT P6SM BKN100 FM191100 00000KT 3SM BR SCT007 BKN080 FM191300 00000KT P6SM BKN080 FM191900 02004KT P6SM BKN080 FM200200 VRB03KT P6SM SCT200<br><br>
<br><br>
KBUF 190654Z 14005KT 10SM BKN110 BKN200 19/18 A3002 RMK AO2 SLP160 T01940178<br><br>
KBUF 190554Z 15003KT 10SM OVC100 19/18 A3004 RMK AO2 SLP167 T01940183 10239 20194 56006<br><br>
KBUF 190533Z 1906/2006 00000KT P6SM BKN130 FM191500 VRB03KT P6SM SCT090 FM191600 VRB03KT P6SM BKN100 FM192000 02004KT P6SM BKN100 FM192200 03005KT P6SM SCT200 FM200200 VRB03KT P6SM SCT200<br><br>
<br><br>
CYYZ 190700Z 35007KT 15SM BKN140 BKN180 19/18 A3001 RMK AC5AC2 SLP164 DENSITY ALT 1100FT<br><br>
CYYZ 190600Z 02004KT 15SM BKN140 20/18 A3002 RMK AC7 SLP167 DENSITY ALT 1200FT<br><br>
TAF CYYZ 190538Z 1906/2012 02007KT P6SM BKN140 PROB30 1909/1913 2SM BR BKN007 FM191800 14007KT P6SM BKN050 PROB30 1918/1923 VRB15G25KT 2SM TSRA BR BKN015 OVC030CB FM200000 02005KT P6SM BKN100 FM200600 07008KT 6SM BR FEW002 SCT100 PROB30 2006/2012 2SM BR RMK NXT FCST BY 190900Z<br><br>
<br><br>
CYOO 190700Z AUTO 01005KT 8SM OVC140 19/17 A3001 RMK SLP162 DENSITY ALT 900FT<br><br>
CYOO 190600Z AUTO 03003KT 9SM BKN140 18/16 A3003 RMK SLP169 DENSITY ALT 700FT<br><br>
CYOO has no TAF <br><br>
<br><br>
CYTR 190700Z 03002KT 4SM BR FEW140 17/17 A3002 RMK AC1 SLP167<br><br>
CYTR 190600Z 35002KT 4SM BR FEW001 17/17 A3003 RMK SF2 SLP170<br><br>
CYTR 190525Z 05003KT 3SM BR FEW045 18/18 A3003 RMK SC2 SLP169<br><br>
TAF CYTR 190530Z 1906/2006 VRB03KT 6SM BR FEW040 TEMPO 1906/1911 2SM BR PROB40 1907/1911 1/4SM FG VV001 FM191100 VRB03KT 1SM BR SCT050 BECMG 1911/1913 P6SM NSW FM191600 07008KT P6SM SCT030 TEMPO 1916/1924 P6SM -SHRA BKN030 PROB30 1918/1922 2SM TSRA BR BKN020CB FM200000 02008KT P6SM SCT020 BKN050 RMK NXT FCST BY 191200Z<br><br>
<br><br>
