RETRIEVED AT : Oct 09 2017 11:10 Local <br>
  RETRIEVED AT: Oct 09 2017 15:10 UTC<br><br>
CYSN 091500Z 02014G21KT 15SM OVC005 17/16 A2978 RMK SF8 SLP086 DENSITY ALT 800FT<br><br>
CYSN 091425Z 05012G19KT 12SM OVC005 17/17 A2976 RMK SF8 SLP078 DENSITY ALT 900FT<br><br>
CYSN 091400Z 04012G18KT 10SM -RA OVC006 17/17 A2976 RMK SF8 SLP079 DENSITY ALT 900FT<br><br>
TAF CYSN 091238Z 0913/1001 04013G23KT 6SM -RA BR OVC010 TEMPO 0913/0916 2SM RA OVC004 FM091600 36012G22KT P6SM -RA OVC025 TEMPO 0916/0918 21/2SM -RA BR BKN006 OVC015 FM091800 34010G20KT P6SM OVC030 TEMPO 0918/0920 3SM -SHRA BR OVC012 FM092100 30008KT P6SM BKN030 BKN080 FM092300 22007KT P6SM SCT040 RMK NXT FCST BY 092000Z<br><br>
<br><br>
CYHM 091500Z 03012KT 8SM SCT006 BKN015 OVC020 17/15 A2982 RMK SF3SC3SC2 SLP100 DENSITY ALT 1300FT<br><br>
CYHM 091400Z 04014G21KT 8SM OVC003 15/15 A2980 RMK SF8 SLP092 DENSITY ALT 1200FT<br><br>
CYHM 091351Z 04014G19KT 1 3/4SM BR OVC002 16/15 A2979 RMK FG2SF6 SLP091 DENSITY ALT 1200FT<br><br>
CYHM 091327Z 03011G17KT 3SM BR BKN003 15/15 A2979 RMK SF7 SLP091 DENSITY ALT 1200FT<br><br>
CYHM 091317Z 03013G19KT 8SM BKN008 OVC018 15/15 A2979 RMK SF5SC3 SLP091 DENSITY ALT 1200FT<br><br>
TAF AMD CYHM 091421Z 0914/1012 05012G22KT 6SM BR OVC015 TEMPO 0914/0917 11/2SM RA BR OVC003 FM091700 02010KT P6SM OVC012 TEMPO 0917/0921 OVC008 FM092100 29006KT P6SM BKN020 FM092300 24006KT P6SM FEW030 RMK NXT FCST BY 091800Z<br><br>
<br><br>
KIAG 091453Z 04011KT 10SM OVC009 19/16 A2978 RMK AO2 RAE12 SLP082 P0000 60088 T01890161 53008<br><br>
KIAG 091353Z 06014KT 7SM -RA BKN007 BKN028 OVC045 18/16 A2975 RMK AO2 SLP073 P0022 T01830161<br><br>
KIAG 091350Z 06016KT 5SM -RA BR BKN007 BKN028 OVC045 18/16 A2975 RMK AO2 P0022<br><br>
KIAG 091331Z 06017G25KT 2 1/2SM -RA BR SCT026 BKN037 OVC050 18/16 A2975 RMK AO2 P0020 T01780156<br><br>
KIAG 091327Z 06018G25KT 2SM RA BR BKN026 OVC035 18/16 A2975 RMK AO2 P0020 T01780156<br><br>
KIAG 091504Z 0915/1012 04012KT P6SM BKN008 FM091800 01007KT P6SM BKN007 FM092000 32007KT P6SM BKN007 FM100000 24005KT P6SM BKN020 FM101000 24004KT 2SM BR FEW250<br><br>
<br><br>
KBUF 091501Z 04011KT 10SM BKN008 OVC025 18/17 A2976 RMK AO2 T01830167 $<br><br>
KBUF 091454Z 05009KT 10SM SCT006 BKN025 OVC060 18/16 A2976 RMK AO2 RAE35 SLP075 P0004 60097 T01780161 53010 $<br><br>
KBUF 091414Z 05012G18KT 3SM -RA BR SCT006 BKN021 OVC036 17/16 A2975 RMK AO2 P0003 T01720161 $<br><br>
KBUF 091410Z 05012KT 2 1/2SM -RA BKN006 BKN021 OVC036 17/14 A2975 RMK AO2 P0003 T01670139 $<br><br>
KBUF 091354Z 04014KT 1 1/4SM R23/5000VP6000FT RA BR SCT006 BKN025 OVC037 17/16 A2975 RMK AO2 SLP072 P0045 T01670156 $<br><br>
KBUF 091332Z 03014KT 1SM R23/3000V5500FT +RA BR FEW004 OVC018 17/14 A2975 RMK AO2 P0037 T01670144 $<br><br>
KBUF 091313Z 01011G22KT 1/2SM R23/3500VP6000FT +RA FG SCT004 BKN012 OVC019 16/14 A2975 RMK AO2 P0013 T01610144 $<br><br>
KBUF 091504Z 0915/1012 03011KT P6SM BKN008 FM092000 32007KT P6SM BKN007 FM092300 28006KT P6SM BKN012 FM100200 24006KT P6SM BKN020 FM100800 25006KT 2SM BR FEW250<br><br>
<br><br>
CYYZ 091500Z 05005KT 360V060 15SM SCT028 BKN034 18/15 A2981 RMK CF3SC4 SLP097 DENSITY ALT 1200FT<br><br>
CYYZ 091400Z 03007KT 10SM SCT014 BKN028 16/15 A2981 RMK SF3SC4 SLP096 DENSITY ALT 1000FT<br><br>
CYYZ 091340Z 03007KT 8SM SCT008 OVC028 16/15 A2981 RMK SF4SC4 SLP096 DENSITY ALT 1000FT<br><br>
CYYZ 091328Z 02008KT 8SM BKN008 OVC025 16/15 A2981 RMK SF5NS3 SLP096 DENSITY ALT 1000FT<br><br>
TAF CYYZ 091445Z 0915/1018 03008KT P6SM BKN030 TEMPO 0915/0918 BKN020 FM091800 33010KT P6SM BKN030 FM100100 30006KT P6SM FEW030 FM101500 34010KT P6SM FEW050 RMK NXT FCST BY 091800Z<br><br>
<br><br>
CYOO 091508Z AUTO 03005KT 9SM OVC024 17/15 A2981 RMK SLP095 DENSITY ALT 900FT<br><br>
CYOO 091500Z AUTO 04006KT 330V050 9SM OVC026 17/15 A2981 RMK SLP095 DENSITY ALT 900FT<br><br>
CYOO 091403Z AUTO 35005KT 320V040 9SM FEW009 SCT027 SCT044 BKN150 16/15 A2979 RMK SLP091 DENSITY ALT 800FT<br><br>
CYOO 091400Z AUTO 35005KT 330V050 9SM -RA FEW009 SCT027 SCT044 BKN150 16/15 A2979 RMK SLP091 DENSITY ALT 800FT<br><br>
CYOO has no TAF <br><br>
<br><br>
CYTR 091500Z 08010G17KT 5SM -RA BR BKN006 OVC022 16/15 A2977 RMK SF6SC2 VIS VRB 3-7 SLP083<br><br>
CYTR 091400Z 06006KT 2SM RA BR SCT002 OVC010 16/15 A2981 RMK SF3SF5 /R14/ SLP097<br><br>
CYTR 091335Z 05007KT 2SM +RA BR SCT002 OVC010 16/16 A2983 RMK SF4SF4 VIS VRB 1 1/2-2 1/2 SLP103<br><br>
CYTR 091328Z 04010KT 2SM RA BR SCT002 OVC011 16/16 A2982 RMK SF4SF4 SLP101<br><br>
CYTR 091313Z 06007KT 3SM RA BR BKN010 OVC022 16/15 A2982 RMK SF5SC3 VIS VRB 2 1/4-4 SLP101<br><br>
TAF CYTR 091130Z 0912/1012 VRB03KT 2SM RA BR OVC002 TEMPO 0912/0914 4SM -RA BR SCT002 OVC015 BECMG 0912/0913 12008KT FM091400 09010KT 6SM -RA BR SCT005 OVC020 TEMPO 0914/0916 4SM -RA BR OVC005 FM091600 03012KT P6SM SCT010 OVC020 TEMPO 0916/0920 5SM -RA BR OVC010 BECMG 0918/0920 34010KT FM092000 34010KT P6SM BKN020 TEMPO 0922/0924 SCT020 FM100000 34008KT P6SM SCT020 BECMG 1000/1002 VRB03KT FM100400 VRB03KT P6SM FEW020 PROB40 1006/1012 2SM BR RMK NXT FCST BY 091800Z<br><br>
<br><br>
