RETRIEVED AT : Nov 04 2017 15:10 Local <br>
  RETRIEVED AT: Nov 04 2017 19:10 UTC<br><br>
CYSN 041900Z 09015KT 15SM FEW025 BKN160 BKN230 08/02 A3021 RMK SC1AC4CI2 SLP233<br><br>
CYSN 041800Z 09015KT 15SM FEW028 OVC160 09/03 A3024 RMK SC2AC6 SLP244<br><br>
TAF CYSN 041238Z 0413/0501 10005KT P6SM FEW020 BKN110 OVC250 BECMG 0413/0415 09010KT FM041600 09012KT P6SM SCT110 BKN170 BECMG 0418/0420 09012G22KT FM050000 09012G22KT P6SM BKN040 BKN120 RMK NXT FCST BY 042000Z<br><br>
<br><br>
CYHM 041900Z 05020G26KT 15SM SCT020 BKN180 BKN220 08/03 A3017 RMK SC4AC1CS2 SLP227<br><br>
CYHM 041800Z 05020G26KT 15SM BKN012 OVC150 07/05 A3021 RMK SC7AC1 SLP239<br><br>
CYHM 041745Z 06021KT 15SM BKN011 OVC150 07/05 A3022 RMK SC7AC1 SLP243<br><br>
TAF AMD CYHM 041810Z 0418/0518 05015G25KT P6SM SCT012 BKN150 OVC220 TEMPO 0418/0421 BKN012 OVC150 FM050000 07010G20KT P6SM SCT030 BKN140 TEMPO 0500/0502 P6SM -SHRA OVC030 FM050200 07008KT P6SM FEW012 OVC025 TEMPO 0502/0507 3SM -SHRA BR OVC012 PROB30 0504/0507 VRB15G25KT 2SM TSRA BR OVC008CB FM050700 10008KT 21/2SM -SHRA BR OVC008 PROB30 0507/0510 VRB15G25KT 11/2SM TSRA BR OVC005CB FM051000 18012G22KT 21/2SM -SHRA BR OVC008 BECMG 0512/0514 19015G25KT RMK NXT FCST BY 050000Z<br><br>
<br><br>
KIAG 041853Z 08016KT 10SM CLR 09/01 A3021 RMK AO2 SLP241 T00890011<br><br>
KIAG 041753Z 09014KT 10SM CLR 09/02 A3024 RMK AO2 SLP252 T00890017 10089 20017 58023<br><br>
KIAG 041732Z 0418/0518 08013KT P6SM BKN150 FM042200 09011KT P6SM BKN100 FM050100 09010KT P6SM VCSH BKN050 FM050500 16008KT P6SM OVC035 WS020/20040KT FM051000 18012KT 4SM SHRA OVC025 WS020/20045KT FM051400 18016G23KT P6SM VCSH OVC025<br><br>
<br><br>
KBUF 041854Z 08010KT 10SM FEW022 FEW110 FEW150 SCT190 BKN250 08/03 A3021 RMK AO2 SLP234 T00830028<br><br>
KBUF 041754Z 10013KT 10SM FEW025 FEW110 SCT180 OVC250 08/03 A3025 RMK AO2 SLP247 T00830028 10083 20022 58021<br><br>
