RETRIEVED AT : Jun 22 2019 23:41 Local <br>
  RETRIEVED AT: Jun 23 2019 03:41 UTC<br><br>
CYSN has no TAF <br><br>
<br><br>
CYHM 230300Z 22003KT 15SM SKC 16/11 A3009 RMK SLP188 DENSITY ALT 1000FT<br><br>
CYHM 230200Z 19004KT 15SM FEW250 17/12 A3009 RMK CI1 CI TR SLP189 DENSITY ALT 1000FT<br><br>
TAF CYHM 222338Z 2300/2324 VRB03KT P6SM FEW070 BECMG 2318/2320 19010KT RMK NXT FCST BY 230600Z<br><br>
<br><br>
KIAG 230253Z 26005KT 10SM CLR 16/11 A3007 RMK AO2 SLP181 T01610111 58003<br><br>
KIAG 230153Z 25006KT 10SM CLR 17/11 A3007 RMK AO2 SLP184 T01720111<br><br>
KIAG 230205Z 2302/2324 31005KT P6SM SKC FM231600 26006KT P6SM SCT250<br><br>
<br><br>
KBUF 230254Z 20006KT 10SM SCT300 16/12 A3008 RMK AO2 SLP184 T01610117 58002<br><br>
KBUF 230154Z 22005KT 10SM SCT300 18/11 A3009 RMK AO2 SLP188 T01780106<br><br>
KBUF 230205Z 2302/2324 23005KT P6SM SKC FM231600 25008KT P6SM SCT250<br><br>
<br><br>
CYYZ 230300Z 02005KT 15SM SKC 19/09 A3007 RMK SLP184 DENSITY ALT 1000FT<br><br>
CYYZ 230200Z 05008KT 15SM SCT250 19/10 A3007 RMK CI3 SLP184 DENSITY ALT 1100FT<br><br>
TAF CYYZ 230238Z 2303/2406 04010KT P6SM FEW250 BECMG 2303/2305 32005KT BECMG 2313/2315 24010KT FM232300 18007KT P6SM SCT250 FM240500 VRB03KT P6SM SCT250 RMK NXT FCST BY 230600Z<br><br>
<br><br>
CYOO 230300Z AUTO 34009KT 9SM CLR 17/09 A3005 RMK SLP178 DENSITY ALT 600FT<br><br>
CYOO 230200Z AUTO 34008KT 9SM CLR 19/10 A3007 RMK SLP183 DENSITY ALT 800FT<br><br>
TAF CYOO 230138Z 2302/2314 32006KT P6SM SKC RMK FCST BASED ON AUTO OBS. NXT FCST BY 230800Z<br><br>
<br><br>
CYTR 230300Z 00000KT 15SM FEW250 17/13 A3004 RMK CI1 SLP172<br><br>
CYTR 230200Z 27002KT 15SM SCT250 18/11 A3003 RMK CI3 SLP171<br><br>
TAF CYTR 222330Z 2300/2324 33008KT P6SM SKC BECMG 2300/2302 VRB03KT BECMG 2317/2319 22012KT RMK NXT FCST BY 230600Z<br><br>
<br><br>
