RETRIEVED AT : May 24 2020 18:05 Local <br>
  RETRIEVED AT: May 24 2020 22:05 UTC<br><br>
CYSN 242100Z 20008KT 15SM FEW040 SCT060 BKN220 28/17 A2996 RMK CU2SC2CI2 SLP146 DENSITY ALT 1900FT<br><br>
TAF CYSN 241938Z 2420/2501 20010KT P6SM SCT060 BKN220 TEMPO 2420/2501 BKN060 RMK NXT FCST WILL BE ISSUED AT 251245Z<br><br>
<br><br>
CYHM 242100Z 20013KT 15SM FEW040TCU BKN110 27/18 A2997 RMK TCU1AC4 DIST TCU N AND SE SLP150 DENSITY ALT 2300FT<br><br>
TAF CYHM 241742Z 2418/2518 18012G22KT P6SM FEW030 SCT250 FM242100 20012G22KT P6SM BKN040 TEMPO 2421/2503 P6SM -SHRA PROB30 2421/2503 VRB20G30KT 4SM TSRA BKN030CB FM250300 22010KT P6SM BKN040 FM251200 22012KT P6SM SCT020 BKN030 TEMPO 2512/2518 BKN020 RMK NXT FCST BY 250000Z<br><br>
<br><br>
KIAG 242153Z 18007KT 10SM SCT060 28/17 A2996 RMK AO2 SLP142 T02780167<br><br>
KIAG 242053Z 20006KT 10SM SCT065 28/17 A2998 RMK AO2 SLP149 T02830167 58017<br><br>
KIAG 242126Z 2421/2518 20007KT P6SM SCT050 FM250000 18008KT P6SM VCSH BKN050 FM250400 19012KT 6SM -SHRA BKN040 FM250900 20012KT P6SM SCT050<br><br>
<br><br>
KBUF 242154Z 19009G18KT 10SM FEW060 FEW085 FEW100 SCT250 28/16 A2997 RMK AO2 SLP145 T02830161<br><br>
KBUF 242054Z VRB06KT 10SM R23/5500VP6000FT FEW055 FEW070 FEW180 SCT250 29/16 A3000 RMK AO2 SLP153 T02890156 58016<br><br>
KBUF 242126Z 2421/2518 22008KT P6SM SCT050 BKN250 FM250100 19008KT P6SM VCSH BKN050 FM250500 19010KT 6SM -SHRA BKN040 FM251000 20010KT P6SM BKN050 FM251400 22012KT P6SM FEW250<br><br>
<br><br>
CYYZ 242100Z 13011G17KT 15SM FEW060TCU FEW110 SCT260 24/17 A2997 RMK TCU1AC1CI1 CB TOP DIST N-NE SLP149 DENSITY ALT 1700FT<br><br>
TAF CYYZ 242038Z 2421/2524 15012KT P6SM SCT050 TEMPO 2421/2424 P6SM VCTS SCT030CB BKN050 FM250000 17010KT P6SM BKN040 TEMPO 2500/2506 P6SM -SHRA PROB30 2500/2506 VRB15G25KT 4SM TSRA BKN030CB FM250600 18010KT P6SM SCT040 BECMG 2510/2512 24012KT FM252000 17010KT P6SM VCTS SCT030CB BKN050 RMK NXT FCST BY 250000Z<br><br>
<br><br>
CYOO 242100Z AUTO 12011G17KT 9SM CLR 24/16 A2999 RMK SLP157 DENSITY ALT 1500FT<br><br>
TAF CYOO 241938Z 2420/2508 11010KT P6SM BKN180 FM242100 11008KT P6SM BKN050 TEMPO 2421/2501 P6SM -SHRA VCTS SCT030CB BKN050 FM250100 VRB03KT P6SM BKN040 FM250400 VRB03KT P6SM SCT008 BKN020 RMK FCST BASED ON AUTO OBS. NXT FCST BY 250200Z<br><br>
<br><br>
CYTR 242100Z 16008KT 15SM FEW100 BKN250 24/14 A3003 RMK AC2CI2 SLP170<br><br>
TAF CYTR 241740Z 2418/2518 14008KT P6SM FEW040 SCT100 FM250200 19008KT P6SM -SHRA FEW020 BKN040 OVC060 PROB30 2502/2506 VRB15G25KT 2SM TSRA BR SCT020 OVC030CB FM250600 20005KT 3SM -SHRA BR SCT006 BKN012 OVC030 FM250900 20005KT 2SM BR BKN006 OVC010 PROB30 2509/2514 1SM -DZ BR OVC004 FM251500 20005KT 6SM BR OVC008 FM251700 20005KT P6SM BKN015 RMK NXT FCST BY 250000Z<br><br>
<br><br>
