RETRIEVED AT : Sep 01 2018 11:05 Local <br>
  RETRIEVED AT: Sep 01 2018 15:05 UTC<br><br>
CYSN 011400Z 20012KT 12SM FEW020 BKN250 26/21 A3017 RMK CF2CI5 PRESRR SLP217 DENSITY ALT 1400FT<br><br>
TAF CYSN 011238Z 0113/0201 VRB03KT P6SM SKC BECMG 0114/0116 20010G20KT FEW030 FM012300 VRB03KT P6SM SKC RMK NXT FCST BY 012000Z<br><br>
<br><br>
CYHM 011444Z 21009KT 15SM BKN015 BKN250 25/22 A3019 RMK CU5CI1 SLP222 DENSITY ALT 1900FT<br><br>
CYHM 011422Z 19009KT 8SM BKN012 24/22 A3019 RMK CU5 SLP222 DENSITY ALT 1700FT<br><br>
CYHM 011400Z 18004KT 6SM BR BKN006 23/22 A3019 RMK SF6 SLP222 DENSITY ALT 1600FT<br><br>
CYHM 011327Z 19005KT 150V210 4SM R12/4500VP6000FT/U BR BKN004 21/21 A3017 RMK SF6 SLP218 DENSITY ALT 1400FT<br><br>
CYHM 011320Z 18004KT 2SM R12/2600V6000FT/U BR BKN004 21/21 A3017 RMK FG1SF6 SLP216 DENSITY ALT 1400FT<br><br>
CYHM 011310Z 19003KT 1SM R12/1400V2400FT/U BR BKN003 20/20 A3016 RMK FG3SF4 SLP216 DENSITY ALT 1300FT<br><br>
TAF AMD CYHM 011452Z 0114/0212 18006KT P6SM BKN015 TEMPO 0114/0116 SCT015 FM011600 19010KT P6SM SCT030 BECMG 0116/0117 20010G20KT BECMG 0122/0124 20010KT FM020400 20010KT P6SM -SHRA BKN050 PROB30 0206/0212 2SM +TSRA BR BKN020 BKN050CB RMK NXT FCST BY 011800Z<br><br>
<br><br>
KIAG 011453Z 21012KT 10SM CLR 26/20 A3019 RMK AO2 SLP220 T02610200 53006<br><br>
KIAG 011353Z 20012KT 10SM CLR 24/20 A3018 RMK AO2 SLP216 T02440200<br><br>
KIAG 011503Z 0115/0212 21012KT P6SM SCT045 BKN250 FM012200 19008KT P6SM SCT250 FM020400 21008KT P6SM BKN040<br><br>
<br><br>
KBUF 011454Z 18009KT 10SM FEW045 SCT200 27/20 A3020 RMK AO2 SLP224 T02670200 53007<br><br>
KBUF 011354Z 19013KT 10SM FEW045 SCT200 25/19 A3018 RMK AO2 SLP218 T02500194<br><br>
KBUF 011503Z 0115/0212 20010KT P6SM SCT045 BKN250 FM012200 19008KT P6SM SCT250 FM020400 20008KT P6SM BKN040<br><br>
<br><br>
CYYZ 011451Z 21006KT 6SM BR SCT008 BKN014 24/21 A3018 RMK SF3SC4 SLP220 DENSITY ALT 1400FT<br><br>
CYYZ 011400Z 18005KT 140V210 6SM BR BKN008 22/20 A3017 RMK ST7 SLP217 DENSITY ALT 1200FT<br><br>
CYYZ 011312Z 14003KT 6SM BR SCT003 OVC008 20/19 A3016 RMK SF3ST5 SLP216 DENSITY ALT 1000FT<br><br>
TAF CYYZ 011439Z 0115/0218 18005KT 6SM BR BKN008 TEMPO 0115/0116 P6SM NSW BKN015 FM011530 18007KT P6SM SCT015 TEMPO 0115/0116 BKN015 FM011600 20012KT P6SM SCT030 BECMG 0116/0117 18012G22KT FM011700 18012G22KT P6SM SCT030 TEMPO 0117/0122 BKN030 BECMG 0201/0203 21008KT FM020500 22008KT P6SM -SHRA BKN040 PROB30 0205/0211 2SM +TSRA BR BKN040CB FM021700 23015G25KT P6SM -SHRA BKN030 PROB30 0217/0218 VRB15G25KT 1SM +TSRA BR BKN015 OVC030CB RMK NXT FCST BY 011800Z<br><br>
<br><br>
CYOO 011400Z AUTO 19006KT 120V220 9SM BKN015 23/21 A3017 RMK SLP218 DENSITY ALT 1100FT<br><br>
CYOO 011342Z AUTO VRB02KT 9SM SCT008 BKN015 22/21 A3017 RMK SLP216 DENSITY ALT 1100FT<br><br>
CYOO has no TAF <br><br>
<br><br>
CYTR 011400Z 19008KT 15SM FEW013 FEW021 SCT033 BKN078 23/20 A3018 RMK SF1SC2SC2AC2 SLP222<br><br>
CYTR 011314Z 19007KT 12SM FEW010 SCT021 BKN033 23/21 A3018 RMK SF1SC3SC3 SLP221<br><br>
TAF AMD CYTR 011330Z 0113/0212 19008KT P6SM FEW010 SCT020 BKN030 TEMPO 0113/0115 FEW010 BKN020 FM011500 20010KT P6SM FEW025 BECMG 0122/0124 20005KT FM020900 20005KT P6SM -SHRA BKN025 OVC080 RMK NXT FCST BY 011800Z<br><br>
<br><br>
