RETRIEVED AT : Jun 08 2019 04:05 Local <br>
  RETRIEVED AT: Jun 08 2019 08:05 UTC<br><br>
CYSN has no TAF <br><br>
<br><br>
CYHM 080700Z 03008KT 15SM SKC 15/09 A3009 RMK SLP189 DENSITY ALT 800FT<br><br>
TAF CYHM 080538Z 0806/0906 03007KT P6SM SKC BECMG 0811/0813 05012KT BECMG 0815/0817 06012G22KT FM090400 06012KT P6SM FEW200 RMK NXT FCST BY 081200Z<br><br>
<br><br>
KIAG 080753Z AUTO 00000KT 10SM CLR 12/09 A3008 RMK AO2 SLP184 T01220089 $<br><br>
KIAG 080653Z AUTO 00000KT 10SM CLR 14/09 A3008 RMK AO2 SLP184 T01440094 $<br><br>
KIAG 080803Z 0808/0906 VRB03KT P6SM SKC FM081400 07010KT P6SM SKC FM090000 10008KT P6SM FEW250<br><br>
<br><br>
KBUF 080754Z 12005KT 10SM FEW280 13/09 A3009 RMK AO2 SLP188 T01330094<br><br>
KBUF 080654Z 00000KT 10SM FEW280 15/10 A3009 RMK AO2 SLP186 T01500100<br><br>
KBUF 080803Z 0808/0906 VRB03KT P6SM FEW250 FM081400 07010KT P6SM SKC FM090000 11006KT P6SM FEW250<br><br>
<br><br>
CYYZ 080700Z 05007KT 15SM SKC 15/09 A3009 RMK SLP191<br><br>
TAF CYYZ 080538Z 0806/0912 04007KT P6SM SKC BECMG 0809/0811 07010KT FM081400 09012G22KT P6SM SKC BECMG 0900/0902 09010KT FM091000 07005KT P6SM SCT240 RMK NXT FCST BY 080900Z<br><br>
<br><br>
CYOO 080700Z AUTO 04010G15KT 9SM CLR 18/05 A3009 RMK SLP188 DENSITY ALT 700FT<br><br>
TAF CYOO 080738Z 0808/0820 04007G17KT P6SM SKC BECMG 0811/0813 09012G22KT FM081700 11010G20KT P6SM SKC RMK FCST BASED ON AUTO OBS. NXT FCST BY 081400Z<br><br>
<br><br>
CYTR 080700Z 05008KT 15SM SKC 12/08 A3012 RMK SLP199<br><br>
TAF CYTR 080530Z 0806/0906 04006KT P6SM SKC FM081400 09007KT P6SM SKC BECMG 0816/0818 21010KT BECMG 0900/0901 08005KT RMK NXT FCST BY 081200Z<br><br>
<br><br>
