RETRIEVED AT : Sep 07 2019 22:05 Local <br>
  RETRIEVED AT: Sep 08 2019 02:05 UTC<br><br>
CYSN 080100Z 30010G17KT 15SM SCT039 BKN075 19/14 A2992 RMK SC4AC3 LAST STFD OBS/NEXT 081100Z SLP133 DENSITY ALT 900FT<br><br>
CYSN 080012Z 29012G18KT 15SM -SHRA SCT047 BKN090 20/15 A2990 RMK CU4AC3 SLP125 DENSITY ALT 1100FT<br><br>
CYSN has no TAF <br><br>
<br><br>
CYHM 080100Z 28006KT 15SM FEW080 BKN260 16/12 A2995 RMK AC1CS6 SLP145 DENSITY ALT 1100FT<br><br>
TAF CYHM 072338Z 0800/0824 29008KT P6SM SCT040 BKN080 FM080500 30007KT 6SM BR FEW015 SCT240 PROB30 0808/0813 1SM BR FM081300 04006KT P6SM SCT030 FM081600 04006KT P6SM BKN040 FM082300 06006KT P6SM FEW040 BKN160 RMK NXT FCST BY 080600Z<br><br>
<br><br>
KIAG 080153Z 28004KT 10SM OVC070 16/14 A2994 RMK AO2 RAE10 SLP140 P0001 T01610144<br><br>
KIAG 080053Z 33012KT 7SM -RA BKN037 OVC046 17/13 A2993 RMK AO2 RAB26 SLP135 P0002 T01720133<br><br>
KIAG 080101Z 0801/0824 33012KT P6SM BKN080 TEMPO 0801/0802 P6SM -SHRA BKN040 BKN080 FM080200 31008KT P6SM SCT080 FM081000 36005KT P6SM BKN025 FM081400 02006KT P6SM BKN050 FM081800 01006KT P6SM BKN080<br><br>
<br><br>
KBUF 080154Z 35006KT 10SM -RA FEW036 BKN070 OVC095 17/14 A2995 RMK AO2 WSHFT 0101 RAB40 SLP142 P0000 T01670139<br><br>
KBUF 080117Z 35010G25KT 10SM FEW050 BKN075 OVC090 18/13 A2994 RMK AO2 WSHFT 0101 T01780133<br><br>
KBUF 080054Z 28010KT 10SM OVC085 20/13 A2992 RMK AO2 SLP131 T02000128<br><br>
KBUF 080130Z 0802/0824 33012G22KT P6SM BKN080 FM080300 29009KT P6SM SCT080 FM081100 VRB04KT P6SM BKN025 FM081600 VRB04KT P6SM BKN035 FM081900 01005KT P6SM BKN060<br><br>
<br><br>
CYYZ 080100Z 30009KT 260V340 15SM BKN070 17/12 A2993 RMK AC7 SLP137 DENSITY ALT 1000FT<br><br>
TAF CYYZ 072338Z 0800/0906 31012G22KT P6SM BKN050 TEMPO 0800/0801 P6SM -SHRA BKN030 FM080200 31010KT P6SM SCT040 BECMG 0803/0805 34008KT FM080700 34007KT P6SM SCT015 TEMPO 0807/0813 4SM BR BKN010 FM081300 35010KT P6SM SCT300 FM082100 36008KT P6SM FEW050 BKN200 RMK NXT FCST BY 080300Z<br><br>
<br><br>
CYOO 080100Z AUTO 30005KT 9SM CLR 15/12 A2991 RMK SLP131 DENSITY ALT 600FT<br><br>
TAF CYOO 080138Z 0802/0814 30007KT P6SM BKN100 FM080500 32007KT P6SM SCT015 TEMPO 0805/0812 BKN015 RMK FCST BASED ON AUTO OBS. NXT FCST BY 080800Z<br><br>
<br><br>
CYTR 080100Z 32002KT 15SM FEW040 FEW100 16/13 A2988 RMK SC1AC1 SLP118<br><br>
TAF AMD CYTR 080003Z 0800/0824 VRB03KT P6SM SCT030 SCT080 TEMPO 0800/0802 P6SM -SHRA BKN030 OVC080 FM080200 VRB03KT P6SM SCT030 FM080300 VRB03KT P6SM SCT015 TEMPO 0803/0813 BKN015 PROB30 0808/0812 2SM BR FM081300 33005KT P6SM SCT025 BECMG 0818/0820 27008KT BECMG 0822/0824 VRB03KT RMK NXT FCST BY 080600Z<br><br>
<br><br>
