RETRIEVED AT : Oct 26 2018 09:05 Local <br>
  RETRIEVED AT: Oct 26 2018 13:05 UTC<br><br>
CYSN 261200Z 15004KT 15SM SCT037 OVC130 03/02 A3005 RMK SC3AC5 SLP181<br><br>
TAF CYSN 261238Z 2613/2701 14006KT P6SM SCT040 OVC130 TEMPO 2613/2622 BKN040 OVC100 BECMG 2615/2617 09012KT FM262200 09010G20KT P6SM BKN060 OVC080 RMK NXT FCST BY 262000Z<br><br>
<br><br>
CYHM 261200Z 07006KT 15SM FEW130 BKN200 BKN230 00/00 A3003 RMK AC1CC5CI1 SLP179<br><br>
TAF CYHM 261138Z 2612/2712 04006KT P6SM SCT130 BKN230 FM261500 06007KT P6SM SCT025 OVC100 TEMPO 2615/2619 BKN025 OVC100 BECMG 2616/2617 08010G20KT FM270500 07012G22KT 6SM -SHRA BR BKN012 OVC025 FM270900 06015G25KT 11/2SM RA BR OVC004 RMK NXT FCST BY 261800Z<br><br>
<br><br>
KIAG 261253Z 11005KT 10SM BKN065 04/00 A3006 RMK AO2 SLP188 T00390000<br><br>
KIAG 261153Z 12005KT 10SM OVC036 03/00 A3006 RMK AO2 SLP191 T00280000 10044 20017 53003<br><br>
KIAG 261130Z 2612/2712 14004KT P6SM BKN060 FM261600 10009KT P6SM BKN070 FM262300 08014KT P6SM OVC080 FM271100 08013KT 6SM -RA OVC070<br><br>
<br><br>
KBUF 261254Z 14006KT 10SM FEW032 BKN130 BKN250 03/M01 A3006 RMK AO2 SLP185 T00331006<br><br>
KBUF 261154Z 13006KT 10SM FEW150 BKN250 02/M01 A3007 RMK AO2 SLP188 T00221006 10039 20017 53003<br><br>
KBUF 261130Z 2612/2712 13005KT P6SM BKN120 FM261600 11009KT P6SM BKN090 FM262000 09012KT P6SM OVC070 FM270800 08011KT P6SM -RA OVC070<br><br>
<br><br>
CYYZ 261200Z 08006KT 15SM SCT062 BKN073 BKN100 05/02 A3004 RMK SC3AC3AC1 SLP180<br><br>
TAF CYYZ 261138Z 2612/2718 09006KT P6SM BKN060 OVC100 TEMPO 2612/2617 P6SM -SHRA BKN020 OVC060 BECMG 2616/2617 12010KT FM261900 09012G22KT P6SM SCT025 OVC090 TEMPO 2623/2708 P6SM -SHRA BKN025 OVC090 FM270800 07010G20KT 6SM -RA BR BKN012 OVC025 FM271100 06012G22KT 3SM RA BR BKN006 OVC012 FM271700 06015G25KT 6SM -RA BR SCT006 OVC012 RMK NXT FCST BY 261500Z<br><br>
<br><br>
CYOO 261200Z AUTO 08008KT 9SM BKN025 OVC070 04/M00 A3007 RMK SLP189<br><br>
CYOO 261132Z AUTO 08007KT 9SM BKN025 OVC065 04/M00 A3007 RMK SLP188<br><br>
CYOO 261107Z AUTO 08007KT 9SM BKN023 OVC065 04/M00 A3006 RMK SLP186<br><br>
CYOO has no TAF <br><br>
<br><br>
CYTR 261200Z 07006KT 15SM OVC032 02/M02 A3011 RMK SC8 SLP202<br><br>
TAF CYTR 261130Z 2612/2712 06005KT P6SM OVC030 TEMPO 2614/2618 P6SM -SHRA BECMG 2614/2616 08010KT FM261800 12012KT P6SM BKN030 OVC080 TEMPO 2618/2702 P6SM -SHRA BECMG 2702/2704 07012KT RMK NXT FCST BY 261800Z<br><br>
<br><br>
