RETRIEVED AT : Dec 11 2017 05:10 Local <br>
  RETRIEVED AT: Dec 11 2017 10:10 UTC<br><br>
CYSN has no TAF <br><br>
<br><br>
CYHM 111000Z 32005KT 15SM -SHSN FEW010 OVC040 M05/M08 A2995 RMK CU1SC8 CU TR CVCTV CLD EMBD SLP157<br><br>
CYHM 110911Z 33007KT 15SM -SHSN FEW015 OVC045 M05/M07 A2994 RMK CF1SC8 CF TR SLP151<br><br>
CYHM 110900Z 32007KT 15SM FEW010 OVC050 M05/M08 A2993 RMK CF1SC8 CF TR SLP150<br><br>
TAF CYHM 110538Z 1106/1206 25010KT P6SM -SN OVC030 TEMPO 1106/1108 11/2SM -SN BKN008 OVC020 FM110800 33008KT P6SM BKN030 TEMPO 1108/1114 BKN020 BECMG 1112/1114 06007KT FM112100 06008KT 6SM -SN OVC100 TEMPO 1121/1202 2SM -SHSN OVC015 FM120200 06008KT 1SM -SN BR OVC006 RMK NXT FCST BY 111200Z<br><br>
<br><br>
