RETRIEVED AT : Sep 08 2018 04:06 Local <br>
  RETRIEVED AT: Sep 08 2018 08:06 UTC<br><br>
CYSN has no TAF <br><br>
<br><br>
CYHM 080700Z 02010KT 15SM OVC240 16/09 A3021 RMK CI8 SLP232<br><br>
TAF CYHM 080538Z 0806/0906 03008KT P6SM FEW020 BKN200 BECMG 0808/0810 03012KT BECMG 0814/0816 05015G25KT FM090000 06012G22KT P6SM BKN200 RMK NXT FCST BY 081200Z<br><br>
<br><br>
KIAG 080753Z AUTO 04006KT 10SM CLR 17/11 A3020 RMK AO2 SLP223 T01670106<br><br>
KIAG 080653Z AUTO 04006KT 10SM CLR 17/11 A3020 RMK AO2 SLP223 T01670111<br><br>
KIAG 080520Z 0806/0906 03006KT P6SM OVC200 FM080900 04013KT P6SM SCT035 OVC200 FM081300 05014G21KT P6SM OVC250 FM082000 05012KT P6SM BKN250 FM090100 06008KT P6SM BKN250<br><br>
<br><br>
KBUF 080754Z 03007KT 10SM FEW150 OVC230 17/13 A3019 RMK AO2 SLP222 T01670128<br><br>
KBUF 080654Z 03006KT 10SM OVC220 17/13 A3019 RMK AO2 SLP221 T01720133<br><br>
KBUF 080520Z 0806/0906 04005KT P6SM OVC200 FM081000 06012KT P6SM SCT035 OVC200 FM081400 05013G20KT P6SM OVC250 FM082000 05011KT P6SM BKN250 FM090100 06008KT P6SM BKN250<br><br>
<br><br>
CYYZ 080800Z 04009KT 15SM OVC260 16/08 A3023 RMK CI8 SLP238<br><br>
CYYZ 080700Z 01008KT 15SM OVC260 16/09 A3022 RMK CI8 SLP236<br><br>
TAF CYYZ 080538Z 0806/0912 36012KT P6SM BKN250 BECMG 0807/0809 02010KT FM081600 07012KT P6SM BKN250 BECMG 0901/0903 04010KT FM091000 04013KT P6SM BKN030 RMK NXT FCST BY 080900Z<br><br>
<br><br>
CYOO 080700Z AUTO 01008KT 9SM CLR 15/09 A3023 RMK SLP238<br><br>
CYOO has no TAF <br><br>
<br><br>
CYTR 080800Z 03007KT 15SM FEW060 OVC250 14/07 A3025 RMK SC1CI8 SLP245<br><br>
CYTR 080700Z 02010G15KT 15SM FEW060 OVC250 15/08 A3023 RMK SC1CI8 SLP238<br><br>
TAF CYTR 080530Z 0806/0906 VRB03KT P6SM SCT060 OVC250 BECMG 0806/0808 01010KT FM081200 04012G22KT P6SM FEW030 BKN250 BECMG 0817/0819 04010KT RMK NXT FCST BY 081200Z<br><br>
<br><br>
