RETRIEVED AT : Oct 19 2018 19:05 Local <br>
  RETRIEVED AT: Oct 19 2018 23:05 UTC<br><br>
CYSN 192200Z 23015G21KT 15SM BKN140 BKN190 13/05 A2984 RMK AC5CI2 SLP106<br><br>
TAF CYSN 191946Z 1920/2001 22015G30KT P6SM BKN150 OVC230 FM192300 23015G25KT P6SM BKN090 OVC150 RMK NXT FCST WILL BE ISSUED AT 201245Z<br><br>
<br><br>
CYHM 192231Z 22016G23KT 15SM FEW035TCU BKN140 11/04 A2981 RMK TCU2AC5 SLP099<br><br>
CYHM 192200Z 21016G22KT 15SM -SHRA FEW035TCU BKN110 11/05 A2981 RMK TCU2AC5 PRESFR SLP101<br><br>
TAF CYHM 191740Z 1918/2018 23018G28KT P6SM FEW150 BKN220 FM192300 23015G25KT P6SM BKN080 OVC150 FM200200 23015G30KT P6SM -RA OVC040 FM200400 24015G25KT P6SM -RA OVC015 TEMPO 2004/2009 OVC025 FM200900 25012G22KT P6SM BKN020 OVC040 FM201700 27015G25KT P6SM -SHRA BKN030 BKN050 RMK NXT FCST BY 200000Z<br><br>
<br><br>
KIAG 192253Z 21013KT 10SM CLR 12/04 A2980 RMK AO2 PRESFR SLP097 T01170039<br><br>
KIAG 192153Z 23011G18KT 10SM CLR 12/03 A2984 RMK AO2 SLP110 T01170028<br><br>
KIAG 192050Z 1921/2018 22019G29KT P6SM BKN150 FM200200 22017G30KT P6SM BKN060 FM200600 23021G32KT P6SM OVC015 FM201100 26015G25KT P6SM BKN035<br><br>
<br><br>
KBUF 192254Z 19008KT 10SM FEW045 BKN140 OVC180 12/06 A2983 RMK AO2 SLP105 T01220056<br><br>
KBUF 192154Z 21013G18KT 10SM BKN160 OVC250 12/04 A2985 RMK AO2 PRESFR SLP111 VIRGA VC SE T01220044<br><br>
KBUF 192050Z 1921/2018 23016G28KT P6SM BKN150 FM200000 22013G20KT P6SM BKN110 FM200200 22017G26KT P6SM BKN060 FM200700 23020G31KT P6SM OVC015 FM201100 26015G25KT 6SM BR VCSH BKN025 FM201300 26015G21KT P6SM VCSH BKN035<br><br>
<br><br>
CYYZ 192200Z 21014G21KT 15SM OVC140 13/01 A2978 RMK AS8 PRESFR SLP089 DENSITY ALT 600FT<br><br>
TAF CYYZ 192039Z 1921/2024 23015G25KT P6SM OVC170 FM192300 23015G25KT P6SM BKN080 OVC150 FM200200 23018G28KT P6SM -RA OVC040 FM200500 23015G25KT P6SM -RA OVC020 TEMPO 2005/2008 OVC025 FM200800 28012G25KT P6SM BKN030 BKN050 FM201700 28015G28KT P6SM -SHRA BKN030 BKN050 FM202200 33015KT P6SM SCT030 BKN050 RMK NXT FCST BY 200000Z<br><br>
<br><br>
CYOO 192200Z AUTO 21011G22KT 9SM BKN140 OVC160 11/05 A2978 RMK PRESFR SLP091<br><br>
CYOO has no TAF <br><br>
<br><br>
CYTR 192200Z 22014G21KT 15SM OVC150 11/05 A2982 RMK AC8 SLP102<br><br>
TAF CYTR 191730Z 1918/2018 23018G28KT P6SM SCT150 BKN220 FM192200 24018G28KT P6SM SCT030 BKN150 FM200300 22018G28KT P6SM -SHRA OVC025 FM200600 24020G30KT 4SM -SHRA BR OVC015 FM201000 26015G25KT P6SM SCT015 BKN030 RMK NXT FCST BY 200000Z<br><br>
<br><br>
