RETRIEVED AT : May 23 2020 16:05 Local <br>
  RETRIEVED AT: May 23 2020 20:05 UTC<br><br>
CYSN 231900Z 36008KT 15SM SCT030 BKN230 23/16 A3003 RMK SC3CI4 SLP171 DENSITY ALT 1300FT<br><br>
TAF CYSN 231942Z 2320/2401 02007KT P6SM SCT030 BKN250 RMK NXT FCST WILL BE ISSUED AT 241245Z<br><br>
<br><br>
CYHM 231900Z 07008KT 15SM FEW034 BKN250 24/17 A3004 RMK CU2CI5 SLP174 DENSITY ALT 1900FT<br><br>
TAF CYHM 231742Z 2318/2418 10008KT P6SM SCT040 BKN080 TEMPO 2319/2324 P6SM -SHRA BKN040 PROB30 2321/2323 4SM TSRA BKN030CB FM240000 05005KT P6SM FEW040 SCT240 FM240600 06005KT 6SM BR OVC012 PROB40 2407/2413 3/4SM BR OVC005 FM241400 20012KT P6SM OVC015 FM241700 20015KT P6SM -SHRA SCT015 OVC025 RMK NXT FCST BY 240000Z<br><br>
<br><br>
KIAG 231953Z 13006KT 10SM BKN035 BKN043 24/16 A3003 RMK AO2 SLP166 T02440161<br><br>
KIAG 231853Z 10004KT 10SM FEW025 24/17 A3005 RMK AO2 SLP172 T02390167<br><br>
KIAG 231741Z 2318/2418 03006KT P6SM SCT050 TEMPO 2318/2321 BKN050 FM232300 08006KT P6SM SCT100 FM240800 13006KT P6SM SCT050 FM241400 18010KT P6SM SCT100<br><br>
<br><br>
KBUF 231954Z 22007KT 10SM FEW050 BKN250 23/17 A3004 RMK AO2 SLP169 T02280172<br><br>
KBUF 231854Z 19003KT 10SM FEW050 BKN230 21/17 A3006 RMK AO2 SLP177 T02110172<br><br>
KBUF 231936Z 2320/2418 19003KT P6SM FEW050 BKN250 FM240000 08006KT P6SM FEW050 BKN250 FM240800 13006KT P6SM FEW050 FM241400 18010KT P6SM SCT100<br><br>
<br><br>
CYYZ 231900Z 15008KT 15SM FEW060 BKN240 24/12 A3004 RMK CU1CI5 CU TR SLP175 DENSITY ALT 1700FT<br><br>
TAF CYYZ 231742Z 2318/2424 15008KT P6SM FEW140 FM240000 15008KT P6SM OVC030 FM240400 13008KT P6SM -SHRA FEW008 OVC020 TEMPO 2404/2409 4SM -SHRA BR BKN008 OVC020 FM240900 11008KT 11/2SM BR BKN006 FM241300 15012KT P6SM SCT006 OVC012 FM241800 17015KT P6SM -SHRA SCT020 OVC030 PROB30 2421/2424 2SM TSRA BR BKN020CB RMK NXT FCST BY 232100Z<br><br>
<br><br>
CYOO 231900Z AUTO VRB06KT 9SM CLR 25/15 A3005 RMK SLP178 DENSITY ALT 1500FT<br><br>
TAF CYOO 231942Z 2320/2408 15005KT P6SM SCT240 FM240000 08005KT P6SM BKN060 FM240600 08005KT P6SM FEW012 OVC025 TEMPO 2407/2408 5SM -SHRA BR OVC012 RMK FCST BASED ON AUTO OBS. NXT FCST BY 240200Z<br><br>
<br><br>
CYTR 231900Z 22007KT 15SM FEW030 FEW220 24/14 A3005 RMK CU1CI2 SLP175<br><br>
TAF CYTR 231734Z 2318/2418 13005KT P6SM FEW030 BECMG 2318/2319 20010KT BECMG 2402/2404 05005KT FM241000 09005KT P6SM FEW020 SCT080 BKN150 FM241600 12008KT P6SM BKN025 OVC080 RMK NXT FCST BY 240000Z<br><br>
<br><br>
