RETRIEVED AT : Jun 08 2018 23:41 Local <br>
  RETRIEVED AT: Jun 09 2018 03:41 UTC<br><br>
CYSN has no TAF <br><br>
<br><br>
CYHM 090300Z 36007KT 15SM SCT200 16/13 A3018 RMK CI3 SLP222 DENSITY ALT 800FT<br><br>
CYHM 090200Z 04002KT 15SM FEW100 BKN250 18/11 A3017 RMK AC1CI5 SLP219 DENSITY ALT 1100FT<br><br>
TAF CYHM 082338Z 0900/0924 08008KT P6SM FEW060 SCT250 FM091000 04005KT P6SM BKN140 FM091800 05010KT P6SM OVC100 RMK NXT FCST BY 090600Z<br><br>
<br><br>
KIAG 090253Z 00000KT 10SM CLR 17/11 A3018 RMK AO2 SLP217 T01720106 53007<br><br>
KIAG 090153Z 08003KT 10SM CLR 19/11 A3017 RMK AO2 SLP214 T01890106<br><br>
KIAG 090251Z 0903/0924 VRB03KT P6SM SKC FM091400 06004KT P6SM SCT140 FM091900 04008KT P6SM SCT140<br><br>
<br><br>
KBUF 090251Z 0903/0924 VRB03KT P6SM SKC FM091400 07004KT P6SM SCT140<br><br>
<br><br>
CYYZ 090300Z 36010KT 15SM FEW250 18/07 A3018 RMK CI2 SLP221 DENSITY ALT 800FT<br><br>
CYYZ 090200Z 34009KT 15SM FEW050 SCT250 19/09 A3018 RMK CU1CI2 SLP222 DENSITY ALT 900FT<br><br>
TAF CYYZ 090239Z 0903/1006 36007KT P6SM SCT250 FM091600 14008KT P6SM BKN150 BECMG 0922/0924 04008KT FM100300 06005KT P6SM FEW150 RMK NXT FCST BY 090600Z<br><br>
<br><br>
CYOO 090300Z AUTO 00000KT 9SM CLR 14/10 A3018 RMK SLP221<br><br>
CYOO 090200Z AUTO 35003KT 9SM CLR 16/10 A3018 RMK SLP221<br><br>
CYOO has no TAF <br><br>
<br><br>
CYTR 090300Z 23005KT 15SM SKC 17/11 A3015 RMK SLP212<br><br>
CYTR 090200Z 22004KT 15SM FEW040 FEW240 17/11 A3015 RMK SC1CI1 SLP211<br><br>
TAF CYTR 082330Z 0900/0924 20008KT P6SM FEW040 SCT250 BECMG 0900/0902 VRB03KT FM091200 VRB03KT P6SM SCT060 BKN250 BECMG 0916/0918 22010KT RMK NXT FCST BY 090600Z<br><br>
<br><br>
