RETRIEVED AT : Apr 05 2020 06:05 Local <br>
  RETRIEVED AT: Apr 05 2020 10:05 UTC<br><br>
CYSN has no TAF <br><br>
<br><br>
CYHM 050900Z 31009KT 15SM OVC030 08/05 A3000 RMK SC8 SLP165<br><br>
TAF CYHM 050539Z 0506/0606 23007KT P6SM -SHRA SCT030 OVC050 FM050700 29007KT P6SM SCT008 OVC040 TEMPO 0507/0510 5SM BR BKN008 OVC040 FM051000 29008KT P6SM BKN010 OVC030 TEMPO 0510/0514 SCT010 OVC030 FM051400 33010KT P6SM SCT015 BKN140 FM051800 36005KT P6SM FEW025 SCT120 BECMG 0519/0521 06008KT FM060400 02005KT P6SM SKC RMK NXT FCST BY 051200Z<br><br>
<br><br>
KIAG 050953Z AUTO 23004KT 10SM OVC044 07/04 A3000 RMK AO2 SLP166 T00670044<br><br>
KIAG 050853Z AUTO 21007KT 10SM OVC043 07/04 A3000 RMK AO2 RAB36E46 SLP164 P0000 60001 T00670039 55003<br><br>
KIAG 050924Z 0509/0606 21007KT P6SM OVC040 FM051000 25007KT P6SM OVC030 FM051300 32008KT P6SM VCSH OVC015 FM052100 31008KT P6SM SCT020 BKN150 FM060000 33004KT P6SM SCT250<br><br>
<br><br>
KBUF 050954Z 21005KT 10SM OVC045 08/05 A3001 RMK AO2 SLP165 T00780050<br><br>
KBUF 050854Z 25004KT 10SM OVC050 07/05 A3000 RMK AO2 SLP163 60002 T00720050 55000<br><br>
KBUF 050924Z 0509/0606 25005KT P6SM OVC050 FM051200 25004KT P6SM VCSH OVC025 FM051400 32006KT P6SM VCSH OVC015 FM052000 30008KT P6SM SCT020 BKN150 FM060000 28005KT P6SM SCT250<br><br>
<br><br>
CYYZ 050900Z 04008G16KT 15SM OVC035 07/05 A3000 RMK SC8 SLP165<br><br>
TAF CYYZ 050838Z 0509/0612 35008KT P6SM SCT008 OVC050 TEMPO 0509/0510 5SM BR BKN008 OVC025 FM051000 35012KT P6SM FEW008 BKN012 OVC040 TEMPO 0510/0515 SCT012 OVC040 PROB30 0510/0513 OVC008 FM051500 34015KT P6SM SCT015 BKN180 FM052100 36008KT P6SM SKC BECMG 0609/0611 33008KT RMK NXT FCST BY 051200Z<br><br>
<br><br>
CYOO 050900Z AUTO 33002KT 9SM OVC050 06/06 A3000 RMK SLP162<br><br>
TAF CYOO 050738Z 0508/0520 VRB03KT P6SM SCT008 OVC025 TEMPO 0508/0511 4SM -RA -DZ BR BKN008 OVC025 PROB40 0508/0511 3SM -DZ BR OVC006 FM051100 32010KT P6SM OVC007 TEMPO 0511/0515 BKN012 OVC030 FM051500 32015KT P6SM SCT015 BKN180 TEMPO 0515/0517 BKN015 RMK FCST BASED ON AUTO OBS. NXT FCST BY 051400Z<br><br>
<br><br>
CYTR 050900Z 00000KT 15SM FEW028 BKN065 06/05 A2999 RMK SC2SC6 SLP160<br><br>
CYTR 050821Z 00000KT 10SM FEW026 BKN065 05/05 A3000 RMK SC2SC6 SLP161<br><br>
TAF AMD CYTR 050919Z 0509/0606 VRB03KT P6SM FEW008 OVC040 TEMPO 0509/0513 2SM -SHRA BR OVC008 PROB30 0509/0513 1SM -DZ BR OVC002 FM051300 31005KT P6SM OVC015 PROB30 0513/0514 3SM BR OVC008 FM051700 32010KT P6SM BKN025 FM060000 31008KT P6SM SKC RMK NXT FCST BY 051200Z<br><br>
<br><br>
