RETRIEVED AT : Oct 19 2018 20:05 Local <br>
  RETRIEVED AT: Oct 20 2018 00:05 UTC<br><br>
CYSN 192331Z 22014G22KT 10SM -SHRA BKN046 OVC140 13/05 A2979 RMK CU5AC3 SLP091<br><br>
CYSN 192300Z 23015KT 15SM BKN140 12/05 A2981 RMK AC7 SLP097<br><br>
TAF CYSN 191946Z 1920/2001 22015G30KT P6SM BKN150 OVC230 FM192300 23015G25KT P6SM BKN090 OVC150 RMK NXT FCST WILL BE ISSUED AT 201245Z<br><br>
<br><br>
CYHM 192316Z 22019G25KT 15SM -RA OVC077 10/06 A2980 RMK AC8 SLP096<br><br>
CYHM 192300Z 22017G23KT 15SM OVC065 11/05 A2980 RMK SC8 SLP098<br><br>
CYHM 192231Z 22016G23KT 15SM FEW035TCU BKN140 11/04 A2981 RMK TCU2AC5 SLP099<br><br>
TAF CYHM 192338Z 2000/2024 22015G25KT P6SM -SHRA OVC080 FM200200 22015G30KT P6SM -RA OVC040 FM200400 23015G25KT P6SM -RA OVC015 TEMPO 2004/2009 P6SM NSW OVC025 FM200900 25012G22KT P6SM BKN020 OVC040 TEMPO 2009/2017 BKN025 OVC040 FM201700 27015G25KT P6SM -SHRA BKN030 BKN050 FM202300 33012G22KT P6SM SCT030 BKN050 RMK NXT FCST BY 200600Z<br><br>
<br><br>
KIAG 192353Z 23012KT 10SM SCT060 BKN080 OVC095 12/05 A2980 RMK AO2 SLP096 T01220050 10139 20117 56030<br><br>
KIAG 192253Z 21013KT 10SM CLR 12/04 A2980 RMK AO2 PRESFR SLP097 T01170039<br><br>
KIAG 192336Z 2000/2024 22012G25KT 6SM -SHRA OVC040 FM200300 22019G32KT P6SM VCSH BKN020 FM200600 23021G32KT 4SM -SHRA OVC003 FM201100 25018G29KT P6SM VCSH OVC007 FM201700 28015G23KT P6SM BKN030 FM202300 31014G22KT P6SM BKN050<br><br>
<br><br>
KBUF 192354Z 19012KT 10SM FEW045 BKN110 OVC140 12/03 A2981 RMK AO2 SLP098 T01170033 10139 20117 56030<br><br>
KBUF 192254Z 19008KT 10SM FEW045 BKN140 OVC180 12/06 A2983 RMK AO2 SLP105 T01220056<br><br>
KBUF 192336Z 2000/2024 22013G20KT 6SM -SHRA OVC040 FM200200 22017G26KT P6SM VCSH BKN070 FM200500 22019G28KT 4SM -SHRA OVC007 FM201100 26015G25KT P6SM VCSH BKN015 FM201300 26015G21KT P6SM VCSH BKN015 FM202200 30012G20KT P6SM VCSH BKN035<br><br>
<br><br>
CYYZ 192300Z 22014G21KT 15SM OVC110 12/03 A2978 RMK AS8 SLP088 DENSITY ALT 600FT<br><br>
TAF CYYZ 192338Z 2000/2106 22015G25KT P6SM OVC110 TEMPO 2000/2002 P6SM -RA BKN080 OVC110 FM200200 23018G28KT P6SM -RA OVC040 FM200500 23015G25KT P6SM -RA OVC020 TEMPO 2005/2008 P6SM NSW OVC025 FM200800 28012G25KT P6SM BKN030 BKN050 TEMPO 2008/2010 BKN020 OVC040 FM201700 28015G28KT P6SM -SHRA BKN030 BKN050 FM202200 34018G28KT P6SM SCT030 BKN050 FM210200 34015KT P6SM BKN040 RMK NXT FCST BY 200300Z<br><br>
<br><br>
CYOO 192300Z AUTO 21010G18KT 9SM SCT120 OVC140 11/05 A2976 RMK SLP085<br><br>
CYOO has no TAF <br><br>
<br><br>
CYTR 192300Z 21010G15KT 15SM OVC140 10/05 A2978 RMK AC8 SLP087<br><br>
TAF CYTR 192330Z 2000/2024 22010KT WS005/22035KT P6SM OVC140 BECMG 2001/2003 P6SM -SHRA BKN030 OVC060 FM200400 22010KT WS005/22035KT P6SM -SHRA OVC025 TEMPO 2004/2010 OVC020 FM201000 26015G25KT P6SM BKN030 FM201800 28020G30KT P6SM FEW030 SCT200 BECMG 2021/2023 31008KT RMK NXT FCST BY 200600Z<br><br>
<br><br>
