RETRIEVED AT : Nov 06 2017 11:10 Local <br>
  RETRIEVED AT: Nov 06 2017 16:10 UTC<br><br>
CYSN 061600Z 33011KT 15SM BKN040 08/02 A3006 RMK SC7 SLP184<br><br>
CYSN 061500Z 32013G19KT 15SM BKN035 07/02 A3005 RMK SC7 SLP178<br><br>
TAF CYSN 061338Z 0614/0702 33012KT P6SM BKN025 TEMPO 0614/0621 BKN020 FM062100 33008KT P6SM SCT025 RMK NXT FCST BY 062000Z<br><br>
<br><br>
CYHM 061600Z 32012G19KT 15SM BKN034 BKN038 06/M00 A3008 RMK SC5SC2 SLP191<br><br>
CYHM 061500Z 32011G19KT 15SM BKN031 BKN035 06/01 A3006 RMK SC5SC2 SLP183<br><br>
TAF CYHM 061138Z 0612/0712 31010G20KT P6SM BKN025 TEMPO 0612/0616 OVC020 FM062000 32010KT P6SM BKN030 FM070200 32005KT P6SM FEW030 SCT140 RMK NXT FCST BY 061800Z<br><br>
<br><br>
KIAG 061553Z 32013G20KT 10SM OVC034 08/01 A3006 RMK AO2 SLP182 T00830011<br><br>
KIAG 061526Z 32013KT 10SM OVC032 08/02 A3005 RMK AO2 T00830017<br><br>
KIAG 061453Z 32016G21KT 10SM OVC024 08/02 A3004 RMK AO2 SLP177 60001 T00780022 51034<br><br>
KIAG 061519Z 0615/0712 32016G21KT P6SM OVC025 FM062300 32009KT P6SM BKN030 FM070100 33007KT P6SM SCT030 FM070600 VRB03KT P6SM BKN100 FM071000 36004KT P6SM BKN090<br><br>
<br><br>
KBUF 061554Z 32010G17KT 10SM FEW009 FEW017 OVC024 07/03 A3005 RMK AO2 SLP178 T00720028<br><br>
KBUF 061454Z 33009KT 10SM FEW008 SCT015 OVC021 07/04 A3003 RMK AO2 SLP170 60000 T00670044 51033<br><br>
KBUF 061519Z 0615/0712 33009KT P6SM OVC020 FM061800 31011KT P6SM BKN025 FM062000 32010KT P6SM SCT025 FM070000 33007KT P6SM SCT030 FM071100 05004KT P6SM BKN090<br><br>
<br><br>
CYYZ 061600Z 33016G21KT 15SM SCT035 BKN040 08/M00 A3006 RMK SC3SC4 SLP185<br><br>
CYYZ 061500Z 35013G22KT 15SM BKN035 07/00 A3005 RMK SC7 SLP179<br><br>
TAF CYYZ 061439Z 0615/0718 33012G22KT P6SM BKN030 BECMG 0622/0623 35010KT FM070400 31007KT P6SM FEW030 SCT130 FM071400 27008KT P6SM SCT200 RMK NXT FCST BY 061800Z<br><br>
<br><br>
CYOO 061600Z AUTO 30015G24KT 9SM BKN040 08/M01 A3005 RMK SLP178<br><br>
CYOO 061500Z AUTO 30016G22KT 9SM OVC038 07/M00 A3003 RMK PRESRR SLP172<br><br>
CYOO has no TAF <br><br>
<br><br>
CYTR 061600Z 30018G24KT 15SM FEW035 SCT130 08/01 A2999 RMK SC2AC1 SLP159<br><br>
CYTR 061500Z 31015G24KT 14SM FEW120 08/01 A2995 RMK AC2 SLP144<br><br>
TAF AMD CYTR 061511Z 0615/0712 30015G25KT P6SM FEW030 BECMG 0616/0618 31010G20KT BECMG 0620/0622 32008KT FM070600 VRB03KT P6SM SCT020 RMK NXT FCST BY 061800Z<br><br>
<br><br>
