RETRIEVED AT : Sep 01 2017 18:10 Local <br>
  RETRIEVED AT: Sep 01 2017 22:10 UTC<br><br>
CYSN 012200Z 09005KT 15SM BKN220 16/05 A3018 RMK CI7 SLP224<br><br>
CYSN 012100Z 06003KT 010V080 15SM BKN240 17/05 A3020 RMK CI7 SLP228<br><br>
TAF CYSN 011938Z 0120/0201 03005KT P6SM BKN320 BECMG 0123/0201 14005KT RMK NXT FCST WILL BE ISSUED AT 021245Z<br><br>
<br><br>
CYHM 012200Z 05002KT 15SM BKN180 BKN220 15/08 A3019 RMK AS6CI1 SUN DIMLY VSBL SLP228<br><br>
CYHM 012100Z 02007KT 360V060 15SM FEW150 BKN250 16/06 A3019 RMK AC1CI6 SLP230 DENSITY ALT 800FT<br><br>
TAF CYHM 011738Z 0118/0218 06007KT P6SM FEW040 BKN320 BECMG 0213/0215 11015KT RMK NXT FCST BY 020000Z<br><br>
<br><br>
KIAG 012153Z 09005KT 10SM CLR 17/04 A3019 RMK AO2 SLP228 T01670039<br><br>
KIAG 012053Z 03007KT 010V070 10SM CLR 17/04 A3020 RMK AO2 SLP231 T01670039 58012<br><br>
KIAG 012110Z 0121/0218 01007KT P6SM BKN250 FM020200 12004KT P6SM SCT045 BKN200 FM021400 11008KT P6SM BKN150<br><br>
<br><br>
KBUF 012154Z 05007KT 10SM SCT200 BKN250 15/04 A3020 RMK AO2 SLP228 T01500039<br><br>
KBUF 012054Z 36005KT 10SM FEW200 BKN250 16/05 A3021 RMK AO2 SLP231 T01560050 56006<br><br>
KBUF 012110Z 0121/0218 36006KT P6SM BKN250 FM020200 11004KT P6SM SCT200 FM021400 12008KT P6SM BKN150<br><br>
<br><br>
CYYZ 012200Z 14006KT 100V180 15SM FEW210 BKN260 17/06 A3018 RMK CI1CI4 SLP223 DENSITY ALT 600FT<br><br>
CYYZ 012100Z 14005KT 120V200 15SM FEW210 BKN260 17/07 A3018 RMK CI2CI3 SLP224 DENSITY ALT 600FT<br><br>
TAF CYYZ 012038Z 0121/0224 15007KT P6SM BKN320 BECMG 0200/0202 33005KT BECMG 0213/0215 12015KT FM022300 16010KT P6SM -SHRA BKN030 OVC100 RMK NXT FCST BY 020000Z<br><br>
<br><br>
CYOO 012200Z AUTO 30006KT 9SM CLR 17/05 A3017 RMK SLP222 DENSITY ALT 500FT<br><br>
CYOO 012100Z AUTO 34009KT 300V360 9SM CLR 18/04 A3018 RMK SLP223 DENSITY ALT 500FT<br><br>
CYOO has no TAF <br><br>
<br><br>
CYTR 012200Z 29002KT 15SM SCT250 20/03 A3016 RMK CI4 SLP216<br><br>
CYTR 012100Z 29002KT 15SM SCT250 20/04 A3016 RMK CI3 SLP216<br><br>
TAF CYTR 011730Z 0118/0218 34008KT P6SM FEW250 BECMG 0121/0123 VRB03KT BECMG 0216/0218 14008KT RMK NXT FCST BY 020000Z<br><br>
<br><br>
