RETRIEVED AT : Jul 01 2018 10:05 Local <br>
  RETRIEVED AT: Jul 01 2018 14:05 UTC<br><br>
CYSN 011300Z 21010KT 8SM FEW160 SCT260 28/23 A3001 RMK AC1CI2 SLP163 DENSITY ALT 1800FT<br><br>
TAF CYSN 011238Z 0113/0201 23012KT P6SM FEW240 RMK NXT FCST BY 012000Z<br><br>
<br><br>
TAF CYHM 011142Z 0112/0212 22008KT P6SM FEW240 BECMG 0114/0116 22015KT BECMG 0200/0202 19008KT RMK NXT FCST BY 011800Z<br><br>
<br><br>
KIAG 011401Z 0114/0212 23012KT P6SM SKC FM020100 20005KT P6SM SCT250<br><br>
<br><br>
KBUF 011354Z 22011KT 10SM FEW200 28/21 A3006 RMK AO2 SLP174 T02780211<br><br>
KBUF 011254Z 22010KT 10SM FEW200 27/21 A3005 RMK AO2 SLP172 T02720211<br><br>
KBUF 011401Z 0114/0212 22012KT P6SM SKC FM011600 23014G22KT P6SM SKC FM020100 20006KT P6SM SCT250<br><br>
<br><br>
TAF CYYZ 011142Z 0112/0218 20008KT P6SM FEW240 BECMG 0114/0116 21015KT BECMG 0200/0202 22008KT FM021700 24012KT P6SM BKN050 PROB30 0217/0218 1SM +TSRA BR BKN020 OVC050CB RMK NXT FCST BY 011500Z<br><br>
<br><br>
CYOO 011300Z AUTO 17005KT 150V270 9SM CLR 27/21 A3000 RMK SLP159 DENSITY ALT 1700FT<br><br>
CYOO has no TAF <br><br>
<br><br>
CYTR 011300Z 21008KT 10SM SCT250 26/22 A2999 RMK CI4 HAZY SLP155<br><br>
TAF CYTR 011130Z 0112/0212 21006KT P6SM SCT240 FM011600 22012KT P6SM FEW040 BECMG 0123/0201 22008KT FM020100 22008KT P6SM SKC PROB30 0206/0210 1SM BR RMK NXT FCST BY 011800Z<br><br>
<br><br>
