RETRIEVED AT : May 30 2020 16:05 Local <br>
  RETRIEVED AT: May 30 2020 20:05 UTC<br><br>
CYSN 301900Z 28015G25KT 15SM FEW040 SCT080 18/12 A2996 RMK SC2AC2 SLP147 DENSITY ALT 700FT<br><br>
TAF CYSN 301938Z 3020/3101 29015G25KT P6SM SCT040 TEMPO 3020/3101 BKN040 RMK NXT FCST WILL BE ISSUED AT 311245Z<br><br>
<br><br>
CYHM 301900Z 28015G21KT 15SM BKN023 OVC036 14/10 A3000 RMK CU6SC2 SLP162 DENSITY ALT 800FT<br><br>
TAF CYHM 301738Z 3018/3118 28015G25KT P6SM SCT020 BKN040 TEMPO 3018/3020 BKN020 FM310100 32010KT P6SM FEW040 FM311200 35008KT P6SM SCT020 RMK NXT FCST BY 310000Z<br><br>
<br><br>
KIAG 301953Z 30021G27KT 10SM FEW037 SCT048 17/09 A2998 RMK AO2 PK WND 27029/1934 SLP154 T01720094<br><br>
KIAG 301853Z 27016KT 10SM SCT038 SCT046 SCT075 18/10 A2995 RMK AO2 PK WND 28027/1842 SLP144 T01830100<br><br>
KIAG 301720Z 3018/3118 27014G22KT P6SM BKN040 FM302300 31010KT P6SM SCT050 FM310400 33005KT P6SM SCT040 FM311400 34010G16KT P6SM SKC<br><br>
<br><br>
KBUF 301954Z 24016KT 10SM FEW032 BKN048 BKN070 BKN200 14/11 A2998 RMK AO2 SLP153 T01440111 $<br><br>
KBUF 301854Z 24012G20KT 10SM SCT035 SCT045 BKN055 14/12 A2996 RMK AO2 PK WND 23027/1805 SLP148 T01390117 $<br><br>
KBUF 301720Z 3018/3118 23018G26KT P6SM VCSH BKN015 FM301900 26014G22KT P6SM BKN050 FM302300 30010KT P6SM SCT050 FM310400 32005KT P6SM SCT040 FM311500 34010G16KT P6SM SKC<br><br>
<br><br>
CYYZ 301900Z 30022G28KT 15SM BKN028 BKN052 16/09 A2997 RMK SC5SC2 SLP150 DENSITY ALT 800FT<br><br>
TAF AMD CYYZ 301915Z 3019/3124 30020G30KT P6SM SCT030 BKN050 FM310200 34012KT P6SM SCT040 BECMG 3102/3104 34006KT FM310700 34010KT P6SM BKN030 FM311100 34012KT P6SM FEW030 FM311900 31015KT P6SM BKN060 RMK NXT FCST BY 302100Z<br><br>
<br><br>
CYOO 302004Z AUTO 31023G31KT 9SM BKN026 BKN032 15/09 A2995 RMK SLP146 DENSITY ALT 500FT<br><br>
CYOO 301954Z AUTO 31018G25KT 9SM BKN024 16/10 A2995 RMK SLP145 DENSITY ALT 600FT<br><br>
CYOO 301900Z AUTO 28018G24KT 9SM SCT038 BKN048 18/11 A2991 RMK SLP130 DENSITY ALT 900FT<br><br>
CYOO 301817Z AUTO 27017G22KT 9SM FEW021 BKN036 BKN045 OVC080 17/11 A2991 RMK SLP129 DENSITY ALT 800FT<br><br>
TAF CYOO 301938Z 3020/3108 29018G28KT P6SM BKN050 BECMG 3101/3103 33007KT RMK FCST BASED ON AUTO OBS. NXT FCST BY 310200Z<br><br>
<br><br>
CYTR 301923Z 23014KT 10SM -SHRA BKN032 OVC068 17/12 A2988 RMK SC6AC2 SLP119<br><br>
CYTR 301900Z 20012KT 15SM FEW037 SCT065 OVC200 18/13 A2987 RMK SC2SC2CI5 SLP116<br><br>
CYTR 301825Z 23011G17KT 15SM FEW043 BKN080 BKN200 18/12 A2988 RMK SC2AC2CI2 SLP119<br><br>
TAF CYTR 301730Z 3018/3118 21010KT P6SM FEW020 SCT040 OVC070 TEMPO 3018/3021 5SM -SHRA BR BKN020 OVC040 BECMG 3019/3021 26012G22KT FM302100 26012G22KT P6SM SCT025 BKN050 BECMG 3100/3102 33008KT FEW050 FM310600 VRB03KT P6SM FEW020 SCT070 FM311200 34008KT P6SM SKC FM311600 30010KT P6SM FEW070 RMK NXT FCST BY 310000Z<br><br>
<br><br>
