RETRIEVED AT : Dec 05 2017 04:10 Local <br>
  RETRIEVED AT: Dec 05 2017 09:10 UTC<br><br>
CYSN has no TAF <br><br>
<br><br>
TAF CYHM 050540Z 0506/0606 18010G20KT 5SM -RA BR BKN025 OVC050 TEMPO 0506/0508 P6SM NSW BKN050 OVC090 FM050800 19015G25KT P6SM BKN030 OVC080 TEMPO 0508/0510 5SM -SHRA BR BKN015 OVC030 FM051000 20020G30KT 6SM -RA BR OVC020 TEMPO 0510/0516 3SM SHRA BR OVC008 FM051600 23022G35KT P6SM SCT012 BKN240 TEMPO 0516/0521 BKN012 FM052100 24020G30KT P6SM -SHSNRA BKN015 FM060000 24018G28KT P6SM BKN030 RMK NXT FCST BY 051200Z<br><br>
<br><br>
KIAG 050853Z AUTO 19015KT 7SM RA FEW038 BKN048 OVC090 09/04 A2981 RMK AO2 SLP100 P0006 60010 T00940039 58019<br><br>
KIAG 050753Z AUTO 20016G28KT 10SM -RA FEW055 OVC075 11/02 A2984 RMK AO2 PK WND 19028/0740 SLP111 P0000 T01060017<br><br>
KIAG 050905Z 0509/0606 18015G22KT 6SM -RA OVC035 WS020/20045KT FM051600 20015G25KT P6SM OVC025 FM052000 23018G27KT P6SM SCT035 OVC140 FM060200 25020G30KT P6SM OVC250<br><br>
<br><br>
KBUF 050854Z 17015KT 7SM RA BKN060 OVC075 09/04 A2983 RMK AO2 PK WND 19028/0756 SLP104 P0006 60006 T00890044 58017<br><br>
KBUF 050754Z 19016G23KT 10SM RA FEW060 OVC095 10/02 A2987 RMK AO2 RAB11 SLP116 P0000 T01000022<br><br>
KBUF 050905Z 0509/0606 18015G22KT 6SM -RA OVC045 WS020/20045KT FM051400 19015G25KT 5SM -RA OVC035 WS020/21045KT FM051700 20015G25KT 6SM -RA OVC030 FM051900 21015G25KT P6SM OVC025 FM052100 24020G30KT P6SM SCT035 OVC130<br><br>
<br><br>
CYYZ 050900Z 16010G20KT 12SM -RA OVC037 08/05 A2976 RMK SC8 SLP083<br><br>
CYYZ 050800Z 16009KT 15SM -RA SCT034 OVC048 08/05 A2979 RMK SC4SC4 -RA INTMT SLP092<br><br>
CYYZ 050753Z 16009KT 15SM -RA SCT038 OVC051 07/05 A2979 RMK SC4SC4 SLP092<br><br>
CYYZ 050719Z 15008KT 15SM BKN052 OVC080 07/05 A2979 RMK SC6AC2 SLP095<br><br>
TAF CYYZ 050845Z 0509/0612 16012KT P6SM BKN025 OVC050 TEMPO 0509/0511 5SM -SHRA BR BKN012 OVC025 FM051100 19015G25KT 6SM -RA BR SCT008 OVC025 TEMPO 0511/0516 3SM -SHRA BR BKN008 OVC020 FM051600 21020G30KT P6SM SCT015 BKN240 TEMPO 0516/0518 BKN015 FM051800 23022G35KT P6SM SCT020 BKN220 BECMG 0520/0522 23020G30KT FM060000 24020G30KT P6SM BKN030 FM060300 25015G25KT P6SM SCT040 RMK NXT FCST BY 051200Z<br><br>
<br><br>
CYOO 050903Z AUTO 13008KT 5SM -RA BR OVC038 07/05 A2982 RMK SLP103<br><br>
CYOO 050900Z AUTO 13009G15KT 6SM -RA BR BKN038 OVC045 07/05 A2982 RMK SLP103<br><br>
CYOO 050837Z AUTO 12008KT 9SM -RA OVC047 07/05 A2981 RMK SLP101<br><br>
CYOO 050830Z AUTO 12008KT 9SM BKN047 OVC055 07/05 A2981 RMK SLP101<br><br>
CYOO 050800Z AUTO 11007KT 6SM -RA BR OVC050 06/05 A2983 RMK SLP108<br><br>
CYOO 050755Z AUTO 11006KT 8SM -RA OVC050 06/05 A2984 RMK SLP110<br><br>
CYOO 050753Z AUTO 11005KT 9SM OVC050 06/05 A2984 RMK SLP111<br><br>
CYOO has no TAF <br><br>
<br><br>
CYTR 050900Z 16009KT 12SM -SHRA BKN026 OVC100 08/05 A2989 RMK SC6AC2 SLP125<br><br>
CYTR 050800Z 16005KT 12SM -SHRA BKN022 OVC100 08/05 A2991 RMK SC6AC2 SLP133<br><br>
TAF AMD CYTR 050816Z 0508/0606 17008KT P6SM -RA BKN025 OVC100 TEMPO 0508/0510 5SM -SHRA BR BKN012 OVC100 FM051000 18012G22KT P6SM -RA SCT012 OVC030 TEMPO 0510/0518 3SM -RA BR SCT008 OVC012 FM051800 20012G22KT P6SM SCT015 OVC025 TEMPO 0518/0523 P6SM -SHRA BKN015 OVC025 BECMG 0518/0520 24015G25KT FM052300 24018G28KT P6SM SCT015 BKN030 BKN180 FM060400 24018G28KT P6SM SCT030 RMK NXT FCST BY 051200Z<br><br>
<br><br>
