RETRIEVED AT : Nov 13 2017 10:10 Local <br>
  RETRIEVED AT: Nov 13 2017 15:10 UTC<br><br>
CYSN 131500Z 28003KT 8SM OVC016 04/02 A3036 RMK SC8 SLP287<br><br>
CYSN 131400Z 25002KT 8SM OVC016 03/02 A3036 RMK SC8 SLP286<br><br>
TAF CYSN 131338Z 1314/1402 VRB03KT P6SM OVC015 TEMPO 1314/1316 4SM BR OVC007 FM131900 30007KT P6SM BKN030 TEMPO 1319/1402 OVC020 RMK NXT FCST BY 132000Z<br><br>
<br><br>
CYHM 131500Z 28006KT 5SM BR BKN008 OVC042 02/02 A3036 RMK SF5SC3 SLP291<br><br>
CYHM 131437Z 27004KT 5SM BR SCT004 BKN010 OVC040 02/02 A3035 RMK SF4SC2SC2 SLP290<br><br>
CYHM 131400Z 27003KT 3SM BR SCT003 OVC010 02/02 A3035 RMK SF3SC5 SLP289<br><br>
TAF CYHM 131138Z 1312/1412 VRB03KT 2SM -DZ -RA BR OVC004 TEMPO 1312/1314 6SM BR SCT004 OVC008 FM131400 VRB03KT 4SM BR OVC006 TEMPO 1314/1316 P6SM NSW SCT006 OVC012 FM131600 30007KT P6SM SCT012 BKN030 TEMPO 1316/1318 OVC012 BECMG 1404/1406 27005KT RMK NXT FCST BY 131800Z<br><br>
<br><br>
KIAG 131453Z 00000KT 8SM OVC018 04/01 A3035 RMK AO2 SLP291 T00390006 51008<br><br>
KIAG 131353Z 00000KT 7SM OVC015 03/M01 A3035 RMK AO2 SLP290 T00281006<br><br>
KIAG 131504Z 1315/1412 32004KT P6SM OVC015 FM140500 VRB03KT P6SM OVC035<br><br>
<br><br>
KBUF 131454Z 33003KT 8SM FEW005 SCT019 OVC047 03/01 A3034 RMK AO2 SLP283 60000 T00280011 50006<br><br>
KBUF 131452Z 31003KT 8SM FEW005 SCT019 OVC047 03/01 A3034 RMK AO2<br><br>
KBUF 131414Z 32003KT 7SM SCT005 BKN019 OVC044 02/01 A3035 RMK AO2 T00220011<br><br>
KBUF 131356Z 00000KT 7SM BKN005 BKN019 OVC041 02/01 A3034 RMK AO2 T00220011<br><br>
KBUF 131354Z 00000KT 7SM SCT005 SCT019 OVC041 02/01 A3034 RMK AO2 RAE09 SLP282 P0000 T00220011<br><br>
KBUF 131320Z 34003KT 6SM BR FEW008 SCT019 BKN037 02/01 A3034 RMK AO2 RAE09 P0000 T00170011<br><br>
KBUF 131504Z 1315/1412 VRB03KT P6SM OVC040 FM131800 32004KT P6SM OVC015 FM140400 VRB03KT P6SM OVC035<br><br>
<br><br>
CYYZ 131500Z 31005KT 8SM OVC009 03/01 A3036 RMK SC8 SLP288<br><br>
CYYZ 131400Z 00000KT 8SM OVC011 03/01 A3036 RMK SC8 SLP287<br><br>
TAF CYYZ 131438Z 1315/1418 VRB03KT P6SM OVC015 TEMPO 1315/1320 OVC025 FM132000 VRB03KT P6SM BKN030 TEMPO 1320/1323 P6SM -SHRA OVC020 FM132300 VRB03KT P6SM OVC020 TEMPO 1323/1413 OVC030 FM141300 29007KT P6SM SCT030 BECMG 1416/1418 VRB03KT RMK NXT FCST BY 131800Z<br><br>
<br><br>
CYOO 131500Z AUTO 01002KT 9SM OVC018 03/02 A3036 RMK SLP287<br><br>
CYOO 131400Z AUTO 01004KT 9SM OVC020 03/02 A3036 RMK SLP288<br><br>
CYOO has no TAF <br><br>
<br><br>
CYTR 131400Z 07004KT 12SM BKN006 OVC034 02/02 A3037 RMK SF5SC3 SLP289<br><br>
TAF AMD CYTR 131419Z 1314/1412 06005KT P6SM SCT006 OVC030 TEMPO 1314/1317 5SM BR BKN006 OVC030 FM131700 04008KT P6SM BKN030 TEMPO 1317/1320 BKN020 BECMG 1322/1324 03004KT RMK NXT FCST BY 131800Z<br><br>
<br><br>
