RETRIEVED AT : Sep 19 2017 09:10 Local <br>
  RETRIEVED AT: Sep 19 2017 13:10 UTC<br><br>
CYSN 191300Z 18002KT 3SM BR SCT077 BKN180 OVC200 20/20 A3002 RMK FG2AC2CC2CI2 SLP167 DENSITY ALT 900FT<br><br>
CYSN 191253Z 17003KT 2SM BR BKN077 OVC190 20/20 A3002 RMK FG4AC2CI2 VIS VRB 1-3 SLP167 DENSITY ALT 900FT<br><br>
CYSN 191248Z 16003KT 140V200 1/2SM FG VV002 20/20 A3002 RMK FG8 SLP167 DENSITY ALT 900FT<br><br>
CYSN 191215Z 26003KT 1/8SM FG VV001 19/19 A3002 RMK FG8 SLP165 DENSITY ALT 800FT<br><br>
CYSN 191204Z 24004KT 1/4SM FG VV001 19/19 A3001 RMK FG8 SLP164 DENSITY ALT 800FT<br><br>
CYSN 191200Z CCA 23003KT 1/2SM FG BKN060 OVC200 19/18 A3001 RMK FG4SC2CI2 VIS VRB 1/4-3/4 SLP164 DENSITY ALT 800FT<br><br>
CYSN 191116Z 22003KT 2SM BR SCT064 BKN170 BKN200 18/17 A3002 RMK SC3AC2CC2 VIS VRB 1-3 SLP165 DENSITY ALT 600FT<br><br>
TAF AMD CYSN 191308Z 1913/2001 VRB03KT 6SM BR SCT008 BKN150 TEMPO 1913/1915 2SM BR BKN008 FM191500 VRB03KT P6SM BKN050 TEMPO 1915/1917 BKN020 FM192000 03005KT P6SM BKN100 RMK NXT FCST BY 192000Z<br><br>
<br><br>
CYHM 191306Z 05007KT 1 3/4SM BR OVC004 19/19 A3004 RMK FG1SF7 SLP174 DENSITY ALT 1300FT<br><br>
CYHM 191300Z 05008KT 1 1/2SM BR OVC002 19/19 A3004 RMK FG2SF6 SLP174 DENSITY ALT 1300FT<br><br>
CYHM 191252Z 06009KT 1 1/4SM BR OVC002 19/19 A3004 RMK FG3SF5 SLP173 DENSITY ALT 1300FT<br><br>
CYHM 191239Z 05007KT 1 3/4SM BR OVC004 19/19 A3004 RMK FG2SF6 SLP171 DENSITY ALT 1300FT<br><br>
CYHM 191231Z 05008KT 5SM BR BKN004 OVC140 19/19 A3004 RMK SF6AC2 SLP172 DENSITY ALT 1300FT<br><br>
CYHM 191200Z 06005KT 8SM BKN140 BKN160 19/18 A3003 RMK AC5AC2 SLP171 DENSITY ALT 1300FT<br><br>
TAF AMD CYHM 191242Z 1912/2012 05007KT 6SM BR SCT004 BKN160 TEMPO 1912/1914 3SM BR BKN004 FM191400 08010KT P6SM BKN040 TEMPO 1914/1916 BKN015 FM191800 04007KT P6SM BKN050 PROB30 1918/1923 VRB15G25KT 2SM TSRA BR BKN020 OVC030CB FM200000 05005KT P6SM BKN140 PROB30 2008/2012 1SM BR RMK NXT FCST BY 191800Z<br><br>
<br><br>
KIAG 191253Z 17004KT 8SM BKN075 BKN110 22/18 A3003 RMK AO2 SLP165 T02170178<br><br>
KIAG 191208Z 13006KT 4SM HZ OVC055 21/18 A3003 RMK AO2 T02060178<br><br>
KIAG 191200Z 13004KT 2 1/2SM BR OVC055 20/18 A3003 RMK AO2 T02000178<br><br>
KIAG 191153Z 00000KT 3SM BR BKN055 OVC110 20/18 A3003 RMK AO2 SLP164 T02000178 10211 20189 52006<br><br>
KIAG 191136Z 00000KT 3SM HZ FEW060 BKN110 19/17 A3003 RMK AO2 T01940167<br><br>
KIAG 191122Z 00000KT 2 1/2SM HZ FEW110 19/17 A3003 RMK AO2 T01940167<br><br>
KIAG 191120Z 1912/2012 VRB03KT 3SM BR SCT007 BKN080 FM191300 00000KT P6SM BKN080 FM191900 02004KT P6SM BKN080 FM200200 VRB03KT P6SM SCT200<br><br>
<br><br>
KBUF 191254Z 16005KT 10SM FEW035 FEW070 BKN110 BKN250 21/18 A3004 RMK AO2 SLP169 T02110178<br><br>
KBUF 191154Z 13005KT 10SM SCT095 BKN140 BKN190 19/18 A3005 RMK AO2 SLP172 T01890178 10194 20183 53008<br><br>
KBUF 191120Z 1912/2012 VRB03KT P6SM BKN130 FM191500 VRB03KT P6SM SCT090 FM191600 VRB03KT P6SM BKN100 FM192000 02004KT P6SM BKN100 FM192200 03005KT P6SM SCT200 FM200200 VRB03KT P6SM SCT200<br><br>
<br><br>
CYYZ 191300Z 36006KT 6SM BR SCT007 BKN053 OVC120 21/19 A3004 RMK SC3SC4AC1 SLP172 DENSITY ALT 1300FT<br><br>
CYYZ 191200Z 36009KT 6SM BR SCT005 BKN150 20/18 A3003 RMK SC4AC3 SLP169 DENSITY ALT 1200FT<br><br>
CYYZ 191144Z 01007KT 6SM BR FEW005 SCT014 BKN150 19/18 A3003 RMK SC2SC2AC3 SLP169 DENSITY ALT 1100FT<br><br>
CYYZ 191126Z 01008KT 6SM BR BKN004 BKN150 19/18 A3003 RMK SC5AC2 SLP169 DENSITY ALT 1100FT<br><br>
TAF AMD CYYZ 191204Z 1912/2018 36010KT P6SM BKN140 PROB30 1912/1913 BKN005 FM191800 14007KT P6SM BKN050 PROB30 1918/1923 VRB15G25KT 2SM TSRA BR BKN015 OVC030CB FM200000 02005KT P6SM BKN100 FM200600 07008KT 6SM BR FEW002 SCT100 PROB30 2006/2012 2SM BR FM201200 11008KT P6SM BKN012 FM201600 12007KT P6SM SCT100 RMK NXT FCST BY 191500Z<br><br>
<br><br>
CYOO 191303Z AUTO 36003KT 5SM HZ FEW046 22/18 A3003 RMK SLP171 DENSITY ALT 1100FT<br><br>
CYOO 191301Z AUTO 01003KT 6SM HZ SCT046 22/19 A3003 RMK SLP170 DENSITY ALT 1100FT<br><br>
CYOO 191300Z AUTO 01003KT 5SM BR SCT046 21/18 A3003 RMK SLP170 DENSITY ALT 1100FT<br><br>
CYOO 191257Z AUTO 36003KT 5SM BR SCT046 21/19 A3003 RMK SLP170 DENSITY ALT 1100FT<br><br>
CYOO 191254Z AUTO 02003KT 7SM SCT046 21/18 A3003 RMK SLP170 DENSITY ALT 1100FT<br><br>
CYOO 191246Z AUTO 01004KT 3SM HZ CLR 21/18 A3003 RMK SLP169 DENSITY ALT 1100FT<br><br>
CYOO 191244Z AUTO 01005KT 2 1/2SM HZ CLR 21/18 A3003 RMK VIS VRB 1 1/4-3 SLP169 DENSITY ALT 1100FT<br><br>
CYOO 191215Z AUTO 35006KT 5SM BR FEW046 BKN110 BKN180 20/18 A3003 RMK SLP170 DENSITY ALT 1000FT<br><br>
CYOO 191201Z AUTO 35005KT 6SM BR SCT046 BKN110 BKN180 20/18 A3003 RMK SLP171 DENSITY ALT 900FT<br><br>
CYOO 191200Z AUTO 35005KT 5SM BR SCT046 BKN110 BKN180 20/18 A3003 RMK SLP171 DENSITY ALT 900FT<br><br>
CYOO 191156Z AUTO 35004KT 3SM BR BKN046 BKN110 BKN160 20/18 A3003 RMK SLP171 DENSITY ALT 900FT<br><br>
CYOO 191140Z AUTO 34005KT 2 1/2SM BR FEW003 SCT046 BKN110 OVC160 19/18 A3003 RMK SLP171 DENSITY ALT 900FT<br><br>
CYOO 191137Z AUTO 34004KT 310V020 5SM BR FEW003 SCT046 SCT110 BKN160 19/18 A3004 RMK SLP172 DENSITY ALT 900FT<br><br>
CYOO 191136Z AUTO 34004KT 300V020 7SM FEW003 SCT110 BKN160 19/18 A3003 RMK SLP171 DENSITY ALT 900FT<br><br>
CYOO 191133Z AUTO 34003KT 300V020 3SM BR FEW003 OVC160 19/17 A3003 RMK SLP171 DENSITY ALT 900FT<br><br>
CYOO 191122Z AUTO 33003KT 310V040 2 1/4SM BR OVC150 19/17 A3003 RMK VIS VRB 3/4-3 SLP169 DENSITY ALT 800FT<br><br>
CYOO has no TAF <br><br>
<br><br>
CYTR 191300Z 14002KT 7SM FEW005 FEW110 BKN220 21/19 A3004 RMK SF1AC2CI3 SLP174<br><br>
CYTR 191200Z 06002KT 6SM BR FEW050 FEW110 BKN220 18/18 A3004 RMK SC1AC2CI5 SLP175<br><br>
TAF CYTR 191130Z 1912/2012 VRB03KT 3SM BR SCT050 BECMG 1912/1914 P6SM NSW FM191600 07008KT P6SM SCT030 TEMPO 1916/1918 P6SM -SHRA BKN030 BECMG 1916/1918 21008KT FM191800 21008KT P6SM SCT030 TEMPO 1918/1924 P6SM -SHRA BKN030 PROB30 1918/1922 2SM TSRA BR BKN020CB FM200000 02008KT P6SM SCT020 BKN050 FM200300 02005KT 6SM BR FEW020 TEMPO 2003/2012 2SM BR RMK NXT FCST BY 191800Z<br><br>
<br><br>
