RETRIEVED AT : Mar 07 2020 18:05 Local <br>
  RETRIEVED AT: Mar 07 2020 23:05 UTC<br><br>
CYSN 072200Z 21009KT 15SM SKC 02/M04 A3042 RMK SLP309<br><br>
TAF CYSN 071942Z 0720/0802 24007KT P6SM SKC FM080000 22010KT P6SM SCT120 RMK NXT FCST WILL BE ISSUED AT 081345Z<br><br>
<br><br>
CYHM 072200Z 24009KT 15SM FEW170 02/M07 A3040 RMK AC1 AC TR SLP309<br><br>
TAF CYHM 071738Z 0718/0818 27008KT P6SM SKC FM080000 22012KT P6SM FEW120 FM081200 22010KT P6SM SKC RMK NXT FCST BY 080000Z<br><br>
<br><br>
KIAG 072253Z 21013KT 10SM CLR M01/M06 A3042 RMK AO2 SLP319 T10061056<br><br>
KIAG 072153Z 22014KT 10SM CLR 01/M06 A3043 RMK AO2 SLP320 T00061056<br><br>
KIAG 072038Z 0721/0818 25010KT P6SM FEW250 FM080200 22012G24KT P6SM SCT150 FM081200 23015G21KT P6SM FEW250<br><br>
<br><br>
KBUF 072254Z 22013KT 10SM FEW250 M01/M06 A3043 RMK AO2 SLP315 T10061056<br><br>
KBUF 072154Z 25013KT 10SM FEW260 00/M06 A3044 RMK AO2 SLP317 T00001061<br><br>
KBUF 072038Z 0721/0818 24012G19KT P6SM FEW035 FM072200 24010G16KT P6SM FEW250 FM080900 23012G25KT P6SM SCT150 FM081500 23017G33KT P6SM FEW250<br><br>
<br><br>
CYYZ 072200Z 23004KT 210V280 15SM FEW250 02/M10 A3040 RMK CI1 SLP304<br><br>
TAF CYYZ 072044Z 0721/0824 23006KT P6SM FEW250 BECMG 0722/0724 22010KT FM081200 25010G20KT P6SM SKC RMK NXT FCST BY 080000Z<br><br>
<br><br>
CYOO 072301Z AUTO 21007KT 9SM FEW150 01/M06 A3038 RMK SLP296<br><br>
CYOO 072251Z AUTO 22005KT 9SM -RA CLR 01/M07 A3038 RMK SLP298<br><br>
CYOO 072200Z AUTO 23010KT 9SM CLR 01/M06 A3040 RMK SLP303<br><br>
TAF CYOO 071943Z 0720/0808 20008KT P6SM SKC FM072100 23010KT P6SM FEW120 FM080000 20010KT P6SM BKN110 FM080600 24008KT P6SM BKN130 RMK FCST BASED ON AUTO OBS. NXT FCST BY 080200Z<br><br>
<br><br>
CYTR 072200Z 23011KT 15SM FEW210 00/M06 A3040 RMK CI2 SLP302<br><br>
TAF CYTR 071730Z 0718/0818 22008KT P6SM FEW210 FM072100 24008KT P6SM FEW120 BKN210 FM080100 24008KT P6SM SCT080 BKN100 FM080800 26008KT P6SM SCT170 BKN240 RMK NXT FCST BY 080000Z<br><br>
<br><br>
