RETRIEVED AT : May 29 2020 13:05 Local <br>
  RETRIEVED AT: May 29 2020 17:05 UTC<br><br>
TAF CYSN 291238Z 2913/3001 22012KT P6SM SCT080 OVC120 FM291500 22015G25KT P6SM BKN080 FM291800 22015G25KT P6SM -SHRA OVC040 TEMPO 2918/2920 4SM SHRA BR BKN020 PROB30 2918/2920 VRB18G28KT 2SM TSRA BR BKN008 OVC020CB FM292000 23015G25KT 6SM -RA BR OVC012 TEMPO 2920/3001 4SM SHRA BR OVC008 BECMG 2922/2924 27012G22KT RMK NXT FCST BY 292000Z<br><br>
<br><br>
TAF CYHM 291138Z 2912/3012 20010KT P6SM SCT160 FM291400 23012G22KT P6SM BKN030 TEMPO 2914/2918 P6SM -SHRA BKN020 BECMG 2914/2916 22015G25KT FM291800 22015G25KT 6SM -SHRA BR OVC025 TEMPO 2918/2922 4SM SHRA BR OVC015 PROB30 2918/2921 2SM TSRA BR BKN020CB FM292200 30012G22KT P6SM SCT020 BKN060 FM300100 30010KT P6SM SCT030 BECMG 3004/3006 25005KT FM300800 25005KT P6SM BKN012 PROB30 3008/3012 BKN008 RMK NXT FCST BY 291800Z<br><br>
<br><br>
KIAG 291509Z 2915/3012 22013G21KT P6SM VCSH SCT060 BKN100 FM291800 23015G25KT P6SM VCSH BKN050 FM292100 25015G25KT P6SM -SHRA BKN025 FM300000 26014KT P6SM BKN025 FM300400 26010KT P6SM SCT050<br><br>
<br><br>
KBUF 291509Z 2915/3012 20010G20KT P6SM VCSH SCT060 BKN200 FM291700 23015G25KT 6SM -SHRA VCTS BKN040CB FM292200 24015G25KT P6SM -SHRA BKN025 FM300000 25013KT P6SM BKN025 FM300400 26010KT P6SM SCT050<br><br>
<br><br>
TAF AMD CYYZ 291445Z 2915/3018 17008KT P6SM FEW030 BKN130 TEMPO 2915/2917 23015KT P6SM -SHRA VCTS SCT030 SCT070CB BKN090 FM291700 22012G22KT P6SM SCT020 BKN030 TEMPO 2917/2918 P6SM -SHRA BKN020 FM291800 24015G25KT P6SM -SHRA SCT015 OVC025 TEMPO 2918/2922 4SM SHRA BR OVC015 PROB30 2918/2921 VRB15G25KT 2SM TSRA BR BKN008 OVC015CB FM292200 25012G22KT P6SM OVC015 BECMG 2922/2924 32012G22KT FM300000 32012G22KT P6SM BKN030 TEMPO 3000/3002 P6SM -SHRA FM300200 29010KT P6SM BKN040 FM300500 28008KT P6SM FEW060 BECMG 3010/3012 27010G20KT FM301400 27012G22KT P6SM BKN050 BECMG 3016/3018 29015G25KT RMK NXT FCST BY 291800Z<br><br>
<br><br>
TAF AMD CYOO 291645Z 2916/3002 19006KT P6SM FEW004 SCT050 BKN130 TEMPO 2916/2918 5SM -SHRA BR BKN004 BKN050 FM291800 23012G22KT P6SM SCT012 BKN090 TEMPO 2918/2919 P6SM -SHRA BKN012 FM291900 22012G22KT P6SM -RA SCT015 OVC025 TEMPO 2919/2922 4SM SHRA BR OVC015 PROB30 2919/2922 VRB15G25KT 2SM TSRA BR BKN008 OVC015CB FM292200 31012G22KT P6SM BKN012 FM300100 30012KT P6SM BKN060 RMK FCST BASED ON AUTO OBS. NXT FCST BY 292000Z<br><br>
<br><br>
TAF CYTR 291130Z 2912/3012 20005KT P6SM FEW030 BKN120 OVC250 BECMG 2913/2915 24010G20KT FM291500 23010G20KT P6SM FEW020 SCT040 BKN080 TEMPO 2918/2922 5SM -SHRA BR BKN020 OVC040 PROB30 2918/2922 VRB15G25KT 11/2SM TSRA BR OVC020CB FM292200 23010G20KT P6SM -SHRA FEW008 SCT012 OVC025 TEMPO 2922/3001 3SM -SHRA BR SCT008 OVC012 PROB30 2922/3001 VRB15G25KT 2SM TSRA BR BKN008 OVC012CB FM300100 28012KT P6SM -SHRA BKN012 OVC025 FM301100 27008KT P6SM SCT012 RMK NXT FCST BY 291800Z<br><br>
<br><br>
