RETRIEVED AT : Jun 26 2020 23:05 Local <br>
  RETRIEVED AT: Jun 27 2020 03:05 UTC<br><br>
CYSN has no TAF <br><br>
<br><br>
CYHM 270200Z 20007KT 15SM FEW140 BKN160 BKN230 21/12 A2986 RMK AC2AC4CI1 SLP110 DENSITY ALT 1700FT<br><br>
TAF CYHM 262340Z 2700/2724 23010G20KT P6SM FEW060 BKN200 FM270300 20008KT P6SM FEW060 SCT120 FM270600 24012G22KT P6SM -SHRA BKN012 OVC030 FM270700 24010G20KT 2SM -SHRA BR OVC007 PROB30 2707/2710 VRB15G30KT 1SM +TSRA BR BKN005 OVC015CB FM271000 24010KT 6SM -SHRA BR BKN007 OVC010 FM271200 26012KT P6SM BKN015 FM271500 27012G22KT P6SM BKN020 FM271800 27012G22KT P6SM BKN030 FM272100 28012G22KT P6SM SCT050 PROB30 2721/2724 VRB15G25KT 2SM TSRA BR BKN020 OVC030CB RMK NXT FCST BY 270600Z<br><br>
<br><br>
KIAG 270253Z 21007KT 10SM CLR 19/12 A2986 RMK AO2 SLP107 T01940117 58007<br><br>
KIAG 270153Z 20006KT 10SM CLR 19/12 A2987 RMK AO2 SLP110 T01940117<br><br>
KIAG 270256Z 2703/2724 21013KT P6SM FEW050 FM270800 22008KT P6SM VCSH OVC040 FM271000 22007KT 6SM SHRA VCTS OVC012CB FM271400 23012G18KT P6SM OVC012 FM272300 23011KT P6SM BKN200<br><br>
<br><br>
KBUF 270254Z 17005KT 10SM FEW065 FEW150 BKN280 19/11 A2987 RMK AO2 SLP114 T01890106 56009<br><br>
KBUF 270154Z 19005KT 10SM FEW065 FEW150 FEW250 20/10 A2988 RMK AO2 SLP116 T02000100<br><br>
KBUF 270256Z 2703/2724 21009KT P6SM FEW050 FM270800 22008KT P6SM VCSH OVC050 FM271000 22008KT 6SM SHRA VCTS OVC015CB FM271400 23016G25KT P6SM OVC012 FM271700 24017G26KT P6SM BKN025 FM272300 24013G19KT P6SM BKN150<br><br>
<br><br>
CYYZ 270200Z 22008KT 15SM SCT080 BKN220 BKN250 24/13 A2983 RMK AC3CC2CI2 SLP102 DENSITY ALT 1900FT<br><br>
TAF CYYZ 270238Z 2703/2806 22008KT P6SM SCT080 BKN220 FM270600 22010G20KT P6SM BKN080 BKN120 TEMPO 2706/2707 5SM -SHRA BR FEW030 OVC060 FM270700 22010G20KT P6SM BKN030 OVC060 TEMPO 2707/2710 21/2SM -SHRA BR BKN009 OVC030 PROB30 2707/2710 VRB15G25KT 1SM +TSRA BR BKN007 OVC020CB FM271000 22010G20KT 5SM -SHRA BR OVC015 FM271200 22010G20KT P6SM BKN020 OVC040 FM271500 25010G20KT P6SM BKN025 FM271700 28012G22KT P6SM BKN040 FM272000 28012G22KT P6SM SCT050 TEMPO 2720/2801 P6SM VCTS BKN050CB FM280100 27010G20KT P6SM -SHRA BKN050 PROB30 2801/2803 VRB15G25KT 1SM +TSRA BR BKN007 OVC020CB RMK NXT FCST BY 270600Z<br><br>
<br><br>
CYOO 270200Z AUTO 22005KT 9SM CLR 21/12 A2983 RMK SLP103 DENSITY ALT 1400FT<br><br>
TAF CYOO 270138Z 2702/2714 23007KT P6SM FEW070 BKN250 FM270600 23007KT P6SM BKN120 BKN200 TEMPO 2707/2710 P6SM -SHRA SCT060 OVC100 FM271000 20006KT P6SM BKN060 OVC100 TEMPO 2710/2712 5SM -SHRA BR OVC040 FM271200 20006KT P6SM FEW008 BKN040 PROB30 2712/2714 BKN005 RMK FCST BASED ON AUTO OBS. NXT FCST BY 270800Z<br><br>
<br><br>
CYTR 270200Z 24008KT 15SM FEW073 FEW250 23/11 A2983 RMK AC1CI1 SLP102<br><br>
TAF CYTR 262330Z 2700/2724 23010G20KT P6SM FEW070 SCT250 BECMG 2700/2702 22006KT FM271000 21008KT P6SM FEW008 BKN012 OVC080 FM271200 21008KT 5SM -SHRA BR FEW008 BKN012 OVC030 FM271600 14005KT P6SM BKN015 OVC070 RMK NXT FCST BY 270600Z<br><br>
<br><br>
