RETRIEVED AT : Mar 28 2020 19:05 Local <br>
  RETRIEVED AT: Mar 28 2020 23:05 UTC<br><br>
CYSN 282200Z 05008KT 12SM OVC019 06/06 A2984 RMK SC8 SLP107<br><br>
TAF AMD CYSN 282001Z 2820/2901 07010KT 2SM -DZ BR OVC002 TEMPO 2820/2901 6SM BR SCT005 OVC015 RMK NXT FCST WILL BE ISSUED AT 291245Z<br><br>
<br><br>
CYHM 282200Z 05013G20KT 3SM BR OVC002 04/03 A2984 RMK ST8 PRESRR SLP115<br><br>
CYHM 282122Z 05015G21KT 3SM BR OVC002 04/03 A2983 RMK ST8 SLP110<br><br>
TAF AMD CYHM 281850Z 2818/2918 04015G25KT 1/2SM -DZ FG VV002 TEMPO 2818/2906 2SM BR OVC004 FM290600 04015G25KT 3/4SM -RA BR OVC002 TEMPO 2906/2912 3SM SHRA BR OVC005 FM291200 06008KT 1/4SM -RA FG VV001 PROB30 2913/2916 1SM +TSRA BR OVC002CB FM291600 22012KT 5SM -SHRA BR OVC008 BECMG 2916/2918 23018G28KT RMK NXT FCST BY 290000Z<br><br>
<br><br>
KIAG 282253Z 08010KT 10SM OVC016 09/07 A2985 RMK AO2 SLP118 T00890067<br><br>
KIAG 282153Z 08008KT 10SM OVC016 10/07 A2983 RMK AO2 SLP109 T01000067<br><br>
KIAG 282118Z 2821/2918 10008KT P6SM OVC015 FM290400 09005KT P6SM -SHRA OVC007 FM290900 12007KT 4SM RA BR OVC005 FM291400 15012G19KT 6SM -SHRA BR OVC012 WS015/20045KT FM291700 18016G23KT P6SM OVC035 WS015/20045KT<br><br>
<br><br>
KBUF 282254Z 07008KT 10SM OVC014 10/07 A2986 RMK AO2 SLP114 T01000072<br><br>
KBUF 282154Z 06007KT 10SM OVC014 10/07 A2984 RMK AO2 SLP109 T01000072<br><br>
KBUF 282118Z 2821/2918 11008KT P6SM OVC015 FM290400 11005KT P6SM -SHRA OVC007 FM290900 16013KT 4SM RA BR OVC007 FM291400 17016G24KT 6SM -SHRA BR OVC015 WS015/20045KT FM291700 18015G25KT P6SM OVC035 WS015/20045KT<br><br>
<br><br>
CYYZ 282200Z 08021G28KT 15SM OVC011 07/05 A2987 RMK SC8 SLP120<br><br>
TAF CYYZ 282038Z 2821/2924 08015G25KT P6SM OVC012 TEMPO 2821/2903 P6SM -DZ BKN007 OVC010 FM290300 08015G25KT 5SM -DZ BR OVC006 TEMPO 2903/2907 P6SM NSW OVC010 FM290700 08015G25KT 11/2SM -RA BR OVC003 TEMPO 2907/2914 5SM SHRA BR OVC006 FM291400 09012KT 1SM -RA BR OVC002 PROB30 2914/2916 1SM +TSRA BR OVC002CB FM291700 23015KT 5SM -SHRA BR BKN008 OVC015 BECMG 2917/2919 24020G35KT FM291900 24020G35KT P6SM -SHRA BKN020 BKN040 RMK NXT FCST BY 290000Z<br><br>
<br><br>
CYOO 282200Z AUTO 08015KT 9SM OVC016 08/05 A2989 RMK SLP128<br><br>
TAF CYOO 281938Z 2820/2908 08012KT P6SM BKN015 OVC050 FM282300 08012G22KT P6SM OVC015 TEMPO 2823/2905 4SM -DZ BR BKN007 OVC012 FM290500 08015G25KT 5SM -DZ BR OVC006 TEMPO 2905/2908 P6SM NSW OVC010 RMK FCST BASED ON AUTO OBS. NXT FCST BY 290200Z<br><br>
<br><br>
CYTR 282200Z 09006KT 15SM BKN022 OVC070 08/02 A2998 RMK SC7AC1 WND ESTD SLP156<br><br>
TAF AMD CYTR 281834Z 2818/2918 09008KT P6SM BKN025 OVC050 TEMPO 2818/2823 6SM -RA BR BKN015 OVC040 FM282300 09010KT 6SM -RA BR BKN015 OVC030 TEMPO 2823/2903 5SM -RA -DZ BR OVC008 FM290300 10012KT 5SM -RA BR BKN006 OVC030 FM290900 10015KT 3SM RA BR BKN005 OVC030 PROB30 2909/2914 1SM -TSRA BR BKN005 OVC030CB RMK NXT FCST BY 290000Z<br><br>
<br><br>
