RETRIEVED AT : May 14 2018 05:38 Local <br>
  RETRIEVED AT: May 14 2018 09:38 UTC<br><br>
CYSN has no TAF <br><br>
<br><br>
CYHM 140900Z 24006KT 15SM FEW220 08/07 A2995 RMK CI1 CI TR CONTRAILS SLP147<br><br>
CYHM 140800Z 25005KT 15SM FEW220 09/08 A2995 RMK CI1 CI TR SLP146<br><br>
TAF CYHM 140539Z 1406/1506 25005KT P6SM SKC BECMG 1413/1415 23010KT FM141700 22010G20KT P6SM BKN030 BECMG 1423/1424 22010KT FM150500 22007KT P6SM -SHRA BKN040 OVC080 PROB30 1505/1506 1SM +TSRA BR BKN008 OVC040CB RMK NXT FCST BY 141200Z<br><br>
<br><br>
KIAG 140932Z AUTO 20003KT 5SM BR BKN003 10/08 A2996 RMK AO2 T01000083<br><br>
KIAG 140923Z AUTO 20005KT 6SM BR SCT003 10/08 A2996 RMK AO2 T01000083<br><br>
KIAG 140853Z AUTO 19006KT 9SM CLR 10/07 A2996 RMK AO2 SLP146 T01000072 53001<br><br>
KIAG 140753Z AUTO 20007KT 10SM CLR 11/08 A2995 RMK AO2 SLP141 T01060078<br><br>
KIAG 140911Z 1409/1506 20007KT P6SM SCT005 FM141200 22011KT P6SM BKN100 FM142100 22011KT P6SM BKN080 FM150200 20006KT P6SM BKN070<br><br>
<br><br>
KBUF 140854Z 23007KT 1/2SM R23/2400V2800FT FG VV002 13/11 A2997 RMK AO2 SLP148 T01330111 53003<br><br>
KBUF 140820Z 22008KT 3/4SM R23/2600V5000FT BR VV002 13/11 A2996 RMK AO2 T01330111<br><br>
KBUF 140754Z 22007KT 1SM R23/5000VP6000FT BR OVC002 13/12 A2995 RMK AO2 SLP142 T01330117<br><br>
KBUF 140911Z 1409/1506 23007KT 1/2SM FG BKN002 FM141100 22007KT P6SM BKN010 FM141200 22008KT P6SM BKN035 FM141600 24010KT P6SM BKN100 FM150200 21005KT P6SM BKN080 FM150400 20005KT P6SM BKN070<br><br>
<br><br>
CYYZ 140900Z 25003KT 15SM SKC 10/06 A2993 RMK SLP139<br><br>
CYYZ 140800Z 31003KT 15SM SKC 11/06 A2993 RMK SLP137<br><br>
TAF CYYZ 140838Z 1409/1512 VRB03KT P6SM SKC BECMG 1412/1414 22008KT FM141600 22012KT P6SM BKN030 FM150200 24010KT P6SM SCT050 FM150600 24008KT P6SM SCT040 OVC080 TEMPO 1506/1512 P6SM -SHRA VCTS BKN040CB OVC080 RMK NXT FCST BY 141200Z<br><br>
<br><br>
CYOO 140900Z AUTO 33002KT 9SM CLR 06/04 A2993 RMK SLP139<br><br>
CYOO 140800Z AUTO 34002KT 9SM CLR 07/05 A2992 RMK SLP134<br><br>
CYOO has no TAF <br><br>
<br><br>
CYTR 140900Z 25004KT 15SM SKC 08/06 A2992 RMK SLP134<br><br>
CYTR 140800Z 22005KT 15SM SKC 11/07 A2991 RMK SLP129<br><br>
TAF CYTR 140530Z 1406/1506 VRB03KT P6SM FEW030 BECMG 1413/1415 22010KT FM141800 22012G22KT P6SM SCT030 BKN140 FM150200 23008KT P6SM BKN030 BKN120 RMK NXT FCST BY 141200Z<br><br>
<br><br>
