RETRIEVED AT : Oct 07 2017 15:10 Local <br>
  RETRIEVED AT: Oct 07 2017 19:10 UTC<br><br>
CYSN 071900Z 23019G26KT 15SM BKN160 BKN250 26/16 A2979 RMK AC6CI1 SLP089 DENSITY ALT 1900FT<br><br>
CYSN 071800Z 21013G18KT 15SM SCT160 SCT250 27/17 A2981 RMK AC3CI1 SLP096 DENSITY ALT 1900FT<br><br>
TAF CYSN 071239Z 0713/0801 13006KT P6SM OVC110 TEMPO 0713/0717 P6SM -SHRA BECMG 0714/0716 20012G22KT FM071900 20015G25KT P6SM SCT150 BECMG 0723/0801 18015KT RMK NXT FCST BY 072000Z<br><br>
<br><br>
CYHM 071900Z 20016G23KT 15SM FEW040 BKN170 24/17 A2980 RMK CU1AC7 CU TR SLP089 DENSITY ALT 2200FT<br><br>
CYHM 071800Z 20017G22KT 15SM FEW045 BKN150 BKN240 26/16 A2980 RMK CU1AC4CC1 SLP091 DENSITY ALT 2400FT<br><br>
TAF CYHM 071740Z 0718/0818 20015G25KT P6SM SCT150 BECMG 0722/0724 19012KT FM080200 19012KT WS005/19040KT P6SM BKN080 FM080400 20015KT WS005/20040KT 4SM -SHRA BR BKN020 OVC040 PROB30 0804/0808 VRB25G40KT 2SM +TSRA BKN008 OVC020CB FM080900 23015G30KT P6SM BKN025 FM081600 24015KT P6SM SKC RMK NXT FCST BY 080000Z<br><br>
<br><br>
KIAG 071853Z 22015G24KT 10SM CLR 27/14 A2982 RMK AO2 SLP093 T02720144<br><br>
KIAG 071753Z 21013G19KT 10SM CLR 27/17 A2984 RMK AO2 SLP100 60001 T02720167 10272 20189 58029<br><br>
KIAG 071737Z 0718/0818 20008KT P6SM SCT150 FM072000 21013G20KT P6SM SCT150 FM072300 20010KT P6SM FEW250 FM080600 20018G28KT 4SM SHRA OVC045 FM080900 22022G38KT P6SM VCSH BKN035 FM081300 24017G28KT P6SM SCT040<br><br>
<br><br>
KBUF 071854Z 21011KT 10SM SCT150 BKN200 BKN250 27/15 A2983 RMK AO2 SLP099 T02670150<br><br>
KBUF 071754Z 20017KT 10SM SCT140 BKN180 BKN240 26/15 A2985 RMK AO2 SLP106 60001 T02610150 10267 20178 58026<br><br>
KBUF 071737Z 0718/0818 20013G20KT P6SM SCT150 FM072300 20012KT P6SM SCT200 FM080600 19018G30KT 4SM SHRA OVC050 FM080900 23023G38KT P6SM VCSH BKN035 FM081300 25017G25KT P6SM SCT040<br><br>
<br><br>
CYYZ 071900Z 18007KT 15SM FEW045 BKN190 BKN260 25/18 A2977 RMK CU1AC5CI1 SLP080 DENSITY ALT 2100FT<br><br>
CYYZ 071800Z 15009KT 15SM BKN170 BKN250 22/18 A2980 RMK AC5CI2 PRESFR SLP090 DENSITY ALT 1700FT<br><br>
TAF CYYZ 071740Z 0718/0824 14008KT P6SM BKN140 BECMG 0718/0720 20015G25KT FM072000 20015G25KT P6SM SCT200 BECMG 0800/0802 18015KT FM080300 18010KT WS005/19030KT P6SM FEW200 FM080500 18010KT WS010/18040KT 4SM -SHRA BR SCT020 BKN040 PROB30 0805/0809 VRB30G40KT 2SM +TSRA BKN008 OVC020CB FM080900 24025G40KT P6SM BKN025 BECMG 0810/0812 24015G30KT FM081600 25015G25KT P6SM SKC BECMG 0816/0818 24015KT BECMG 0821/0823 20008KT RMK NXT FCST BY 072100Z<br><br>
<br><br>
CYOO 071900Z AUTO 14006KT 100V170 9SM BKN170 21/18 A2979 RMK SLP090 DENSITY ALT 1400FT<br><br>
CYOO 071833Z AUTO 14008KT 110V180 7SM BKN160 21/17 A2981 RMK SLP095 DENSITY ALT 1300FT<br><br>
CYOO 071820Z AUTO 13009KT 5SM HZ SCT140 BKN160 21/17 A2981 RMK PRESFR SLP096 DENSITY ALT 1300FT<br><br>
CYOO 071800Z AUTO 14008KT 110V170 9SM BKN140 BKN160 21/17 A2983 RMK SLP102 DENSITY ALT 1300FT<br><br>
CYOO has no TAF <br><br>
<br><br>
CYTR 071900Z 17004KT 15SM BKN150 BKN250 21/18 A2982 RMK AC6CI1 SLP101<br><br>
CYTR 071800Z 17006KT 15SM BKN098 BKN130 21/18 A2985 RMK AC5AC2 PRESFR SLP110<br><br>
CYTR 071724Z 15004KT 15SM FEW013 BKN100 BKN130 21/18 A2988 RMK SF1AC6AC1 PRESFR SLP118<br><br>
TAF CYTR 071730Z 0718/0818 18008KT P6SM FEW008 OVC080 TEMPO 0718/0720 4SM -RA BR BKN008 OVC080 FM072000 20010KT P6SM SCT080 BKN160 FM080300 20010KT WS005/18035KT P6SM FEW020 BKN080 TEMPO 0804/0808 5SM -SHRA BR BKN020 PROB30 0804/0808 VRB20G35KT 1SM TSRA BR BKN006 OVC020CB FM080800 20015G25KT 3SM -SHRA BR BKN010 OVC025 TEMPO 0808/0810 P6SM NSW FEW010 BKN025 PROB30 0809/0810 1SM TSRA BR BKN008 OVC025CB FM081000 24020G35KT P6SM FEW015 OVC030 TEMPO 0810/0818 5SM -SHRA BR BKN015 OVC030 PROB30 0810/0812 1SM TSRA BR BKN008 OVC030CB RMK NXT FCST BY 080000Z<br><br>
<br><br>
