RETRIEVED AT : May 30 2020 13:05 Local <br>
  RETRIEVED AT: May 30 2020 17:05 UTC<br><br>
CYSN 301600Z 30009G15KT 12SM FEW012 SCT023 BKN090 18/16 A2992 RMK SC2SC2AC1 SLP132 DENSITY ALT 800FT<br><br>
CYSN 301539Z 23009KT 10SM SCT012 OVC024 17/16 A2992 RMK SC4SC4 SLP134 DENSITY ALT 700FT<br><br>
TAF AMD CYSN 301405Z 3014/3101 21010KT P6SM SCT020 BKN090 TEMPO 3014/3017 4SM -SHRA BR BKN020 BECMG 3015/3017 30015G25KT FM301700 30015G25KT P6SM SCT040 TEMPO 3017/3101 BKN040 RMK NXT FCST BY 302000Z<br><br>
<br><br>
CYHM 301600Z 27015G25KT 15SM BKN024 BKN032 16/11 A2996 RMK SC6SC1 SLP147 DENSITY ALT 1100FT<br><br>
TAF AMD CYHM 301150Z 3012/3112 20005KT P6SM SCT004 BKN040 TEMPO 3012/3014 BKN005 BKN020 BECMG 3012/3014 28012KT FM301400 30012G22KT P6SM BKN030 TEMPO 3014/3017 BKN020 FM301700 30015G25KT P6SM BKN040 FM310100 32010KT P6SM FEW040 RMK NXT FCST BY 301800Z<br><br>
<br><br>
KIAG 301653Z 27012G19KT 10SM FEW022 BKN042 OVC080 18/13 A2992 RMK AO2 SLP132 T01780128<br><br>
KIAG 301629Z 24009G17KT 10SM FEW010 SCT017 BKN090 18/14 A2992 RMK AO2 T01780144<br><br>
KIAG 301601Z 22010KT 8SM BKN010 OVC014 16/14 A2993 RMK AO2 CIG 008V012 T01560144<br><br>
KIAG 301553Z 24008KT 7SM OVC008 16/14 A2993 RMK AO2 RAE14 CIG 006V011 SLP137 P0000 T01560139<br><br>
KIAG 301520Z 23011KT 8SM OVC008 14/13 A2993 RMK AO2 RAE14 CIG 007V010 P0000 T01440133<br><br>
KIAG 301509Z 23011KT 8SM -RA OVC010 14/13 A2994 RMK AO2 CIG 006V014 P0000 T01440133<br><br>
KIAG 301544Z 3016/3112 21012KT P6SM VCSH BKN040 TEMPO 3016/3018 P6SM OVC015 FM301800 27016G24KT P6SM BKN050 FM310000 31012KT P6SM SCT060 FM310400 33005KT P6SM SCT060<br><br>
<br><br>
KBUF 301654Z 23017G22KT 10SM BKN010 BKN019 BKN065 14/13 A2994 RMK AO2 PK WND 24027/1613 SLP141 T01390128 $<br><br>
KBUF 301623Z 23015KT 10SM SCT010 BKN015 BKN065 16/13 A2994 RMK AO2 PK WND 24027/1613 T01560133 $<br><br>
KBUF 301554Z 24015G25KT 10SM BKN011 OVC017 14/13 A2994 RMK AO2 CIG 008V013 SLP138 T01440128 $<br><br>
KBUF 301518Z 24018G24KT 10SM OVC013 14/13 A2994 RMK AO2 T01440128 $<br><br>
KBUF 301544Z 3016/3112 23012KT P6SM VCSH BKN040 TEMPO 3016/3018 P6SM OVC015 FM301900 25015G23KT P6SM BKN050 FM310000 30012KT P6SM SCT060 FM310400 32005KT P6SM SCT060<br><br>
<br><br>
CYYZ 301600Z 28011G17KT 15SM SCT033 BKN051 BKN086 18/12 A2991 RMK CU4SC2AC1 SLP131 DENSITY ALT 1100FT<br><br>
TAF CYYZ 301438Z 3015/3118 21007KT P6SM BKN040 BKN090 TEMPO 3015/3016 P6SM -SHRA BKN020 BECMG 3016/3017 29015G25KT FM301700 29015G25KT P6SM BKN050 FM310200 34012KT P6SM SCT040 BECMG 3102/3104 34006KT FM311100 35012KT P6SM SKC RMK NXT FCST BY 301800Z<br><br>
<br><br>
CYOO 301615Z AUTO 21005KT 180V240 9SM FEW055 BKN079 OVC100 15/13 A2991 RMK SLP129 DENSITY ALT 500FT<br><br>
CYOO 301600Z AUTO 22007KT 9SM -RA SCT032 BKN050 BKN065 OVC076 14/12 A2991 RMK SLP133<br><br>
CYOO 301557Z AUTO 22006KT 7SM -RA SCT032 BKN048 BKN060 OVC075 14/13 A2992 RMK SLP133<br><br>
CYOO 301551Z AUTO 20009KT 5SM -RA BKN032 BKN048 BKN060 OVC092 15/12 A2992 RMK SLP133 DENSITY ALT 500FT<br><br>
CYOO 301549Z AUTO 21010KT 6SM -RA BKN032 BKN055 BKN072 OVC091 15/12 A2991 RMK SLP132 DENSITY ALT 500FT<br><br>
TAF CYOO 301338Z 3014/3102 25010KT P6SM SCT015 BKN060 TEMPO 3014/3017 BKN015 FM301700 28012G22KT P6SM BKN030 BECMG 3018/3020 31015G25KT RMK FCST BASED ON AUTO OBS. NXT FCST BY 302000Z<br><br>
<br><br>
CYTR 301600Z 22011KT 15SM FEW023 BKN070 17/12 A2990 RMK SC2AC4 SLP128<br><br>
TAF CYTR 301130Z 3012/3112 29005KT P6SM FEW012 SCT100 BECMG 3014/3016 22010KT FM301600 22010KT P6SM SCT020 BKN040 TEMPO 3016/3021 5SM -SHRA BR BKN020 OVC040 BECMG 3016/3018 26012G22KT FM302100 26012G22KT P6SM SCT025 BKN040 BECMG 3100/3102 34010KT FEW040 FM310700 34005KT P6SM FEW025 RMK NXT FCST BY 301800Z<br><br>
<br><br>
