CYSN 311400Z 02012KT 15SM FEW020 BKN041 17/13 A3007 RMK SC2SC4 SLP185 DENSITY ALT 500FT

CYSN 311400Z 02012KT 15SM FEW020 BKN041 17/13 A3007 RMK SC2SC4 SLP185 DENSITY ALT 500FT

TAF CYSN 311246Z 3113/0101 01010KT P6SM FEW025 SCT090 TEMPO 3113/3116 BKN025 BKN090 RMK NXT FCST BY 312000Z

CYHM 311400Z 01011G19KT 15SM FEW022 SCT040 BKN250 16/11 A3009 RMK CU1SC2CS4 SLP193 DENSITY ALT 900FT

CYHM 311400Z 01011G19KT 15SM FEW022 SCT040 BKN250 16/11 A3009 RMK CU1SC2CS4 SLP193 DENSITY ALT 900FT

TAF CYHM 311143Z 3112/0112 36010KT P6SM FEW015 SCT030 BKN080 TEMPO 3112/3114 BKN015 FM311400 02012KT P6SM SCT025 TEMPO 3114/3116 BKN020 RMK NXT FCST BY 311800Z

KIAG 311357Z 02014KT 10SM BKN015 OVC043 18/12 A3007

KIAG 311357Z 02014KT 10SM BKN015 OVC043 18/12 A3007

KIAG 311406Z 3114/0112 01010KT P6SM BKN015 FM311600 36009KT P6SM BKN060 FM311900 35010KT P6SM SCT060 FM312100 35008KT P6SM FEW060

KBUF 311354Z 02007KT 10SM BKN017 BKN033 BKN090 17/13 A3007 RMK AO2 SLP180 T01720128

KBUF 311354Z 02007KT 10SM BKN017 BKN033 BKN090 17/13 A3007 RMK AO2 SLP180 T01720128

KBUF 311406Z 3114/0112 01008KT P6SM BKN015 FM311700 35010KT P6SM BKN040 FM312100 35008KT P6SM SCT060 FM010700 02005KT P6SM SCT035

CYYZ 311400Z 35013G19KT 15SM SCT016 BKN025 15/11 A3010 RMK SC3SC3 SLP194 DENSITY ALT 600FT

CYYZ 311400Z 35013G19KT 15SM SCT016 BKN025 15/11 A3010 RMK SC3SC3 SLP194 DENSITY ALT 600FT

TAF CYYZ 311143Z 3112/0118 35012KT P6SM SCT020 BKN090 TEMPO 3112/3115 FEW007 BKN020 BKN050 BECMG 3112/3114 35015G25KT FM312000 35020KT P6SM FEW050 BECMG 3122/3124 35012KT FM010200 35008KT P6SM SKC BECMG 0112/0114 03010KT RMK NXT FCST BY 311500Z

